id,city,hometown,joined,lat,lon,name,state,visited,group_id
8671631,Franklin,,1402066362000,35.99,-86.9,alan taylor,TN,1508101553000,10000962
198108609,Cincinnati,,1453735882000,39.28,-84.47,Alfred K. Nippert,OH,1504455003000,10000962
205039306,Smyrna,,1463104163000,35.97,-86.51,Alicia Hinson,TN,1468956389000,10000962
201334950,Antioch,,1457743769000,36.04,-86.64,Alonzo Mayfield Jr,TN,1501853134000,10000962
238171749,Nashville,,1507222349000,36.08,-86.72,AlvaroMarta Musica,TN,1507222349000,10000962
196361562,Nashville,,1449115998000,36.08,-86.72,Anthony Craig,TN,1476621916000,10000962
139462102,Nashville,,1396021053000,36.08,-86.72,Beth Anne Musiker,TN,1497666361000,10000962
188733662,Nashville,,1434491290000,36.08,-86.72,Blair,TN,1499915843000,10000962
229157120,Nashville,,1497386925000,36.08,-86.72,Brad Oxnam,TN,1508187277000,10000962
183855835,Nashville,,1422081027000,36.08,-86.72,Brandon C. Maloney,TN,1507514943000,10000962
146001662,Franklin,,1504974215000,35.93,-86.81,Brian Boulden,TN,1508772453000,10000962
10598739,Gallatin,,1415572934000,36.39,-86.45,Cam Cornelius,TN,1504112435000,10000962
179008492,Nashville,,1413929781000,36.17,-86.78,Casey Sharp,TN,1489867360000,10000962
188349477,Madison,Madison,1442200303000,36.26,-86.71,Cathryn E,TN,1507994573000,10000962
213670377,Nashville,,1474821636000,36.08,-86.72,Chaneeqa Carter,TN,1490359749000,10000962
192818804,Franklin,,1442428007000,35.92,-86.89,Charity Spencer,TN,1508771067000,10000962
8534047,Nashville,,1377650967000,36.08,-86.72,Chris Thom,TN,1508785668000,10000962
108686552,Nashville,,1377657157000,36.08,-86.72,Christi Bowen,TN,1508793075000,10000962
111774332,Nashville,,1379489980000,36.08,-86.72,Christian Finger,TN,1508207693000,10000962
10179861,Nashville,,1379364092000,36.17,-86.78,Christine Stevens,TN,1508793080000,10000962
199392057,Smyrna,,1454976502000,35.97,-86.51,Daivd A. Conatser,TN,1507844554000,10000962
218270931,Bethpage,,1481909742000,36.51,-86.32,Dan Stubblefield,TN,1508785417000,10000962
211544653,Nashville,,1471986160000,36.08,-86.72,David L. White,TN,1508551442000,10000962
110822022,Nashville,,1378918940000,36.08,-86.72,Denny Brownlee,TN,1508511939000,10000962
237422216,Nashville,,1506383288000,36.08,-86.72,Donna Revellese Smith,TN,1508777703000,10000962
162422192,Nashville,,1439856867000,36.08,-86.72,Drew Ann Borsos,TN,1500941199000,10000962
218637215,Nashville,,1501004713000,36.09,-86.82,dru markle,TN,1501004713000,10000962
80293042,Nashville,Nashville,1452985607000,36.08,-86.72,Elizabeth,TN,1499087152000,10000962
110206122,Nashville,,1379293319000,36.08,-86.72,Elle Boone,TN,1505017322000,10000962
184164701,Madison,,1423074709000,36.26,-86.71,"H Louise ""Sparkle"" Searles",TN,1501810563000,10000962
239027368,Nashville,,1508170788000,36.08,-86.72,Houston Mahoney,TN,1508170788000,10000962
127399192,Portland,Portland,1389329880000,36.57,-86.49,J Rodney Turner,TN,1508176667000,10000962
133185772,Clover,,1392658976000,35.11,-81.18,J.K. Robbins,SC,1460478317000,10000962
232330298,Brentwood,,1500681911000,36.0,-86.79,Jason,TN,1505014670000,10000962
147449532,Mount Juliet,,1442452366000,36.22,-86.52,JasonMarsden,TN,1505840064000,10000962
198363330,Nashville,,1466046006000,36.08,-86.72,Jeff Davis,TN,1508348287000,10000962
195849544,Nashville,,1448065063000,36.08,-86.72,Jim McCarthy,TN,1502854333000,10000962
182520156,Nashville,Nashville,1429491474000,36.08,-86.72,Jim Westcott,TN,1508776380000,10000962
12871614,Nashville,"Covina, CA",1378934101000,36.17,-86.78,Joe Loesch,TN,1492482711000,10000962
105328272,Nashville,,1439421785000,36.15,-86.79,John Frazier,TN,1504971991000,10000962
101203442,Nashville,"Athens, GA",1473703642000,36.08,-86.72,Katie Del Rocco,TN,1488990338000,10000962
199779687,Spring Hill,,1455550906000,35.76,-86.88,KJ,TN,1508785853000,10000962
188721289,Nashville,,1434473312000,36.17,-86.72,Laura Leatherwood,TN,1504405735000,10000962
183553077,Nashville,Nashville,1483552609000,36.17,-86.72,laurenwoodward28,TN,1508275672000,10000962
237097415,Nashville,,1506018647000,36.08,-86.72,Linda Lancaster Norfleet,TN,1508372831000,10000962
137820832,Mount Juliet,Nashville,1442422901000,36.22,-86.52,Lisa Hayes Voice,TN,1508282654000,10000962
117669402,Nashville,,1383016182000,36.17,-86.79,Mari Yadro,TN,1499789323000,10000962
11565932,Nashville,,1390152287000,36.13,-86.8,Michael Schii,TN,1491685025000,10000962
108228242,Nashville,"Nashville, TN",1508422976000,36.18,-86.74,Mike Logsdon,TN,1508422976000,10000962
13645867,Murfreesboro,Murfreesboro,1467409774000,35.82,-86.45,Myra Thornton,TN,1502724410000,10000962
4035747,Brentwood,,1422476467000,36.0,-86.79,Nicole,TN,1504911062000,10000962
183510749,Nashville,,1447902390000,36.08,-86.72,Paul Lyman,TN,1505686727000,10000962
116692002,Nashville,,1382416837000,36.08,-86.72,Phil Tucker,TN,1502401487000,10000962
137411322,Nashville,,1450492655000,36.17,-86.72,Phillip R. Jones,TN,1508789184000,10000962
139913872,Nashville,,1396285914000,36.08,-86.72,Reen Vogel,TN,1508264538000,10000962
110831712,Nashville,"Joelton, TN",1378922480000,36.08,-86.72,Richard Harris,TN,1508771565000,10000962
222349539,Nashville,,1504008087000,36.08,-86.72,Ron Barksdale ,TN,1508806408000,10000962
193183825,Dunlap,,1443113090000,35.37,-85.39,Samuel Fleming,TN,1463267620000,10000962
11630338,Nashville,,1458181075000,36.21,-86.72,Sandra,TN,1500862729000,10000962
201248004,Nashville,,1457623180000,36.08,-86.72,Scheherazade,TN,1504413508000,10000962
193369825,Nashville,,1443466365000,36.08,-86.72,Shannon Kendrick,TN,1495147854000,10000962
140210732,Franklin,,1503076265000,35.92,-86.89,Stephanie Linney Dillard,TN,1503349735000,10000962
183046022,Nashville,,1419007074000,36.08,-86.72,Stephen Aleman,TN,1476738568000,10000962
155813632,Nashville,,1405054712000,36.06,-86.96,Susan Southerland Fouche,TN,1508793953000,10000962
2336880,Smyrna,Smyrna,1456621605000,35.97,-86.51,Theren,TN,1508774902000,10000962
232545314,Nashville,,1508804324000,36.08,-86.72,Tina Gallo,TN,1508804324000,10000962
196948361,Madison,,1450329115000,36.26,-86.71,Todd Hibbs,TN,1458075449000,10000962
183492106,Nashville,,1420974003000,36.08,-86.72,Tracy Reynolds,TN,1508028075000,10000962
138921712,Antioch,,1395753080000,36.04,-86.64,Tyra Kennedy,TN,1507822760000,10000962
227026234,Nashville,,1494019210000,36.08,-86.72,Van Hickman,TN,1508334928000,10000962
36293562,Nashville,,1386193375000,36.17,-86.79,Victor Clarke,TN,1501803521000,10000962
140552672,Nashville,,1397750865000,36.08,-86.72,Wayne Campbell,TN,1504873801000,10000962
