id,city,hometown,joined,lat,lon,name,state,visited,group_id
193636195,Goodlettsville,,1474922438000.0,36.33,-86.74,A Meetup Member,TN,1474922438000.0,10016242
6144606,Smyrna,Smyrna,1470860886000.0,35.97,-86.51,Aaric Pittman,TN,1499880769000.0,10016242
206233966,Nashville,,1486523966000.0,36.08,-86.72,Aaron,TN,1506265611000.0,10016242
225546676,Nashville,,1493665704000.0,36.17,-86.78,Aaron Barfoot,TN,1497470741000.0,10016242
192724408,Nashville,,1459884742000.0,36.21,-86.72,Aaron Edwards,TN,1459884742000.0,10016242
33303272,Nashville,,1441078447000.0,36.18,-86.74,Aaron Johnson,TN,1494858631000.0,10016242
141211622,Nashville,,1407866598000.0,36.16,-86.79,Aaron Johnson,TN,1446742425000.0,10016242
144849402,Nashville,,1399092184000.0,36.01,-86.7,Aaron Tribou,TN,1471644283000.0,10016242
7768516,Springfield,"Urbandale, IA",1428372993000.0,36.52,-86.87,Aaron Webb,TN,1494453158000.0,10016242
5739275,Mount Juliet,"Clarksville, TN",1396129029000.0,36.22,-86.52,Aaron West,TN,1422980542000.0,10016242
185530228,Nashville,,1454431254000.0,36.18,-86.74,Abbie Holder,TN,1454607266000.0,10016242
198023758,Lewisburg,,1481730918000.0,35.45,-86.8,Abby Fleming,TN,1502934146000.0,10016242
189828477,Austin,,1436732078000.0,30.22,-97.7,Abdul W Behzad,TX,1484481458000.0,10016242
196794846,Brentwood,,1449982669000.0,36.0,-86.79,Abdulrahman Jasim,TN,1452625710000.0,10016242
204843833,Nashville,,1462834095000.0,36.1,-86.66,Adam,TN,1508276477000.0,10016242
11832553,Nashville,"Wichita, KS",1404867809000.0,36.11,-86.78,Adam Barnhard,TN,1492095082000.0,10016242
195202710,Regina,,1446851964000.0,50.49,-104.66,Adam Barrett,SK,1449183006000.0,10016242
50570372,Nashville,Murfreesboro,1490580715000.0,36.17,-86.78,Adam Benge,TN,1491614928000.0,10016242
89867622,Nashville,,1497465883000.0,36.17,-86.78,Adam Dillon,TN,1505961775000.0,10016242
104810882,Portland,"Portland, Oregon",1477698136000.0,45.53,-122.71,Adam E.,OR,1478317166000.0,10016242
15378171,Chattanooga,,1401210347000.0,35.04,-85.31,Adam Haney,TN,1401210347000.0,10016242
89425802,Nashville,,1389194765000.0,36.17,-86.78,Adam Howard,TN,1467976513000.0,10016242
197133543,Smyrna,,1450791632000.0,35.97,-86.51,Adam Murray,TN,1451510954000.0,10016242
153674632,Nashville,,1491882207000.0,36.18,-86.74,Adam Reidelbach,TN,1502225809000.0,10016242
183992742,Nashville,,1422508539000.0,36.18,-86.74,Adam Sheaffer,TN,1439007063000.0,10016242
215339109,Nashville,,1505321227000.0,36.17,-86.78,Adam Smith,TN,1505321227000.0,10016242
28560352,Nashville,,1407900642000.0,36.17,-86.78,Adam Thede,TN,1444407673000.0,10016242
196320644,Murfreesboro,,1449021331000.0,35.78,-86.33,Adam W,TN,1449021331000.0,10016242
186707072,Nashville,,1439399192000.0,36.17,-86.78,Adam W.,TN,1462539311000.0,10016242
239142722,Fosterville,,1508294651000.0,35.75,-86.39,Adam Ward,TN,1508294651000.0,10016242
231157684,Nashville,,1499274702000.0,36.17,-86.78,Adam White,TN,1507758448000.0,10016242
135819732,Nashville,,1404746034000.0,36.17,-86.78,Addisu Taddese,TN,1470868018000.0,10016242
96956502,Nashville,,1408498846000.0,36.06,-86.96,Adedotun,TN,1483667516000.0,10016242
123365382,Nashville,,1386773894000.0,36.17,-86.78,adel ElMessiry,TN,1453411934000.0,10016242
236437985,Nashville,,1505343509000.0,36.17,-86.79,Adia Tigney,TN,1505343509000.0,10016242
206481851,Nashville,,1465127513000.0,36.17,-86.78,Adia Tigney,TN,1491255878000.0,10016242
9925060,Mount Juliet,"Karachi, Pakistan",1384228707000.0,36.22,-86.52,Adnan Hashmi,TN,1396574122000.0,10016242
188251168,Huntsville,,1433516377000.0,34.74,-86.62,Adonnis Stone,AL,1433516377000.0,10016242
13885682,New York,,1438262632000.0,40.76,-73.97,Adrian Fraiha,NY,1444766238000.0,10016242
238452833,Nashville,,1508209806000.0,36.16,-86.79,Adrian Harris,TN,1508209806000.0,10016242
195304851,Smyrna,,1447039857000.0,35.97,-86.51,Adrienne ,TN,1469590455000.0,10016242
110999952,Atlanta,,1505960388000.0,33.75,-84.31,Adrienne Lowe,GA,1505960388000.0,10016242
190787043,Nashville,,1452725433000.0,36.17,-86.78,Ahmed Ansari,TN,1463070934000.0,10016242
89599652,Nashville,Chicago,1386380791000.0,36.14,-86.74,Aimee Knight,TN,1507598052000.0,10016242
237579734,Nashville,,1506550903000.0,36.17,-86.78,AJ,TN,1507653870000.0,10016242
209455030,Bentonville,,1499868540000.0,36.38,-94.21,Ajith Thomas,AR,1504161225000.0,10016242
202864441,Nashville,,1460394337000.0,36.17,-86.78,Akbar,TN,1460405720000.0,10016242
218404116,Nashville,,1482146549000.0,36.17,-86.78,Akshay Reddy,TN,1482146549000.0,10016242
194095164,Nashville,,1468453539000.0,36.15,-86.86,Alan Eatherly,TN,1475638252000.0,10016242
215025572,Nashville,,1476600318000.0,36.17,-86.79,Alan Frueh,TN,1476600318000.0,10016242
32005912,Brooklyn,,1378559725000.0,40.7,-73.99,Alan Laidlaw,NY,1500312397000.0,10016242
79288822,Brentwood,,1452714690000.0,35.96,-86.82,Alan Lee,TN,1478817304000.0,10016242
235147772,Alpharetta,,1508267331000.0,34.12,-84.3,Alan Pramuk,GA,1508267331000.0,10016242
118234452,Nashville,,1484888652000.0,36.17,-86.78,Alana R. Smith,TN,1495661292000.0,10016242
231582369,Nashville,,1499777153000.0,36.17,-86.78,Alandryia Jones,TN,1502054009000.0,10016242
70870712,Nashville,,1433945301000.0,36.18,-86.74,Alathea,TN,1434053337000.0,10016242
75189942,Nashville,,1465219897000.0,36.17,-86.78,Albert Kiteck,TN,1499874318000.0,10016242
13206970,Santa Monica,Thousand Oaks,1451849038000.0,34.02,-118.5,Aleksey Nudelman,CA,1503979900000.0,10016242
208976164,Nashville,"St. Petersburg, FL",1468453860000.0,36.1,-86.66,Alex Craven,TN,1488769659000.0,10016242
207177177,Nashville,,1468453441000.0,36.14,-86.74,Alex Craven,TN,1468460535000.0,10016242
194494229,Nashville,,1468419355000.0,36.11,-86.86,Alex Horton,TN,1478645745000.0,10016242
28655732,Nashville,,1378860307000.0,36.13,-86.8,Alex Patin,TN,1440799226000.0,10016242
198114514,Antioch,,1452816139000.0,36.04,-86.64,Alex Payne,TN,1452816139000.0,10016242
232611352,Nashville,,1501074320000.0,36.14,-86.74,Alex Sanchez,TN,1504642875000.0,10016242
13606604,Nashville,Nashville,1468346794000.0,36.17,-86.72,Alex Simonian,TN,1501809354000.0,10016242
182843052,Nashville,,1417720181000.0,36.17,-86.78,Alex Story,TN,1471230380000.0,10016242
224814154,Nashville,,1508524360000.0,36.14,-86.74,Alex Sutton,TN,1508524360000.0,10016242
202745318,Nashville,,1478550391000.0,36.17,-86.78,Alex T Leach,TN,1505242992000.0,10016242
29589462,Nashville,,1451155402000.0,36.17,-86.78,Alexa Dimengo,TN,1451155402000.0,10016242
184719444,Nashville,,1492697764000.0,36.14,-86.74,Alexander,TN,1492697764000.0,10016242
201176210,Nashville,,1457509102000.0,36.18,-86.74,Alexander Elliott,TN,1457509102000.0,10016242
190078469,Brentwood,,1462990029000.0,36.0,-86.79,Alexander G. ,TN,1462990029000.0,10016242
196982186,Smyrna,,1492646313000.0,35.98,-86.51,Alexander J McComb,TN,1494461280000.0,10016242
208425479,Nashville,,1497454427000.0,36.17,-86.78,Alexander Poon,TN,1505333073000.0,10016242
233054561,Fort Campbell,,1501591319000.0,36.65,-87.46,Alexander Render,KY,1501591319000.0,10016242
191819003,Nashville,,1467828768000.0,36.17,-86.78,Alexander Swensen,TN,1507745040000.0,10016242
226667090,Clarksville,,1493538210000.0,36.53,-87.34,Alfred Johnson,TN,1493615490000.0,10016242
112034622,Nashville,,1379998005000.0,36.08,-86.72,Ali,TN,1381877551000.0,10016242
190762309,Nashville,,1502371541000.0,36.12,-86.91,Ali Aljafar,TN,1506282878000.0,10016242
203310376,Nashville,,1460597178000.0,36.22,-86.77,Ali Hamsa,TN,1460597178000.0,10016242
223459470,Nashville,,1489096486000.0,36.16,-86.78,Ali Hamsa,TN,1489096486000.0,10016242
190707374,Franklin,,1438391322000.0,35.92,-86.89,Ali Yousef Al-hendas,TN,1438391322000.0,10016242
215633831,Great Barrington,,1494964966000.0,42.18,-73.36,Alice Ismore,MA,1494964966000.0,10016242
225010482,Nashville,,1491261917000.0,36.17,-86.78,Alicia Bingham,TN,1491261917000.0,10016242
6794920,Fresno,"Fresno, CA",1434115668000.0,36.76,-119.82,Allen G,CA,1486844261000.0,10016242
199238890,Nashville,,1454731910000.0,36.13,-86.8,Allen Phelps,TN,1484080397000.0,10016242
188209876,Brentwood,,1433429526000.0,36.0,-86.79,AllieC,TN,1433429526000.0,10016242
58623852,Nashville,,1420556682000.0,36.17,-86.78,Allison,TN,1491596275000.0,10016242
184282438,Mount Juliet,,1454358325000.0,36.22,-86.52,Allyson,TN,1455128644000.0,10016242
148793032,Nashville,,1404051902000.0,36.18,-86.74,Altamese Wade,TN,1468357207000.0,10016242
139428852,Rogers,Rogers,1453066667000.0,36.33,-94.13,Alvin Singh,AR,1460427900000.0,10016242
220902681,Nashville,,1485641521000.0,36.08,-86.72,Alyssa Sidebottom,TN,1485641521000.0,10016242
111515662,Nashville,,1379339350000.0,36.17,-86.78,Amanda,TN,1457465838000.0,10016242
70867262,Nashville,,1421083287000.0,36.08,-86.72,Amanda McCadams,TN,1498500675000.0,10016242
145690392,Nashville,,1400082729000.0,36.14,-86.74,Amber Agard,TN,1421174960000.0,10016242
199131400,Nashville,,1454555225000.0,36.17,-86.78,Amber Dutton,TN,1454555225000.0,10016242
231694564,Nashville,,1499899601000.0,36.17,-86.78,Amber E. Stuart,TN,1499899601000.0,10016242
232756190,Nashville,,1501205393000.0,36.17,-86.78,Amber Stuart,TN,1501205393000.0,10016242
3227303,Nashville,,1444568819000.0,36.17,-86.72,Amir,TN,1444568819000.0,10016242
118705672,Nashville,,1384359377000.0,36.11,-86.86,Amy Culbertson,TN,1384359377000.0,10016242
63282212,Nashville,Nashville,1407528427000.0,36.18,-86.74,Amy Lee Bennett,TN,1472060080000.0,10016242
211409871,Nashville,,1471809090000.0,36.17,-86.78,Amy Page,TN,1471809090000.0,10016242
204871578,Clarksville,,1462873602000.0,36.49,-87.23,AnaKatarina Lalonde,TN,1462873602000.0,10016242
216579343,Nashville,,1478994370000.0,36.21,-86.72,Anani Assoutovi,TN,1478994370000.0,10016242
170602602,Franklin,Franklin,1487332831000.0,35.93,-86.81,Anantha,TN,1487332831000.0,10016242
137275442,Århus,,1394870639000.0,56.16,10.21,Anders Thorborg,,1394892358000.0,10016242
194631761,Nashville,,1445807597000.0,36.08,-86.72,Anderson Cook,TN,1507659552000.0,10016242
80711212,Franklin,,1484008792000.0,35.93,-86.81,Andrea,TN,1499891658000.0,10016242
120171732,Nashville,,1499897903000.0,36.16,-86.79,Andréa Randaci,TN,1507759966000.0,10016242
188279675,Murray,,1433572925000.0,36.62,-88.25,Andres Ricardo Pena Morena,KY,1468265547000.0,10016242
198976621,Chernivets'ka,,1454321767000.0,48.29,25.95,Andrew ,,1455293087000.0,10016242
19683,Nashville,,1441241382000.0,36.16,-86.79,Andrew,TN,1441241382000.0,10016242
213825710,Nashville,,1499288617000.0,36.17,-86.78,Andrew,TN,1499785192000.0,10016242
202758337,Hermitage,,1459820411000.0,36.19,-86.6,Andrew Albright,TN,1459820411000.0,10016242
196014675,Nashville,,1448384399000.0,36.18,-86.81,Andrew Bergeron,TN,1448384399000.0,10016242
187254868,Nashville,"Chattanooga, TN",1492029173000.0,36.17,-86.78,Andrew Clement,TN,1502213073000.0,10016242
173544662,Nashville,,1487868421000.0,36.13,-86.8,Andrew Dibb,TN,1507762879000.0,10016242
128341472,Denver,Denver,1414965907000.0,39.73,-104.97,Andrew Hunton,CO,1427999619000.0,10016242
203716292,Nashville,,1461180775000.0,36.06,-86.96,Andrew Jackson,TN,1461206535000.0,10016242
107000792,Nashville,,1404932406000.0,36.11,-86.86,Andrew Kallemeyn,TN,1407795167000.0,10016242
210836188,Nashville,,1470975907000.0,36.09,-86.82,Andrew Marshall,TN,1507252767000.0,10016242
184802226,Brentwood,,1495577129000.0,36.0,-86.79,Andrew P,TN,1507660457000.0,10016242
66187982,Nashville,DC,1381335056000.0,36.06,-86.96,Andrew Thorp,TN,1439950945000.0,10016242
213474544,Brentwood,,1474559052000.0,36.0,-86.79,Andrey  Tutubalin,TN,1494454633000.0,10016242
183340173,Nashville,,1420478472000.0,36.18,-86.74,Andy,TN,1478556906000.0,10016242
132797612,Nashville,Nashville,1441739927000.0,36.1,-86.66,Andy Brock,TN,1441739927000.0,10016242
86402252,Nashville,,1423191252000.0,36.13,-86.8,Andy Collins,TN,1438083497000.0,10016242
230884769,Nashville,,1498935481000.0,36.17,-86.78,Andy Gilmore,TN,1507757672000.0,10016242
5739749,Nashville,Nashville,1384184492000.0,36.18,-86.74,Andy Matthews,TN,1488477216000.0,10016242
178742432,Nashville,,1486257507000.0,36.15,-86.79,Andy Million,TN,1506341425000.0,10016242
219620059,Nashville,,1484008792000.0,36.14,-86.74,Anessa Ortner,TN,1502316132000.0,10016242
190868664,Spring Hill,,1438695463000.0,35.76,-86.88,Angela Brennan,TN,1438695463000.0,10016242
73895512,Nashville,,1383020959000.0,36.17,-86.78,Angela Howard,TN,1396529247000.0,10016242
182058452,Nashville,,1415640924000.0,36.15,-86.86,Angela Moore,TN,1495898696000.0,10016242
184629452,Nashville,,1449071150000.0,36.16,-86.79,Angelita G,TN,1451857844000.0,10016242
195799113,Nashville,,1499132149000.0,36.15,-86.86,Anirban Bhattacharjee,TN,1499132149000.0,10016242
27756542,Nashville,,1378210538000.0,36.17,-86.78,Anitha,TN,1383915654000.0,10016242
194335623,Smyrna,,1445276796000.0,35.97,-86.51,Ann Lee,TN,1445276796000.0,10016242
233590417,Nashville,,1502217074000.0,36.08,-86.72,Anna Dolan,TN,1507601773000.0,10016242
10129166,Nashville,,1462328419000.0,36.06,-86.96,Anna R.,TN,1507660315000.0,10016242
183029100,Franklin,,1437104604000.0,35.92,-86.89,Anne,TN,1449262953000.0,10016242
178113422,Antioch,,1473879028000.0,36.17,-86.88,Anthony Burkeen,TN,1478231083000.0,10016242
143437442,Franklin,,1451586455000.0,35.92,-86.89,Anthony Fox,TN,1500065020000.0,10016242
217749308,Nashville,,1480952256000.0,36.17,-86.78,Anthony Manker,TN,1498673931000.0,10016242
225346830,Nashville,,1491755331000.0,36.22,-86.77,Anthony Sawyer Jr.,TN,1491755331000.0,10016242
200845247,Nashville,,1457033413000.0,36.06,-86.96,Antonio Lassandro,TN,1457033413000.0,10016242
140356332,Nashville,,1396512353000.0,36.17,-86.78,Apache Omega,TN,1398819489000.0,10016242
39303612,Nashville,,1479365298000.0,36.17,-86.78,Apperson Johnson,TN,1504111537000.0,10016242
186777303,Madison,,1430425961000.0,36.26,-86.71,Arenas Viscatanius,TN,1491834567000.0,10016242
28254572,San Francisco,San Francisco,1503438404000.0,37.77,-122.39,Ariel Camus,CA,1503438404000.0,10016242
13744285,Memphis,Memphis,1382487145000.0,35.03,-89.81,Arielle Adams,TN,1382487145000.0,10016242
202010629,Smyrna,,1493835311000.0,35.97,-86.51,Arnab Kar,TN,1494440103000.0,10016242
211353258,Nashville,,1472919795000.0,36.13,-86.8,aron mebraht,TN,1472919795000.0,10016242
130069582,Nashville,,1396932974000.0,36.16,-86.79,Arwa,TN,1412753858000.0,10016242
201994495,Nashville,,1496337654000.0,36.16,-86.79,Arwa S k,TN,1507780955000.0,10016242
210647702,Nashville,,1485808390000.0,36.17,-86.78,Ash,TN,1487200639000.0,10016242
204294527,Nashville,,1462034358000.0,36.17,-86.78,Ashish,TN,1462034358000.0,10016242
96827312,Franklin,,1494026411000.0,35.92,-86.78,Ashith Raj,TN,1494026411000.0,10016242
126297512,Franklin,Franklin,1398793124000.0,35.99,-86.9,Ashlee Dobbs,TN,1400177016000.0,10016242
236599301,Nashville,,1508259108000.0,36.15,-86.86,Ashley ,TN,1508259108000.0,10016242
225719614,Nashville,,1492253409000.0,36.17,-86.78,Ashley Kiel,TN,1492253409000.0,10016242
238266218,Murfreesboro,,1507315951000.0,35.85,-86.36,Ashley Loftis,TN,1507315951000.0,10016242
193361475,Antioch,"Lexington, KY",1443454046000.0,36.04,-86.64,Ashley Oldham,TN,1443457979000.0,10016242
211770956,Nashville,,1472311371000.0,36.17,-86.78,Ashley Rose,TN,1472311371000.0,10016242
203730347,Franklin,,1463508471000.0,35.92,-86.89,Ashley Stephens,TN,1463508471000.0,10016242
114306712,Nashville,,1384369318000.0,36.17,-86.78,Ashley Wright,TN,1499442142000.0,10016242
218218935,Nashville,,1482980065000.0,36.16,-86.77,Ashly Badgett,TN,1486584576000.0,10016242
185967601,Nashville,Nashville,1428507587000.0,36.16,-86.79,Ashok,TN,1497385254000.0,10016242
193002045,Nashville,,1442776552000.0,36.08,-86.72,Ashok D,TN,1442776552000.0,10016242
126085452,Nashville,"Saint Louis, MO",1483976508000.0,36.17,-86.78,Aspen Nguyen,TN,1483976508000.0,10016242
218625584,Nashville,,1501637502000.0,36.1,-86.66,Athena Perez,TN,1502286641000.0,10016242
12619910,Nashville,Earth,1457118610000.0,36.17,-86.79,Atom Groom,TN,1457118610000.0,10016242
124201972,Nashville,,1424725117000.0,36.17,-86.78,Audrey Jo Arndt,TN,1473001057000.0,10016242
223260232,Nashville,"Northville, MI",1488821650000.0,36.17,-86.78,Austin,TN,1507761876000.0,10016242
183586944,Nashville,,1421277208000.0,36.08,-86.72,Austin Erlandson,TN,1493960003000.0,10016242
159263962,Nashville,,1415308738000.0,36.17,-86.78,Austin Lauritsen,TN,1507836732000.0,10016242
203475351,Nashville,Nashville,1490038184000.0,36.19,-86.8,Austin Lettow,TN,1490038184000.0,10016242
120862982,Orlando,,1439149100000.0,28.54,-81.37,Austin Musice,FL,1439149100000.0,10016242
161055882,Nashville,Nashville,1484172463000.0,36.16,-86.79,Austin Pleat,TN,1484862627000.0,10016242
189558288,Antioch,,1436202275000.0,36.04,-86.64,Austin Scott,TN,1442767020000.0,10016242
214222590,Nashville,,1496843993000.0,36.17,-86.78,Austin Tice,TN,1508093347000.0,10016242
183749942,Nashville,,1426038077000.0,36.09,-86.82,ayumi fukuda bennett,TN,1444860387000.0,10016242
231757035,Nashville,,1499971908000.0,36.17,-86.78,Azim Sadikov,TN,1507739877000.0,10016242
217816296,Brentwood,,1481055222000.0,36.0,-86.79,Banks Humphreys,TN,1481055222000.0,10016242
217528968,Nashville,,1499836148000.0,36.18,-86.74,Barb Elaine Chambers,TN,1499961457000.0,10016242
187906383,Nashville,,,36.18,-86.73,,TN,,10016242
233663251,Nashville,,1502297355000.0,36.17,-86.78,bart mathis,TN,1502297355000.0,10016242
231865789,Adolphus,,1500112620000.0,36.67,-86.28,BARTORICO,KY,1500112620000.0,10016242
233746608,Nashville,,1504225624000.0,36.17,-86.78,Bassam Lamale,TN,1504225624000.0,10016242
75873682,Nashville,,1455238650000.0,36.17,-86.78,Bayron,TN,1508346391000.0,10016242
220624758,Nashville,,1485888316000.0,36.14,-86.74,BCaldwell,TN,1493825710000.0,10016242
67315132,Nashville,,1395066695000.0,36.17,-86.79,Beat Zenerino,TN,1468610927000.0,10016242
214275739,Nashville,,1475538544000.0,36.17,-86.78,Belve Marks,TN,1504035367000.0,10016242
184251699,Hendersonville,,1464357133000.0,36.32,-86.61,ben,TN,1492032925000.0,10016242
225067604,Nashville,,1491341795000.0,36.13,-86.8,Ben,TN,1491341795000.0,10016242
44569262,Nashville,,1380133395000.0,36.17,-86.78,Ben Blackburn,TN,1499799039000.0,10016242
216255534,Nashville,,1478471347000.0,36.07,-86.73,Ben blue,TN,1507748103000.0,10016242
211122450,Spring Hill,,1471391410000.0,35.76,-86.88,Ben Elsberry,TN,1491605496000.0,10016242
119723362,Nashville,,1384311572000.0,36.17,-86.78,Ben Garrett,TN,1439261638000.0,10016242
10752160,Lebanon,,1484008463000.0,36.21,-86.31,Ben Greaves,TN,1505337208000.0,10016242
232611325,Nashville,,1501024363000.0,36.17,-86.78,Ben Harrington,TN,1507251882000.0,10016242
165178312,Dickson,,1409701286000.0,36.08,-87.43,Ben Henderson,TN,1427999047000.0,10016242
134018792,Franklin,,1392840948000.0,35.93,-86.81,ben hockey,TN,1435892149000.0,10016242
217309361,Nashville,,1488896082000.0,36.17,-86.78,Ben Maxwell,TN,1491833659000.0,10016242
187196989,Nashville,,1431367707000.0,36.17,-86.78,ben mcmeen,TN,1439319323000.0,10016242
213084994,Smyrna,Smyrna,1497398502000.0,35.97,-86.51,Ben Morin,TN,1507157377000.0,10016242
219867361,Brentwood,,1486482612000.0,36.0,-86.79,Ben Murley,TN,1486482612000.0,10016242
1813015,Nashville,,1414949853000.0,36.09,-86.82,Ben Ramsey,TN,1476453453000.0,10016242
13818781,Hendersonville,Hendersonville,1399924223000.0,36.32,-86.61,Ben Slayton,TN,1464735867000.0,10016242
191459716,Nashville,,1507605120000.0,36.17,-86.78,Ben White,TN,1507605120000.0,10016242
190599856,Brentwood,,1438184023000.0,36.0,-86.79,Ben Wright,TN,1438184023000.0,10016242
114211842,Mount Juliet,Mount Juliet,1381167010000.0,36.22,-86.52,Benjamen Brescka,TN,1444852647000.0,10016242
196757024,Murfreesboro,,1449896667000.0,35.78,-86.33,Benjamin Belden,TN,1452607418000.0,10016242
121342282,Bellingham,,1385338940000.0,48.75,-122.49,Benjamin Reed,WA,1415835171000.0,10016242
126334932,Nashville,,1388802053000.0,36.17,-86.78,Benjamin Threlkeld,TN,1504276193000.0,10016242
185882854,Tracy City,,1428288905000.0,35.29,-85.71,benjie jones,TN,1428288905000.0,10016242
186654507,Nolensville,Atlanta,1482270008000.0,35.94,-86.67,Beth,TN,1486129494000.0,10016242
12425376,Smyrna,,1462908593000.0,35.97,-86.51,Bhushan G Ahire,TN,1494018250000.0,10016242
237654493,Murfreesboro,,1506635633000.0,35.85,-86.4,Bill BillyNamer1992 Mitchell,TN,1506635633000.0,10016242
2191766,Franklin,Franklin,1416583778000.0,35.92,-86.89,Bill Butler,TN,1444761735000.0,10016242
218199555,Nashville,,1481743618000.0,36.16,-86.79,Bill Caywood,TN,1481743618000.0,10016242
4353024,Antioch,Nashville,1397947386000.0,36.04,-86.64,Bill Zack,TN,1502490059000.0,10016242
217122985,Nashville,,1480870636000.0,36.17,-86.78,Billy Connolly,TN,1496254546000.0,10016242
234324964,Nashville,,1503065163000.0,36.17,-86.72,Bingxu Ren,TN,1503065163000.0,10016242
183982522,Nashville,Nashville,1422479861000.0,36.06,-86.96,Bizzy Buffington,TN,1484345000000.0,10016242
82204922,Nashville,"Smyrna, TN",1458168003000.0,36.17,-86.79,BJ Burns,TN,1483976100000.0,10016242
196692644,Nashville,,1449762501000.0,36.17,-86.78,Bjorn Bennett,TN,1452230186000.0,10016242
199280875,Nashville,,1454801230000.0,36.17,-86.72,Blair McMillan,TN,1454801230000.0,10016242
136399942,Nashville,,1423680023000.0,36.21,-86.72,Blaise,TN,1438903055000.0,10016242
219750187,Nashville,,1484173345000.0,36.17,-86.78,Blaise Robertrs,TN,1488506962000.0,10016242
27997582,Nashville,,1378002629000.0,36.09,-86.82,Blake Blackshear,TN,1423224866000.0,10016242
220757955,Nashville,,1485448303000.0,36.19,-86.8,Blake Denzel,TN,1485448303000.0,10016242
194113622,Browns Summit,,1444857260000.0,36.2,-79.68,Blake Knight,NC,1444857260000.0,10016242
9368560,Bethesda,Germantown,1431995966000.0,38.98,-77.1,Blick,MD,1507267784000.0,10016242
200303216,Spring Hill,Spring Hill,1456257784000.0,35.76,-86.88,BMShake,TN,1458676084000.0,10016242
3665120,Nashville,Nashville,1430223464000.0,36.08,-86.72,Bo Link,TN,1432664978000.0,10016242
11581354,Nashville,,1389149246000.0,36.16,-86.79,Bob Daly,TN,1491958533000.0,10016242
96240802,Antioch,,1481591815000.0,36.04,-86.64,Bobby,TN,1504110638000.0,10016242
40570712,Nashville,,1500913862000.0,36.17,-86.78,Bobby Graham,TN,1505309941000.0,10016242
125031252,Nashville,,1458372704000.0,36.17,-86.78,Bobby Mulligan,TN,1471809387000.0,10016242
237683429,Nashville,,1506671070000.0,36.15,-86.86,Boburmirzo Sirojiddinov,TN,1507854463000.0,10016242
235931355,Nashville,,1504838164000.0,36.1,-86.66,Bode Alao-Festus,TN,1504838164000.0,10016242
188617539,New York,,1498881123000.0,40.75,-73.99,Bomani McClendon,NY,1507511469000.0,10016242
206722226,Nashville,,1465398647000.0,36.17,-86.78,Bonnie&Clyde,TN,1468619858000.0,10016242
206284282,Hermitage,,1464816362000.0,36.19,-86.6,Boone,TN,1478790346000.0,10016242
184776969,Nashville,,1424978842000.0,36.17,-86.72,Brad Applebaum,TN,1427323474000.0,10016242
217449348,Nashville,,1480450759000.0,36.17,-86.78,Brad Davis,TN,1497357803000.0,10016242
105023452,Nashville,,1381887401000.0,36.17,-86.78,Brad Janke,TN,1444076730000.0,10016242
51689852,Franklin,Franklin,1407165231000.0,35.92,-86.89,Brad Lilley,TN,1483976178000.0,10016242
199972714,Alpharetta,,1456167360000.0,34.08,-84.2,Brad Martin,GA,1459542836000.0,10016242
215416480,Brentwood,,1477171490000.0,36.0,-86.79,Brad Maxwell,TN,1477171490000.0,10016242
67443812,Nashville,,1423882585000.0,36.17,-86.78,Brad Stewart,TN,1423882585000.0,10016242
135055382,Nashville,,1412008175000.0,36.13,-86.8,Brad Zeffren,TN,1444705267000.0,10016242
227324479,Nashville,,1494433221000.0,36.18,-86.74,Braden Holmes,TN,1497209126000.0,10016242
178291462,Nashville,,1413571189000.0,36.17,-86.78,BradG,TN,1418251754000.0,10016242
137670652,Nashville,,1420834726000.0,36.17,-86.78,Bradley Brandon,TN,1504100768000.0,10016242
199278110,Murfreesboro,,1454797085000.0,35.78,-86.33,BRADLEY BROADNAX,TN,1454907218000.0,10016242
90430922,Nashville,,1378615920000.0,36.13,-86.8,Bradley Gore,TN,1507256456000.0,10016242
203239640,Franklin,,1462151293000.0,35.93,-86.81,Bradley Guthrie,TN,1479263887000.0,10016242
182825842,Nashville,,1435772846000.0,36.17,-86.78,Brady Bolf,TN,1435772846000.0,10016242
183608847,Nashville,,1438872644000.0,36.17,-86.79,Brandi Leath,TN,1484191001000.0,10016242
137040072,Nashville,,1394683725000.0,36.08,-86.72,brandon,TN,1394905034000.0,10016242
184117514,Thompsons Station,Thompson's Station,1463527563000.0,35.8,-86.9,Brandon,TN,1465425681000.0,10016242
4263852,Birmingham,Birmingham,1441417804000.0,33.4,-86.71,Brandon,AL,1441417804000.0,10016242
186658212,Killen,Killen,1468614192000.0,34.91,-87.5,Brandon Bost,AL,1502190596000.0,10016242
63821422,Dickson,,1391983155000.0,36.08,-87.43,Brandon Bradley,TN,1407168345000.0,10016242
234652434,Nashville,,1503427336000.0,36.17,-86.78,Brandon Brewer,TN,1503427336000.0,10016242
216258845,Nashville,,1478477701000.0,36.17,-86.78,Brandon Caples,TN,1504831749000.0,10016242
183643531,Nashville,,1421470307000.0,36.06,-86.96,Brandon Evans,TN,1436726338000.0,10016242
72075162,Nashville,,1423626255000.0,36.17,-86.78,Brandon Hedge,TN,1423626255000.0,10016242
117434212,Murfreesboro,,1429274336000.0,35.78,-86.33,Brandon Howard,TN,1478633129000.0,10016242
114312162,Nashville,,1433517378000.0,36.16,-86.79,Brandon Howard,TN,1433517378000.0,10016242
75277202,Morrisville,Morrisville,1378917542000.0,35.83,-78.84,Brandon Joseph Lyons,NC,1452727908000.0,10016242
231983102,Nashville,,1508713217000.0,36.14,-86.8,Brandon Kyle,TN,1508713217000.0,10016242
208822422,Smyrna,,1492869999000.0,35.97,-86.51,Brandon Lile,TN,1494457136000.0,10016242
176113842,Nashville,,1426306419000.0,36.11,-86.86,Brandon Tate,TN,1484078580000.0,10016242
12685997,Nashville,,1412632603000.0,36.18,-86.74,Brandon Valentine,TN,1486396069000.0,10016242
20105041,Franklin,Franklin,1476714370000.0,35.93,-86.81,Brandon W,TN,1488547126000.0,10016242
145088452,Nashville,,1469496308000.0,36.17,-86.79,Brant Wheeler,TN,1469561112000.0,10016242
62418442,Nashville,,1472221252000.0,36.16,-86.79,Brenda Dillard,TN,1472221252000.0,10016242
177283622,Nashville,,1423633315000.0,36.13,-86.8,Brendan Kennedy,TN,1423633315000.0,10016242
60802462,Nashville,,1436305499000.0,36.15,-86.79,Brendon Pierson,TN,1489005509000.0,10016242
156522342,Nashville,Nashville,1411084362000.0,36.18,-86.74,Brennan Willingham,TN,1447797467000.0,10016242
137730262,Brentwood,,1488227516000.0,36.0,-86.79,Brent Balog,TN,1488227516000.0,10016242
184268293,Nashville,,1473272639000.0,36.17,-86.78,Brent O'Dell,TN,1486130438000.0,10016242
82545112,Nashville,"Chevy Chase, MD",1459268597000.0,36.17,-86.78,Brett Michaels,TN,1459375126000.0,10016242
3438546,Nashville,New York,1421878317000.0,36.22,-86.86,Brian,TN,1439414713000.0,10016242
123266442,Nashville,,1386706099000.0,36.17,-86.78,Brian Arenz,TN,1411398406000.0,10016242
82911172,Springfield,Springfield,1380729732000.0,36.52,-86.87,Brian Beard,TN,1492045054000.0,10016242
184135445,Nashville,Nashville,1423095799000.0,36.08,-86.72,Brian Broll,TN,1484232179000.0,10016242
216750009,Lebanon,,1479251016000.0,36.21,-86.31,Brian Cravens,TN,1480014494000.0,10016242
197630361,Nashville,,1451932672000.0,36.17,-86.78,Brian Doane,TN,1504146240000.0,10016242
14037650,Brentwood,,1378300015000.0,36.0,-86.79,Brian J. Miller,TN,1439410593000.0,10016242
185985798,Nashville,,1428547365000.0,36.17,-86.72,Brian Macheski,TN,1468190804000.0,10016242
204081245,Nashville,,1470837425000.0,36.17,-86.79,Brian Merchant,TN,1470884729000.0,10016242
203315975,Nashville,,1460605625000.0,36.17,-86.78,Brian Merchant,TN,1460605625000.0,10016242
7981818,Nashville,Nashville,1392953324000.0,36.15,-86.86,Brian Pitts,TN,1483025916000.0,10016242
13878597,Nashville,,1473875278000.0,36.08,-86.72,Brian Rhodes,TN,1473884776000.0,10016242
184019319,Hermitage,Nashville,1422598496000.0,36.19,-86.6,Brian Stumbaugh,TN,1502225737000.0,10016242
115799982,Nashville,,1381887650000.0,36.13,-86.8,Brian Threlkeld,TN,1405355569000.0,10016242
150774502,Nashville,,1450552361000.0,36.08,-86.72,Brian Tonnies,TN,1450552361000.0,10016242
192170178,Spring Hill,,1441220633000.0,35.76,-86.88,Brian Wilkins,TN,1473442018000.0,10016242
136867332,North Charleston,Charleston,1394760397000.0,32.86,-79.99,Brice Burgess,SC,1400016880000.0,10016242
175516642,New York,,1433976065000.0,40.75,-73.99,Brien Pafford,NY,1433976065000.0,10016242
195427952,Nashville,,1473821930000.0,36.09,-86.82,Brien Pafford,TN,1473886835000.0,10016242
186488860,Nashville,,1429795730000.0,36.17,-86.72,Brit,TN,1429795730000.0,10016242
231049553,Nashville,,1499137163000.0,36.1,-86.66,Brittanee' Dixon,TN,1499137163000.0,10016242
191001454,Murfreesboro,,1438957433000.0,35.82,-86.45,Brittney Corona,TN,1439408471000.0,10016242
146256862,Nashville,,1399908423000.0,36.17,-86.78,Broc Borntrager,TN,1402428582000.0,10016242
219086978,Nashville,,1483887479000.0,36.18,-86.74,Brock Douglas,TN,1484602424000.0,10016242
194013316,Goodlettsville,,1446099959000.0,36.32,-86.72,Brooke Elrod,TN,1453832223000.0,10016242
183687063,Nashville,Nashville,1503186193000.0,36.18,-86.74,Brooke Wittenberg,TN,1507506888000.0,10016242
4583759,Nashville,,1378147145000.0,36.06,-86.96,Bruce Lueckenhoff,TN,1378147145000.0,10016242
139033582,Smyrna,,1484094753000.0,35.97,-86.51,Bryan,TN,1507615818000.0,10016242
32172422,Nashville,,1493825614000.0,36.08,-86.72,Bryan Belanger,TN,1499800849000.0,10016242
83292062,Nashville,,1378088764000.0,36.17,-86.78,Bryan Dease,TN,1378088764000.0,10016242
209750091,Franklin,,1502229562000.0,35.93,-86.81,Bryan DeBoes,TN,1502229562000.0,10016242
71744742,Nashville,Nashville,1428337667000.0,36.08,-86.72,Bryan Duplantis,TN,1473882595000.0,10016242
183056813,Nashville,Nashville,1420478458000.0,36.1,-86.66,Bryan Finlayson,TN,1494506249000.0,10016242
228825955,Murfreesboro,,1496369083000.0,35.87,-86.44,Bryan Hodge,TN,1496369083000.0,10016242
13105002,Nashville,"Nashville, TN",1441062785000.0,36.15,-86.86,Bryan Hunter,TN,1491840092000.0,10016242
129122472,Antioch,,1437320777000.0,36.17,-86.88,Bryan Overbey,TN,1457990490000.0,10016242
127214502,Smyrna,,1442407840000.0,35.97,-86.51,Bryan P Marlowe,TN,1459825676000.0,10016242
6685287,Huntsville,,1418179042000.0,34.76,-86.68,Bryan Powell,AL,1418179042000.0,10016242
187130741,Hendersonville,,1431214958000.0,36.32,-86.61,Bryce Embry,TN,1464916623000.0,10016242
19147021,Nashville,,1491358863000.0,36.16,-86.79,Bryon Larrance,TN,1507896820000.0,10016242
177988312,Nashville,,1417728684000.0,36.17,-86.78,Bryon McDowell,TN,1420557453000.0,10016242
75501532,Nashville,,1381148172000.0,36.13,-86.8,Buck Buchanan,TN,1421278053000.0,10016242
105992762,Nashville,,1407260440000.0,36.13,-86.8,Buddy Reno,TN,1407260440000.0,10016242
148658192,Chicago,Chicago,1502286195000.0,41.89,-87.63,Buffy,IL,1502286195000.0,10016242
197440669,Clarksville,,1460687238000.0,36.49,-87.23,C.J Tate,TN,1501816512000.0,10016242
222467575,Nashville,,1504809587000.0,36.08,-86.72,Cait Rocco,TN,1507220022000.0,10016242
192578333,Nashville,,1445975373000.0,36.08,-86.72,Caitlin Teter Stein,TN,1445975373000.0,10016242
195750926,Nashville,,1448985416000.0,36.17,-86.78,Caleb,TN,1468278958000.0,10016242
211536601,Columbia,Columbia,1471984735000.0,35.61,-87.05,Caleb Brewer,TN,1471984735000.0,10016242
185930712,Nashville,,1430719979000.0,36.17,-86.72,Caleb Gregory,TN,1476202571000.0,10016242
230185128,Nashville,,1498074979000.0,36.17,-86.78,Caleb J. Lee,TN,1502312451000.0,10016242
204211075,Nashville,,1461899387000.0,36.16,-86.79,Callan Morrison,TN,1494300468000.0,10016242
203244569,Antioch,"Nashville, TN",1460506691000.0,36.04,-86.64,Calvin J.,TN,1497475714000.0,10016242
218500568,Nashville,,1482330839000.0,36.17,-86.78,Camden Dykes,TN,1482330839000.0,10016242
152606552,Brentwood,,1469769255000.0,36.0,-86.79,Cameron,TN,1488915462000.0,10016242
188230258,Nashville,,1433464324000.0,36.17,-86.78,Cameron Duke,TN,1460374533000.0,10016242
182578583,Nashville,,1416186881000.0,36.19,-86.73,Cameron Grisham,TN,1502289999000.0,10016242
196665692,Brentwood,,1449699448000.0,36.0,-86.79,Cara Wogsland,TN,1460312422000.0,10016242
195136851,Hermitage,,1446729588000.0,36.19,-86.6,Carmen Vazquez-Marin,TN,1454977339000.0,10016242
13329688,Nashville,,1470541132000.0,36.17,-86.78,Carrie MacDonald,TN,1470541132000.0,10016242
155529942,Bowling Green,,1404919798000.0,37.02,-86.46,Carson White,KY,1407430418000.0,10016242
185931036,Collierville,Memphis,1428451602000.0,35.05,-89.68,Carter Capocaccia,TN,1452219995000.0,10016242
208949319,Nashville,,1468505731000.0,36.17,-86.78,Carter Harris,TN,1491332676000.0,10016242
202734378,Nashville,,1505244823000.0,36.11,-86.86,Carter Harris,TN,1505244823000.0,10016242
146437082,Nashville,,1402521098000.0,36.11,-86.78,Carter Nelms,TN,1408041165000.0,10016242
1775843,Nashville,Nashville,1422409313000.0,36.17,-86.79,Casey,TN,1497380580000.0,10016242
217562544,Nashville,,1480622165000.0,36.17,-86.78,Casey Dailey,TN,1494968803000.0,10016242
215910105,Nashville,,1477937507000.0,36.17,-86.78,Casey Reed,TN,1507748031000.0,10016242
232508580,Nashville,,1503431020000.0,36.17,-86.78,Cassie Roberts,TN,1503431020000.0,10016242
139669252,Nashville,Pegram,1489683134000.0,36.06,-86.96,Cate,TN,1489683134000.0,10016242
191848330,Nashville,,1441206730000.0,36.17,-86.78,Catherine Hardin,TN,1458244853000.0,10016242
208624858,Nashville,,1489678185000.0,36.17,-86.78,Cathy,TN,1508288956000.0,10016242
7816806,Marietta,Atlanta,1449780213000.0,33.93,-84.46,Cesar G.,GA,1498159664000.0,10016242
238263852,Nashville,,1507314328000.0,36.16,-86.79,Chad,TN,1507647402000.0,10016242
186535966,Nashville,,1429899262000.0,36.17,-86.78,Chad,TN,1473713623000.0,10016242
125921832,Nashville,,1436392994000.0,36.17,-86.78,Chad Gill,TN,1494127071000.0,10016242
193054519,Nolensville,,1442867616000.0,35.94,-86.67,Chad U.,TN,1488917701000.0,10016242
12825115,Nashville,Nashville,1494626905000.0,36.15,-86.86,Chad You,TN,1498361688000.0,10016242
178134622,Nashville,,1413488153000.0,36.17,-86.78,Chai Navawongse,TN,1492522978000.0,10016242
16934091,Nashville,"Atlanta, GA",1503523245000.0,36.16,-86.79,Chance Strickland,TN,1507598229000.0,10016242
211626236,Davidson,,1484172330000.0,35.48,-80.82,Chang,NC,1504985758000.0,10016242
189049801,Nashville,,1435135436000.0,36.17,-86.78,Chardonne Dixon,TN,1435135436000.0,10016242
156236902,Nashville,,1405298095000.0,36.06,-86.96,Charisse Lambert,TN,1457392070000.0,10016242
12541555,Huntsville,,1484874585000.0,34.76,-86.68,Charles,AL,1484874585000.0,10016242
12125165,Nashville,,1439313226000.0,36.13,-86.8,Charles DeMarkus Keil,TN,1470864073000.0,10016242
192545823,Nashville,,1441918814000.0,36.18,-86.74,Charles Faquin,TN,1441918814000.0,10016242
81808022,Bothell,,1439767830000.0,47.76,-122.19,Charles Hightower,WA,1439767830000.0,10016242
200735073,Nashville,,1456867633000.0,36.06,-86.96,Charles Howard,TN,1456867633000.0,10016242
222957474,Brentwood,,1488386507000.0,36.0,-86.79,Charles Paik,TN,1497379104000.0,10016242
182752253,Antioch,,1417220663000.0,36.04,-86.64,Charles Welbeck,TN,1417220663000.0,10016242
225544805,Nashville,,1492025195000.0,36.17,-86.78,Charlie Crocker,TN,1499872339000.0,10016242
135965262,Nashville,Nashville,1394078404000.0,36.16,-86.79,Charlie McMackin,TN,1507740500000.0,10016242
212805620,Nashville,,1485460558000.0,36.17,-86.78,Chase,TN,1486676121000.0,10016242
202907404,Nashville,,1460037720000.0,36.17,-86.78,Chase Ramsey,TN,1474379662000.0,10016242
147345642,Nashville,,1400553500000.0,36.16,-86.79,Chason Choate,TN,1491847178000.0,10016242
231686227,Nashville,,1499891871000.0,36.14,-86.74,Chaz Henricks,TN,1507563306000.0,10016242
186214562,Nashville,Nashville,1429136314000.0,36.1,-86.66,Chelsea (Creative) Burns,TN,1452819661000.0,10016242
185934457,Nashville,,1428423960000.0,36.17,-86.78,Chelsea Burns,TN,1428423960000.0,10016242
235670848,Nashville,,1504574943000.0,36.17,-86.78,Chelsea Rucker,TN,1504574943000.0,10016242
49850062,Nashville,Santa Ana,1472249894000.0,36.11,-86.78,Cheo,TN,1480727660000.0,10016242
209470432,Nashville,,1484659194000.0,36.17,-86.78,chillyfrost,TN,1484659194000.0,10016242
227880986,Nashville,,1495163875000.0,36.17,-86.78,Chip C.,TN,1497457809000.0,10016242
191426144,Nashville,,1474402421000.0,36.17,-86.78,Chip Carnes,TN,1492004331000.0,10016242
170478942,Nashville,,1410471929000.0,36.17,-86.78,Chris,TN,1410471929000.0,10016242
199006708,Nashville,,1460496880000.0,36.07,-86.78,Chris Anderson,TN,1478625904000.0,10016242
184830341,Nashville,,1425156466000.0,36.17,-86.78,Chris Clark,TN,1428022539000.0,10016242
72584402,Huntsville,Huntsville,1396534230000.0,34.67,-86.56,Chris Compton,AL,1397840821000.0,10016242
30486582,Nashville,,1378822356000.0,36.17,-86.79,Chris Douglass,TN,1496874926000.0,10016242
204609819,Nashville,Nashville,1468003586000.0,36.08,-86.72,Chris Duke,TN,1478292386000.0,10016242
187499500,Mount Juliet,,1431999638000.0,36.22,-86.52,Chris Fitzgerald,TN,1452797689000.0,10016242
150213422,Nashville,"Nashville, TN",1414951166000.0,36.15,-86.86,Chris Forte,TN,1446496598000.0,10016242
13141514,Nashville,Nashville,1402942064000.0,36.06,-86.96,Chris Gemignani,TN,1407878258000.0,10016242
58223312,Nashville,"Nashville, TN",1452098148000.0,36.06,-86.96,Chris Graffagnino,TN,1452098148000.0,10016242
160010992,Murfreesboro,,1407247803000.0,35.87,-86.44,Chris Green,TN,1407247803000.0,10016242
205371979,Nashville,,1473729181000.0,36.06,-86.96,Chris Hill,TN,1476279298000.0,10016242
161385712,Nashville,,1407946837000.0,36.17,-86.78,Chris Honiball,TN,1433946580000.0,10016242
184547023,Nashville,,1424282390000.0,36.16,-86.79,Chris Jarvis,TN,1507674914000.0,10016242
5175848,Nashville,,1454018157000.0,36.17,-86.78,Chris Lehmann,TN,1460375967000.0,10016242
185576092,Nashville,,1427382724000.0,36.16,-86.79,Chris Mabry,TN,1427382724000.0,10016242
173858412,Franklin,"Slidell, LA",1475591195000.0,35.92,-86.89,Chris McKnight,TN,1507054850000.0,10016242
211554226,Nashville,,1486081771000.0,36.17,-86.78,Chris McNeese,TN,1507268541000.0,10016242
236578093,Nashville,,1505483331000.0,36.21,-86.72,Chris Mellor,TN,1505483331000.0,10016242
36484792,Nashville,"Niceville, FL",1441385288000.0,36.17,-86.78,Chris Mihalcik,TN,1449544575000.0,10016242
208732641,Nashville,,1468150629000.0,36.18,-86.74,Chris Miller,TN,1508159504000.0,10016242
184185824,Nashville,Nashville,1423141769000.0,36.08,-86.72,Chris Newman,TN,1473725480000.0,10016242
186237672,Nashville,,1429206781000.0,36.17,-86.78,Chris O'DeNeal,TN,1429206781000.0,10016242
170855672,Franklin,Franklin,1457499293000.0,35.92,-86.89,Chris Roberts,TN,1507571864000.0,10016242
50903992,Nashville,,1406325590000.0,36.13,-86.8,Chris Simeone,TN,1416245380000.0,10016242
209643345,Nashville,,1469331988000.0,36.17,-86.78,Chris Smalley,TN,1477498068000.0,10016242
47572122,Nashville,Chicago,1395081839000.0,36.17,-86.78,Chris SpinMan Spintzyk,TN,1488316387000.0,10016242
222300882,La Vergne,,1487468724000.0,36.01,-86.57,Chris Talley,TN,1487468724000.0,10016242
217718410,Hermitage,,1480896178000.0,36.19,-86.6,Chris Thomas,TN,1480896178000.0,10016242
227014606,Nashville,,1504289193000.0,36.17,-86.78,Chris Vandenberg,TN,1507261127000.0,10016242
47316062,Nashville,,1395621211000.0,36.17,-86.78,Chris White,TN,1395621211000.0,10016242
217186836,Nashville,,1479960762000.0,36.17,-86.78,ChrisHill,TN,1479960762000.0,10016242
184921907,Hendersonville,,1425401972000.0,36.32,-86.61,Christel Alvarez ,TN,1454638056000.0,10016242
183845401,Nashville,,1422047221000.0,36.17,-86.78,Christen Butler,TN,1429810427000.0,10016242
215342248,Nashville,,1477062602000.0,36.18,-86.74,Christian Hall,TN,1477062602000.0,10016242
209600773,Nashville,,1469282273000.0,36.17,-86.78,Christian Tabarez,TN,1469282273000.0,10016242
184861611,Murfreesboro,,1454642740000.0,35.87,-86.34,Christina,TN,1505256893000.0,10016242
196152497,Madison,,1448685179000.0,36.26,-86.71,christina bittner,TN,1448685179000.0,10016242
143407172,Nashville,"Bay Area, CA",1472869287000.0,36.08,-86.72,Christina Keelan Cottrell,TN,1498001879000.0,10016242
195285548,Nashville,,1451961899000.0,36.13,-86.8,Christina Wisneski,TN,1478268999000.0,10016242
158568752,Hendersonville,,1438990634000.0,36.32,-86.61,Christopher Cagle,TN,1438990634000.0,10016242
30179402,Nashville,Orlando,1459695451000.0,36.17,-86.78,Christopher Constable,TN,1484179955000.0,10016242
195995081,Nashville,,1448342926000.0,36.17,-86.78,Christopher Gilbert,TN,1448342926000.0,10016242
112725222,Nashville,,1394388393000.0,36.17,-86.78,Christopher Gordon,TN,1418251773000.0,10016242
12880123,Nashville,,1507587253000.0,36.14,-86.74,Christopher Igoe,TN,1507873642000.0,10016242
188661696,Nashville,,1474073018000.0,36.22,-86.77,Christopher Wilson,TN,1486172279000.0,10016242
6045513,Nashville,,1378391597000.0,36.13,-86.8,Chuck Bryant,TN,1497981245000.0,10016242
126757222,Nashville,,1389027868000.0,36.17,-86.78,Chuck Pfaff,TN,1429064012000.0,10016242
222215242,Nashville,,1487348774000.0,36.17,-86.78,chuck wofford,TN,1487348774000.0,10016242
211029382,Memphis,,1477653828000.0,35.15,-90.05,Claire Coulter,TN,1499779443000.0,10016242
196491339,Clarksville,,1499883520000.0,36.53,-87.35,Clark McAdoo,TN,1503613682000.0,10016242
183103381,Birmingham,Birmingham,1476478568000.0,33.53,-86.77,Clay,AL,1476775562000.0,10016242
218244552,Nashville,,1481830081000.0,36.14,-86.74,Clayton Coffman,TN,1481830081000.0,10016242
234643717,Nashville,,1503419640000.0,36.17,-86.78,Clayton Jones,TN,1503419640000.0,10016242
186287921,Marion,,1429341374000.0,37.29,-88.09,Clément,KY,1429341374000.0,10016242
110078452,Nashville,,1484090352000.0,36.07,-86.73,Cliff Gunn,TN,1507259588000.0,10016242
6030033,Nashville,Nashville,1399659357000.0,36.11,-86.86,Clifford Anderson,TN,1507763655000.0,10016242
8386829,Hendersonville,Nashville,1442458645000.0,36.32,-86.61,Clifton Hatfield,TN,1442617058000.0,10016242
82849812,Nashville,Nashville,1438773717000.0,36.17,-86.72,Clint Stephen Jones,TN,1447283471000.0,10016242
231593874,Brentwood,,1499789776000.0,36.0,-86.79,Cody Landry,TN,1499789776000.0,10016242
183430134,Nashville,,1421239997000.0,36.17,-86.78,Cody Mercer,TN,1470836225000.0,10016242
186210652,Brentwood,,1438904746000.0,36.0,-86.79,Cody Spriggs,TN,1438904746000.0,10016242
107483192,Signal Mountain,,1380084893000.0,35.15,-85.33,Colby,TN,1442842066000.0,10016242
195346068,Murfreesboro,,1447113485000.0,35.78,-86.33,cole cathey,TN,1447113485000.0,10016242
137854492,Nashville,,1412215240000.0,36.13,-86.8,Colin Carter,TN,1412215240000.0,10016242
186161661,Franklin,Nashville,1468606713000.0,35.92,-86.89,Colin Durbin,TN,1468606713000.0,10016242
180535172,Nashville,Nashville,1492535827000.0,36.16,-86.79,colleen,TN,1497121068000.0,10016242
211357368,Nashville,,1471732829000.0,36.09,-86.82,Collin J Reynolds,TN,1471732829000.0,10016242
182511196,Nashville,,1415816663000.0,36.11,-86.78,Connor Austin,TN,1415827573000.0,10016242
190933391,Nashville,,1460320504000.0,36.14,-86.74,Connor Goggans,TN,1466034698000.0,10016242
132968302,Nashville,,1423695022000.0,36.13,-86.8,Corey,TN,1502283724000.0,10016242
189702207,Nashville,,1436476789000.0,36.08,-86.72,Corey Arnold,TN,1436476789000.0,10016242
129003472,Smyrna,,1495813512000.0,35.95,-86.54,Corey Gross,TN,1503849768000.0,10016242
195256005,Woodland Mills,,1446952097000.0,36.43,-89.12,Corey Ramsey,TN,1451956369000.0,10016242
13039076,Brentwood,,1407865078000.0,36.0,-86.79,Corey Robertson,TN,1507730553000.0,10016242
200847481,Nashville,,1470867504000.0,36.08,-86.72,Corey Sery,TN,1478579952000.0,10016242
233527455,Nashville,,1502145040000.0,36.17,-86.78,cortland,TN,1502145040000.0,10016242
202440863,Nashville,,1459362004000.0,36.17,-86.78,Cortney Webb,TN,1459368386000.0,10016242
225111549,Nashville,,1491408804000.0,36.17,-86.78,Cory Harkins,TN,1507753014000.0,10016242
230814910,Nashville,,1498848927000.0,36.17,-86.78,Cory Kelly,TN,1507514876000.0,10016242
183631457,Nashville,,1476998808000.0,36.14,-86.74,Cory Martin,TN,1476998808000.0,10016242
200377139,Nashville,,1459814488000.0,36.08,-86.72,Cory Street,TN,1459814488000.0,10016242
38605462,Nashville,,1383760705000.0,36.18,-86.74,Craig Israel,TN,1444760996000.0,10016242
2937409,Mount Juliet,"Pittsburgh, PA",1452801814000.0,36.22,-86.52,Craig Oaks,TN,1452801814000.0,10016242
219620069,Nashville,,1486219272000.0,36.17,-86.78,craig wilkosz,TN,1486225300000.0,10016242
140450522,Nashville,,1396563216000.0,36.11,-86.86,Cristy Danford,TN,1407791152000.0,10016242
199519697,Antioch,,1455163844000.0,36.04,-86.64,Crystal Staples,TN,1455163844000.0,10016242
172470772,Antioch,Nashville,1496694819000.0,36.04,-86.64,ctaylorgraphics,TN,1497292024000.0,10016242
187131351,Franklin,,1431216082000.0,35.92,-86.89,Cullen,TN,1431458326000.0,10016242
210392442,Nashville,,1470346953000.0,36.17,-86.78,Curtis Crawford,TN,1470346953000.0,10016242
230179591,Nashville,,1501369685000.0,36.17,-86.78,Curtis Vanzandt,TN,1507426332000.0,10016242
139588162,Augusta,,1457786224000.0,33.46,-81.97,Daisia Woods,GA,1457786224000.0,10016242
221692227,Nashville,,1497887657000.0,36.14,-86.74,Dakota N.,TN,1507761846000.0,10016242
57169392,Nashville,Nashville,1446938220000.0,36.13,-86.8,Dalton Banks,TN,1457886038000.0,10016242
199801302,Cookeville,,1455575879000.0,36.2,-85.52,Damion C,TN,1507516180000.0,10016242
138967832,Nashville,"Bowling Green, OH",1407376351000.0,36.08,-86.72,Damon Bauer,TN,1428201242000.0,10016242
188797991,Smyrna,,1441749830000.0,35.97,-86.51,Damon Lawton,TN,1473795427000.0,10016242
204958407,Thompsons Station,,1462993383000.0,35.8,-86.9,Damon Romano,TN,1484009964000.0,10016242
163831022,La Vergne,,1490339910000.0,36.04,-86.56,Dan,TN,1490339910000.0,10016242
155801852,Nashville,,1463420898000.0,36.21,-86.72,dan,TN,1485992021000.0,10016242
156626172,Nashville,Nashville,1421210579000.0,36.11,-86.86,Dan Burger,TN,1499805977000.0,10016242
11295876,Burns,,1442081447000.0,36.04,-87.26,Dan M,TN,1446744438000.0,10016242
114893822,Nashville,Nashville,1381339027000.0,36.13,-86.8,Dan Schweihs,TN,1505246911000.0,10016242
199981939,Nashville,,1455819369000.0,36.14,-86.74,Dan Ventura,TN,1502300092000.0,10016242
155433082,Nashville,,1404874743000.0,36.16,-86.79,Daniel,TN,1507644059000.0,10016242
178963662,Nashville,,1413913254000.0,36.1,-86.66,Daniel,TN,1413913254000.0,10016242
94861782,Nashville,,1468440531000.0,36.17,-86.78,Daniel Aquino,TN,1491847083000.0,10016242
220377003,Nashville,Antioch,1503781356000.0,36.22,-86.77,Daniel Babcock,TN,1507908124000.0,10016242
231090617,Ibarra,,1500314299000.0,0.36,-78.13,Daniel Beall,,1500314299000.0,10016242
181484382,Nashville,,1415035141000.0,36.09,-86.82,Daniel Box,TN,1415035141000.0,10016242
192485662,Nashville,,1441810897000.0,36.17,-86.78,Daniel Cossins,TN,1447254333000.0,10016242
6384580,Nashville,Nashville,1433368213000.0,36.06,-86.96,Daniel Cottone,TN,1498041486000.0,10016242
193263926,Mc Kenzie,,1443271881000.0,36.13,-88.52,Daniel Dalrymple,TN,1443452256000.0,10016242
232733652,Nashville,,1501180274000.0,36.14,-86.74,Daniel Greene,TN,1501180274000.0,10016242
189016888,Nashville,,1437088053000.0,36.1,-86.66,Daniel Hodges,TN,1490490137000.0,10016242
156342002,Nashville,,1489177349000.0,36.17,-86.79,Daniel Huerta Marquez,TN,1489177349000.0,10016242
108929642,Nashville,,1378010515000.0,36.13,-86.8,Daniel Johnson,TN,1394328088000.0,10016242
67936822,Durham,"Whiteville, TN",1459131431000.0,36.0,-78.9,Daniel Jones,NC,1472969874000.0,10016242
183125753,Chicago,Chicago,1419576979000.0,41.92,-87.7,Daniel Lawhon,IL,1419576979000.0,10016242
227958621,Goodlettsville,,1495279030000.0,36.32,-86.72,Daniel Meza,TN,1495279030000.0,10016242
192955879,Indianapolis,,1497550323000.0,39.86,-85.97,Daniel Mills,IN,1499792195000.0,10016242
26107532,Nashville,,1404747522000.0,36.18,-86.74,Daniel Nelson,TN,1460130916000.0,10016242
1939496,Antioch,,1433417648000.0,36.04,-86.64,Daniel Newman,TN,1473799363000.0,10016242
185173098,Knoxville,,1426993862000.0,36.03,-83.89,Daniel Oliver,TN,1475615694000.0,10016242
231614230,Nashville,,1499808259000.0,36.17,-86.78,Daniel Opatich,TN,1499808259000.0,10016242
185349790,Nolensville,Franklin,1426685559000.0,35.94,-86.67,Daniel P.,TN,1447767128000.0,10016242
98440922,Nashville,,1456126328000.0,36.18,-86.74,Daniel Paul Carbone,TN,1486435963000.0,10016242
182626128,Florence,"Florence, AL",1423837904000.0,34.82,-87.66,Daniel Spurgeon,AL,1423837904000.0,10016242
61262282,Cookeville,"Fairfax, VA",1498319657000.0,36.18,-85.46,Danielle,TN,1498319657000.0,10016242
113482852,Nashville,Nashville,1454426416000.0,36.13,-86.8,Danielle Adkins,TN,1507744903000.0,10016242
9363105,Nashville,,1459917351000.0,36.11,-86.78,danielle duer,TN,1484963832000.0,10016242
185314082,Nashville,"Nashville, TN",1447946426000.0,36.17,-86.78,Danielle Hollis,TN,1463933667000.0,10016242
206240756,Murfreesboro,,1483979832000.0,35.87,-86.44,Dara,TN,1505322277000.0,10016242
205010129,Murfreesboro,,1486352099000.0,35.78,-86.33,Darrin Dickey,TN,1488642079000.0,10016242
9719284,Murfreesboro,,1426528697000.0,35.87,-86.44,Darrin Dickey,TN,1441511931000.0,10016242
391708,Nashville,Nashville,1449842574000.0,36.09,-86.82,Dave,TN,1457376412000.0,10016242
163900992,Nashville,,1409152647000.0,36.13,-86.8,Dave Anderson,TN,1409152647000.0,10016242
155258552,Hendersonville,,1404784963000.0,36.32,-86.61,Dave Boling,TN,1427911891000.0,10016242
3517021,Nashville,"Tampa, FL",1404778729000.0,36.11,-86.86,Dave D,TN,1455206076000.0,10016242
201446209,Nashville,,1457900888000.0,36.09,-86.82,Dave Harms,TN,1490739910000.0,10016242
7534345,Nashville,"Louisville, KY",1428925346000.0,36.06,-86.96,Dave Harned,TN,1507851217000.0,10016242
2642494,San Francisco,New York City,1484204081000.0,37.8,-122.41,Dave Nugent,CA,1492114168000.0,10016242
142956872,Rochester,,1476029164000.0,42.72,-83.15,David,MI,1476043188000.0,10016242
22650381,Nashville,"Nashville, TN",1449604367000.0,36.11,-86.86,David,TN,1491840059000.0,10016242
93820322,Nashville,,1423940924000.0,36.17,-86.78,David Bailey,TN,1428542625000.0,10016242
12927999,Nashville,Nashville,1412906069000.0,36.17,-86.72,David Brandon Dees,TN,1412906069000.0,10016242
235180688,Nashville,,1504709822000.0,36.21,-86.72,David Brown,TN,1507758623000.0,10016242
102928292,Nashville,,1433547255000.0,36.11,-86.86,David Calhoun,TN,1507430935000.0,10016242
204237509,Nashville,,1461946623000.0,36.17,-86.78,David Cramb,TN,1505248574000.0,10016242
76202202,Nashville,,1478582163000.0,36.17,-86.78,David Ells,TN,1488989674000.0,10016242
161034012,Nashville,,1407782999000.0,36.1,-86.66,David Green,TN,1470257385000.0,10016242
136181552,Hermitage,Hermitage,1445215071000.0,36.19,-86.6,David Hale,TN,1504110909000.0,10016242
198799884,Nashville,,1468337127000.0,36.09,-86.82,David Head,TN,1468343467000.0,10016242
166884982,Nashville,,1468927578000.0,36.14,-86.74,David Head,TN,1468927578000.0,10016242
208883105,Nashville,,1473701580000.0,36.16,-86.79,David Head,TN,1473701580000.0,10016242
145262432,Nashville,,1489623055000.0,36.08,-86.72,David Henley,TN,1508338826000.0,10016242
215649805,Hendersonville,,1479753079000.0,36.32,-86.61,David Henton,TN,1479753079000.0,10016242
194816243,Nashville,,1446134212000.0,36.17,-86.78,David Jahns,TN,1507854658000.0,10016242
63159412,Nashville,,1488932836000.0,36.18,-86.74,David Jarmoluk,TN,1488932836000.0,10016242
229102995,Madison,,1496704175000.0,36.26,-86.71,David Jay,TN,1496704175000.0,10016242
230262755,Nashville,,1498942461000.0,36.17,-86.78,David Ketch,TN,1498942461000.0,10016242
95168392,Murfreesboro,,1436305755000.0,35.82,-86.45,David Lee,TN,1490378464000.0,10016242
13760492,Birmingham,"Dallas, TX",1459261621000.0,33.36,-86.79,David Lormor,AL,1473426370000.0,10016242
40534432,Nashville,Nashville,1443824454000.0,36.13,-86.8,David P,TN,1507253142000.0,10016242
203961095,Woodbury,,1463614636000.0,35.81,-86.07,David Piper,TN,1463614636000.0,10016242
191592478,Nashville,,1440109489000.0,36.17,-86.78,David Potter,TN,1440109489000.0,10016242
183551403,Nashville,,1431438291000.0,36.17,-86.78,David Prater,TN,1431438291000.0,10016242
134073882,Nashville,,1392864286000.0,36.17,-86.78,David Prochaska,TN,1484162509000.0,10016242
12578046,Nashville,,1493057720000.0,36.13,-86.8,David Repas,TN,1494452189000.0,10016242
9986685,Nashville,"Pittsburgh, PA",1475851873000.0,36.06,-86.96,David Shuman,TN,1491967682000.0,10016242
212400985,Spring Hill,,1473166887000.0,35.76,-86.88,David Smith,TN,1473166887000.0,10016242
199111787,Nashville,,1454529195000.0,36.16,-86.79,David Stewart,TN,1454704216000.0,10016242
200729494,Readyville,,1456860921000.0,35.82,-86.22,David Tucker II,TN,1478281545000.0,10016242
102810842,Kirkland,"Kirkland, WA",1407181705000.0,47.68,-122.17,David Ulrich,WA,1434157815000.0,10016242
144256692,Nashville,,1499896452000.0,36.15,-86.86,David VanWie,TN,1499896452000.0,10016242
189363060,Clarksville,,1435786703000.0,36.53,-87.35,David Wade,TN,1436382872000.0,10016242
210923626,Madison,,1471401987000.0,36.26,-86.71,David Williams,TN,1478732610000.0,10016242
230279143,Nashville,,1498181879000.0,36.17,-86.78,David Wilson,TN,1498181879000.0,10016242
89861182,Nashville,,1379277470000.0,36.11,-86.86,David Woolbright,TN,1502283608000.0,10016242
208892319,Nashville,,1486058058000.0,36.08,-86.72,David Yunker,TN,1486058058000.0,10016242
137052372,Nashville,Nashville,1499959932000.0,36.11,-86.78,Davis Hunt,TN,1507758550000.0,10016242
228533008,West Palm Beach,West Palm Beach,1496633526000.0,26.66,-80.26,Davy Yue,FL,1496633526000.0,10016242
121723022,Spring Hill,,1443620616000.0,35.75,-86.88,Dayne Wright,TN,1507760399000.0,10016242
212606238,Nashville,,1473438681000.0,36.11,-86.78,Dayrin Bledsoe,TN,1484858829000.0,10016242
161200492,Nashville,,1435284984000.0,36.17,-86.78,De'on Summers,TN,1507251522000.0,10016242
204202406,Hermitage,,1461887114000.0,36.19,-86.6,Dean,TN,1499559008000.0,10016242
82209622,Nashville,,1453345024000.0,36.17,-86.78,DeAndre Courtney,TN,1457566237000.0,10016242
236588879,Brentwood,,1505744546000.0,36.0,-86.79,DeAnna Brooks,TN,1505744546000.0,10016242
197028677,Clarksville,,1450535736000.0,36.56,-87.41,Deanna Mathis,TN,1450535736000.0,10016242
4686468,Brentwood,,1396450536000.0,36.0,-86.79,Deanna Vickers,TN,1497543930000.0,10016242
16790301,Nashville,,1476319016000.0,36.14,-86.74,Debbie Bourne,TN,1483825151000.0,10016242
228419521,Nashville,,1495842529000.0,36.17,-86.78,Debi Lambert,TN,1495842529000.0,10016242
184170710,Nashville,,1494515366000.0,36.17,-86.72,Debra,TN,1499803292000.0,10016242
223325043,Nashville,,1488907206000.0,36.17,-86.78,Declan McGarry,TN,1488907206000.0,10016242
186627575,London,,1430098312000.0,51.52,-0.1,Deeessemm,17,1430098312000.0,10016242
141660382,Nashville,,1397248366000.0,36.14,-86.74,Deen,TN,1397248366000.0,10016242
208430646,Nashville,,1467911159000.0,36.14,-86.74,Delaine Wendling,TN,1507622082000.0,10016242
201085242,Brentwood,,1472485679000.0,36.0,-86.79,Demetri Miller,TN,1504132868000.0,10016242
198064675,Cordova,,1452722411000.0,35.14,-89.76,Denis T,TN,1485821345000.0,10016242
210614410,Hendersonville,,1470757912000.0,36.32,-86.61,Dennis McGhee,TN,1497477532000.0,10016242
8278875,Sparta,"Columbus, GA",1416233168000.0,43.16,-85.69,dennis monsewicz,MI,1433966980000.0,10016242
140672512,Clarksville,,1396841511000.0,36.56,-87.41,Derek,TN,1414524738000.0,10016242
185275990,Nashville,,1426635411000.0,36.17,-86.78,Derek Cocomo,TN,1447335265000.0,10016242
129306472,Nashville,,1436815359000.0,36.16,-86.79,Derek Hollis,TN,1436890768000.0,10016242
203223094,Hermitage,,1460731879000.0,36.19,-86.6,Derrick Adom,TN,1460731879000.0,10016242
214753628,Nashville,,1486339676000.0,36.16,-86.79,Derrick Bray,TN,1488375964000.0,10016242
192517630,Murfreesboro,,1444286253000.0,35.87,-86.44,Derrick Lewis,TN,1452626333000.0,10016242
176366962,Nashville,,1412698148000.0,36.17,-86.78,Devon Tuitt,TN,1457603314000.0,10016242
196325751,New York,,1457311132000.0,40.75,-73.99,Diane Duncklee,NY,1457311132000.0,10016242
234179814,Nashville,,1505855478000.0,36.17,-86.78,Didi Hill,TN,1507561985000.0,10016242
89416212,Nashville,,1443503106000.0,36.17,-86.78,Dillon Fletcher,TN,1443503106000.0,10016242
209837245,Nashville,,1506714979000.0,36.17,-86.78,Dimetric Johnson,TN,1507851693000.0,10016242
189522724,Nashville,Nashville,1494390626000.0,36.14,-86.8,Dimitris Boursinos,TN,1494390626000.0,10016242
161587302,Murfreesboro,,1468436574000.0,35.82,-86.45,Dominic,TN,1507762849000.0,10016242
89513822,Nashville,,1396881906000.0,36.17,-86.78,Dominic Cianciolo,TN,1417788308000.0,10016242
72709402,Henderson,Nashville,1408280132000.0,36.04,-115.08,Dominic Rodriquez,NV,1467950633000.0,10016242
208916701,Smyrna,,1468373869000.0,35.97,-86.51,Dominic Serrano,TN,1499806421000.0,10016242
185902150,Franklin,"Orlando, FL",1458689764000.0,35.99,-86.9,Don Cline,TN,1458689764000.0,10016242
225901215,Nashville,,1492519504000.0,36.17,-86.78,Donelson ,TN,1492608400000.0,10016242
13374222,Nashville,,1439410025000.0,36.16,-86.79,Donna,TN,1439410025000.0,10016242
187123627,Knoxville,,1463934433000.0,35.92,-83.88,Donny Swany,TN,1463934433000.0,10016242
222153711,Nashville,,1487265137000.0,36.18,-86.74,Doug Altenbern,TN,1505339801000.0,10016242
3503362,Nashville,,1433687765000.0,36.17,-86.79,Douglas Sims,TN,1444759677000.0,10016242
9917104,Oakland,Oakland,1399038491000.0,35.21,-89.54,Douglas Starnes,TN,1421763392000.0,10016242
191765518,Nashville,,1440445702000.0,36.13,-86.8,Drew,TN,1459374991000.0,10016242
234491990,Nashville,,1503247331000.0,36.17,-86.78,Drew,TN,1503247331000.0,10016242
112017852,Nashville,,1410360102000.0,36.18,-86.81,Drew Blumberg,TN,1499793422000.0,10016242
12291036,Smyrna,,1388693234000.0,35.97,-86.51,Drew Butler,TN,1421242223000.0,10016242
22331221,Nashville,New York,1417724688000.0,36.22,-86.77,Drew D'Agostino,TN,1465423210000.0,10016242
452210,Nashville,Nashville,1383315836000.0,36.11,-86.78,Drew Harper,TN,1473715880000.0,10016242
223318349,Franklin,,1488899441000.0,35.92,-86.89,drew hyatt,TN,1492017755000.0,10016242
143362072,Nashville,,1416515054000.0,36.18,-86.81,Drew Moore,TN,1421265028000.0,10016242
231185563,Hendersonville,,1500150759000.0,36.32,-86.61,Drew Williams,TN,1502492774000.0,10016242
89800802,Brentwood,Nashville,1504646334000.0,36.0,-86.79,Dudley Jacobs,TN,1505336154000.0,10016242
222402513,Nashville,,1487612662000.0,36.16,-86.79,Dung Nguyen Do,TN,1492036899000.0,10016242
195161271,Goodlettsville,,1447099981000.0,36.33,-86.74,Dustin Davidson,TN,1449198681000.0,10016242
95625892,Nashville,,1426099373000.0,36.18,-86.74,Dustin Keith Weld,TN,1428407416000.0,10016242
223438516,Murfreesboro,Murfreesboro,1494333294000.0,35.82,-86.45,Dustin Korzaan,TN,1499888738000.0,10016242
161903072,Smyrna,,1496007387000.0,35.97,-86.51,Dustin Lee Walker,TN,1505336855000.0,10016242
217859560,Durham,,1481131190000.0,35.92,-78.8,Dustin Morris,NC,1481131190000.0,10016242
47428112,Nashville,,1463961488000.0,36.17,-86.78,Dustin Potter,TN,1494512924000.0,10016242
161306542,Springfield,,1408554693000.0,36.52,-86.87,Dustin Reed,TN,1492011993000.0,10016242
214759042,Nashville,,1476209128000.0,36.16,-86.79,Dustin Walker,TN,1507660532000.0,10016242
235410265,Nashville,,1504289355000.0,36.08,-86.72,Dusty Carver,TN,1504289355000.0,10016242
197674291,Murfreesboro,,1462916965000.0,35.82,-86.45,Dusty Lane Carver,TN,1473898252000.0,10016242
9448133,Franklin,,1484008423000.0,35.92,-86.89,Dwayne Pate,TN,1488919894000.0,10016242
234832007,Nashville,,1503624886000.0,36.17,-86.78,Dylan,TN,1503624886000.0,10016242
136024912,Nashville,Nashville,1444071059000.0,36.09,-86.82,Dylan Andrews,TN,1491955534000.0,10016242
55146912,Denver,,1420380970000.0,39.7,-105.08,Dylan Thomas,CO,1452728985000.0,10016242
189316019,Nashville,,1454356558000.0,36.13,-86.8,Dylan Thomas,TN,1493823510000.0,10016242
184778124,Franklin,,1468531815000.0,35.92,-86.89,Eamon Baghernejad,TN,1497540910000.0,10016242
104625282,Bowling Green,Bowling Green,1440640491000.0,36.96,-86.37,Ean,KY,1507257208000.0,10016242
111701512,Nashville,,1395886491000.0,36.16,-86.79,Ed Jones,TN,1507653798000.0,10016242
7658930,Murfreesboro,,1492536391000.0,35.82,-86.47,Ed Pearson,TN,1492536391000.0,10016242
183780982,Nashville,,1421853114000.0,36.11,-86.78,edean11,TN,1421853114000.0,10016242
214883118,Antioch,Chicago,1476389038000.0,36.04,-86.64,Edgar Barajas,TN,1486596246000.0,10016242
92884822,Philadelphia,,1499566358000.0,39.96,-75.15,Edward Mazurek,PA,1499566358000.0,10016242
185941640,Nashville,,1429014963000.0,36.17,-86.78,Edwin Acevedo,TN,1467943938000.0,10016242
228805401,Durham,"Durham, NC",1496346088000.0,35.96,-78.94,EJ Morgan,NC,1496346088000.0,10016242
197774325,Nashville,,1460510498000.0,36.17,-86.78,Eleasha,TN,1491842507000.0,10016242
161305272,Nashville,,1412613052000.0,36.1,-86.66,eleni,TN,1467237687000.0,10016242
220595441,Nashville,,1485243268000.0,36.17,-86.78,ELHILALY  EHIMIR,TN,1485243268000.0,10016242
24880512,Nashville,,1378218770000.0,36.06,-86.96,Elijah Manor,TN,1449034096000.0,10016242
108477342,Nashville,,1388420767000.0,36.16,-86.79,Elise Zieman,TN,1417641072000.0,10016242
183723020,Nashville,,1421698933000.0,36.17,-86.72,Elisha Codes,TN,1421698933000.0,10016242
185612393,Mount Juliet,,1444790048000.0,36.21,-86.52,Elissa C,TN,1444790048000.0,10016242
225437286,Nashville,,1497476690000.0,36.1,-86.66,Eliza Meeks,TN,1504111609000.0,10016242
209223183,Nashville,,1476387772000.0,36.18,-86.74,Elizabeth Sanger,TN,1476408936000.0,10016242
194719509,Nashville,,1452568473000.0,36.17,-86.78,Ellen Bailey,TN,1492029518000.0,10016242
191208553,Nashville,,1439353122000.0,36.17,-86.78,Elliott Roche,TN,1439474895000.0,10016242
216420150,Nashville,,1478737781000.0,36.08,-86.72,Elliott Williams,TN,1479242116000.0,10016242
219621017,Nashville,,1484009614000.0,36.17,-86.78,Ellis Thomas,TN,1491529081000.0,10016242
41531772,Nashville,,1420472524000.0,36.17,-86.78,Elma Bunch,TN,1420472524000.0,10016242
67075562,Nashville,,1421157135000.0,36.13,-86.8,Elroy,TN,1454640690000.0,10016242
198966532,Nashville,,1454302349000.0,36.09,-86.82,Elroy Mihailov,TN,1457357374000.0,10016242
94498242,Nashville,"Kailua Kona, HI",1483997399000.0,36.16,-86.79,Emily ,TN,1507762276000.0,10016242
189870773,Whites Creek,,1436811302000.0,36.27,-86.83,Emily Feller,TN,1446756605000.0,10016242
107307852,Nashville,,1501879332000.0,36.15,-86.86,Emily Lemmon,TN,1505340070000.0,10016242
195329871,Nashville,,1447089616000.0,36.17,-86.78,Emma Beaton,TN,1484765436000.0,10016242
9754635,Antioch,,1389533178000.0,36.04,-86.64,Eric,TN,1447181075000.0,10016242
112326762,Smyrna,"Birmingham, AL",1489865225000.0,35.97,-86.5,Eric,TN,1489865225000.0,10016242
128538332,Nashville,,1421160588000.0,36.14,-86.74,Eric,TN,1433952132000.0,10016242
191200422,Nashville,,1439340484000.0,36.17,-86.78,Eric,TN,1439468899000.0,10016242
49353562,Nashville,,1393217726000.0,36.15,-86.86,eric andre,TN,1449530175000.0,10016242
182167672,Nashville,,1426115541000.0,36.09,-86.82,Eric Braley,TN,1426115541000.0,10016242
199665292,Nashville,,1465795652000.0,36.21,-86.72,Eric Denton,TN,1502286222000.0,10016242
219952884,Clarksville,,1484439463000.0,36.49,-87.23,eric dimon,TN,1484439463000.0,10016242
11054542,Murfreesboro,"Murfreesboro, TN",1420463788000.0,35.87,-86.34,Eric Hogan,TN,1420463788000.0,10016242
225188054,Nashville,,1491517438000.0,36.13,-86.8,Eric Micheal Boggs,TN,1491517438000.0,10016242
156873382,Nashville,Nashville,1420591594000.0,36.17,-86.79,Eric Rambow,TN,1420591594000.0,10016242
202729875,Nashville,,1459787771000.0,36.16,-86.79,Eric Taylor,TN,1459787771000.0,10016242
11804293,Nashville,,1396902615000.0,36.07,-86.73,Eric Warren,TN,1449678923000.0,10016242
190930255,Nashville,Nashville,1452548171000.0,36.08,-86.72,Erin,TN,1473874566000.0,10016242
213440339,Brentwood,,1474508949000.0,36.0,-86.79,erin ,TN,1475858419000.0,10016242
54427722,Murfreesboro,,1465420535000.0,35.87,-86.44,Erin,TN,1465420535000.0,10016242
7546592,Hermitage,"Atlanta, Georgia",1507437747000.0,36.19,-86.6,Erin Agobert,TN,1508778636000.0,10016242
148050462,Nashville,,1451928440000.0,36.17,-86.78,Erin Orstrom,TN,1478633431000.0,10016242
77148762,Nashville,Fort Lauderdale,1453081566000.0,36.17,-86.78,Erin Oxborrow,TN,1504832432000.0,10016242
85547452,Nashville,,1378214919000.0,36.13,-86.8,Erin Page,TN,1504120446000.0,10016242
236215392,Nashville,,1505274646000.0,36.1,-86.66,Erin Woody,TN,1505274646000.0,10016242
185810527,Alexandria,Alexandria,1447070885000.0,38.82,-77.06,Esube Bekele,VA,1457475657000.0,10016242
193871097,Louisville,,1502667922000.0,38.25,-85.78,Ethan Robbins,KY,1502667922000.0,10016242
170829602,Nashville,,1503112930000.0,36.17,-86.78,Etta,TN,1504205823000.0,10016242
232311841,Nashville,,1500904623000.0,36.17,-86.78,Evan,TN,1504110381000.0,10016242
232796415,Nashville,,1501341733000.0,36.16,-86.77,Evan Coakley,TN,1501564655000.0,10016242
195431219,Nashville,,1493817554000.0,36.15,-86.86,Evan Engels,TN,1505305673000.0,10016242
132700002,Fremont,Fremont,1488579615000.0,37.56,-122.0,Evan Gatchell,CA,1488579615000.0,10016242
183285226,Nashville,,1420309786000.0,36.06,-86.96,Evan Roane,TN,1455031214000.0,10016242
234197375,Atlanta,,1502917570000.0,33.86,-84.4,Fabian Maldonado,GA,1502917570000.0,10016242
203303293,New York,,1460587362000.0,40.75,-73.99,Fan Gui,NY,1462844807000.0,10016242
190750035,Thompsons Station,,1438474233000.0,35.8,-86.9,Federico Campisano,TN,1438474233000.0,10016242
46679722,Nashville,,1398192678000.0,36.15,-86.86,Fernando Muñoz,TN,1417538415000.0,10016242
118863742,Nashville,,1383757584000.0,36.17,-86.78,Firoj,TN,1383757584000.0,10016242
208426796,Nashville,,1467739850000.0,36.17,-86.78,Fletcher,TN,1484493324000.0,10016242
106156082,Mount Juliet,"Ann Arbor, MI",1507819912000.0,36.22,-86.52,Forest Darling,TN,1507819912000.0,10016242
11426187,Nashville,Nashville,1378054842000.0,36.17,-86.78,Forrest Galloway,TN,1409931161000.0,10016242
118608932,Nashville,,1383607417000.0,36.17,-86.78,Frank Jones,TN,1401749298000.0,10016242
230617503,Clarksville,,1499049355000.0,36.53,-87.35,Frank S,TN,1503912441000.0,10016242
195808038,Nashville,,1473894047000.0,36.17,-86.78,Fred Eisele,TN,1476314684000.0,10016242
13399973,Nashville,,1476203589000.0,36.17,-86.78,Fred Eisele,TN,1503073256000.0,10016242
197727816,Nashville,,1452119074000.0,36.14,-86.74,Freddy Roberts,TN,1484239838000.0,10016242
185889124,Nashville,,1428313058000.0,36.17,-86.78,Frederick Turner Jr,TN,1438906867000.0,10016242
56809372,Nashville,,1421027358000.0,36.17,-86.78,Fredrik Thuresson,TN,1444776473000.0,10016242
185431528,Pegram,,1426945607000.0,36.12,-87.03,Gaben S.,TN,1436212744000.0,10016242
14387408,Franklin,Franklin tn,1380425583000.0,35.99,-86.9,Gabriel ,TN,1439322909000.0,10016242
204671827,Nashville,Nashville,1501108643000.0,36.13,-86.8,Gabriel Rowe,TN,1507597483000.0,10016242
184025669,Nashville,,1422636309000.0,36.17,-86.78,gabriela,TN,1422889765000.0,10016242
70216662,Nashville,,1378778560000.0,36.14,-86.74,Gabrielle Epstein,TN,1504797444000.0,10016242
4169858,Nashville,Nashville,1402071818000.0,36.17,-86.72,Gaines Kergosien,TN,1476240669000.0,10016242
41505052,Farmington,Las Vegas,1409691207000.0,42.51,-83.41,Ganapathy,MI,1433764354000.0,10016242
225780010,Maisuru,,1492352475000.0,12.31,76.65,Ganesh B,,1492352475000.0,10016242
222190646,Nashville,,1487307762000.0,36.16,-86.79,Garrad,TN,1487307762000.0,10016242
184038230,New York,,1497896536000.0,40.75,-73.99,Garrett Lovell,NY,1497896536000.0,10016242
184169282,Nashville,,1423101933000.0,36.15,-86.86,Garrett Payne ,TN,1423315103000.0,10016242
208429247,Mount Pleasant,Nashville,1467742301000.0,32.82,-79.85,Garrett Vangilder,SC,1504837891000.0,10016242
12937173,Mount Juliet,Mount Juliet,1480451117000.0,36.22,-86.52,Gary Paige,TN,1491837571000.0,10016242
202927440,Nashville,,1460062569000.0,36.15,-86.86,Gavin Schriver,TN,1507384303000.0,10016242
229418539,Nashville,,1497106977000.0,36.08,-86.72,George,TN,1505214356000.0,10016242
157889392,Nashville,,1406127307000.0,36.17,-86.78,George Shaw,TN,1415375619000.0,10016242
120303082,Brentwood,,1410295304000.0,36.0,-86.79,Gerald A. Wakefield,TN,1504380682000.0,10016242
224519925,Clarksville,,1490576504000.0,36.53,-87.35,Gi Class,TN,1490576504000.0,10016242
206848865,Nashville,,1505438757000.0,36.11,-86.78,Gib Bowden,TN,1506439418000.0,10016242
93428882,La Vergne,La Vergne,1413921651000.0,36.01,-86.57,Gilbert Diaz,TN,1501638619000.0,10016242
184239245,Nashville,,1423315582000.0,36.17,-86.78,Gina Wilson ,TN,1423315582000.0,10016242
155383302,Nashville,,1411876806000.0,36.17,-86.78,GIRIJA SAHU,TN,1478639866000.0,10016242
199789219,Nashville,,1455561902000.0,36.13,-86.8,GL,TN,1481216115000.0,10016242
54477282,Nashville,,1413213358000.0,36.17,-86.78,Glenn Kersting,TN,1448150109000.0,10016242
205805469,Hermitage,,1464133758000.0,36.19,-86.6,Grace Kampa,TN,1464133758000.0,10016242
163524842,Nashville,Nashville,1410282494000.0,36.16,-86.79,Grace(Jie) Zhao,TN,1415734073000.0,10016242
42441402,Nashville,,1491579039000.0,36.13,-86.8,Grant Michael Yentzer,TN,1508537661000.0,10016242
163558932,Nashville,,1462744701000.0,36.17,-86.78,Grayson Miller,TN,1462744701000.0,10016242
13201995,Nashville,Alacant,1411438034000.0,36.06,-86.96,Greg,TN,1468352336000.0,10016242
121334792,Hendersonville,,1462979326000.0,36.32,-86.61,Greg Back,TN,1488561510000.0,10016242
187274782,Nashville,,1431528065000.0,36.13,-86.8,Greg Dick,TN,1457719855000.0,10016242
194059678,Nashville,,1494446945000.0,36.13,-86.8,Greg Dick,TN,1494446945000.0,10016242
71587482,Clarksville,,1408383647000.0,36.57,-87.39,Greg Johnson,TN,1408383647000.0,10016242
20619321,Nashville,,1501683314000.0,36.17,-86.79,Greg Lawrence,TN,1507742993000.0,10016242
186434292,Nashville,,1431379934000.0,36.18,-86.74,Greg Overman,TN,1462991118000.0,10016242
64730712,Franklin,Franklin,1404931541000.0,35.93,-86.81,Greg Wiley,TN,1505253008000.0,10016242
120327902,Nashville,,1384840960000.0,36.11,-86.86,Gregory Jones,TN,1504111316000.0,10016242
139811722,Nashville,,1490818382000.0,36.17,-86.78,Greta M.,TN,1508799904000.0,10016242
188549494,Nashville,,1434122558000.0,36.14,-86.8,gwen campbell,TN,1434122558000.0,10016242
198035194,Nashville,,1457535799000.0,36.17,-86.78,Hakan,TN,1465430266000.0,10016242
43237102,Nashville,Nashville,1500572092000.0,36.11,-86.86,Hameed Gifford,TN,1507851112000.0,10016242
208813129,Nashville,,1468252328000.0,36.17,-86.78,Hannah Hall,TN,1491834054000.0,10016242
212569310,Nashville,,1494512719000.0,36.21,-86.72,Hannah Hall,TN,1494512719000.0,10016242
189575087,Nashville,,1436227959000.0,36.18,-86.81,Hannah Smithmier,TN,1436227959000.0,10016242
208011554,Nashville,,1467161945000.0,36.17,-86.78,Hannah Swift,TN,1505264919000.0,10016242
73301462,Chicago,,1504205908000.0,41.88,-87.63,Hao Luo,IL,1506387344000.0,10016242
206997201,Nashville,Nashville,1465771694000.0,36.11,-86.86,Harding McCall,TN,1469546794000.0,10016242
182570644,Nashville,,1416152205000.0,36.11,-86.78,Harold Smith,TN,1426008897000.0,10016242
231008453,Nashville,,1506891608000.0,36.16,-86.79,Haroon,TN,1506891608000.0,10016242
188676883,Greenville,,1479699148000.0,34.8,-82.39,Harrison Stall,SC,1479699148000.0,10016242
53245432,Chattanooga,,1479157323000.0,35.05,-85.31,Harry Epstein,TN,1499452141000.0,10016242
203166000,Brentwood,,1460401059000.0,36.0,-86.79,Harry Zumwalt,TN,1494357595000.0,10016242
196618602,Nashville,,1451673363000.0,36.17,-86.78,Hasque (haskew),TN,1451673363000.0,10016242
191344924,Hermitage,,1439632167000.0,36.19,-86.6,Hassan,TN,1439632167000.0,10016242
235118255,Nashville,,1503966365000.0,36.17,-86.78,hawani,TN,1503966365000.0,10016242
219737978,Nashville,,1484160635000.0,36.11,-86.78,Haylee McLemore,TN,1484160635000.0,10016242
225176978,Nashville,,1491503557000.0,36.17,-86.78,Hayley Landsberg,TN,1499486143000.0,10016242
47263962,Chattanooga,Florence,1377740622000.0,35.05,-85.31,Heath Matlock,TN,1447134978000.0,10016242
138155742,Brentwood,,1402320349000.0,36.0,-86.79,Heather,TN,1428080315000.0,10016242
218816696,Nashville,,1482962756000.0,36.13,-86.8,Heather,TN,1507048554000.0,10016242
226518103,Nashville,,1497371893000.0,36.17,-86.78,Helana Nosratbakhsh,TN,1499830542000.0,10016242
13811636,Nashville,New York,1436205325000.0,36.13,-86.8,henry,TN,1499886406000.0,10016242
199371759,Nashville,,1473483270000.0,36.16,-86.79,Herdi Rahman,TN,1473893338000.0,10016242
224308745,Nashville,,1499800649000.0,36.17,-86.78,Hiatt C.,TN,1499895445000.0,10016242
11149110,Clarksville,Clarksville,1484958025000.0,36.53,-87.35,Hieu,TN,1484958025000.0,10016242
195137108,Fort Wayne,,1446745993000.0,41.07,-85.15,Hillary Wood,IN,1446745993000.0,10016242
191374437,Franklin,,1439695846000.0,35.92,-86.89,Holt,TN,1439695846000.0,10016242
199382699,Lithia Springs,,1454965514000.0,33.77,-84.64,Hugo N,GA,1459445975000.0,10016242
100316012,Nashville,,1378216620000.0,36.17,-86.78,Hung Le,TN,1433180697000.0,10016242
199560555,Nashville,,1484171905000.0,36.17,-86.78,Hunter G.,TN,1499896186000.0,10016242
10887958,Nashville,,1379478768000.0,36.17,-86.78,Hunter Heitzman,TN,1421256424000.0,10016242
222108546,Nashville,,1487196059000.0,36.07,-86.73,Hunter Wesson,TN,1487196059000.0,10016242
141199742,Nashville,Nashville,1466776811000.0,36.22,-86.77,iamtimb,TN,1507868354000.0,10016242
54437942,Murfreesboro,Spring Hill,1404745515000.0,35.78,-86.33,Ian Lee,TN,1467213750000.0,10016242
59543352,Nashville,,1469391182000.0,36.13,-86.8,Irene Popa,TN,1469391182000.0,10016242
208167160,Nashville,,1468453473000.0,36.16,-86.79,Isaac Summers,TN,1468453473000.0,10016242
206542079,Nashville,,1475251861000.0,36.17,-86.78,Isaac Weber,TN,1505250209000.0,10016242
218987890,Nashville,,1484008786000.0,36.1,-86.66,Isabel Ramos,TN,1498317757000.0,10016242
238290568,Nashville,,1507338273000.0,36.17,-86.79,J Snipes,TN,1507338273000.0,10016242
174572382,Hermitage,"Apple Valley, CA",1431912877000.0,36.19,-86.6,jaake,TN,1439438976000.0,10016242
127213442,Nashville,,1433960636000.0,36.17,-86.78,Jack,TN,1483314530000.0,10016242
148116362,Brentwood,,1400904262000.0,36.0,-86.79,Jack Dahms,TN,1412193892000.0,10016242
203457014,Fort Campbell,,1460822214000.0,36.65,-87.46,Jack Judy,KY,1460822214000.0,10016242
198793707,Nashville,,1463415657000.0,36.08,-86.72,Jack Mocherman,TN,1494939230000.0,10016242
141058002,Seattle,Seattle,1400106680000.0,47.67,-122.34,Jack Newton,WA,1504663687000.0,10016242
180350812,Nashville,,1420831408000.0,36.1,-86.66,Jackie ,TN,1470150990000.0,10016242
225172061,Hendersonville,Hendersonville,1498052043000.0,36.32,-86.61,Jackson Brownlee,TN,1498052043000.0,10016242
189596280,Nashville,,1436273576000.0,36.17,-86.78,Jackson West,TN,1441832559000.0,10016242
5300858,Hendersonville,,1470252294000.0,36.32,-86.61,Jacob,TN,1470252294000.0,10016242
208668691,Manchester,manchester,1484489155000.0,53.52,-2.18,Jacob Jaboc Jones,H2,1503399136000.0,10016242
183345433,Hermitage,,1420491354000.0,36.19,-86.6,Jacob Lewis,TN,1457571745000.0,10016242
91833452,Nashville,,1422028964000.0,36.18,-86.74,Jacob Margason,TN,1422028964000.0,10016242
11007702,Los Angeles,,1491364994000.0,33.99,-118.43,Jacob Nguyen,CA,1491364994000.0,10016242
198048244,Nashville,,1452696969000.0,36.17,-86.72,Jacob Paine,TN,1473900709000.0,10016242
195356498,Nashville,,1463446939000.0,36.17,-86.78,Jacob Smith,TN,1463446939000.0,10016242
103886472,Nashville,,1466010646000.0,36.17,-86.78,Jacob Stroop,TN,1466010646000.0,10016242
7915902,Nashville,Nashville,1501229312000.0,36.22,-86.77,Jacque Lewis,TN,1501229312000.0,10016242
21990171,Nashville,,1420572612000.0,36.17,-86.78,Jacques,TN,1420572612000.0,10016242
217253373,Los Angeles,,1486078825000.0,34.0,-118.42,Jagan Jai,CA,1486506006000.0,10016242
137180212,Nashville,,1459789050000.0,36.18,-86.74,Jahsh Philips,TN,1484959722000.0,10016242
201662544,Antioch,,1499806518000.0,36.04,-86.64,Jake,TN,1499890801000.0,10016242
154501142,North Charleston,,1446742431000.0,32.86,-79.99,Jake,SC,1446742431000.0,10016242
209492526,Nashville,,1469131128000.0,36.17,-86.78,jake,TN,1494857483000.0,10016242
191547646,Nashville,,1440021948000.0,36.15,-86.86,Jake,TN,1488995491000.0,10016242
184187036,Nashville,Nashville,1433545005000.0,36.14,-86.74,Jake Hare,TN,1444761323000.0,10016242
188124377,Smyrna,,1433256172000.0,35.97,-86.51,Jake McNabb,TN,1494878297000.0,10016242
227037978,Nashville,,1494035119000.0,36.17,-86.78,Jameka Echols,TN,1497401052000.0,10016242
126527912,Indianapolis,"Cookeville, TN",1452458679000.0,39.77,-86.16,james,IN,1491795050000.0,10016242
169671172,Nashville,,1410382143000.0,36.11,-86.86,James,TN,1410447795000.0,10016242
202028316,New York,,1459975717000.0,40.75,-73.99,James Briggs,NY,1459975717000.0,10016242
7712083,Nashville,,1470866011000.0,36.17,-86.78,James Fryman,TN,1470866011000.0,10016242
9370040,Franklin,"Elizabethton, TN",1487997176000.0,35.92,-86.89,James Grindstaff,TN,1487997176000.0,10016242
145544732,Nashville,,1399480376000.0,36.14,-86.81,James Leslie Miller,TN,1412614167000.0,10016242
186165686,Clarksville,,1429020245000.0,36.53,-87.35,James Logan,TN,1507646536000.0,10016242
232598647,Nashville,,1502223318000.0,36.18,-86.74,James Mitchell,TN,1506443789000.0,10016242
178026002,Nashville,,1493382176000.0,36.17,-86.78,James Mitchell,TN,1493382176000.0,10016242
129840872,Nashville,,1400089995000.0,36.16,-86.79,James Nix,TN,1415832406000.0,10016242
193188455,Nashville,,1443120898000.0,36.13,-86.8,James Pierce,TN,1443120898000.0,10016242
8025734,Nashville,,1496597381000.0,36.18,-86.74,James Pollard,TN,1496597381000.0,10016242
2606806,Nashville,,1462900610000.0,36.19,-86.8,James Porter,TN,1507573844000.0,10016242
200963976,Murfreesboro,,1457210470000.0,35.78,-86.33,JAMES RAY DAVENPORT JR,TN,1457210470000.0,10016242
210259913,Nashville,,1470156686000.0,36.16,-86.79,James Ridley,TN,1470838713000.0,10016242
211585840,Nashville,,1478988436000.0,36.17,-86.78,James Tonkin,TN,1498825654000.0,10016242
13348144,Nashville,,1479747126000.0,36.17,-86.78,James Wier,TN,1479747126000.0,10016242
177135382,Nashville,Clarksville,1463327292000.0,36.17,-86.78,James Winegar,TN,1506356654000.0,10016242
120856972,Nashville,,1399908687000.0,36.17,-86.78,Jamin Guy,TN,1399908687000.0,10016242
193562859,Nashville,Nashville,1459888585000.0,36.16,-86.79,Jamin Thornsberry,TN,1488941108000.0,10016242
216466935,Nashville,,1484870412000.0,36.17,-86.78,Janelle Zorvan,TN,1505319090000.0,10016242
128584752,Nashville,Nashville,1454194956000.0,36.18,-86.81,Janie,TN,1470764914000.0,10016242
222899804,Nashville,,1488302878000.0,36.17,-86.78,Jaquelin,TN,1489006769000.0,10016242
54083862,Nashville,,1396829562000.0,36.17,-86.72,Jared Bunting,TN,1449536353000.0,10016242
109241512,Nashville,"Nashville, TN",1457624570000.0,36.1,-86.66,Jared fazio,TN,1457624570000.0,10016242
217464856,Nashville,,1480454454000.0,36.17,-86.78,Jared Fuller,TN,1508426291000.0,10016242
123245352,Nashville,,1429577194000.0,36.15,-86.86,Jared Usrey,TN,1435589819000.0,10016242
59257952,Nashville,,1420848357000.0,36.17,-86.78,Jarrod Marshall,TN,1420848357000.0,10016242
45569562,Nashville,,1475618528000.0,36.17,-86.78,Jarvis Stubblefield,TN,1504130636000.0,10016242
135769462,Nashville,,1449678663000.0,36.13,-86.8,Jase,TN,1470834927000.0,10016242
14116864,Nashville,Nashville,1504538274000.0,36.15,-86.86,Jasmine Quach,TN,1507243616000.0,10016242
208440190,Nashville,Nashville,1467754413000.0,36.09,-86.82,Jason Bates,TN,1467754413000.0,10016242
183749151,Nashville,"Greeley, CO",1490895242000.0,36.17,-86.78,Jason Gonzales,TN,1490895242000.0,10016242
128944532,Nashville,,1390154189000.0,36.17,-86.78,Jason Greathouse,TN,1397052034000.0,10016242
207198134,Nashville,,1466040585000.0,36.11,-86.78,Jason Gresalfi,TN,1501814570000.0,10016242
52195632,Goodlettsville,,1389196818000.0,36.33,-86.74,Jason Orendorff,TN,1473768498000.0,10016242
119748402,Huntsville,Nashville,1384294999000.0,34.63,-86.65,Jason Pullias,AL,1418063480000.0,10016242
206340673,Murfreesboro,,1464896228000.0,35.87,-86.44,Jason R. Thompson,TN,1464896228000.0,10016242
234791945,Nashville,Nashville,1503584206000.0,36.13,-86.8,Jason Rial,TN,1503584206000.0,10016242
193063144,Brentwood,,1442881270000.0,36.0,-86.79,Jason Scott,TN,1452553497000.0,10016242
231553070,Nashville,,1499737746000.0,36.17,-86.78,Jason Smith,TN,1499737746000.0,10016242
188348961,Franklin,"Franklin, TN",1499216117000.0,35.92,-86.89,Jason Stickel,TN,1499216117000.0,10016242
9698215,Murfreesboro,"Murfreesboro, TN",1456936279000.0,35.82,-86.45,Jason Stiltner,TN,1478743468000.0,10016242
176797192,Nashville,"Columbia, MO",1412944972000.0,36.04,-86.77,Jason Struckhoff,TN,1453875339000.0,10016242
236392490,Murfreesboro,,1505311340000.0,35.87,-86.34,Jason Vines,TN,1507781220000.0,10016242
4611657,Nashville,Nashville,1452548187000.0,36.11,-86.86,Jason Weakley,TN,1504219200000.0,10016242
200446547,Franklin,,1456456647000.0,35.92,-86.89,Jay,TN,1459382522000.0,10016242
115662482,Nashville,Nashville,1416845377000.0,36.1,-86.66,Jay Maul,TN,1452729825000.0,10016242
82016612,Nashville,,1379040722000.0,36.09,-86.82,Jay Politzer,TN,1452726626000.0,10016242
191592131,Pulaski,,1441402973000.0,35.19,-87.03,Jay Raney,TN,1444702058000.0,10016242
14307382,Atlanta,,1473991280000.0,33.75,-84.55,jayaram raja,GA,1499573119000.0,10016242
232504138,Fort Campbell,,1500906064000.0,36.65,-87.46,Jayson Rich,KY,1500906064000.0,10016242
221181978,Chapmansboro,,1485983094000.0,36.37,-87.14,Jc Martinez,TN,1486594336000.0,10016242
110958642,Sydney,,1430319684000.0,-33.87,151.21,Jed Watson,,1446912057000.0,10016242
202854779,Springfield,,1468003484000.0,36.52,-86.87,Jeff,TN,1468003484000.0,10016242
180501142,Nashville,,1414515773000.0,36.13,-86.8,Jeff Bauer,TN,1441211894000.0,10016242
27997382,Nashville,,1378302533000.0,36.09,-86.82,Jeff Boshers,TN,1457108695000.0,10016242
8731661,Nashville,"Durham, NC",1439567042000.0,36.17,-86.79,Jeff Bowen,TN,1504464130000.0,10016242
76688702,Nashville,Nashville,1457557221000.0,36.08,-86.72,Jeff Byington,TN,1462903994000.0,10016242
7058133,Antioch,,1382383299000.0,36.04,-86.64,Jeff C,TN,1402070003000.0,10016242
10385355,Nashville,,1449074490000.0,36.09,-86.82,Jeff Lofvers,TN,1497383955000.0,10016242
136807652,Nashville,,1457371621000.0,36.13,-86.8,Jeff Norris,TN,1491833980000.0,10016242
188085355,Nashville,,1433180604000.0,36.13,-86.8,Jeff Siebach,TN,1436212656000.0,10016242
7562515,Nashville,Nashville,1397535779000.0,36.21,-86.72,Jeff Stansberry,TN,1412705439000.0,10016242
135733652,Ashland City,Pleasureville,1475364540000.0,36.28,-87.07,Jeffrey Druin,TN,1485741700000.0,10016242
233173947,Nashville,,1501730425000.0,36.07,-86.73,Jeffrey S,TN,1501730425000.0,10016242
228197030,Nashville,,1495555708000.0,36.17,-86.78,Jen Foltz,TN,1495555708000.0,10016242
9358849,Nashville,,1418782474000.0,36.13,-86.8,Jen Sears,TN,1493856685000.0,10016242
44323642,Nashville,,1378502271000.0,36.13,-86.8,Jen Solima,TN,1488324287000.0,10016242
69235212,Nashville,,1505339026000.0,36.17,-86.78,Jenna,TN,1505339026000.0,10016242
237587457,Nashville,,1506617072000.0,36.15,-86.86,Jenna Blas Solis,TN,1507317008000.0,10016242
100317162,Austin,Austin,1378823723000.0,30.24,-97.76,Jenna Kay Boucher,TX,1455297647000.0,10016242
8273538,Nashville,Nashville,1418251339000.0,36.11,-86.86,Jennifer ,TN,1507395899000.0,10016242
147818502,Murfreesboro,,1494006424000.0,35.87,-86.34,Jennifer Smith,TN,1494006424000.0,10016242
7811707,Old Hickory,,1420380872000.0,36.25,-86.63,Jenny,TN,1420380872000.0,10016242
192867227,Nashville,,1442868570000.0,36.17,-86.78,Jerad Clifford,TN,1442868570000.0,10016242
191750752,Nashville,,1440774105000.0,36.11,-86.86,Jeremiah,TN,1440774105000.0,10016242
12307860,Nashville,Chicago,1392561265000.0,36.15,-86.79,Jeremy,TN,1507857862000.0,10016242
11943876,Nashville,,1491336831000.0,36.08,-86.93,Jeremy Brennan,TN,1507761441000.0,10016242
197627926,Nashville,,1451929025000.0,36.11,-86.86,Jeremy C. Swain,TN,1468348843000.0,10016242
136871542,Nashville,,1439414684000.0,36.08,-86.72,Jeremy Davis,TN,1507646025000.0,10016242
116842472,Nashville,,1443508949000.0,36.17,-86.78,Jeremy Grondahl,TN,1489463532000.0,10016242
160755952,Nashville,"Oxnard, CA",1407629556000.0,36.21,-86.72,Jeremy Jones,TN,1438908661000.0,10016242
7714887,Memphis,Memphis,1378058793000.0,35.12,-89.9,Jeremy Kendall,TN,1378058793000.0,10016242
14486634,Nashville,"San Diego, CA",1451930985000.0,36.17,-86.78,Jeremy Landi,TN,1486500479000.0,10016242
38465932,Nashville,,1378214605000.0,36.18,-86.74,Jeremy McDuffie,TN,1428429536000.0,10016242
11840473,Brentwood,Brentwood,1459868226000.0,36.0,-86.79,Jeremy S,TN,1459868226000.0,10016242
212936502,Nashville,,1483484679000.0,36.08,-86.72,Jeremy Wink,TN,1494278290000.0,10016242
80388742,Nashville,,1460387136000.0,36.17,-86.78,Jerry Baker,TN,1502917544000.0,10016242
120002952,Nashville,,1488893173000.0,36.17,-86.78,Jerry Williams,TN,1488893173000.0,10016242
186040094,Nashville,,1452450573000.0,36.19,-86.8,Jessawynne,TN,1454427196000.0,10016242
206845121,Nashville,,1466514092000.0,36.17,-86.78,Jessica,TN,1466605425000.0,10016242
222906709,Nashville,,1502239214000.0,36.17,-86.78,Jessica,TN,1505266223000.0,10016242
144509602,Atlanta,Atlanta,1417645748000.0,33.93,-84.39,Jessica,GA,1417645748000.0,10016242
150157192,Nashville,,1422302238000.0,36.17,-86.72,Jessica Raines,TN,1428369219000.0,10016242
6482767,Nashville,,1488578877000.0,36.13,-86.8,Jessica Soberano,TN,1498829927000.0,10016242
238307094,Springfield,,1507357292000.0,36.52,-86.87,Jessica Whitman,TN,1507357292000.0,10016242
231513914,Nashville,,1499700212000.0,36.17,-86.78,Jessica Wood,TN,1506351027000.0,10016242
120761882,Smyrna,,1460088383000.0,35.97,-86.51,Jessica Wynn,TN,1494966196000.0,10016242
210769280,Nashville,,1470878473000.0,36.18,-86.74,jessicakilby,TN,1492602221000.0,10016242
222517314,Nashville,Nashville,1488890956000.0,36.09,-86.82,Jessie,TN,1504134019000.0,10016242
221963071,Knoxville,,1505341148000.0,35.86,-84.13,Jessie Wooten,TN,1506891819000.0,10016242
232100489,Nashville,,1500400752000.0,36.1,-86.66,Jillian Pichocki,TN,1507660575000.0,10016242
190622328,La Vergne,,1438219142000.0,36.01,-86.57,Jim Coons,TN,1438219142000.0,10016242
32214442,Hendersonville,Hendersonville,1378004324000.0,36.32,-86.61,Jim Fuqua,TN,1507660491000.0,10016242
12585301,Nashville,,1497273965000.0,36.13,-86.8,Jim O'Grady,TN,1507300960000.0,10016242
182042382,Nashville,,1415312372000.0,36.14,-86.74,Jim Stokely,TN,1415509515000.0,10016242
4470935,Nashville,,1433355520000.0,36.06,-86.96,Jimmy Baker,TN,1433355520000.0,10016242
189900217,Antioch,,1440565047000.0,36.04,-86.64,Jimmy T. Perry,TN,1484967572000.0,10016242
182372032,Nashville,,1504153603000.0,36.17,-86.78,Jiovanni,TN,1505319172000.0,10016242
217563086,Nashville,,1498753771000.0,36.17,-86.78,jlsnyder08,TN,1507298956000.0,10016242
239054804,Nashville,,1508196163000.0,36.17,-86.78,JM,TN,1508196163000.0,10016242
98387832,Nashville,,1420391601000.0,36.18,-86.74,Jo Brooks,TN,1420391601000.0,10016242
158793082,Madison,,1406597192000.0,36.26,-86.71,JoAnn Brooks,TN,1473391981000.0,10016242
187781527,Franklin,,1432583368000.0,35.99,-86.9,Jodie Spelman,TN,1432583368000.0,10016242
41619672,Nashville,,1423762270000.0,36.18,-86.74,Joe Byrne,TN,1423762270000.0,10016242
45107182,Nashville,,1378218321000.0,36.17,-86.78,Joe Cooper Wallace III,TN,1381327630000.0,10016242
163597802,Brentwood,,1415294423000.0,36.0,-86.79,Joe Falkenburg,TN,1468238975000.0,10016242
157045372,Charleston,,1467262590000.0,38.35,-81.63,Joe Hatcher,WV,1467262590000.0,10016242
200391814,Nashville,,1498553555000.0,36.16,-86.79,Joe Huang,TN,1504113483000.0,10016242
141329312,Nashville,,1397579737000.0,36.17,-86.78,Joe Kirkpatrick,TN,1397579737000.0,10016242
235501266,Nashville,,1504394926000.0,36.18,-86.74,Joe Luckey,TN,1504394926000.0,10016242
190827213,Las Vegas,,1438618669000.0,36.17,-115.12,Joe Masters,NV,1449639287000.0,10016242
14241608,Hendersonville,"Cashton, WI",1423320008000.0,36.32,-86.61,Joe Phillips,TN,1438112717000.0,10016242
225584777,Goodlettsville,,1492088956000.0,36.32,-86.72,Joe Reed,TN,1494419503000.0,10016242
76543142,Nashville,,1378007518000.0,36.13,-86.8,Joe Shepherd,TN,1507259852000.0,10016242
115363722,Nashville,,1440471682000.0,36.17,-86.72,Joe Williams,TN,1440471682000.0,10016242
141109792,Cookeville,Cookeville,1396940105000.0,36.2,-85.52,Joe Wilmoth II,TN,1438986959000.0,10016242
211177037,Nashville,,1472762210000.0,36.17,-86.78,Joe Zboch,TN,1473711535000.0,10016242
33016112,Buffalo,,1500040651000.0,42.9,-78.88,Joel,NY,1500040651000.0,10016242
148668942,Nashville,,1401222767000.0,36.17,-86.78,Joel C,TN,1401222767000.0,10016242
183437982,Nashville,,1420777320000.0,36.17,-86.78,Joel Harris,TN,1420777320000.0,10016242
88416822,Nashville,,1383602871000.0,36.18,-86.74,Joel Kronk,TN,1404872100000.0,10016242
189727798,Franklin,,1436531107000.0,35.99,-86.9,Joel Lawler,TN,1436531107000.0,10016242
217160398,Nashville,,1479910479000.0,36.17,-86.78,Joel Legg,TN,1506558954000.0,10016242
101691162,Chicago,Jacksonville Beach,1415505821000.0,41.89,-87.63,Joey Chamberlin,IL,1418150600000.0,10016242
111917572,Nashville,,1505341635000.0,36.16,-86.79,Joey Kirby ,TN,1505341635000.0,10016242
12578146,Nashville,,1394309585000.0,36.13,-86.8,Joey Krabacher,TN,1412465185000.0,10016242
57991062,Nashville,Nashville,1435269349000.0,36.18,-86.74,Joey LeGrand,TN,1488339157000.0,10016242
232252277,Nashville,,1500581801000.0,36.17,-86.78,joey_b,TN,1502215477000.0,10016242
192558134,Lebanon,,1447207244000.0,36.21,-86.29,Johan Stodberg,TN,1464921007000.0,10016242
9970757,Murfreesboro,Murfreesboro,1425045223000.0,35.87,-86.44,John,TN,1504123758000.0,10016242
229709880,Nashville,,1497464990000.0,36.17,-86.78,john,TN,1497464990000.0,10016242
114279782,Nashville,Doylestown,1478617793000.0,36.16,-86.79,John,TN,1483685571000.0,10016242
7333165,Charlottesville,,1418525431000.0,38.04,-78.52,John,VA,1499397714000.0,10016242
110725222,Joelton,,1456925881000.0,36.33,-86.91,John Adam Whittenburg,TN,1456925881000.0,10016242
205943029,Joelton,,1464329864000.0,36.33,-86.91,John Adam Whittenburg,TN,1464329864000.0,10016242
188295130,Nashville,,1433609920000.0,36.06,-86.96,John Batte,TN,1433609920000.0,10016242
83207472,Nashville,,1433528356000.0,36.18,-86.74,John Beck,TN,1433528356000.0,10016242
44321822,Nashville,,1378130428000.0,36.14,-86.74,John Boyle,TN,1438958158000.0,10016242
176357832,Nashville,,1412695177000.0,36.18,-86.74,John C,TN,1412695177000.0,10016242
186411167,Nashville,,1452273544000.0,36.22,-86.86,John Campbell,TN,1452273544000.0,10016242
97036102,Nashville,,1447044428000.0,36.17,-86.78,John Casey,TN,1455105955000.0,10016242
9381884,Nashville,,1457550381000.0,36.07,-86.73,John Clark,TN,1457621703000.0,10016242
18257861,Nashville,,1460420498000.0,36.17,-86.78,John Frum,TN,1460420498000.0,10016242
218411809,Nashville,,1482187581000.0,36.16,-86.79,John Gillespie,TN,1484177207000.0,10016242
86361582,Tempe,Tempe,1407869156000.0,33.37,-111.93,John Gould,AZ,1452222065000.0,10016242
212901249,Nashville,,1473817487000.0,36.17,-86.78,John Hamm,TN,1502292640000.0,10016242
76743532,Bangor,,1417664017000.0,44.81,-68.78,John Harris,ME,1495492827000.0,10016242
180722412,Gallatin,Gallatin,1414609236000.0,36.39,-86.45,John Henderson,TN,1486692864000.0,10016242
151654022,Nashville,,1402848896000.0,36.14,-86.74,John Henderson,TN,1405468434000.0,10016242
205958098,Nashville,,1464358149000.0,36.08,-86.72,John Henry Green Jr.,TN,1497568692000.0,10016242
13378356,Nashville,Nashville,1409786226000.0,36.15,-86.86,John Hieks Paul IV,TN,1470172843000.0,10016242
4983053,Murfreesboro,"Murfreesboro, TN",1402466298000.0,35.87,-86.44,John Ingram,TN,1502844537000.0,10016242
182681972,Franklin,,1416771656000.0,35.92,-86.89,John Joseph,TN,1452741752000.0,10016242
82390132,Nashville,,1430503764000.0,36.18,-86.74,John Kellar,TN,1430503764000.0,10016242
185330434,Clarksville,,1470745282000.0,36.56,-87.41,John Kreischer,TN,1499399851000.0,10016242
125677922,Nashville,Nashville,1397690472000.0,36.17,-86.78,John Liu,TN,1497668750000.0,10016242
231213777,Nashville,,1499344508000.0,36.15,-86.86,John Love,TN,1507755447000.0,10016242
8380420,Hendersonville,Hendersonville,1470192061000.0,36.32,-86.61,John M Slick,TN,1475867707000.0,10016242
202629605,Nashville,,1494115491000.0,36.17,-86.72,John Mendez,TN,1505152464000.0,10016242
218437424,Nashville,,1484234248000.0,36.17,-86.78,John Michael McCasland,TN,1507657949000.0,10016242
182578041,Nashville,Oak Ridge,1428247762000.0,36.1,-86.66,John Quarles,TN,1449622528000.0,10016242
9540693,Nashville,,1418130501000.0,36.08,-86.72,John Self,TN,1504113096000.0,10016242
234580682,Franklin,,1503347100000.0,35.92,-86.89,John Simmons,TN,1503889006000.0,10016242
202203532,Nashville,,1459020494000.0,36.17,-86.78,John Still,TN,1459737498000.0,10016242
30776812,Nashville,,1445831789000.0,36.17,-86.78,John T Freeland Sr,TN,1445831789000.0,10016242
23956502,Nashville,,1378387118000.0,36.17,-86.78,John Wark,TN,1421271609000.0,10016242
110923962,Nashville,Nashville,1439905238000.0,36.13,-86.8,John Wilson,TN,1507674721000.0,10016242
222552028,Nashville,,1487806656000.0,36.17,-86.78,Johnathon Dewayne Davis,TN,1494004044000.0,10016242
224376384,Nashville,,1490375615000.0,36.17,-86.78,Johnie Waddell,TN,1494252210000.0,10016242
183038426,Nashville,Nashville,1495472781000.0,36.21,-86.72,Jon,TN,1507851021000.0,10016242
229861233,Goodlettsville,,1497665604000.0,36.32,-86.72,Jon,TN,1497665604000.0,10016242
126095692,Nashville,,1388701173000.0,36.14,-86.74,Jon Gautsch,TN,1431454584000.0,10016242
229630786,Nashville,,1497365368000.0,36.17,-86.78,Jon Huffaker,TN,1507757082000.0,10016242
79762332,Nashville,,1465163969000.0,36.18,-86.74,Jon Peck,TN,1499808154000.0,10016242
103279362,Franklin,,1477347253000.0,35.92,-86.89,Jon Staples,TN,1494410309000.0,10016242
9938431,Brentwood,,1410650909000.0,36.0,-86.79,Jon Walker,TN,1476025130000.0,10016242
223987872,Nashville,,1489846258000.0,36.18,-86.74,Jon Walker,TN,1507302146000.0,10016242
148159572,Hendersonville,,1435760985000.0,36.32,-86.61,Jonathan,TN,1498014201000.0,10016242
14092082,Nashville,,1389806533000.0,36.17,-86.78,Jonathan Boston,TN,1503073961000.0,10016242
198637939,Smyrna,,1453783520000.0,35.97,-86.51,Jonathan Burton,TN,1506384765000.0,10016242
14387362,Nashville,,1392161300000.0,36.17,-86.78,Jonathan Creamer,TN,1497919122000.0,10016242
208894316,Chattanooga,Chattanooga,1468349297000.0,35.05,-85.3,Jonathan Fuqua,TN,1502468066000.0,10016242
226826148,Nashville,,1493751329000.0,36.17,-86.78,Jonathan H,TN,1507684853000.0,10016242
203303961,Nashville,,1460588251000.0,36.11,-86.86,Jonathan Hinton,TN,1470773620000.0,10016242
143014022,Hendersonville,Bowling Green,1438134718000.0,36.32,-86.61,Jonathan Hughes,TN,1496847541000.0,10016242
186652002,Nashville,,1444161251000.0,36.16,-86.79,Jonathan Richardson,TN,1445363565000.0,10016242
182836485,Nashville,,1417680199000.0,36.17,-86.78,Jonathan Thomas,TN,1486091647000.0,10016242
9411922,Hendersonville,,1399996746000.0,36.32,-86.61,Jonathan Zumbrun,TN,1504138866000.0,10016242
130322162,Nashville,Nashville,1451428111000.0,36.11,-86.86,Jordan,TN,1502489259000.0,10016242
237768924,Nashville,,1506774589000.0,36.17,-86.78,Jordan Castelloe,TN,1507492544000.0,10016242
239177900,Nashville,,1508340337000.0,36.08,-86.72,Jordan D,TN,1508340337000.0,10016242
235770901,Nashville,,1504674437000.0,36.09,-86.82,Jordan Everson,TN,1504674437000.0,10016242
219589117,Nashville,,1498753773000.0,36.17,-86.78,Jordan Gregory,TN,1505154963000.0,10016242
194537047,Brentwood,,1478718014000.0,36.0,-86.79,Jordan McArdle,TN,1478718014000.0,10016242
44882152,Nashville,Nashville,1483500822000.0,36.18,-86.74,Jordan Nelson,TN,1495334029000.0,10016242
183612925,Hendersonville,,1421362549000.0,36.32,-86.61,Jordan S.,TN,1421362549000.0,10016242
183490046,Nashville,"Decatur, AL",1420962574000.0,36.17,-86.78,Jordan Thompson,TN,1420962574000.0,10016242
189603052,Nashville,,1436285211000.0,36.17,-86.78,Jose,TN,1436285211000.0,10016242
132809532,Lebanon,,1479712529000.0,36.21,-86.31,Jose,TN,1504889292000.0,10016242
141817852,Nashville,,1414597105000.0,36.17,-86.78,Jose Garcia,TN,1422995188000.0,10016242
110489102,Nashville,,1427391076000.0,36.17,-86.78,Joseph Banta,TN,1507758006000.0,10016242
233021854,Franklin,,1501545126000.0,35.92,-86.89,Joseph Biggert,TN,1502216870000.0,10016242
190834875,San Francisco,San Francisco,1452548040000.0,37.78,-122.42,Joseph Ensminger,CA,1452728329000.0,10016242
186924291,Nashville,,1430762749000.0,36.06,-86.96,Joseph Jarin,TN,1430762749000.0,10016242
221381045,Nashville,,1486226800000.0,36.16,-86.79,Joseph Steimle,TN,1486226800000.0,10016242
212596944,Nashville,,1473427515000.0,36.17,-86.78,Joseph Tatarczuk,TN,1499630755000.0,10016242
71854632,Franklin,,1413159404000.0,35.92,-86.89,Joseph Wichman,TN,1503089516000.0,10016242
204901926,Nashville,,1462981528000.0,36.21,-86.72,JosephKane,TN,1470359594000.0,10016242
199612482,Spring Hill,,1473177235000.0,35.76,-86.88,Josh,TN,1473710125000.0,10016242
14010600,Nashville,"Palo Alto, CA",1466028640000.0,36.11,-86.78,Josh,TN,1466028640000.0,10016242
100363272,New York,,1487364844000.0,40.75,-73.99,Josh,NY,1491835847000.0,10016242
178842652,Nashville,,1425326039000.0,36.15,-86.86,Josh Arnold,TN,1425326039000.0,10016242
162548412,Mayfield,,1408547130000.0,36.74,-88.64,Josh Clifford,KY,1408547130000.0,10016242
188971114,Nashville,,1434985535000.0,36.15,-86.79,Josh Cypher,TN,1505919379000.0,10016242
231851315,Nashville,,1500088526000.0,36.17,-86.78,Josh Gallardo,TN,1506383295000.0,10016242
34821002,Nolensville,Nolensville,1406816713000.0,35.94,-86.67,Josh Kersey,TN,1406816713000.0,10016242
114615372,Brentwood,,1477769243000.0,36.0,-86.79,Josh Kewley,TN,1477769243000.0,10016242
197424987,Antioch,Antioch,1455054875000.0,36.04,-86.64,Josh Kilgore,TN,1499797251000.0,10016242
216782583,Nashville,,1486484926000.0,36.15,-86.86,Josh Lee,TN,1507501226000.0,10016242
10528028,Nashville,,1412806399000.0,36.08,-86.72,Josh Lloyd,TN,1507658258000.0,10016242
209381189,Nashville,,1468982424000.0,36.17,-86.78,Josh Mac,TN,1489537052000.0,10016242
213316068,Nashville,,1474351143000.0,36.15,-86.86,Josh McCluey,TN,1486568355000.0,10016242
19833471,Nashville,,1441386081000.0,36.14,-86.74,Josh Mock,TN,1441386081000.0,10016242
40202402,Nashville,,1399063073000.0,36.17,-86.78,Josh Murphy,TN,1502299452000.0,10016242
233650311,Hendersonville,,1502285340000.0,36.32,-86.61,Josh O'Rourke,TN,1506650352000.0,10016242
220289486,Nashville,,1490207503000.0,36.17,-86.78,Josh White,TN,1507911585000.0,10016242
197999600,Hermitage,,1452607594000.0,36.19,-86.6,Josh Wiens,TN,1452736477000.0,10016242
235412444,Nashville,,1504291351000.0,36.17,-86.78,Josh Wilkerson,TN,1504291351000.0,10016242
13376073,Brentwood,,1395366481000.0,36.0,-86.79,Joshua,TN,1426095907000.0,10016242
4735211,Nashville,Nashville,1434502585000.0,36.15,-86.86,Joshua Aronson,TN,1454024969000.0,10016242
217409782,Brentwood,,1480367130000.0,36.0,-86.79,Joshua Atkins,TN,1480475204000.0,10016242
226571338,Gallatin,,1493401678000.0,36.39,-86.45,Joshua Michael Sweatt,TN,1493401678000.0,10016242
230423216,Nashville,,1498363755000.0,36.17,-86.78,Joshua Puckett,TN,1505261833000.0,10016242
217831664,Nashville,,1481078038000.0,36.17,-86.78,Joshua Sonnenburg,TN,1496245254000.0,10016242
19928261,Franklin,Wolcottville,1393025013000.0,35.92,-86.89,Joshua Wingstrom,TN,1403118313000.0,10016242
7606161,Chattanooga,Bellingham,1421381664000.0,35.04,-85.31,Josiah Goff,TN,1484109807000.0,10016242
111589522,Nashville,,1404780923000.0,36.18,-86.74,Joy Pratt,TN,1423428618000.0,10016242
7533186,Nashville,127.0.0.1,1416455278000.0,36.11,-86.86,jro,TN,1416455278000.0,10016242
23540031,Mount Juliet,,1489653176000.0,36.22,-86.52,Juan Fernando Salazar,TN,1489653176000.0,10016242
157248622,Nashville,,1421467137000.0,36.16,-86.79,Juan Job,TN,1493692624000.0,10016242
190213084,Nashville,,1486403000000.0,36.06,-86.96,Jufe Brown-Tsai,TN,1507912907000.0,10016242
229572913,Nashville,,1497293603000.0,36.17,-86.78,Jules Sepulveda,TN,1497293603000.0,10016242
12573596,Nashville,California,1439215623000.0,36.21,-86.72,Juli,TN,1460409606000.0,10016242
217872107,Nashville,"Franklin, TN",1493662771000.0,36.17,-86.78,Julia Allen,TN,1494336086000.0,10016242
222234780,Nashville,,1487373029000.0,36.16,-86.79,Julia Brock,TN,1487373029000.0,10016242
219809048,Nashville,,1486763826000.0,36.17,-86.78,Julia Kim-Chung,TN,1486763826000.0,10016242
13783999,Nashville,,1485293553000.0,36.15,-86.86,Julian Bankston,TN,1485293553000.0,10016242
190324456,Nashville,,1437695548000.0,36.15,-86.86,Julian Samaroo,TN,1437695548000.0,10016242
9713320,Nashville,Nashville,1437796059000.0,36.21,-86.72,Julie,TN,1452638688000.0,10016242
187041131,Nashville,,1431013861000.0,36.15,-86.86,Julie Dennie,TN,1431013861000.0,10016242
189577911,Nashville,,1436232692000.0,36.22,-86.77,Julien,TN,1468449823000.0,10016242
221934301,Nashville,,1503687093000.0,36.11,-86.86,Juliet Sepulveda,TN,1507658779000.0,10016242
8800430,Nashville,,1415294896000.0,36.15,-86.86,June,TN,1415641269000.0,10016242
200612671,Murfreesboro,,1456709021000.0,35.82,-86.45,Junie George,TN,1458052426000.0,10016242
212036567,Nashville,,1472666193000.0,36.17,-86.78,Justin,TN,1472666193000.0,10016242
194282886,Nashville,,1445380829000.0,36.17,-86.78,Justin Adams,TN,1468435966000.0,10016242
221374087,Spring Hill,Nashville,1486218827000.0,35.76,-86.88,Justin Barr,TN,1486224757000.0,10016242
216332251,Provo,,1479231939000.0,40.26,-111.62,Justin Billings,UT,1479231939000.0,10016242
222029540,Nashville,,1487088459000.0,36.17,-86.78,Justin Cole,TN,1487088459000.0,10016242
184528547,Alsip,,1424220796000.0,41.67,-87.74,Justin Cox,IL,1424220796000.0,10016242
188079507,Ashland City,,1447192118000.0,36.28,-87.07,Justin Hensley,TN,1447265887000.0,10016242
135113782,Franklin,,1410211354000.0,35.92,-86.89,Justin Hoover,TN,1507749159000.0,10016242
73151432,Murfreesboro,,1463173996000.0,35.82,-86.45,Justin Leggett,TN,1506431278000.0,10016242
177418312,Hermitage,,1425183446000.0,36.19,-86.6,Justin M,TN,1507813493000.0,10016242
204562654,Nashville,,1462894561000.0,36.17,-86.78,Justin Maurer,TN,1462894561000.0,10016242
12021249,Nashville,"Lexington, Ky",1379647942000.0,36.18,-86.74,Justin Morris,TN,1379647942000.0,10016242
220722170,Nashville,,1485395074000.0,36.08,-86.72,Justin Murphy,TN,1489015102000.0,10016242
6079178,Nashville,,1415777279000.0,36.18,-86.74,Justin Seiter,TN,1486064702000.0,10016242
219177536,Nashville,,1483466642000.0,36.17,-86.72,Justin Short,TN,1484148351000.0,10016242
128149612,Nashville,,1405957923000.0,36.13,-86.8,Justin Tannenbaum,TN,1425397756000.0,10016242
162731242,Nashville,,1415651696000.0,36.09,-86.82,JW,TN,1488324858000.0,10016242
156308662,Smartt,,1441898623000.0,35.65,-85.83,Kadeem Pardue,TN,1441898623000.0,10016242
1164000,Nashville,Nashville,1488496470000.0,36.08,-86.72,Kae,TN,1507855893000.0,10016242
170850032,Nashville,,1452713719000.0,36.09,-86.82,Kaleab Tesfaye,TN,1477689023000.0,10016242
182962168,Hermitage,,1432189707000.0,36.19,-86.6,Kali,TN,1432189707000.0,10016242
129810402,Culver City,,1423079616000.0,34.0,-118.39,Kanchana,CA,1483813774000.0,10016242
197183245,Nashville,"Columbia, TN",1450921911000.0,36.17,-86.78,Kanesha Patterson,TN,1450921911000.0,10016242
200487104,Nashville,Nashville,1456519330000.0,36.17,-86.78,Kanesha Patterson,TN,1506302508000.0,10016242
184894632,Nashville,,1427089724000.0,36.17,-86.78,Kar Martirosyan,TN,1427089724000.0,10016242
191106824,Nashville,,1475677635000.0,36.17,-86.78,Kara Fulgum,TN,1504796516000.0,10016242
222543963,Nashville,,1487797281000.0,36.18,-86.81,Kareem Nicholas,TN,1491532119000.0,10016242
192315664,Antioch,"Memphis, TN",1441501845000.0,36.04,-86.64,Karl Lashun Dean Jr,TN,1441501845000.0,10016242
20862561,Houston,"Bangkok, Thailand",1389200286000.0,29.76,-95.36,Karlkim Suwanmongkol,TX,1456955102000.0,10016242
60195472,Nashville,Nashville,1487041368000.0,36.08,-86.72,Karthik Kornalies,TN,1499954626000.0,10016242
230384752,Nashville,,1498319030000.0,36.17,-86.78,Karuna Gujar,TN,1498319030000.0,10016242
208569099,Nashville,,1473729234000.0,36.17,-86.78,Kassie Briggs,TN,1506429977000.0,10016242
40152352,Nashville,,1460584600000.0,36.09,-86.82,Kate Brady,TN,1484074995000.0,10016242
195665672,Nashville,,1447716841000.0,36.17,-86.78,kate brock,TN,1452742089000.0,10016242
237885987,Nashville,,1506903723000.0,36.17,-86.79,Kate Jablonski,TN,1506903723000.0,10016242
194426354,Nashville,,1453426174000.0,36.11,-86.86,Kate Lovett,TN,1486314031000.0,10016242
224815299,Nashville,,1490985502000.0,36.17,-86.78,Kathleen Allen,TN,1497558416000.0,10016242
9162674,Nashville,,1503372581000.0,36.15,-86.85,Kathy,TN,1503372581000.0,10016242
114892552,Nashville,,1381328113000.0,36.17,-86.78,Katie Miller,TN,1504831337000.0,10016242
197657497,Hendersonville,Corbin,1451974100000.0,36.32,-86.61,Katlyn Spears,TN,1451974100000.0,10016242
191230187,Nashville,,1439400420000.0,36.18,-86.74,Katrina McPeters,TN,1439400420000.0,10016242
81217232,Nashville,,1422295019000.0,36.11,-86.78,Katy,TN,1504139755000.0,10016242
209835346,Antioch,,1483497006000.0,36.17,-86.88,Katy,TN,1486594145000.0,10016242
135900812,Nashville,Nashville,1406918436000.0,36.18,-86.81,Katy Campen,TN,1452719267000.0,10016242
183783648,Nashville,Nashville,1436816372000.0,36.21,-86.72,Katye,TN,1475801621000.0,10016242
219201662,Murfreesboro,,1483487214000.0,35.87,-86.44,Kayla Brewer,TN,1494432040000.0,10016242
155195012,Nashville,"Vicksburg, MS",1407966671000.0,36.17,-86.72,Kayla Lyn Jones,TN,1423694809000.0,10016242
197628314,Nashville,,1451929452000.0,36.08,-86.72,Kaylee Cummings,TN,1468441475000.0,10016242
190675248,Nashville,,1439085036000.0,36.13,-86.8,Kazadi Kazadi,TN,1497367004000.0,10016242
108595722,Antioch,,1493822852000.0,36.17,-86.88,Keegan Thompson,TN,1498753813000.0,10016242
38605482,Nashville,,1380329114000.0,36.18,-86.74,Keith Beckman,TN,1507252119000.0,10016242
30145882,Nashville,,1459792089000.0,36.17,-86.78,Keith Bradley,TN,1467985464000.0,10016242
218976270,Nashville,,1483219561000.0,36.17,-86.78,Keith C.,TN,1483219561000.0,10016242
185899186,Nashville,,1428338105000.0,36.17,-86.72,Keith Fitzpatrick,TN,1428338105000.0,10016242
13822174,Nashville,,1411148895000.0,36.18,-86.74,keith johnson,TN,1428069320000.0,10016242
194807880,Franklin,,1484345531000.0,35.92,-86.89,Keith Tennant,TN,1484345531000.0,10016242
133860272,Nashville,Nashville,1396918803000.0,36.18,-86.81,Kelley,TN,1410357922000.0,10016242
193286730,Nashville,,1443310314000.0,36.14,-86.74,Kellie McKinney,TN,1443310314000.0,10016242
193863309,Nashville,,1444401111000.0,36.17,-86.72,Kelly C,TN,1455213930000.0,10016242
217768606,Austin,Perth,1481222774000.0,30.22,-97.75,Kelly Clemons,TX,1491957078000.0,10016242
216673978,Brentwood,Franklin,1491402034000.0,36.0,-86.79,Kelly Parsons,TN,1491402034000.0,10016242
226762059,Nashville,,1495644124000.0,36.17,-86.78,Kelly Parsons,TN,1496429250000.0,10016242
41993192,Nashville,"Grosse Pointe, MI",1418082373000.0,36.08,-86.72,Kemuel,TN,1491502016000.0,10016242
216748395,Nashville,,1479248966000.0,36.13,-86.8,Ken Moini,TN,1479248966000.0,10016242
224645976,Nashville,,1490741454000.0,36.17,-86.79,Kendall Riley,TN,1490741454000.0,10016242
184362653,Nashville,,1423691963000.0,36.11,-86.78,Kennedy,TN,1424101457000.0,10016242
210561881,Nashville,,1470594432000.0,36.17,-86.78,Kenneth,TN,1470594432000.0,10016242
12948868,Tel Aviv-Yafo,,1407802296000.0,32.07,34.77,Kenneth Thomas,,1423884090000.0,10016242
12522497,Nashville,,1392234939000.0,36.17,-86.78,Kenneth White,TN,1507679336000.0,10016242
225709218,Nashville,,1492231104000.0,36.17,-86.78,Kenny Hearn,TN,1492231104000.0,10016242
30227062,Nashville,Nashville,1463229284000.0,36.15,-86.86,Kenny Skaggs,TN,1463229284000.0,10016242
70607262,White House,,1457560713000.0,36.48,-86.69,Kent,TN,1505314864000.0,10016242
9864944,Nashville,Gallatin,1508630033000.0,36.16,-86.79,Kent McArt,TN,1508630033000.0,10016242
184608835,Franklin,,1489015545000.0,35.99,-86.9,Kenzie,TN,1489015545000.0,10016242
625050,Franklin,Chattanooga,1384284120000.0,35.93,-86.81,Kerry Wilson,TN,1457567352000.0,10016242
182982296,Washington,,1450494700000.0,38.91,-77.02,Kevin,DC,1450538216000.0,10016242
200625715,Nashville,,1456712271000.0,36.17,-86.78,Kevin,TN,1460384203000.0,10016242
12951305,Nashville,Cleveland,1443324162000.0,36.08,-86.72,Kevin,TN,1491849752000.0,10016242
142444202,Nashville,,1428414965000.0,36.17,-86.78,Kevin Cox,TN,1507032759000.0,10016242
82968792,Franklin,Franklin,1389195740000.0,35.92,-86.89,Kevin Crawley,TN,1501895868000.0,10016242
13368161,Franklin,"Kenmare, ND",1419694318000.0,35.92,-86.89,Kevin Gustavson,TN,1435969771000.0,10016242
12074359,Nashville,Nashville,1404176602000.0,36.08,-86.72,Kevin Harvey,TN,1456261069000.0,10016242
184365656,Nashville,,1423699438000.0,36.11,-86.78,Kevin Huber,TN,1478627189000.0,10016242
192814642,Nashville,,1442422340000.0,36.15,-86.86,Kevin Kieliszek,TN,1462904939000.0,10016242
229770987,Nashville,,1497550644000.0,36.22,-86.77,Kevin Leach,TN,1502245685000.0,10016242
187353081,Franklin,,1463346084000.0,35.92,-86.89,Kevin Marker,TN,1470836288000.0,10016242
109741342,Nashville,"Chicago, IL",1378306534000.0,36.17,-86.78,Kevin Moritz,TN,1470848379000.0,10016242
182718557,Lyon,Lyon,1428337522000.0,45.76,4.83,Kevin Murphy,,1473712891000.0,10016242
215773393,Nashville,,1477717280000.0,36.15,-86.8,Kevin Normandeau,TN,1477717280000.0,10016242
10083866,Nashville,,1389197100000.0,36.18,-86.74,Kevin Old,TN,1478636568000.0,10016242
223169992,Lebanon,,1490294808000.0,36.21,-86.31,Kevin Suarez,TN,1490465489000.0,10016242
11421826,Franklin,Franklin,1452829408000.0,35.93,-86.81,kevin.reiss,TN,1473907443000.0,10016242
169483942,Nashville,,1416937856000.0,36.17,-86.78,Kim,TN,1417443801000.0,10016242
3016909,Nashville,Nashville,1446240209000.0,36.15,-86.86,Kim L.,TN,1447343778000.0,10016242
199396025,Nashville,Nashville,1470683675000.0,36.08,-86.72,Kinman Covey,TN,1470683675000.0,10016242
49863072,Hermitage,,1476232336000.0,36.19,-86.6,kiran,TN,1490140032000.0,10016242
49229592,Murfreesboro,"Murfreesboro, TN",1443712725000.0,35.87,-86.34,Kirk Hooten,TN,1452625316000.0,10016242
197737828,Nashville,,1452125292000.0,36.17,-86.72,Kirk Walker Graves,TN,1486656613000.0,10016242
217394664,Nashville,,1480345330000.0,36.17,-86.78,KirkDev,TN,1484170792000.0,10016242
205535019,Antioch,"Nashville, TN",1463885738000.0,36.17,-86.88,Kirolos Shahat,TN,1465265470000.0,10016242
198015222,Nashville,,1452631753000.0,36.17,-86.78,Kishor,TN,1452731644000.0,10016242
194252152,Nashville,,1445120510000.0,36.17,-86.79,kopper fritz,TN,1445120510000.0,10016242
142789332,Knoxville,,1449515765000.0,36.03,-83.89,Kris Brown,TN,1467755326000.0,10016242
186624664,Bell Buckle,,1430092121000.0,35.6,-86.41,Kris Hammons,TN,1436218847000.0,10016242
183867796,Nashville,,1422146635000.0,36.17,-86.78,Kris Plunkett,TN,1428065232000.0,10016242
130503622,Nashville,"Shelbyville, TN",1468442646000.0,36.16,-86.79,Kris Ray,TN,1468595854000.0,10016242
45243382,Brentwood,Nashville,1505224948000.0,36.0,-86.79,Kris Tyrrell,TN,1505224948000.0,10016242
185932189,Nashville,,1478134108000.0,36.17,-86.78,Kris Unnikannan,TN,1484854541000.0,10016242
206735625,Nashville,,1465422403000.0,36.08,-86.71,Krish,TN,1468359313000.0,10016242
196349830,Franklin,,1449081623000.0,35.92,-86.89,Krish Vsv,TN,1449081623000.0,10016242
216682825,Nashville,,1479153951000.0,36.17,-86.78,krishnapriya sivasubramanian,TN,1488911010000.0,10016242
182662859,Murfreesboro,,1418773358000.0,35.87,-86.34,Kristen Brown,TN,1418773358000.0,10016242
18115651,Nashville,Ansonia,1508204743000.0,36.18,-86.74,Kristen Norris,TN,1508204743000.0,10016242
198164368,Nashville,,1452913217000.0,36.15,-86.79,Kristi Reid,TN,1452913217000.0,10016242
12786520,Nashville,Sacramento,1399988954000.0,36.14,-86.74,Kristian,TN,1457379354000.0,10016242
202311485,Mount Juliet,,1459180196000.0,36.22,-86.52,Kristy McGee,TN,1459180196000.0,10016242
116172212,Nashville,,1435063831000.0,36.13,-86.8,Kurt Aschliman,TN,1468509783000.0,10016242
145293282,San Francisco,San Francisco,1414685108000.0,37.76,-122.48,Kurt Noble,CA,1414685108000.0,10016242
198063541,Nashville,,1452720988000.0,36.17,-86.78,KW,TN,1475089586000.0,10016242
150021832,Nashville,Nashville,1488550659000.0,36.08,-86.72,Kyle Ducharme,TN,1488831003000.0,10016242
204818767,Nashville,,1462803517000.0,36.09,-86.82,Kyle Dugger,TN,1462975381000.0,10016242
225547990,Nashville,,1492029088000.0,36.17,-86.78,Kyle Kellums,TN,1492029088000.0,10016242
105601402,Nashville,Nashville,1382450768000.0,36.11,-86.86,Kyle Mallory,TN,1433943234000.0,10016242
173556522,Nashville,"Boston, MA",1478032547000.0,36.18,-86.74,Kyle McCarthy,TN,1478032547000.0,10016242
198531860,Nashville,,1485550792000.0,36.11,-86.78,Kyle McCollom,TN,1485550792000.0,10016242
140239382,Nashville,,1396454731000.0,36.17,-86.78,Kyle McCormick,TN,1475842940000.0,10016242
238153371,Hermitage,,1507204220000.0,36.19,-86.6,Kyle Nelson,TN,1507204220000.0,10016242
184218072,Nashville,,1430199610000.0,36.11,-86.86,Kyle Turco,TN,1484171773000.0,10016242
210263467,Nashville,,1470226792000.0,36.11,-86.78,Kyle Welch,TN,1508276026000.0,10016242
238437825,Nashville,,1507679572000.0,36.1,-86.66,LaKeshia,TN,1507679572000.0,10016242
14958671,Los Angeles,,1461731786000.0,34.05,-118.24,Lance Lakey,CA,1463013314000.0,10016242
49563022,Nashville,,1421181362000.0,36.17,-86.78,Lance Roggendorff,TN,1439324341000.0,10016242
195018326,Nashville,,1446510570000.0,36.11,-86.78,LandoB,TN,1470662068000.0,10016242
5266266,San Diego,San Diego,1378751936000.0,32.8,-117.03,Landon,CA,1499905252000.0,10016242
193220585,Oakland,,1462546529000.0,35.21,-89.54,Landon Clay,TN,1462546529000.0,10016242
143696682,Antioch,,1405127841000.0,36.04,-86.64,Laniqua Williams,TN,1473900173000.0,10016242
75125072,Chicago,,1378868771000.0,41.88,-87.65,Lars Söderkvist,IL,1426008820000.0,10016242
3112105,Nashville, Nashville,1433897656000.0,36.11,-86.86,Laura,TN,1475448254000.0,10016242
187956901,Nashville,,1432923356000.0,36.13,-86.8,Laura Ann,TN,1432923356000.0,10016242
80261822,Nashville,,1378729420000.0,36.17,-86.78,Laura Meyerhoff,TN,1378729420000.0,10016242
138206362,Nashville,,1395339072000.0,36.17,-86.78,Lauren,TN,1395339072000.0,10016242
192957263,Nashville,,1442692640000.0,36.16,-86.79,Lauren,TN,1494450107000.0,10016242
3731762,Nashville,,1378218138000.0,36.1,-86.66,Lauren,TN,1468444670000.0,10016242
232919223,Nashville,,1501423690000.0,36.22,-86.86,Lauren Ash,TN,1501423690000.0,10016242
31289192,Nashville,Tampa,1467758875000.0,36.17,-86.78,Lauren Kight,TN,1468281712000.0,10016242
118556542,Nashville,,1464724572000.0,36.17,-86.78,Lauren Rouse,TN,1506436559000.0,10016242
176164622,Nashville,,1414092526000.0,36.17,-86.78,Lawren Lelko,TN,1484157911000.0,10016242
50540702,Nashville,,1483485123000.0,36.17,-86.78,Lea Camara,TN,1491939357000.0,10016242
238881232,Nashville,,1508003704000.0,36.17,-86.78,Leah,TN,1508003704000.0,10016242
219815596,Nashville,,1485271807000.0,36.08,-86.72,Leah Massey,TN,1486651517000.0,10016242
44899712,Nashville,,1379610948000.0,36.07,-86.73,Leah Stevens,TN,1392245076000.0,10016242
214042373,Nashville,,1475251064000.0,36.16,-86.79,Lee F,TN,1475251064000.0,10016242
191983122,Nashville,,1440866340000.0,36.11,-86.86,Lee Page,TN,1470798185000.0,10016242
203352101,Nashville,,1468363696000.0,36.13,-86.8,Leif E. Hetland,TN,1506964590000.0,10016242
195466745,Nashville,,1447338946000.0,36.17,-86.72,Leigh Anne Lewis,TN,1447338946000.0,10016242
6434457,Nashville,West Coast,1493210619000.0,36.06,-86.96,Leland Warren,TN,1497113511000.0,10016242
136015092,Nashville,"Moundville, Alabama",1485789538000.0,36.16,-86.79,Lena Mills,TN,1485789538000.0,10016242
134543412,Nashville,,1413252641000.0,36.16,-86.8,Leon Peck,TN,1436200010000.0,10016242
79532522,Seattle,"Nashville, TN",1378909794000.0,47.76,-122.29,Lewis Lea,WA,1443474121000.0,10016242
184109815,Nashville,,1433419450000.0,36.16,-86.79,Lexi Vernaglia,TN,1433419450000.0,10016242
92337482,Nashville,,1408050213000.0,36.08,-86.72,LH,TN,1408050213000.0,10016242
197597418,Nashville,,1451870504000.0,36.1,-86.66,Lidiexy Alonso,TN,1451870504000.0,10016242
223690505,Nashville,,1489422719000.0,36.13,-86.8,Lindsay Conlin,TN,1494355054000.0,10016242
191998409,Madison,,1440899527000.0,36.26,-86.71,Lindsey Maddox,TN,1463801916000.0,10016242
5809279,Nashville,,1438573637000.0,36.17,-86.78,Lisa,TN,1465183927000.0,10016242
3098530,Nashville,"Memphis, TN",1378069413000.0,36.08,-86.72,Lisa French,TN,1461875372000.0,10016242
118051712,Nashville,,1383246229000.0,36.17,-86.78,Lisa Montross,TN,1434388824000.0,10016242
186501532,Nashville,,1433768630000.0,36.18,-86.64,Logan Dougher,TN,1468441093000.0,10016242
187196820,Nashville,,1431367452000.0,36.08,-86.72,Logan Lowder,TN,1431367452000.0,10016242
198168191,Seattle,,1496752438000.0,47.6,-122.33,Logan Purdom,WA,1505175722000.0,10016242
119925422,Atlanta,,1444761818000.0,33.98,-84.33,Lola ,GA,1444761818000.0,10016242
223015434,Nashville,,1488469799000.0,36.16,-86.79,Lori Barratt,TN,1496943847000.0,10016242
102323422,Nashville,,1380151586000.0,36.13,-86.8,Lori McCurry,TN,1502042998000.0,10016242
230030576,Nashville,,1498680590000.0,36.16,-86.79,LP Poglitsch,TN,1498680590000.0,10016242
121431352,Brentwood,,1486687105000.0,36.0,-86.79,luay,TN,1505327770000.0,10016242
190085910,Nashville,Nashville,1489239300000.0,36.09,-86.82,Lucas Cummins,TN,1497496517000.0,10016242
229335733,Bowling Green,,1497337520000.0,37.02,-86.46,Lucas Gray,KY,1497337520000.0,10016242
185930713,Nashville,,1428416039000.0,36.18,-86.64,Lucas McDaniel,TN,1497024172000.0,10016242
191272189,Nashville,Nashville,1480691490000.0,36.11,-86.86,Lucas McLaughlin,TN,1507230531000.0,10016242
225412049,Nashville,,1506609442000.0,36.17,-86.78,Luis Chunga,TN,1506609442000.0,10016242
217220069,Nashville,,1483634748000.0,36.17,-86.78,Luis Lopez,TN,1495579072000.0,10016242
183750106,Nashville,,1421769600000.0,36.16,-86.79,Luke Lancaster,TN,1491838633000.0,10016242
5240158,Hendersonville,"Erie, PA",1423611258000.0,36.32,-86.61,Luke Sandell,TN,1507668575000.0,10016242
186497776,Nashville,,1429812130000.0,36.21,-86.72,Luke Tucker,TN,1429812130000.0,10016242
217856665,Nashville,,1483555236000.0,36.21,-86.72,Luke Woodward,TN,1506434963000.0,10016242
64429432,Brentwood,Nashville,1454023145000.0,36.0,-86.79,Lyle Reed,TN,1457123885000.0,10016242
186781261,Nashville,,1430434433000.0,36.18,-86.74,Lyssa,TN,1430434433000.0,10016242
200750517,Nashville,,1482283838000.0,36.16,-86.79,M Bri Wyatt,TN,1492879910000.0,10016242
225434498,Nashville,,1491872083000.0,36.17,-86.78,M. E. Augsburger,TN,1495315813000.0,10016242
202059088,Nashville,,1500388351000.0,36.17,-86.78,Madeline P.,TN,1502279670000.0,10016242
190007435,Nashville,,1437077340000.0,36.08,-86.72,Madhavrao,TN,1437077340000.0,10016242
210366603,Nashville,,1470315790000.0,36.17,-86.78,Madison,TN,1470315790000.0,10016242
239513469,Nashville,,1508722887000.0,36.09,-86.82,Madison Ray,TN,1508722887000.0,10016242
188972315,Nashville,,1434987320000.0,36.08,-86.72,Maeva Ralafi,TN,1506890097000.0,10016242
227587232,Nashville,,1508007402000.0,36.21,-86.72,mahi86,TN,1508007402000.0,10016242
200833778,Manchester,,1457018756000.0,35.47,-86.11,makeartnotsense,TN,1457018756000.0,10016242
220657623,Nashville,,1485314096000.0,36.17,-86.78,MakenzieMohon,TN,1485314096000.0,10016242
6303396,Lebanon,,1431402172000.0,36.21,-86.31,Malcolm Roberts,TN,1455052599000.0,10016242
213430547,Nashville,,1486494719000.0,36.14,-86.74,Mandy Arola,TN,1507564809000.0,10016242
184424121,Brentwood,Nashville,1429230944000.0,36.0,-86.79,Manoj,TN,1442432278000.0,10016242
81213252,Franklin,,1492324302000.0,35.96,-86.89,Manuel Izturriaga,TN,1492324302000.0,10016242
196617658,Murfreesboro,,1485995137000.0,35.78,-86.33,Marc Cruz Droz,TN,1494039879000.0,10016242
32419162,Franklin,,1418158872000.0,35.93,-86.81,Marc Sexton,TN,1507674085000.0,10016242
59367492,Nashville,,1494281724000.0,36.13,-86.8,Marcus,TN,1494451036000.0,10016242
211551704,Nashville,Palo Alto,1494369983000.0,36.15,-86.86,Marcus Gill,TN,1499970119000.0,10016242
236163083,Nashville,,1505087640000.0,36.07,-86.73,Marcus Jones,TN,1507760738000.0,10016242
192819105,Nashville,,1442428626000.0,36.15,-86.86,Marea Chatman,TN,1442428626000.0,10016242
3594431,Nashville,,1433852214000.0,36.17,-86.78,Maria del Pilar,TN,1433852214000.0,10016242
210189290,Nashville,,1470064954000.0,36.17,-86.78,Marian Rushdy,TN,1470766762000.0,10016242
110912252,Nashville,,1386535321000.0,36.17,-86.78,MaRisa Jackson,TN,1484164217000.0,10016242
235695658,Franklin,,1504605181000.0,35.93,-86.84,Marjorie Morris,TN,1504605181000.0,10016242
182626228,Brentwood,,1421430013000.0,36.0,-86.79,Mark,TN,1478791184000.0,10016242
226880138,Nashville,,1493824056000.0,36.17,-86.78,Mark Crockett,TN,1493824056000.0,10016242
207670855,Nashville,,1466698057000.0,36.09,-86.82,Mark Meadows,TN,1471090168000.0,10016242
186373448,Nashville,,1429550234000.0,36.08,-86.72,Mark Raasch,TN,1429550234000.0,10016242
44942272,Nashville,Nashville,1433073589000.0,36.17,-86.79,Mark Tune,TN,1461677448000.0,10016242
197630409,Madison,,1451932542000.0,36.26,-86.71,Mark Z,TN,1473901722000.0,10016242
193187765,Nashville,,1443119204000.0,36.17,-86.78,markeya dunn,TN,1443119204000.0,10016242
80212132,Nashville,,1423270207000.0,36.18,-86.81,Marshall Cottrell,TN,1454644202000.0,10016242
216301784,Nashville,,1478542009000.0,36.17,-86.78,Marshall Friskics-Warren,TN,1484497592000.0,10016242
230738598,Nashville,,1498751250000.0,36.17,-86.78,Marshall M Munoz,TN,1498751250000.0,10016242
191272888,Brentwood,,1439485360000.0,36.0,-86.79,Martin Cross,TN,1507687204000.0,10016242
199327908,Dallas,Nashville,1455042264000.0,32.79,-96.8,Martin Jones,TX,1455042264000.0,10016242
9524129,Nashville,Atlanta,1439319132000.0,36.17,-86.72,Mary Ellen Klein,TN,1508698513000.0,10016242
102863442,Franklin,"Whites Creek, TN",1436201641000.0,35.92,-86.89,Mary Kergosien,TN,1506031565000.0,10016242
32855522,Murfreesboro,Whippany,1478648924000.0,35.87,-86.44,Mary Rolandelli,TN,1478648924000.0,10016242
163173352,Nashville,Nashville,1454960078000.0,36.11,-86.86,Marybeth Snodgrass,TN,1468358855000.0,10016242
185870499,Nashville,Leitchfield,1460504745000.0,36.17,-86.72,Mason Embry,TN,1507638105000.0,10016242
194078775,Antioch,,1444790179000.0,36.04,-86.64,Mathew Ostrander,TN,1496452447000.0,10016242
154992672,Nashville,,1416190124000.0,36.08,-86.72,Matt,TN,1447157065000.0,10016242
239198051,Nashville,,1508359384000.0,36.13,-86.8,Matt,TN,1508359384000.0,10016242
210638960,Murfreesboro,,1473709532000.0,35.78,-86.33,Matt,TN,1473796758000.0,10016242
145880352,Nashville,,1399661044000.0,36.17,-86.78,Matt Brandon,TN,1400180482000.0,10016242
233656945,Nashville,,1502291555000.0,36.17,-86.78,Matt Brown,TN,1502291555000.0,10016242
52517432,Nashville,"Logan, West Virginia",1403817703000.0,36.17,-86.78,Matt Crum,TN,1473712085000.0,10016242
124205492,Nashville,"Dayton, OH",1393000097000.0,36.16,-86.79,Matt Eby,TN,1464916614000.0,10016242
187002184,Nashville,,1435056323000.0,36.17,-86.72,Matt Fili,TN,1459374444000.0,10016242
208430481,Nashville,,1467745011000.0,36.17,-86.78,Matt Hamil,TN,1508431494000.0,10016242
183636449,Nashville,,1423884123000.0,36.17,-86.78,Matt Honeycutt,TN,1507674285000.0,10016242
202286986,Madison,,1459139910000.0,36.26,-86.71,Matt hoots,TN,1459139910000.0,10016242
570581,Nashville,,1386304194000.0,36.17,-86.78,Matt Jordan,TN,1439383010000.0,10016242
157020682,Nashville,,1482078157000.0,36.17,-86.78,Matt Kasle,TN,1482078157000.0,10016242
182902759,Franklin,,1418082762000.0,35.93,-86.81,matt keef,TN,1464914693000.0,10016242
5900662,Nashville,"Nashville, TN",1467336485000.0,36.07,-86.78,Matt Kenigson,TN,1467410834000.0,10016242
132843362,Nashville,,1392183356000.0,36.17,-86.78,Matt Knicos,TN,1402543045000.0,10016242
203818557,Nashville,,1468290695000.0,36.22,-86.77,Matt Kraatz,TN,1491923413000.0,10016242
213152508,Nashville,,1474153358000.0,36.09,-86.82,Matt L,TN,1499818602000.0,10016242
234737179,Nashville,,1503518293000.0,36.17,-86.78,Matt Lummus,TN,1503518293000.0,10016242
204914631,Smyrna,"Smyrna, TN",1484248478000.0,35.97,-86.51,Matt McCord,TN,1507850994000.0,10016242
216096895,Nashville,,1478218821000.0,36.17,-86.78,Matt Nicholson,TN,1478392400000.0,10016242
12193669,San Francisco,San Francisco,1507024443000.0,37.78,-122.46,Matt Nish,CA,1507024443000.0,10016242
197813373,Birmingham,,1459970494000.0,33.52,-86.82,Matt Perrault,AL,1459970494000.0,10016242
186389338,Hermitage,,1429573347000.0,36.19,-86.6,Matt R,TN,1467897877000.0,10016242
84507482,Nashville,,1387511814000.0,36.21,-86.72,Matt Rubinstein,TN,1425602092000.0,10016242
6540851,Mount Juliet,Mount Juliet,1431899716000.0,36.22,-86.52,Matt Smith,TN,1444155894000.0,10016242
107598392,Nashville,,1379526824000.0,36.17,-86.78,Matt Spell,TN,1412569159000.0,10016242
30773872,Indianapolis,,1410544845000.0,39.77,-86.16,Matt Wren,IN,1410787630000.0,10016242
139451372,Nashville,,1410362401000.0,36.14,-86.74,Matt Zechini,TN,1418151907000.0,10016242
225175771,Nashville,,1491502159000.0,36.07,-86.73,Matthew Alsup,TN,1491502159000.0,10016242
170786152,Fairview,,1425606884000.0,35.97,-87.13,Matthew Bush,TN,1493823116000.0,10016242
238258965,Nashville,,1507309291000.0,36.17,-86.78,Matthew Marcus,TN,1507660549000.0,10016242
220421489,Nashville,,1487955172000.0,36.14,-86.74,Matthew McGarvey,TN,1491762293000.0,10016242
112168522,Louisville,,1446581534000.0,38.25,-85.78,Matthew Phillips,KY,1450222669000.0,10016242
185131044,Nashville,,1426010730000.0,36.17,-86.72,Matthew Reuther,TN,1426010730000.0,10016242
53677492,Franklin,Franklin,1505934367000.0,35.93,-86.81,Matthew Sciaretta,TN,1505934367000.0,10016242
199993939,Mount Juliet,,1455833788000.0,36.22,-86.52,Matthew Spann,TN,1455833788000.0,10016242
56277052,Nashville,Nashville,1473790118000.0,36.17,-86.79,Matthew Vance,TN,1483994255000.0,10016242
139332052,Nashville,,1401826783000.0,36.13,-86.8,Matthew William Lummus,TN,1460384660000.0,10016242
214899373,Nashville,,1488891455000.0,36.16,-86.77,Matti Gilmore,TN,1489764774000.0,10016242
231811338,Dickson,,1501513036000.0,36.08,-87.43,mattm,TN,1501513036000.0,10016242
87675622,Nashville,,1481121909000.0,36.17,-86.78,matty gilmore,TN,1481121909000.0,10016242
201502786,Nashville,,1492007685000.0,36.22,-86.77,Max,TN,1499805462000.0,10016242
220552969,Franklin,,1486231839000.0,35.92,-86.89,Max deGroot,TN,1486231839000.0,10016242
189973217,Nashville,,1444857683000.0,36.17,-86.78,Max Shenfield,TN,1497450626000.0,10016242
90430042,Nashville,,1428281433000.0,36.17,-86.78,Max Shenfield,TN,1428281433000.0,10016242
185930717,Nashville,"Murfreesboro, TN",1439480738000.0,36.17,-86.78,Max Trenkle,TN,1444627596000.0,10016242
63392582,Nashville,,1379947975000.0,36.18,-86.74,maxbeizer,TN,1486422158000.0,10016242
237619095,Nashville,,1506600598000.0,36.17,-86.78,McCauley Warren,TN,1506600598000.0,10016242
223378257,Nashville,,1494512764000.0,36.17,-86.78,Meaghan Bizzell,TN,1494535804000.0,10016242
175363892,Nashville,,1421113117000.0,36.17,-86.78,Mechelle Wichman,TN,1425082865000.0,10016242
208431390,Nashville,,1476387280000.0,36.17,-86.78,Meg Ducharme,TN,1488551147000.0,10016242
200513700,Nashville,"Nashville, TN",1503687107000.0,36.18,-86.74,Megan Brown,TN,1507582170000.0,10016242
207560857,Hendersonville,,1484008379000.0,36.32,-86.61,Meghan Debity,TN,1486916811000.0,10016242
222533916,Nashville,,1487785995000.0,36.17,-86.78,Meghana Thunga,TN,1487785995000.0,10016242
5398482,Huntsville,,1404400437000.0,34.76,-86.68,Mel Woodgett,AL,1404400437000.0,10016242
156053052,Nashville,,1415647420000.0,36.17,-86.78,Melanie L. Fryman,TN,1457710641000.0,10016242
206593938,Hermitage,,1465238775000.0,36.19,-86.6,Melissa Moghadam,TN,1465238775000.0,10016242
214116347,Nashville,Nashville,1508425195000.0,36.11,-86.78,Meredith Broadway,TN,1508425195000.0,10016242
185106952,Nashville,,1436283473000.0,36.08,-86.72,Merwin,TN,1436283473000.0,10016242
119541152,Nashville,,1411915280000.0,36.17,-86.78,Mewael,TN,1454102749000.0,10016242
4485259,Nashville,Nashville,1445043686000.0,36.14,-86.81,Micah Armantrout,TN,1450221106000.0,10016242
210653545,Los Angeles,,1470714079000.0,34.05,-118.27,Micah Buckley,CA,1475872124000.0,10016242
2256087,Nashville,Seattle,1435794642000.0,36.17,-86.78,Micah Redding,TN,1436391936000.0,10016242
161965822,Nashville,,1501382146000.0,36.17,-86.78,Micah Vigeant,TN,1502681761000.0,10016242
194062612,Nashville,,1444764034000.0,36.17,-86.72,Micah Wells,TN,1484321598000.0,10016242
5010820,Murfreesboro,,1463339868000.0,35.78,-86.33,Michael,TN,1500162427000.0,10016242
187948177,Nashville,,1432907296000.0,36.16,-86.66,Michael,TN,1432907296000.0,10016242
18395891,Nashville,Huntsville AL,1389196787000.0,36.16,-86.79,Michael Beatty,TN,1470952554000.0,10016242
188985950,Spring Hill,,1435009030000.0,35.76,-86.88,Michael Brown,TN,1499982459000.0,10016242
71912792,Nashville,Nashville,1429562979000.0,36.17,-86.72,Michael Conrad,TN,1491869045000.0,10016242
207531257,Murfreesboro,,1466511177000.0,35.78,-86.33,Michael Cusick,TN,1466511177000.0,10016242
205841841,Gallatin,,1464188890000.0,36.39,-86.45,Michael Dean Meador,TN,1464188890000.0,10016242
143209252,Nashville,Nashville,1486589755000.0,36.14,-86.74,Michael Edinger,TN,1495314256000.0,10016242
208571752,Brentwood,,1467930616000.0,36.0,-86.79,Michael Frost ,TN,1467930616000.0,10016242
156736372,Hendersonville,Hendersonville,1468376588000.0,36.32,-86.61,Michael Hulet,TN,1468376588000.0,10016242
189890070,Nashville,,1436907504000.0,36.17,-86.78,Michael J,TN,1439472620000.0,10016242
232312915,Nashville,,1500661656000.0,36.13,-86.8,Michael Kennedy,TN,1500661656000.0,10016242
226665450,Nashville,,1493535151000.0,36.08,-86.72,Michael King,TN,1497381393000.0,10016242
85557392,Nashville,,1381197875000.0,36.13,-86.8,Michael Knell,TN,1507267169000.0,10016242
188467589,Nashville,,1433953647000.0,36.18,-86.74,Michael Lauren,TN,1478190061000.0,10016242
14469602,Nashville,,1425645592000.0,36.17,-86.78,Michael McCracken,TN,1425645592000.0,10016242
202882025,Nashville,,1459993504000.0,36.14,-86.74,Michael mead,TN,1504110626000.0,10016242
122440832,Nolensville,,1412612018000.0,35.94,-86.67,Michael Milom,TN,1502454903000.0,10016242
83991572,Nolensville,,1391543110000.0,35.94,-86.67,Michael Milom,TN,1409237551000.0,10016242
200865031,Brentwood,,1457060136000.0,36.0,-86.79,Michael R,TN,1484176265000.0,10016242
14841621,Hermitage,"Lakeland, FL",1434715208000.0,36.19,-86.6,Michael Randall,TN,1435315410000.0,10016242
30806472,Rockvale,Rockvale,1378728490000.0,35.76,-86.55,Michael Ray,TN,1446755559000.0,10016242
13236922,Ann Arbor,,1415831065000.0,42.27,-83.81,Michael Reynolds,MI,1415831065000.0,10016242
195145042,Franklin,,1457387980000.0,35.92,-86.89,Michael Roberts,TN,1474166136000.0,10016242
197640216,Old Hickory,,1451946246000.0,36.25,-86.63,Michael Robeson,TN,1451946246000.0,10016242
229362387,Nashville,,1502250725000.0,36.14,-86.74,Michael Rodriguez,TN,1507662274000.0,10016242
90042112,Nashville,,1418265255000.0,36.17,-86.78,Michael Slade,TN,1496841551000.0,10016242
198128679,Nashville,,1486584074000.0,36.17,-86.72,michael tambornino,TN,1507782891000.0,10016242
151315052,Columbia,"Athens, AL",1499999416000.0,35.61,-87.05,Michael Tucker,TN,1499999416000.0,10016242
209500045,Nashville,"Nashville, TN",1469139301000.0,36.17,-86.78,Michael Watson,TN,1500344602000.0,10016242
75233722,Nashville,,1378054864000.0,36.09,-86.82,Michelle Hey,TN,1384200585000.0,10016242
232752183,Nashville,,1501200670000.0,36.14,-86.81,Miguel Angel Delgado,TN,1505318130000.0,10016242
186662002,Murfreesboro,,1430170797000.0,35.78,-86.33,Mike,TN,1439250244000.0,10016242
141306532,Nashville,,1397049459000.0,36.17,-86.78,Mike Allison,TN,1496975259000.0,10016242
200923020,Hermitage,,1457148204000.0,36.19,-86.6,mike brown,TN,1457318540000.0,10016242
28652082,Brentwood,"Muncie, IN",1490065275000.0,36.0,-86.79,Mike Burrell,TN,1490065275000.0,10016242
230237578,Nashville,,1498133517000.0,36.16,-86.66,Mike Donahue,TN,1498133517000.0,10016242
184000684,Nashville,,1434660005000.0,36.17,-86.78,Mike Gedelman,TN,1470427100000.0,10016242
188397685,Nashville,,1459636834000.0,36.17,-86.78,Mike Glenn,TN,1459636834000.0,10016242
113210282,Nashville,,1383369789000.0,36.18,-86.81,Mike Kunkel,TN,1391736606000.0,10016242
208418416,Nashville,,1467730570000.0,36.17,-86.78,Mike Magnussen,TN,1472494349000.0,10016242
194099532,Nashville,,1448992555000.0,36.17,-86.78,Mike Meadows,TN,1486498624000.0,10016242
10383759,Spring Hill,Spring Hill,1435294225000.0,35.76,-86.88,Mike Ross,TN,1438918642000.0,10016242
185185088,Nashville,,1426176236000.0,36.15,-86.86,Mike Stabile,TN,1428524571000.0,10016242
198959622,Clarksville,,1483088754000.0,36.53,-87.35,Mike Tanner,TN,1485747846000.0,10016242
193681740,Franklin,,1444097759000.0,35.92,-86.89,Mike Ulvila,TN,1507659597000.0,10016242
14129264,Nashville,"Memphis, TN",1460377985000.0,36.17,-86.78,Miller,TN,1460377985000.0,10016242
193874577,Nashville,,1455225971000.0,36.16,-86.79,Minhee Yu,TN,1494434788000.0,10016242
226212530,Nashville,,1492923325000.0,36.09,-86.82,miriam rozenbaum,TN,1499881474000.0,10016242
40845292,Nashville,nashville,1477342437000.0,36.06,-86.96,Miriam Rozenbaum,TN,1496212438000.0,10016242
184389351,Nashville,,1484008440000.0,36.11,-86.78,Mitchell Blom,TN,1506389211000.0,10016242
207256367,Nashville,,1466124209000.0,36.17,-86.78,ML,TN,1466124209000.0,10016242
9755421,Murfreesboro,Smyrna,1468258903000.0,35.82,-86.45,Moe Abualrob,TN,1469137644000.0,10016242
210865243,Vienna,"Vienna, Virginia",1471025452000.0,38.93,-77.26,Mohaimin,VA,1471025452000.0,10016242
149783732,Brentwood,,1427228022000.0,36.0,-86.79,Monica Miller,TN,1427228022000.0,10016242
101490272,Bowling Green,,1389133038000.0,36.96,-86.37,Monte Olson,KY,1468344479000.0,10016242
238802649,Nashville,,1507908976000.0,36.16,-86.77,Moo Jin Oh,TN,1507908976000.0,10016242
183015093,Louisville,,1486581356000.0,38.25,-85.76,Morgan,KY,1502194744000.0,10016242
186038725,Nashville,,1442355902000.0,36.17,-86.78,Morgan higby-flowers,TN,1468167407000.0,10016242
118057232,Nashville,,1496428119000.0,36.16,-86.79,mreid,TN,1496428119000.0,10016242
223095985,Overland Park,,1496947893000.0,38.99,-94.68,Muhammad Ali,KS,1502293000000.0,10016242
198015745,Franklin,,1452632428000.0,35.92,-86.82,Mukteshwar C,TN,1501113576000.0,10016242
201013455,Spring Hill,,1457282506000.0,35.76,-86.88,Mysha Scroggin,TN,1459376595000.0,10016242
235823431,Nashville,,1504728363000.0,36.17,-86.78,Nadia,TN,1504728363000.0,10016242
223097680,San Francisco,,1508048097000.0,37.78,-122.42,Naga M,CA,1508048097000.0,10016242
236136183,Nashville,,1505063435000.0,36.18,-86.74,Nancy Short,TN,1505675915000.0,10016242
231017596,Nashville,,1499103166000.0,36.1,-86.66,Nasheeda Shaikh,TN,1499103166000.0,10016242
4389320,Nashville,Charlotte,1485911095000.0,36.17,-86.78,Nat,TN,1488938694000.0,10016242
209268794,Orlando,,1497887756000.0,28.55,-81.18,Natalia Emmett,FL,1497887756000.0,10016242
219743715,Nashville,,1484166757000.0,36.17,-86.78,Nate Davenport,TN,1499837667000.0,10016242
220769936,Nashville,,1485460815000.0,36.17,-86.78,Nate West,TN,1485460815000.0,10016242
199992802,Murfreesboro,,1455832223000.0,35.82,-86.45,Nathan,TN,1491833517000.0,10016242
191059701,Nashville,,1454428468000.0,36.17,-86.78,Nathan Baldwin,TN,1455314447000.0,10016242
128117352,Nashville,Nashville,1495630887000.0,36.18,-86.74,Nathan Butler,TN,1499828714000.0,10016242
182979922,Nashville,,1418578958000.0,36.17,-86.72,Nathan C.,TN,1421208892000.0,10016242
235474428,Nashville,,1504366138000.0,36.14,-86.74,Nathan Center,TN,1506476988000.0,10016242
147690502,Mc Ewen,,1400696917000.0,36.14,-87.66,Nathan Davis,TN,1444399902000.0,10016242
14411413,Nashville,,1397617809000.0,36.17,-86.87,Nathan Gonzalez,TN,1449531430000.0,10016242
141074792,Nashville,,1400018516000.0,36.16,-86.79,Nathan Hood,TN,1457530186000.0,10016242
152011532,Smyrna,"Smyrna, TN",1403386714000.0,35.97,-86.51,Nathan Martinez,TN,1507762448000.0,10016242
112786542,Nashville,,1380053013000.0,36.17,-86.78,Nathan Mosher,TN,1448573655000.0,10016242
225488721,Nashville,,1493993380000.0,36.17,-86.78,Nathan Ostrander,TN,1501852916000.0,10016242
192874124,Thompsons Station,,1475509216000.0,35.8,-86.9,Nathan Tanner,TN,1475509216000.0,10016242
231922500,Nashville,,1500180249000.0,36.17,-86.78,Nathan Vranicar,TN,1500180249000.0,10016242
223814336,Nashville,,1489594800000.0,36.14,-86.74,Nathanael Gethers,TN,1489594800000.0,10016242
189770400,Antioch,,1493422571000.0,36.17,-86.88,Nathaniel oboh,TN,1502287356000.0,10016242
191210363,Nashville,,1478713999000.0,36.11,-86.78,Nayeli Anaya Hernandez,TN,1484630804000.0,10016242
145854582,Nashville,,1399649671000.0,36.17,-86.78,Neal,TN,1409852735000.0,10016242
206234001,Austin,,1464744998000.0,30.22,-97.75,Ngenze A,TX,1464744998000.0,10016242
190609449,New York,New York,1460476176000.0,40.73,-74.01,Nguyen Tran,NY,1470364663000.0,10016242
12277073,Nashville,,1461176173000.0,36.17,-86.78,Nic Guest-Jelley,TN,1473796187000.0,10016242
38710402,Brentwood,,1489016389000.0,36.0,-86.79,Nic Hord,TN,1489016389000.0,10016242
122547562,Nashville,,1404158615000.0,36.17,-86.78,Nicholas ,TN,1421177955000.0,10016242
196618544,Nashville,,1457388011000.0,36.17,-86.78,Nicholas Huffman,TN,1465353011000.0,10016242
211343320,Nashville,,1478136639000.0,36.14,-86.74,Nicholas Jacques,TN,1489013161000.0,10016242
231155958,Memphis,,1500061239000.0,35.07,-89.96,Nicholas Mueller,TN,1500061239000.0,10016242
214688193,Nashville,,1476108478000.0,36.07,-86.73,Nick Chemsak,TN,1502291576000.0,10016242
207487949,Nashville,,1485104959000.0,36.17,-86.78,Nick Chouard,TN,1501863649000.0,10016242
204153614,Nashville,,1477847228000.0,36.09,-86.63,Nick Curry,TN,1484054495000.0,10016242
102815822,Nashville,,1378005148000.0,36.17,-86.72,Nick Franciosi,TN,1499699134000.0,10016242
187904554,Nashville,Nashville,1440905642000.0,36.08,-86.72,Nick Glover,TN,1481139236000.0,10016242
18382441,Nashville,Nashville,1493951247000.0,36.15,-86.86,Nick Herron,TN,1507316763000.0,10016242
140225572,New York,,1396449176000.0,40.72,-74.0,Nick Koch,NY,1453084836000.0,10016242
189187078,Thompsons Station,,1471557921000.0,35.8,-86.9,Nick McMenamin,TN,1486137792000.0,10016242
223318393,Nashville,,1488899412000.0,36.17,-86.78,Nick Nash,TN,1491576316000.0,10016242
186629418,Nashville,,1430101221000.0,36.08,-86.72,Nick Reese,TN,1446941699000.0,10016242
190674000,Antioch,,1438315933000.0,36.04,-86.64,Nick Sinas,TN,1438315933000.0,10016242
195371955,Nashville,,1464541214000.0,36.17,-86.78,Nick Trull,TN,1468618104000.0,10016242
126816022,Columbus,Columbus,1395677138000.0,39.96,-82.93,Nick Williams,OH,1491919244000.0,10016242
13639955,San Francisco,San Francisco,1432206291000.0,37.77,-122.4,Nicolas Grenié,CA,1470834048000.0,10016242
224921490,Nashville,,1491145567000.0,36.15,-86.81,Nicole ,TN,1491145567000.0,10016242
239182283,Nashville,,1508344351000.0,36.08,-86.72,Nicole,TN,1508344351000.0,10016242
14248408,Antioch,,1447826491000.0,36.04,-86.64,Nicole La Bailarina,TN,1447826491000.0,10016242
183727389,Brentwood,,1482523750000.0,36.0,-86.79,Nik Vierkant ,TN,1508775296000.0,10016242
73243812,Nashville,,1442609745000.0,36.17,-86.78,nikhil gaikwad,TN,1442609745000.0,10016242
38323722,Nashville,"Nashville, TN",1424956027000.0,36.17,-86.78,Nikki Warden,TN,1424956027000.0,10016242
206164260,Brentwood,,1484347614000.0,36.0,-86.79,Nitin,TN,1485816708000.0,10016242
116674592,Mount Juliet,Mt Juliet,1497102224000.0,36.22,-86.52,Noah,TN,1497102224000.0,10016242
127361492,Nashville,,1428417634000.0,36.17,-86.78,Noah Yarian,TN,1460494984000.0,10016242
238187518,Nashville,,1507230301000.0,36.14,-86.74,Nora Moser,TN,1507230301000.0,10016242
210938433,Nashville,,1471134469000.0,36.17,-86.78,Odigene Joseph,TN,1471134469000.0,10016242
188825465,Nashville,,1434669497000.0,36.17,-86.78,Okey Landers,TN,1434669497000.0,10016242
211547501,Nashville,,1471989385000.0,36.17,-86.78,Oliver Prince,TN,1479509525000.0,10016242
234168251,Franklin,,1502888038000.0,35.93,-86.81,Olivia Oetjens,TN,1502888038000.0,10016242
12120205,Santa Monica,,1484154156000.0,34.03,-118.47,Olivier Forget,CA,1505409234000.0,10016242
221191725,Nashville,,1486573708000.0,36.08,-86.72,Omar Ali,TN,1507759620000.0,10016242
163256982,Franklin,,1428287969000.0,35.93,-86.81,Omar Javed,TN,1428287969000.0,10016242
157508122,Nashville,,1408737996000.0,36.11,-86.86,Paige,TN,1507916156000.0,10016242
208825415,Nashville,,1468264723000.0,36.08,-86.72,Palmer Harrell,TN,1470765421000.0,10016242
200245538,Franklin,,1457491663000.0,35.92,-86.89,Paloma Venegas,TN,1465403437000.0,10016242
191493268,Seattle,Raleigh,1489004018000.0,47.66,-122.32,Parash,WA,1489004018000.0,10016242
231357658,Nashville,,1508033345000.0,36.17,-86.78,Parissa Gharavi,TN,1508033345000.0,10016242
135052142,Nashville,,1393458523000.0,36.17,-86.78,Pat Mac,TN,1393464126000.0,10016242
220303948,Nashville,,1484865474000.0,36.17,-86.78,Pat Riley,TN,1484865474000.0,10016242
183324154,Nashville,,1420424126000.0,36.06,-86.96,Patrick,TN,1435802658000.0,10016242
4667199,Nashville,,1461602447000.0,36.17,-86.78,Patrick Altman,TN,1461602447000.0,10016242
128352912,Nashville,,1389823346000.0,36.17,-86.78,Patrick Cason,TN,1461850050000.0,10016242
147506882,Nashville,,1474726325000.0,36.16,-86.79,Patrick Gac,TN,1474726325000.0,10016242
8849062,Raleigh,,1452719493000.0,35.75,-78.72,Patrick Lewis,NC,1452724706000.0,10016242
184602143,Nashville,,1424454194000.0,36.17,-86.78,Patrick M,TN,1484076149000.0,10016242
69435912,Nashville,Baltimore,1433175211000.0,36.21,-86.72,Patrick McNicholas,TN,1476137196000.0,10016242
206822440,Nashville,,1466374973000.0,36.16,-86.79,Patrick Pei,TN,1468421484000.0,10016242
8400359,Nashville,,1381761534000.0,36.08,-86.72,Patrick Sun,TN,1444769763000.0,10016242
183093517,Nashville,,1419312187000.0,36.14,-86.74,Paul,TN,1419312187000.0,10016242
81827112,Nashville,,1392131739000.0,36.13,-86.8,paul,TN,1507298163000.0,10016242
28526132,Denver,Denver,1420736079000.0,39.7,-104.93,Paul Birza,CO,1420736079000.0,10016242
14403986,Nashville,,1444441972000.0,36.17,-86.78,Paul Campbell,TN,1502042266000.0,10016242
187277518,Nashville,"Huntington, WV",1446491725000.0,36.16,-86.79,Paul L. McNeely,TN,1505354117000.0,10016242
9800543,Nashville,,1499810492000.0,36.08,-86.72,Paul Shearer,TN,1499881116000.0,10016242
25158852,Chicago,,1425044468000.0,41.88,-87.62,Paul Solans,IL,1434504640000.0,10016242
28278482,Nashville,,1413925060000.0,36.15,-86.86,Paul Sunderhaus,TN,1507251389000.0,10016242
151103812,Nashville,,1402517398000.0,36.17,-86.78,Peder Schacht,TN,1402933945000.0,10016242
216550429,Nashville,,1484172956000.0,36.1,-86.66,Peggy Bertsch,TN,1484586566000.0,10016242
83565352,Mount Juliet,,1476532769000.0,36.22,-86.52,penny,TN,1476532769000.0,10016242
118723752,Nashville,,1392060155000.0,36.17,-86.78,Perry Adams,TN,1473857030000.0,10016242
116788872,Nashville,"Chattanooga, TN",1435860638000.0,36.17,-86.78,Pete,TN,1457055092000.0,10016242
112028452,Nashville,,1381342014000.0,36.18,-86.81,Pete Dunlap,TN,1486514768000.0,10016242
178941922,Hendersonville,Hendersonville,1461257434000.0,36.32,-86.61,Pete Thompson,TN,1491245469000.0,10016242
12365446,Nashville,"Asheville, NC",1431302343000.0,36.16,-86.78,Peter,TN,1433405677000.0,10016242
234113972,Nashville,,1502822259000.0,36.17,-86.78,Peter Barnes,TN,1502822259000.0,10016242
223451658,Nashville,,1489086751000.0,36.14,-86.74,Peter Garrido,TN,1493824515000.0,10016242
85437112,Nashville,,1407443960000.0,36.13,-86.8,Peter Krekel,TN,1491513297000.0,10016242
201154548,Brentwood,,1457482577000.0,36.0,-86.79,Peter Leiser,TN,1489070083000.0,10016242
199170497,Goodlettsville,,1454620672000.0,36.33,-86.74,Peter Mancini,TN,1454620672000.0,10016242
80256802,Nashville,,1461533905000.0,36.06,-86.96,Philip Best,TN,1461533905000.0,10016242
69653682,Nashville,Nashville,1381246519000.0,36.11,-86.86,Philip Brown,TN,1449165315000.0,10016242
11740935,Nashville,Salt Lake City,1417712237000.0,36.08,-86.72,Philip Fair,TN,1417712237000.0,10016242
110697682,Nashville,,1380861367000.0,36.17,-86.78,Philip Misiowiec,TN,1383544621000.0,10016242
18651311,Nashville,Birmingham,1465755991000.0,36.16,-86.79,Phillip,TN,1499273987000.0,10016242
198393616,Nashville,,1455159361000.0,36.08,-86.72,Phillip Glidewell,TN,1497483573000.0,10016242
9822767,Nashville,,1378045765000.0,36.17,-86.78,Phillip Maddox,TN,1418146916000.0,10016242
123992672,Murfreesboro,Miami,1451801077000.0,35.82,-86.45,Pierre ,TN,1451801077000.0,10016242
10128182,Atlanta,,1441733224000.0,33.94,-84.32,pratik patel,GA,1486504461000.0,10016242
225249498,Nashville,,1491608601000.0,36.1,-86.66,Preeti Pathak,TN,1504110467000.0,10016242
162769792,Franklin,,1494033687000.0,35.92,-86.89,Preston Nalls,TN,1504119009000.0,10016242
199130686,Smyrna,,1471455473000.0,35.97,-86.51,Preston Sparks,TN,1471455473000.0,10016242
183248122,Nashville,,1425617363000.0,36.16,-86.79,Qasim Laghari,TN,1504721153000.0,10016242
202817922,Brentwood,Brentwood,1488904584000.0,36.0,-86.79,R Michael Brown,TN,1488904584000.0,10016242
181558152,Nashville,,1421020330000.0,36.09,-86.82,Rachel Layburn,TN,1421020330000.0,10016242
145188882,Nashville,Nashville,1400629235000.0,36.13,-86.8,Rachel Self,TN,1495569123000.0,10016242
107160592,Nashville,,1425095117000.0,36.18,-86.74,Rainu,TN,1452695731000.0,10016242
184991548,Nashville,,1425597749000.0,36.17,-86.78,Ram,TN,1499960297000.0,10016242
132402812,Nashville,,1444947147000.0,36.16,-86.79,Ramesh Prajapati,TN,1455212356000.0,10016242
206648803,Murfreesboro,,1473439420000.0,35.78,-86.33,Randy Davis,TN,1494453127000.0,10016242
188857024,Nashville,Nashville,1493233199000.0,36.16,-86.79,Rashad Russell,TN,1493233199000.0,10016242
175300482,Nashville,,1473891314000.0,36.16,-86.79,Rav,TN,1505170897000.0,10016242
214418086,Nashville,,1475700749000.0,36.17,-86.78,Rayce Wiggins,TN,1502581408000.0,10016242
187318436,Murfreesboro,,1431618801000.0,35.87,-86.34,Rebecca,TN,1431618801000.0,10016242
219727625,Nashville,,1484148916000.0,36.17,-86.78,Rebecca (Ruthie) Wilkerson,TN,1486522410000.0,10016242
100367272,Nashville,,1402327784000.0,36.13,-86.8,Rebecca Cronin-Dixon,TN,1494454127000.0,10016242
91981922,Hendersonville,Nashville,1451724779000.0,36.32,-86.61,Rebecca Taylor,TN,1488615353000.0,10016242
189538203,Nashville,,1436161037000.0,36.17,-86.78,Rebecca Ultsch,TN,1436161037000.0,10016242
509953,Chapel Hill,Nashville,1447822634000.0,35.62,-86.62,Red French,TN,1507379110000.0,10016242
127853242,Chattanooga,,1488911201000.0,35.07,-85.31,Reed Tomlinson,TN,1488911201000.0,10016242
195495945,Nashville,,1447386732000.0,36.17,-86.78,ReemTA,TN,1447386732000.0,10016242
192771391,Nashville,,1442340174000.0,36.11,-86.78,Regina Jensen,TN,1442340174000.0,10016242
13993792,Nashville,,1388413628000.0,36.17,-86.78,Reinier Pelayo,TN,1475845690000.0,10016242
193879243,Clarksville,,1444426872000.0,36.56,-87.41,Remotely Operated Concepts,TN,1444426872000.0,10016242
206848046,Nashville,,1465569905000.0,36.17,-86.78,Ren Teagle,TN,1465569905000.0,10016242
221161925,Clarksville,,1485961014000.0,36.56,-87.41,Renee Palicia,TN,1485961014000.0,10016242
37205822,Nashville,,1399907589000.0,36.13,-86.8,RHPT,TN,1460487909000.0,10016242
199650470,Nashville,,1455368285000.0,36.17,-86.78,Richard,TN,1455368285000.0,10016242
226502472,Nashville,,1493306841000.0,36.11,-86.67,Richard Beauchamp,TN,1493306841000.0,10016242
17177591,Nashville,Atlanta,1466715985000.0,36.18,-86.81,Richard Rissanen,TN,1507684842000.0,10016242
219740646,Nashville,,1484495079000.0,36.18,-86.81,Richard Whitfield,TN,1484495079000.0,10016242
228252855,Nashville,,1499607631000.0,36.15,-86.86,Richie Murray,TN,1499607631000.0,10016242
215233420,Franklin,Nashville,1476895784000.0,35.93,-86.81,Richie Van Sickle,TN,1486580531000.0,10016242
141051362,San Francisco,San Francisco,1396910112000.0,37.79,-122.42,Richmond Watkins,CA,1447280990000.0,10016242
191222460,Nashville,,1439387729000.0,36.17,-86.78,Rick Aites,TN,1454695392000.0,10016242
71851852,Franklin,,1383083541000.0,35.92,-86.89,Rick Murdock,TN,1507818921000.0,10016242
122667732,Nashville,,1386340520000.0,36.16,-86.79,Rick Pineda,TN,1386340520000.0,10016242
70644682,Nashville,,1468068685000.0,36.22,-86.86,Ricky Saxby,TN,1468068685000.0,10016242
187788117,Nashville,,1436374233000.0,36.17,-86.78,Rizwan,TN,1436392592000.0,10016242
205780937,Nashville,,1470770644000.0,36.17,-86.78,Rob Campbell,TN,1470770644000.0,10016242
64909642,Nashville,,1423233766000.0,36.18,-86.74,Rob Ferguson,TN,1491834558000.0,10016242
170381402,Franklin,,1421375134000.0,35.92,-86.89,Rob Goldiez,TN,1496782745000.0,10016242
3525487,Nashville,Nashville,1394636989000.0,36.15,-86.86,Rob M,TN,1454687557000.0,10016242
198011084,Charleston,,1505418128000.0,32.96,-79.89,Rob Whelan,SC,1505418128000.0,10016242
184066993,Nashville,Evansville,1499434853000.0,36.17,-86.78,Rob Wilson,TN,1502115534000.0,10016242
15545871,Franklin,"Huntsville, AL",1495325568000.0,35.92,-86.89,Robb,TN,1501756290000.0,10016242
12111943,Nashville,Nashville,1381792086000.0,36.17,-86.79,Robby Clements,TN,1383003858000.0,10016242
229873935,Nashville,,1497684937000.0,36.17,-86.78,Robby H,TN,1501991030000.0,10016242
44193692,Pleasant View,,1446581203000.0,36.38,-87.04,Robert,TN,1504218147000.0,10016242
207103542,White House,,1467722735000.0,36.48,-86.69,Robert Allman,TN,1467722735000.0,10016242
126960742,Nashville,,1389120771000.0,36.17,-86.78,Robert Fryman,TN,1444358160000.0,10016242
221577224,Nashville,,1486481104000.0,36.17,-86.78,Robert G,TN,1486660276000.0,10016242
123279812,Nashville,Nashville,1479884587000.0,36.13,-86.8,robert hanson,TN,1486601441000.0,10016242
142087712,Calgary,,1449673850000.0,50.88,-113.95,Robert Kever,AB,1449673850000.0,10016242
141073692,Nashville,,1409846924000.0,36.16,-86.79,Robert Paterno,TN,1412804886000.0,10016242
231081316,Shelbyville,,1499272519000.0,35.48,-86.47,Robert Peters,TN,1499272519000.0,10016242
235162972,Nashville,,1504021636000.0,36.14,-86.74,Robert Shunk,TN,1506453677000.0,10016242
237571716,Nashville,,1506543383000.0,36.17,-86.78,Robert Taylor,TN,1506543383000.0,10016242
216782860,Nashville,,1484143946000.0,36.17,-86.78,Robert Tortorelli,TN,1494451395000.0,10016242
229456173,Nashville,,1497151095000.0,36.13,-86.8,Robert Zhang,TN,1497221133000.0,10016242
9317828,Antioch,,1401375307000.0,36.17,-86.88,robertschley,TN,1423669111000.0,10016242
126092892,White House,,1438920603000.0,36.48,-86.69,Robin,TN,1447331795000.0,10016242
67937492,Nashville,Nashville,1414342721000.0,36.21,-86.72,Rocky Assad,TN,1504183913000.0,10016242
14419783,Columbia,,1418738181000.0,35.61,-87.05,Rod T Sampson,TN,1425823326000.0,10016242
139889212,Nashville,,1420568500000.0,36.17,-86.78,rodger smith,TN,1504109947000.0,10016242
183831423,Nashville,,1421991507000.0,36.08,-86.72,Rodgerdodger,TN,1490105516000.0,10016242
218061898,Nashville,,1507475385000.0,36.17,-86.78,Rodney Chism,TN,1507475385000.0,10016242
141376462,Nashville,,1397079653000.0,36.17,-86.78,Rodney Norris,TN,1478628884000.0,10016242
80278962,Nashville,Nashville,1466567701000.0,36.17,-86.72,Roger Ball,TN,1466567701000.0,10016242
99285742,Nashville,,1492186025000.0,36.17,-86.78,Roman Rodriguez,TN,1507743706000.0,10016242
225188047,Nashville,Nashville,1492929413000.0,36.15,-86.86,Ron,TN,1499813480000.0,10016242
110512042,Nashville,,1378820288000.0,36.17,-86.78,Ron Ford,TN,1382311613000.0,10016242
14044727,Nashville,,1507419232000.0,36.16,-86.79,Ronald,TN,1507866320000.0,10016242
14568344,Nashville,,1407282045000.0,36.1,-86.66,Ross Kimberlin,TN,1504878461000.0,10016242
192919256,Nashville,,1442616900000.0,36.15,-86.81,Rounak Salim,TN,1442616900000.0,10016242
214284051,Nashville,,1475548474000.0,36.17,-86.78,ruach jack,TN,1475548474000.0,10016242
203298904,Nashville,,1460582098000.0,36.17,-86.78,Ruben Perez,TN,1473851088000.0,10016242
223738717,Brentwood,,1497482591000.0,36.0,-86.79,Ruby MBA Professional,TN,1499866155000.0,10016242
218202309,Nashville,,1481749387000.0,36.17,-86.78,Rudy Barrett,TN,1481749387000.0,10016242
184770847,Nashville,,1425604878000.0,36.08,-86.72,Rueben Banalagay,TN,1491933237000.0,10016242
218287357,Nashville,,1498880634000.0,36.11,-86.78,Ruslan Mardugalliamov,TN,1498880634000.0,10016242
191135384,Nashville,,1439223148000.0,36.21,-86.72,Russ Anderson,TN,1490371668000.0,10016242
183621154,Smyrna,,1421386271000.0,35.97,-86.51,Russell Church,TN,1421386271000.0,10016242
112074682,Hendersonville,,1465071845000.0,36.32,-86.61,Rustin,TN,1465328162000.0,10016242
11827812,Asheville,Asheville,1467043446000.0,35.59,-82.56,Ryan ,NC,1507127833000.0,10016242
193501396,Nashville,,1443816628000.0,36.08,-86.72,Ryan B. Payne,TN,1476238466000.0,10016242
52175782,Nashville,,1461952993000.0,36.17,-86.78,Ryan Bliton,TN,1485480522000.0,10016242
218769855,Nashville,,1482882864000.0,36.17,-86.78,Ryan Hanlin,TN,1482882864000.0,10016242
184878207,Nashville,"Louisville, KY",1449812419000.0,36.17,-86.78,Ryan LaMarr Fuqua,TN,1449812419000.0,10016242
26576702,Nashville,Nasvhille,1378144843000.0,36.18,-86.74,Ryan Macy,TN,1491273770000.0,10016242
221022321,Nashville,,1507642486000.0,36.11,-86.78,Ryan McPherson,TN,1507642486000.0,10016242
185291120,Powhatan,Powhatan,1478650374000.0,37.54,-77.88,Ryan Means,VA,1478650374000.0,10016242
89178512,Nashville,,1438903576000.0,36.16,-86.79,Ryan Milby,TN,1438903576000.0,10016242
183564319,Nashville,,1434232738000.0,36.14,-86.8,Ryan Murray,TN,1505318263000.0,10016242
186805996,Nashville,,1430496989000.0,36.07,-86.72,Ryan O'Connor,TN,1430496989000.0,10016242
201680292,Nashville,,1484143173000.0,36.15,-86.86,Ryan O'Daniel,TN,1499890672000.0,10016242
13214587,Nashville,,1429193424000.0,36.07,-86.73,Ryan Osborne,TN,1464913996000.0,10016242
183011534,Franklin,franklin,1418788222000.0,35.92,-86.89,Ryan Sessions,TN,1477586515000.0,10016242
82521282,Nashville,Alpharetta,1414258213000.0,36.11,-86.78,Ryan Tablada,TN,1502764277000.0,10016242
34208282,Nashville,,1486578805000.0,36.08,-86.72,Ryan Trebilcock,TN,1486578805000.0,10016242
195645353,Centerville,,1447686025000.0,35.67,-87.7,Ryan Will,TN,1507678951000.0,10016242
170270452,Nashville,,1420608615000.0,36.17,-86.79,Ryan Wrenn,TN,1486589197000.0,10016242
151985022,Nashville,,1406749000000.0,36.17,-86.78,Ryan York,TN,1406749000000.0,10016242
225287724,Nashville,Nashville,1504289463000.0,36.08,-86.72,S. James Carter,TN,1505343927000.0,10016242
236403566,Nashville,,1505315622000.0,36.15,-86.86,Sade Wilson,TN,1505315622000.0,10016242
187368558,Brentwood,,1431725960000.0,36.0,-86.79,sage earls,TN,1431725960000.0,10016242
191160484,Nashville,,1439263272000.0,36.09,-86.82,Sally Fisher,TN,1460554224000.0,10016242
48545422,Nashville,Nashville,1480990512000.0,36.11,-86.78,Sally MacNicholas,TN,1486410150000.0,10016242
13772465,Nashville,,1414381104000.0,36.13,-86.8,Sam,TN,1423336655000.0,10016242
90593162,Nashville,,1384187364000.0,36.06,-86.96,Sam,TN,1485656558000.0,10016242
218113381,Nashville,,1481583241000.0,36.17,-86.78,Sam Acree,TN,1488919286000.0,10016242
183021007,Nashville,,1418832721000.0,36.17,-86.78,sam Crenshaw,TN,1448980324000.0,10016242
19384571,Nashville,"Columbus, MS",1423239373000.0,36.17,-86.78,Sam Dornan,TN,1494449761000.0,10016242
111779982,Nashville,"Nashville, TN",1436799121000.0,36.15,-86.86,Sam Jerome,TN,1504541257000.0,10016242
215065731,Spring Hill,,1476656710000.0,35.76,-86.88,Sam Lax,TN,1476656710000.0,10016242
225120700,Franklin,,1491419843000.0,35.92,-86.89,Sam Phillips,TN,1501882532000.0,10016242
64902062,Grand Rapids,,1488811072000.0,42.96,-85.66,Sam Rysdyk,MI,1497400682000.0,10016242
233651444,Nashville,,1502286442000.0,36.17,-86.78,Sam Sanford,TN,1502286442000.0,10016242
129083582,Nashville,,1402501613000.0,36.16,-86.79,Sam Tucker,TN,1433950690000.0,10016242
7222138,Nashville,East Nashville,1396885531000.0,36.18,-86.74,Samantha,TN,1499797708000.0,10016242
143069742,Franklin,,1398109003000.0,36.04,-86.78,Samarth Wahal,TN,1400529851000.0,10016242
184328214,Nashville,,1472093180000.0,36.07,-86.78,Sammed M.,TN,1486668699000.0,10016242
186548106,Franklin,,1429923444000.0,35.92,-86.89,Sampson Brueher,TN,1429923444000.0,10016242
104597672,Nashville,,1397077437000.0,36.22,-86.84,Samuel,TN,1405512564000.0,10016242
170846382,Nashville,Nashville,1486578953000.0,36.17,-86.78,Samuel Christos Phillips,TN,1491419066000.0,10016242
15446041,Nashville,Nashville,1470140994000.0,36.08,-86.72,Samuel Palaparthy,TN,1473870282000.0,10016242
148705762,Nashville,Arlington,1505826444000.0,36.18,-86.74,Samuel Webber,TN,1505826444000.0,10016242
204684074,Smyrna,"Alexandria, EG",1468453470000.0,35.97,-86.51,samY aYoub,TN,1470693280000.0,10016242
74562312,Nashville,,1433968660000.0,36.17,-86.78,Sander Blue,TN,1433968660000.0,10016242
102344122,Antioch,,1473625081000.0,36.04,-86.64,Sandy Brewer Jones,TN,1488930714000.0,10016242
204360649,Nashville,,1462131721000.0,36.17,-86.78,Santiago,TN,1475705264000.0,10016242
219620060,Nashville,,1484009516000.0,36.14,-86.74,Sany Yousif,TN,1487821249000.0,10016242
58070922,Nashville,"Nashville, TN",1419974964000.0,36.18,-86.74,Sara Pitts,TN,1423696551000.0,10016242
194000459,Nashville,Colleyville,1507751762000.0,36.1,-86.66,Sarah,TN,1507751762000.0,10016242
194684339,Nashville,,1445896159000.0,36.16,-86.77,Sarah,TN,1467984852000.0,10016242
238324286,Hendersonville,,1507380683000.0,36.3,-86.62,Sarah Abel,TN,1507380683000.0,10016242
178585042,Nashville,,1470409783000.0,36.17,-86.78,Sarah Chilton,TN,1470409783000.0,10016242
193503663,Fairview,,1443716575000.0,35.97,-87.13,Sarah Green,TN,1443716575000.0,10016242
212280009,Akron,,1507562045000.0,41.08,-81.52,Sarah Heacock,OH,1507699304000.0,10016242
155180512,Nashville,Nashville,1408127342000.0,36.08,-86.72,Sarah P,TN,1473892475000.0,10016242
230738424,Nashville,,1498751230000.0,36.14,-86.74,Sarah Sanders,TN,1498751230000.0,10016242
190566193,Christiana,,1438119850000.0,35.71,-86.36,Sarah Story,TN,1438900976000.0,10016242
214590028,Nashville,,1475954920000.0,36.18,-86.81,Sarai Corea,TN,1475954920000.0,10016242
229694377,Nashville,,1497449270000.0,36.17,-86.78,Sarajane McMahon,TN,1507249735000.0,10016242
1730798,Nashville,Nashville,1439933449000.0,36.08,-86.72,Sarin,TN,1445008667000.0,10016242
182301862,Nashville,,1415444111000.0,36.17,-86.78,saud,TN,1444779950000.0,10016242
7247072,Nashville,University City,1434717437000.0,36.17,-86.78,Saul,TN,1505246546000.0,10016242
191769354,Nashville,,1440450718000.0,36.21,-86.72,Savvy Coders,TN,1441057500000.0,10016242
42767962,Nashville,USA,1390198424000.0,36.17,-86.78,Scott,TN,1497453158000.0,10016242
197794017,Old Hickory,,1452285846000.0,36.25,-86.63,Scott Bechtel,TN,1452285846000.0,10016242
9970730,Mount Juliet,,1384184797000.0,36.22,-86.52,Scott Farr,TN,1418150206000.0,10016242
213135201,Nashville,,1474133934000.0,36.06,-86.96,Scott Salisbury,TN,1474133934000.0,10016242
185367567,Franklin,,1443799122000.0,35.93,-86.81,Scott Schaffer,TN,1507661674000.0,10016242
10316308,Antioch,,1378002695000.0,36.04,-86.64,Scott Southworth,TN,1499392113000.0,10016242
62088352,Nashville,,1384186322000.0,36.17,-86.78,Scott Wespi,TN,1468346588000.0,10016242
7509176,Franklin,,1470446919000.0,35.99,-86.9,Sean C,TN,1497018466000.0,10016242
203277690,Antioch,,1471527713000.0,36.04,-86.64,Sean Davis,TN,1504933336000.0,10016242
14344641,Nashville,Houston,1378247044000.0,36.15,-86.86,Sean Hill,TN,1484178186000.0,10016242
32001662,Nashville,,1429957820000.0,36.16,-86.79,Sean M,TN,1429957820000.0,10016242
50605192,Nashville,,1478065909000.0,36.16,-86.79,Sean Shaw,TN,1478739282000.0,10016242
137111742,Nashville,,1406910349000.0,36.16,-86.79,Sean Spradlin,TN,1507754880000.0,10016242
11237520,Nashville,,1423079794000.0,36.11,-86.78,Sean Wilson,TN,1464919736000.0,10016242
200407318,Nashville,"Lima, PE",1467744968000.0,36.17,-86.78,Sebastián Alegre,TN,1467744968000.0,10016242
193758164,Nashville,,1447820190000.0,36.15,-86.86,Sefora M. Rodriguez,TN,1459398270000.0,10016242
190978121,Lebanon,,1438905686000.0,36.21,-86.31,Senn Nathan,TN,1438905686000.0,10016242
161004522,Nashville,,1460587143000.0,36.1,-86.66,Sequina,TN,1469534577000.0,10016242
238400895,Nashville,,1507467462000.0,36.17,-86.78,Sequina Hall,TN,1507467462000.0,10016242
9648429,Nashville,New York City,1437459303000.0,36.15,-86.86,Seth Alexander,TN,1507756407000.0,10016242
145352722,Murfreesboro,,1399380891000.0,35.87,-86.44,Seth March,TN,1410364621000.0,10016242
143192852,Nashville,,1418525284000.0,36.17,-86.78,Seth Steele,TN,1459375139000.0,10016242
145088312,Nashville,,1405354442000.0,36.11,-86.86,sfrapoport,TN,1447033099000.0,10016242
14141096,Nashville,,1438617891000.0,36.07,-86.73,Shane,TN,1459381829000.0,10016242
221648806,Nashville,,1504369521000.0,36.17,-86.78,Shane Bouverie,TN,1504369521000.0,10016242
37617172,Nashville,,1468252467000.0,36.13,-86.8,shane falco,TN,1476934227000.0,10016242
190845324,Huntsville,,1438645919000.0,34.73,-86.57,Shane Kamar,AL,1438645919000.0,10016242
221023909,Nashville,,1485789606000.0,36.17,-86.78,Shanin ,TN,1485881467000.0,10016242
216077353,Nashville,,1478201179000.0,36.17,-86.78,Shannon Miller,TN,1505316710000.0,10016242
193177054,Lebanon,,1443102135000.0,36.21,-86.31,Shannon Williams,TN,1443102135000.0,10016242
12346968,Nashville,,1484008967000.0,36.16,-86.79,sharon smith,TN,1507838908000.0,10016242
111839132,Nashville,Nashville,1379515600000.0,36.16,-86.79,Shaun,TN,1391864376000.0,10016242
195139991,Nashville,,1454081800000.0,36.08,-86.72,Shaun,TN,1455148397000.0,10016242
139177952,Nashville,,1411313130000.0,36.16,-86.79,Shaun,TN,1411313130000.0,10016242
204412550,Murfreesboro,,1473628527000.0,35.87,-86.44,Shaun Willis,TN,1504835651000.0,10016242
184335022,Nashville,,1423604302000.0,36.16,-86.79,Shawn,TN,1439310267000.0,10016242
194381707,Nashville,Nashville,1481337050000.0,36.17,-86.78,Shawn,TN,1481337050000.0,10016242
196390199,Nashville,,1449163460000.0,36.16,-86.79,Shawn Cothran,TN,1494429222000.0,10016242
12480841,Nashville,"Shreveport, LA",1488942744000.0,36.17,-86.72,Shawn Oden,TN,1488942744000.0,10016242
163518982,Brentwood,,1423580810000.0,36.0,-86.79,Shayleen,TN,1455918661000.0,10016242
19717881,Nashville,"Jacksonville, FL",1457882532000.0,36.17,-86.78,Shelby,TN,1457882532000.0,10016242
192711483,Nashville,,1454453051000.0,36.16,-86.79,Shelley Davis-Wise,TN,1489070844000.0,10016242
196344631,Nashville,,1501861099000.0,36.17,-86.79,Shelton Dickson,TN,1501861099000.0,10016242
224302706,Nashville,,1490274323000.0,36.17,-86.78,Sherry Nicole Hemric,TN,1490274323000.0,10016242
225946632,Smyrna,,1492564281000.0,35.97,-86.51,Sherry Stoel,TN,1492891005000.0,10016242
215317302,Smyrna,Smyrna,1499613226000.0,35.97,-86.51,shiv jha,TN,1500312601000.0,10016242
222214601,Murfreesboro,,1487861624000.0,35.78,-86.33,Shoira S,TN,1490140590000.0,10016242
210143816,Nashville,,1505065330000.0,36.16,-86.79,Shritesh Bhattarai,TN,1507583351000.0,10016242
45597012,Nashville,,1407063914000.0,36.17,-86.78,Shruti Sharma,TN,1418249353000.0,10016242
29017132,Franklin,,1460135968000.0,35.93,-86.81,Simon Herrera,TN,1485443096000.0,10016242
150289852,Nashville,,1430317517000.0,36.17,-86.72,Simone Gonzalez,TN,1491535922000.0,10016242
238021936,Nashville,,1507054607000.0,36.16,-86.79,Sisi Wang,TN,1507054607000.0,10016242
69060032,Nashville,,1407620828000.0,36.18,-86.74,Slain Jamison Wilde,TN,1421278897000.0,10016242
138972532,Nashville,,1422742628000.0,36.11,-86.86,Sonda Sengupta,TN,1494385922000.0,10016242
199539610,Nashville,,1482245161000.0,36.08,-86.72,Sorrel B.,TN,1499639962000.0,10016242
20386291,Nashville,,1405444547000.0,36.21,-86.72,Spencer Anastasio,TN,1486098594000.0,10016242
183585692,Nashville,,1423237020000.0,36.17,-86.78,Spencer Sharpe,TN,1452608218000.0,10016242
236332354,Fairview,,1505246406000.0,35.97,-87.13,Stacey Joplin,TN,1505246406000.0,10016242
170733682,Nashville,nashville,1459828555000.0,36.16,-86.79,stacy king,TN,1459828555000.0,10016242
203053536,Clarksville,,1475513620000.0,36.56,-87.41,staggosaurus,TN,1484172211000.0,10016242
228827230,Brentwood,,1496370696000.0,36.0,-86.79,Stanley Rajkumar Samala Melchias,TN,1496370696000.0,10016242
186981871,Nashville,Nashville,1448059657000.0,36.11,-86.78,Stefan,TN,1504205066000.0,10016242
190557229,Nashville,,1452627097000.0,36.18,-86.74,Stephanie,TN,1494473381000.0,10016242
212566420,Nashville,,1507404916000.0,36.1,-86.66,Stephanie Castellanos,TN,1507755465000.0,10016242
195767229,Nashville,,1447901720000.0,36.22,-86.86,stephanie goldstein,TN,1465313131000.0,10016242
27191232,Nashville,Meridian,1412114231000.0,36.08,-86.72,Stephanie Marie Farrell,TN,1412114231000.0,10016242
211231637,Nashville,,1475381613000.0,36.17,-86.78,Stephanie Provence,TN,1507666725000.0,10016242
13296497,Nashville,,1404928489000.0,36.13,-86.8,Stephen Burgin,TN,1451767229000.0,10016242
182492777,Nashville,,1415729683000.0,36.13,-86.8,Stephen Bussard,TN,1493826826000.0,10016242
28904692,Nashville,,1465141161000.0,36.13,-86.8,Stephen Killingsworth,TN,1497382965000.0,10016242
214391673,Nashville,,1475674062000.0,36.11,-86.86,Stephen P,TN,1475674062000.0,10016242
15270451,Nashville,Nashville,1429020471000.0,36.11,-86.86,Stephen Rogers,TN,1433187992000.0,10016242
180545392,Nashville,,1417824034000.0,36.17,-86.78,Stephen Smith,TN,1499447068000.0,10016242
197913247,Nashville,,1500580199000.0,36.21,-86.72,Stephen Szpak,TN,1507548728000.0,10016242
10223251,Nashville,"Nashville, TN",1397083132000.0,36.18,-86.74,Stephen Yeargin,TN,1446388892000.0,10016242
25308002,Chicago,,1433949285000.0,41.84,-87.63,Sterling Hankins,IL,1485667952000.0,10016242
17903,Nashville,,1405458494000.0,36.13,-86.8,Steve,TN,1422980306000.0,10016242
9961811,Murfreesboro,Nashville,1378917475000.0,35.82,-86.45,Steve 'Cutter' Blades,TN,1489097112000.0,10016242
206722517,Franklin,,1492622560000.0,35.92,-86.89,Steve Dykstra,TN,1494364353000.0,10016242
124378502,Nashville,,1389209624000.0,36.17,-86.79,Steve Henke,TN,1507750417000.0,10016242
181669882,Nashville,,1415141301000.0,36.17,-86.78,Steve Hunley,TN,1444777171000.0,10016242
213413268,Brentwood,,1474476741000.0,36.0,-86.79,Steve Jones,TN,1474476741000.0,10016242
200224755,Brentwood,,1456156463000.0,36.0,-86.79,Steve Joubert,TN,1456410418000.0,10016242
229991744,Nashville,,1497849323000.0,36.08,-86.72,Steve McKisic,TN,1504649930000.0,10016242
194640094,Nashville,,1445820351000.0,36.17,-86.78,Steve Nyemba,TN,1446192948000.0,10016242
191208778,Nashville,,1439353501000.0,36.17,-86.78,Steve Roche,TN,1439353501000.0,10016242
215550708,Nashville,,1477368886000.0,36.15,-86.81,Steve Talabi,TN,1477368886000.0,10016242
192542264,Nashville,,1457487118000.0,36.17,-86.78,Steve York,TN,1505318275000.0,10016242
12479395,Franklin,Pittsburgh,1380081027000.0,35.93,-86.81,Steven Brownlee,TN,1444862096000.0,10016242
51936922,Nashville,,1380549238000.0,36.13,-86.8,Steven Charles Boone,TN,1383873633000.0,10016242
159147752,Hermitage,,1406769211000.0,36.19,-86.6,Steven Critchfield,TN,1409863830000.0,10016242
148691802,Nashville,,1407341996000.0,36.16,-86.79,Steven Finley,TN,1410284068000.0,10016242
217409885,Brentwood,,1480367572000.0,36.0,-86.79,Steven Hodgkins,TN,1480514155000.0,10016242
217378572,Nashville,,1480313032000.0,36.17,-86.78,Steven Holmes,TN,1504106687000.0,10016242
186004705,Nashville,,1484697624000.0,36.13,-86.8,Steven Klein,TN,1484697624000.0,10016242
27531452,Nashville,,1502507212000.0,36.17,-86.79,Steven Rodriguez,TN,1502507212000.0,10016242
215205680,Nashville,,1476849439000.0,36.17,-86.78,Stow Alexander ,TN,1478399924000.0,10016242
208561758,Nashville,,1467915400000.0,36.17,-86.78,Stuart Terry,TN,1467915400000.0,10016242
143656952,Hyderabad,,1468162393000.0,17.4,78.48,subrahmanyam vaddi,,1506506458000.0,10016242
12753254,Pewaukee,Milwaukee,1470262234000.0,43.08,-88.26,Sufi,WI,1484981375000.0,10016242
218144684,Nashville,,1505321529000.0,36.17,-86.78,Susan Smith,TN,1505321529000.0,10016242
206664106,Nashville,,1473805307000.0,36.14,-86.74,Swann,TN,1486511789000.0,10016242
203289756,Knoxville,,1460571436000.0,35.96,-83.92,Tabitha Sue Smith,TN,1460571436000.0,10016242
124955032,Nashville,Nashville,1479706231000.0,36.09,-86.82,Tamara,TN,1491752414000.0,10016242
199854245,Nashville,,1457186099000.0,36.17,-86.72,Tamarcus Summers,TN,1470413775000.0,10016242
204129504,Mount Juliet,,1494362393000.0,36.22,-86.52,Tanner Plauché,TN,1504884113000.0,10016242
193013525,Nashville,,1444856102000.0,36.18,-86.74,Tanner Terry,TN,1444856102000.0,10016242
222065087,Nashville,,1487218080000.0,36.14,-86.74,Tarekegn Sisay,TN,1487218080000.0,10016242
213768028,Oak Grove,,1474935857000.0,36.68,-87.45,Tarshena Rodriguez,KY,1474935857000.0,10016242
206428101,Nashville,,1465013783000.0,36.17,-86.78,Tasha,TN,1471202687000.0,10016242
219620082,Nashville,,1484008978000.0,36.17,-86.78,Tasha Simmons,TN,1484008978000.0,10016242
211551769,Nashville,Nashville,1471995306000.0,36.18,-86.74,taylor,TN,1507900073000.0,10016242
188847988,Nashville,,1434723304000.0,36.06,-86.96,Taylor Hutchison,TN,1463382074000.0,10016242
126066112,Nashville,Nashville,1451352169000.0,36.17,-86.78,Taylor Michael Matson,TN,1486496125000.0,10016242
192489759,Nashville,,1441816864000.0,36.17,-86.78,Taylor Miley,TN,1455146729000.0,10016242
129222822,Nashville,"Purcellville, VA",1390281683000.0,36.11,-86.78,Taylor O'Connor,TN,1491834109000.0,10016242
219181828,Nashville,,1483469814000.0,36.17,-86.78,Taylor Perkins,TN,1486642735000.0,10016242
197780056,Nashville,,1452204526000.0,36.06,-86.96,Taylor Preston,TN,1507646949000.0,10016242
121576762,Nashville,,1415642223000.0,36.08,-86.72,Taylor Raboin,TN,1468907795000.0,10016242
197928971,Franklin,,1465568536000.0,35.92,-86.89,Ted,TN,1507747668000.0,10016242
182810851,Nashville,,1417549814000.0,36.14,-86.74,ted bapty,TN,1417549814000.0,10016242
38298192,Nashville,,1504635361000.0,36.17,-86.78,Ted Pennington,TN,1507753415000.0,10016242
151584092,Berkeley,Nashville,1507686772000.0,37.87,-122.26,Tejas Manohar,CA,1507686772000.0,10016242
229643678,Nashville,,1501608331000.0,36.11,-86.78,ten,TN,1508005567000.0,10016242
222495708,Nashville,,1500085484000.0,36.1,-86.66,Teresa Vasquez,TN,1507854828000.0,10016242
161375922,Nashville,,1479779240000.0,36.08,-86.7,Terrill Farmer,TN,1486591601000.0,10016242
216616550,Nashville,,1479083231000.0,36.17,-86.78,terry wineinger,TN,1479083231000.0,10016242
190363122,Franklin,New York,1437952296000.0,35.92,-86.89,Thad Parker,TN,1447076719000.0,10016242
210740935,Nashville,,1470842383000.0,36.08,-86.72,Theo Carnavos,TN,1470842383000.0,10016242
200889201,Murfreesboro,,1457103210000.0,35.82,-86.45,therealphatmike,TN,1457103210000.0,10016242
185785631,Brentwood,New York,1442087948000.0,36.0,-86.79,Thiruvengadathan Ramjee,TN,1473725627000.0,10016242
87420672,Nashville,,1412420483000.0,36.0,-86.69,Thomas Bangs,TN,1421318855000.0,10016242
87422082,Nashville,,1389034157000.0,36.17,-86.72,Thomas Bangs,TN,1407492827000.0,10016242
96716422,Nashville,,1439045800000.0,36.13,-86.8,Thomas Brown,TN,1439045800000.0,10016242
159012702,San Antonio,"San Antonio, TX",1446711910000.0,29.54,-98.42,Thomas C. Stowe,TX,1446711910000.0,10016242
212805064,Nashville,,1484009475000.0,36.17,-86.78,Thomas Fitzgerald,TN,1484009475000.0,10016242
182687890,Nashville,,1418164582000.0,36.16,-86.79,Thomas Kennedy,TN,1421350988000.0,10016242
4940157,Springfield,,1399901750000.0,36.52,-86.87,Tilghman Lesher,TN,1492036252000.0,10016242
198659262,Nashville,,1453825953000.0,36.11,-86.86,Tim,TN,1457466468000.0,10016242
6282863,Nashville,Dallas,1439392101000.0,36.18,-86.81,tim,TN,1452229064000.0,10016242
75509262,Nashville,,1461854493000.0,36.17,-86.78,Tim Ables,TN,1462400374000.0,10016242
98868072,Nashville,,1389196193000.0,36.13,-86.8,Tim Ambler,TN,1389306347000.0,10016242
135318882,Nashville,,1485290486000.0,36.15,-86.86,Tim B,TN,1507662130000.0,10016242
76842942,Nashville,,1449493960000.0,36.17,-86.78,Tim Catchim,TN,1452720775000.0,10016242
207034817,Nashville,,1465828077000.0,36.17,-86.78,Tim Creasy,TN,1507850857000.0,10016242
13766608,Spring Hill,Gogona,1490456104000.0,35.76,-86.88,Tim Duncklee,TN,1492120976000.0,10016242
12154880,Nashville,,1396288850000.0,36.17,-86.78,Tim Hart,TN,1399075927000.0,10016242
121418902,Brentwood,,1479006508000.0,36.0,-86.79,Tim Jones,TN,1479006508000.0,10016242
204244320,Nashville,,1484156401000.0,36.18,-86.74,Tim Maddux,TN,1499857375000.0,10016242
40336202,Antioch,Nashville,1441650380000.0,36.04,-86.64,Tim Pote,TN,1476063515000.0,10016242
11962573,Nashville,,1389158082000.0,36.13,-86.8,Tim Warren,TN,1466610713000.0,10016242
20781521,Murfreesboro,,1421175831000.0,35.87,-86.34,Tim Wickstrom,TN,1421175831000.0,10016242
195806604,Nashville,,1452548596000.0,36.17,-86.78,TimGragg,TN,1486269731000.0,10016242
170208462,Nashville,,1488902630000.0,36.17,-86.78,Timothy Beckett,TN,1506440462000.0,10016242
154269972,Franklin,,1443384577000.0,35.92,-86.89,Timothy James,TN,1443384577000.0,10016242
189077805,Franklin,Glendale,1501765471000.0,35.92,-86.89,Tobi Jo Schermuly,TN,1501765471000.0,10016242
101312342,Nashville,,1391991019000.0,36.17,-86.78,Tobin Quadros,TN,1505308880000.0,10016242
220705747,Nashville,,1487724712000.0,36.16,-86.79,Todd Broll,TN,1505308819000.0,10016242
110598422,Nashville,,1394743245000.0,36.17,-86.78,Todd Rizzolo,TN,1507905065000.0,10016242
213445120,Nashville,,1474513050000.0,36.17,-86.78,Toledo Crawford,TN,1474513050000.0,10016242
10316298,Nashville,,1378064693000.0,36.17,-86.78,Tom,TN,1490136478000.0,10016242
214824922,Nashville,,1476306682000.0,36.17,-86.78,Tom Brodhead,TN,1504133630000.0,10016242
124825542,Nashville,Nashville,1389541078000.0,36.18,-86.81,Tom Gilkison,TN,1394658936000.0,10016242
192159743,Nashville,,1441219394000.0,36.18,-86.74,Tom Leslie,TN,1491836795000.0,10016242
222212836,Nashville,,1487345620000.0,36.11,-86.78,Tom Wilson,TN,1487345620000.0,10016242
58171202,Nashville,,1433604529000.0,36.17,-86.78,Tommy Dickinson,TN,1433604529000.0,10016242
203950321,Hermitage,,1461527800000.0,36.19,-86.6,Tony Dwire,TN,1461527800000.0,10016242
228579440,Nashville,,1496080318000.0,36.17,-86.78,Tony Nash,TN,1504122904000.0,10016242
1889955,Murfreesboro,Hong Kong,1408531721000.0,35.82,-86.44,Tony Wan,TN,1417462053000.0,10016242
186111235,Nashville,"Bellingham, WA",1502250454000.0,36.07,-86.78,Tony-Tones,TN,1505395138000.0,10016242
194424021,Nashville,,1446822692000.0,36.17,-86.79,tope,TN,1446997622000.0,10016242
209290669,Nashville,,1468868561000.0,36.17,-86.78,Toren Carr,TN,1468868561000.0,10016242
8228323,Nashville,,1443705378000.0,36.17,-86.78,tracy ,TN,1476295487000.0,10016242
227382202,Nashville,,1494509319000.0,36.08,-86.72,Travis Green,TN,1494509319000.0,10016242
221122334,Murfreesboro,,1485904930000.0,35.78,-86.33,Travis Hoover,TN,1504112526000.0,10016242
218502866,Murfreesboro,,1482334328000.0,35.82,-86.45,Travis Lee Kenyon,TN,1482334328000.0,10016242
11805593,Nashville,"Concord, GA",1384200517000.0,36.09,-86.82,Travis Roberts,TN,1422980024000.0,10016242
129133182,Franklin,,1472882313000.0,35.92,-86.89,Travis Shepherd,TN,1508272699000.0,10016242
200091450,Nashville,,1455979057000.0,36.17,-86.72,Travis Vignon,TN,1491836135000.0,10016242
189698667,Brentwood,,1436468635000.0,36.0,-86.79,trent draughon,TN,1478624622000.0,10016242
138867992,Nashville,,1467028496000.0,36.17,-86.72,Trent Hand,TN,1503843733000.0,10016242
232676485,Nashville,,1501105476000.0,36.15,-86.81,Trev Lawson,TN,1502391728000.0,10016242
215319799,Antioch,Memphis,1478026219000.0,36.04,-86.64,Trevor Guinn,TN,1478026219000.0,10016242
218245402,Nashville,,1502830246000.0,36.13,-86.8,Trevor Noack,TN,1502830246000.0,10016242
239523016,Nashville,,1508733240000.0,36.17,-86.78,Trish,TN,1508733240000.0,10016242
186373394,Murfreesboro,,1429542501000.0,35.87,-86.34,Tristan Gordon,TN,1460501793000.0,10016242
208561446,Nashville,,1467915644000.0,36.17,-86.78,Tristan Greeno,TN,1493699348000.0,10016242
10201008,Nashville,,1390231015000.0,36.17,-86.78,Troy,TN,1400002433000.0,10016242
221073003,Nashville,,1485843960000.0,36.18,-86.81,Troy Ginyard Jr.,TN,1490244132000.0,10016242
204906987,Nashville,,1462917093000.0,36.17,-86.78,Trozdol,TN,1474675736000.0,10016242
8368579,Nashville,Cincinnati,1407499066000.0,36.18,-86.81,tsclausing,TN,1407592867000.0,10016242
233500180,Nashville,,1502118652000.0,36.14,-86.74,Tyler Barnett,TN,1507731147000.0,10016242
142073172,Honolulu,,1401755915000.0,21.31,-157.85,Tyler Boright,HI,1402963595000.0,10016242
216750774,Brentwood,,1484146650000.0,36.0,-86.79,Tyler Daniel,TN,1504887441000.0,10016242
206656293,Nashville,,1468368827000.0,36.17,-86.78,Tyler Daniel,TN,1478630835000.0,10016242
113225842,Nashville,,1410194505000.0,36.17,-86.78,Tyler Duffy,TN,1410194505000.0,10016242
206806749,Nashville,,1473891193000.0,36.17,-86.78,Tyler Evans,TN,1486564106000.0,10016242
236439535,Nashville,,1505342985000.0,36.17,-86.78,Tyler jurecki,TN,1505865204000.0,10016242
9154499,Nashville,,1402515211000.0,36.21,-86.72,Tyler Malone,TN,1418417427000.0,10016242
200636299,Nashville,,1456727687000.0,36.17,-86.78,Tyler Roberts,TN,1473242941000.0,10016242
11237953,Franklin,,1407178054000.0,35.93,-86.81,Tyrale,TN,1408055979000.0,10016242
182514833,Nashville,"Memphis, TN",1415830189000.0,36.17,-86.78,Tyrone Denny Stanley,TN,1452726045000.0,10016242
223332096,Smyrna,,1488915225000.0,35.97,-86.51,Tyson Cadenhead,TN,1506977442000.0,10016242
194027075,Nashville,,1474458481000.0,36.08,-86.72,Uchenna Aguocha,TN,1476275791000.0,10016242
97638342,Franklin,,1378847802000.0,35.93,-86.81,Uday Dutta,TN,1441758665000.0,10016242
216962893,Murfreesboro,,1479590061000.0,35.85,-86.36,Ukela Alred,TN,1488982575000.0,10016242
207061281,Nashville,,1468444265000.0,36.17,-86.78,Vaughn Walters,TN,1504156911000.0,10016242
213204354,Nashville,,1474220395000.0,36.17,-86.78,vedderman,TN,1474220395000.0,10016242
199054169,Franklin,,1454440850000.0,35.92,-86.89,Venkatesh,TN,1454440850000.0,10016242
191937356,Franklin,,1440774539000.0,35.93,-86.81,Venkatesh Deverakonda,TN,1440774539000.0,10016242
184492327,Nashville,,1451337888000.0,36.11,-86.78,Victor,TN,1476211495000.0,10016242
120681332,Nashville,,1457516210000.0,36.13,-86.8,Vincent Taylor,TN,1468411944000.0,10016242
104313112,Nashville,"Nashville, TN",1381150940000.0,36.08,-86.72,Vineel Lagishetty,TN,1507758645000.0,10016242
153676732,Nashville,,1412299311000.0,36.17,-86.78,Vishu G,TN,1470236547000.0,10016242
187010992,Murfreesboro,Nashville,1452222603000.0,35.82,-86.45,Wayne Elgin,TN,1507756808000.0,10016242
189596556,Nashville,,1436274160000.0,36.17,-86.78,Wayne Hutchinson,TN,1457555528000.0,10016242
8925798,Nashville,,1438226143000.0,36.17,-86.78,Wendy Williams,TN,1447280247000.0,10016242
141055762,Nashville,,1401723009000.0,36.16,-86.79,Wes Mangum,TN,1475963502000.0,10016242
207118547,Nashville,,1475365081000.0,36.08,-86.72,Wesley Lewis,TN,1504831214000.0,10016242
223344208,Nashville,,1488929808000.0,36.14,-86.74,Westley Isbell,TN,1494451214000.0,10016242
9852711,Nashville,Nashville,1388788695000.0,36.11,-86.86,Weston Hunter,TN,1507756881000.0,10016242
12248783,San Francisco,"Churchville, VA",1378265145000.0,37.77,-122.44,Whit Morriss,CA,1378265145000.0,10016242
202978621,Nashville,,1462632729000.0,36.1,-86.66,Whitney Mitchell,TN,1488931903000.0,10016242
105865382,Nashville,,1483575789000.0,36.18,-86.81,Wil Cantrell,TN,1486594255000.0,10016242
222558274,Nashville,,1491543605000.0,36.14,-86.74,Will Kotheimer,TN,1491967612000.0,10016242
211998902,Nashville,,1478040953000.0,36.17,-86.78,Will Norton,TN,1478040953000.0,10016242
217777034,Nashville,,1492029109000.0,36.08,-86.72,Will Pacetti,TN,1502219673000.0,10016242
219758760,Brentwood,,1484182842000.0,36.0,-86.79,Will Sims,TN,1484182842000.0,10016242
184295951,Nashville,,1423493839000.0,36.17,-86.78,Will Smith,TN,1423493839000.0,10016242
48232882,Nashville,Nashville,1426109769000.0,36.16,-86.79,Will Ward,TN,1505329741000.0,10016242
104949862,Chicago,Nashville,1449857654000.0,41.9,-87.67,Will WIlkins III,IL,1464392136000.0,10016242
316255,San Francisco,New York,1403199647000.0,37.77,-122.41,William,CA,1416159410000.0,10016242
227251282,Nashville,,1501886640000.0,36.18,-86.74,William Caldwell,TN,1505329653000.0,10016242
8111102,Nashville,,1378088144000.0,36.13,-86.8,William Golden,TN,1508274585000.0,10016242
189999979,Nashville,,1468175458000.0,36.17,-86.78,William Hickok,TN,1475966925000.0,10016242
91839162,Murray,,1378314735000.0,36.62,-88.25,William Holt,KY,1404852236000.0,10016242
225481395,Nashville,,1491936577000.0,36.13,-86.8,William Kyle Carnett,TN,1491936577000.0,10016242
123769982,Nashville,,1466115609000.0,36.16,-86.79,William Marshall Friskics-Warren,TN,1496426002000.0,10016242
184996090,Nashville,,1425609910000.0,36.22,-86.77,William Moroney,TN,1499879818000.0,10016242
150950742,Nashville,,1402624068000.0,36.17,-86.78,willkotheimer,TN,1507317186000.0,10016242
207994183,Nashville,,1467146215000.0,36.17,-86.78,Woody Evins,TN,1481229034000.0,10016242
238562122,Nashville,,1507637544000.0,36.15,-86.86,Yanina Bonetto,TN,1507637544000.0,10016242
146780342,Nashville,,1427178237000.0,36.16,-86.79,yes,TN,1475555191000.0,10016242
217757720,Alexandria,,1480963931000.0,38.76,-77.15,yonatan molla,VA,1491865559000.0,10016242
90420312,Nashville,,1459692303000.0,36.17,-86.78,Yoseph Ali Beki,TN,1506386526000.0,10016242
222627186,Nashville,,1487911333000.0,36.17,-86.79,Younggi Lee,TN,1487911333000.0,10016242
16503121,Brentwood,,1421298768000.0,36.0,-86.79,Yun,TN,1489003620000.0,10016242
151330032,Nashville,,1439177592000.0,36.16,-86.79,Yuri Livshitz,TN,1439347625000.0,10016242
219275333,Nashville,,1483575369000.0,36.15,-86.86,Yusuf Gürbüz,TN,1483575369000.0,10016242
221454263,Antioch,,1486320340000.0,36.04,-86.64,Yusuf Yusuf,TN,1486320340000.0,10016242
125464742,Nashville,,1388353529000.0,36.17,-86.78,Zac Crawford,TN,1388353529000.0,10016242
224883684,Nashville,,1491084106000.0,36.17,-86.79,Zac Crumpton,TN,1491084106000.0,10016242
225562389,Nashville,,1492048388000.0,36.17,-86.78,Zach,TN,1492048388000.0,10016242
208048638,Nashville,,1475251461000.0,36.17,-86.78,Zach Benton,TN,1486402675000.0,10016242
93478092,Nashville,Nashville,1455572208000.0,36.13,-86.8,Zach Blume,TN,1455572208000.0,10016242
45780702,Nashville,,1384178726000.0,36.17,-86.78,Zach Hendrix,TN,1389916552000.0,10016242
80386102,Nashville,,1378212605000.0,36.07,-86.78,Zach Keller,TN,1378212605000.0,10016242
183602124,Nashville,,1479774728000.0,36.11,-86.78,Zach Leaver,TN,1479774728000.0,10016242
213237301,Nashville,,1486519553000.0,36.17,-86.78,Zach Morse,TN,1508176053000.0,10016242
208987635,Nashville,,1481565228000.0,36.11,-86.86,Zach Parris,TN,1507578793000.0,10016242
182992991,Nashville,,1423676968000.0,36.17,-86.78,Zach Swift,TN,1507746779000.0,10016242
214480697,Canton,,1476851830000.0,35.53,-82.84,Zachary Cline ,NC,1506967574000.0,10016242
219502636,Nashville,,1486522618000.0,36.16,-86.79,Zachary Spence,TN,1508707208000.0,10016242
17686511,Nashville,,1470239453000.0,36.14,-86.74,Zack Register,TN,1470239453000.0,10016242
11658311,Nashville,Nashville,1495228288000.0,36.16,-86.79,Zack S.,TN,1502291132000.0,10016242
212434954,Nashville,,1473203858000.0,36.14,-86.74,Zakk George,TN,1482118274000.0,10016242
184032598,Nashville,,1422652138000.0,36.17,-86.78,Zane,TN,1492018968000.0,10016242
223847954,Nashville,,1494331229000.0,36.17,-86.78,Zarina,TN,1494473700000.0,10016242
89650582,Nashville,Sydney Australia,1496526698000.0,36.21,-86.72,Zelda Sheldon,TN,1496526698000.0,10016242
183535235,Nashville,Flushing,1504193626000.0,36.17,-86.78,Zhenting Zhou,TN,1507738766000.0,10016242
23897412,Charlottesville,Charlottesvile,1456017830000.0,38.04,-78.52,Zoe ,VA,1496786497000.0,10016242
155191662,Nashville,,1414699296000.0,36.17,-86.72,Zoe Ames,TN,1504109915000.0,10016242
208902421,Nashville,,1468358042000.0,36.17,-86.78,Zoltan A,TN,1507659000000.0,10016242
228760326,Nashville,,1496288084000.0,36.13,-86.8,Zubeir Osman,TN,1497537259000.0,10016242
