id,city,hometown,joined,lat,lon,name,state,visited,group_id
6144606,Smyrna,Smyrna,1389809745000.0,35.97,-86.51,Aaric Pittman,TN,1409252150000.0,11625832
65072762,Brentwood,Saratoga,1490289985000.0,36.0,-86.79,Aaron,TN,1501184709000.0,11625832
225546676,Nashville,,1492720680000.0,36.17,-86.78,Aaron Barfoot,TN,1501193480000.0,11625832
41795222,Murfreesboro,,1410286542000.0,35.78,-86.33,Aaron Carlton,TN,1458866467000.0,11625832
190499461,Nolensville,,1438011511000.0,35.94,-86.67,Aaron Hall,TN,1500053023000.0,11625832
205279429,Nashville,,1463424725000.0,36.06,-86.96,Aaron K,TN,1477602335000.0,11625832
66862502,Nashville,,1457046260000.0,36.17,-86.78,Aaron Price,TN,1457046260000.0,11625832
7768516,Springfield,"Urbandale, IA",1428932461000.0,36.52,-86.87,Aaron Webb,TN,1492874581000.0,11625832
5739275,Mount Juliet,"Clarksville, TN",1396128662000.0,36.22,-86.52,Aaron West,TN,1480637752000.0,11625832
198023758,Lewisburg,,1484163838000.0,35.45,-86.8,Abby Fleming,TN,1504708764000.0,11625832
8490124,Nashville,"Dawson Springs, KY",1421858281000.0,36.16,-86.79,Abe,TN,1448975829000.0,11625832
198899767,Nashville,,1454203512000.0,36.07,-86.73,Abhishek Khanal,TN,1454203512000.0,11625832
204843833,Nashville,,1462836144000.0,36.1,-86.66,Adam,TN,1508509494000.0,11625832
11832553,Nashville,"Wichita, KS",1414192183000.0,36.11,-86.78,Adam Barnhard,TN,1503586870000.0,11625832
225912929,Nashville,,1492529737000.0,36.17,-86.78,Adam Cantu,TN,1492547597000.0,11625832
15378171,Chattanooga,,1403642887000.0,35.04,-85.31,Adam Haney,TN,1415928788000.0,11625832
9946829,Nashville,Overland Park,1477105564000.0,36.13,-86.8,Adam Luchies,TN,1499867236000.0,11625832
187613627,Atlanta,,1432224546000.0,33.79,-84.38,Adam Prince,GA,1473184993000.0,11625832
137240422,Nashville,,1394807337000.0,36.17,-86.78,Adam R. Wilczek,TN,1404412525000.0,11625832
225859679,Nashville,"Rochester, NY",1497366562000.0,36.17,-86.72,Adam Shanley,TN,1508467442000.0,11625832
232611661,Nashville,,1501073115000.0,36.14,-86.74,Adam Smith,TN,1501252697000.0,11625832
34817302,Nashville,,1427889771000.0,36.13,-86.8,Adam Solesby,TN,1481131633000.0,11625832
216743295,Laguna Niguel,,1499714930000.0,33.53,-117.71,Adam Spencer Peithman,CA,1499714930000.0,11625832
193050180,Brentwood,Brentwood,1465491130000.0,36.0,-86.79,Adam Stracener,TN,1495206921000.0,11625832
196320644,Murfreesboro,,1449021383000.0,35.78,-86.33,Adam W,TN,1449021383000.0,11625832
231157684,Nashville,,1499274678000.0,36.17,-86.78,Adam White,TN,1499274678000.0,11625832
222934157,Nashville,,1488346737000.0,36.17,-86.78,Adamw,TN,1505803845000.0,11625832
135819732,Nashville,,1403625050000.0,36.17,-86.78,Addisu Taddese,TN,1503960685000.0,11625832
208414771,Nashville,,1467726079000.0,36.17,-86.78,adenmark86,TN,1468959564000.0,11625832
206481851,Nashville,,1474436116000.0,36.17,-86.78,Adia Tigney,TN,1475192057000.0,11625832
236437985,Nashville,,1505343509000.0,36.17,-86.79,Adia Tigney,TN,1505343509000.0,11625832
133174012,Antioch,,1421855403000.0,36.04,-86.64,AdiaAir,TN,1421855403000.0,11625832
9925060,Mount Juliet,"Karachi, Pakistan",1420933865000.0,36.22,-86.52,Adnan Hashmi,TN,1420933865000.0,11625832
174027432,San Jose,San Jose,1413737037000.0,37.29,-121.9,Adnan Pirzada,CA,1413737037000.0,11625832
13885682,New York,,1438268310000.0,40.76,-73.97,Adrian Fraiha,NY,1438268310000.0,11625832
110999952,Atlanta,,1454462711000.0,33.75,-84.31,Adrienne Lowe,GA,1505960281000.0,11625832
190415084,Knoxville,,1470682122000.0,35.92,-83.88,aerick zhang,TN,1470682122000.0,11625832
66609162,Nashville,Nashville,1426125916000.0,36.06,-86.96,Ahmet,TN,1508793683000.0,11625832
239072195,Nashville,,1508215881000.0,36.07,-86.73,Ajay Dev Chhokra,TN,1508215881000.0,11625832
14474678,Memphis,,1490090989000.0,35.07,-89.96,Al H,TN,1502245073000.0,11625832
11872972,Nashville,,1457025666000.0,36.13,-86.8,Alan,TN,1504204160000.0,11625832
194095164,Nashville,,1475638387000.0,36.15,-86.86,Alan Eatherly,TN,1475683124000.0,11625832
32005912,Brooklyn,,1405699872000.0,40.7,-73.99,Alan Laidlaw,NY,1458515733000.0,11625832
79288822,Brentwood,,1478816740000.0,35.96,-86.82,Alan Lee,TN,1478816740000.0,11625832
206489575,Nashville,,1465096718000.0,36.17,-86.78,Alandis,TN,1465096718000.0,11625832
237869773,Nashville,,1506888053000.0,36.17,-86.78,Alaric Reinhard,TN,1506946399000.0,11625832
177977752,Nashville,Buenos Aires,1413407818000.0,36.13,-86.8,Alejandro Molnar,TN,1477253664000.0,11625832
182702233,Saint Louis,,1440697003000.0,38.63,-90.19,Alex,MO,1440697003000.0,11625832
229856517,Thompsons Station,,1497753853000.0,35.8,-86.9,Alex Datzman,TN,1500729807000.0,11625832
185211112,Nashville,,1426257701000.0,36.13,-86.8,Alex Fish,TN,1426257701000.0,11625832
194494229,Nashville,,1473866714000.0,36.11,-86.86,Alex Horton,TN,1473866714000.0,11625832
155715342,Nashville,,1405010841000.0,36.17,-86.78,Alex Meyer,TN,1406753258000.0,11625832
13606604,Nashville,Nashville,1452185685000.0,36.17,-86.72,Alex Simonian,TN,1505946407000.0,11625832
182843052,Nashville,,1425142777000.0,36.17,-86.78,Alex Story,TN,1435759189000.0,11625832
224814154,Nashville,,1508524702000.0,36.14,-86.74,Alex Sutton,TN,1508524702000.0,11625832
72177052,Brentwood,"Brentwood, TN",1436404328000.0,36.0,-86.79,Alexander Antonison,TN,1506188842000.0,11625832
145371452,Nashville,Nashville,1477347709000.0,36.17,-86.72,Alexander Fedoseev,TN,1478061329000.0,11625832
208425479,Nashville,,1483917189000.0,36.17,-86.78,Alexander Poon,TN,1508564064000.0,11625832
191819003,Nashville,,1467829037000.0,36.17,-86.78,Alexander Swensen,TN,1506632772000.0,11625832
226667090,Clarksville,,1493538210000.0,36.53,-87.34,Alfred Johnson,TN,1493538210000.0,11625832
190707374,Franklin,,1438391320000.0,35.92,-86.89,Ali Yousef Al-hendas,TN,1438391320000.0,11625832
133078222,Nashville,,1392318864000.0,36.17,-86.78,Alicia Williams,TN,1392318864000.0,11625832
48224272,Nashville,,1389812479000.0,36.17,-86.78,Alisa Walling,TN,1389812479000.0,11625832
126309962,Nashville,,1447370817000.0,36.11,-86.86,Aliya Gifford,TN,1508471906000.0,11625832
199238890,Nashville,,1455684095000.0,36.13,-86.8,Allen Phelps,TN,1464301713000.0,11625832
85560402,Chattanooga,,1414073181000.0,35.0,-85.33,Allie O'Connell,TN,1424183391000.0,11625832
4413235,Nashville,Nashville,1503412594000.0,36.06,-86.96,Allison,TN,1503595872000.0,11625832
14219098,Nashville,,1450744642000.0,36.08,-86.72,Almae English,TN,1450744642000.0,11625832
220902681,Nashville,,1485641521000.0,36.08,-86.72,Alyssa Sidebottom,TN,1485641521000.0,11625832
188093089,Nashville,,1433192733000.0,36.17,-86.78,Am¥,TN,1433240990000.0,11625832
233275939,Nashville,,1501860945000.0,36.13,-86.8,Amanda Hendrix,TN,1501860945000.0,11625832
217955705,Gilbert,,1481305772000.0,33.26,-111.72,amanda perez,AZ,1505267685000.0,11625832
13128524,Nashville,,1400267083000.0,36.06,-86.96,Amber Adams,TN,1442967878000.0,11625832
204498222,Nashville,,1466991960000.0,36.13,-86.8,Amber Beckett,TN,1466991960000.0,11625832
182030842,Franklin,,1424459244000.0,35.92,-86.89,Amy,TN,1435156912000.0,11625832
33828812,Nashville,,1439332229000.0,36.13,-86.8,Amy E Flatt,TN,1473163824000.0,11625832
183825623,Nashville,,1424988266000.0,36.1,-86.66,Amy Flatt,TN,1468960145000.0,11625832
204871578,Clarksville,,1462873594000.0,36.49,-87.23,AnaKatarina Lalonde,TN,1462873594000.0,11625832
188279675,Murray,,1433572936000.0,36.62,-88.25,Andres Ricardo Pena Morena,KY,1464717219000.0,11625832
198976621,Chernivets'ka,,1454322379000.0,48.29,25.95,Andrew ,,1455674906000.0,11625832
196014675,Nashville,,1448384403000.0,36.18,-86.81,Andrew Bergeron,TN,1449071154000.0,11625832
231254596,Nashville,,1499389328000.0,36.17,-86.78,Andrew Campbell,TN,1499389328000.0,11625832
187254868,Nashville,"Chattanooga, TN",1431479960000.0,36.17,-86.78,Andrew Clement,TN,1506352965000.0,11625832
211212006,Goodlettsville,,1471523584000.0,36.32,-86.72,Andrew Fulton,TN,1471523584000.0,11625832
203716292,Nashville,,1461181297000.0,36.06,-86.96,Andrew Jackson,TN,1461181297000.0,11625832
238004513,Nashville,,1507038223000.0,36.11,-86.78,Andrew Laudato,TN,1507038223000.0,11625832
217867797,Nashville,,1481153858000.0,36.17,-86.78,Andrew LeMarc Polinski,TN,1481153858000.0,11625832
210836188,Nashville,,1470975923000.0,36.09,-86.82,Andrew Marshall,TN,1477582942000.0,11625832
218335610,Hendersonville,,1482012335000.0,36.32,-86.61,Andrew Paul Berry,TN,1483326861000.0,11625832
190463587,Antioch,Green Cove,1448837575000.0,36.04,-86.64,Andrew S,TN,1454031472000.0,11625832
191000087,La Vergne,,1454966454000.0,36.01,-86.57,Andri Alexandrou,TN,1456440680000.0,11625832
86402252,Nashville,,1471706627000.0,36.13,-86.8,Andy Collins,TN,1506636414000.0,11625832
5739749,Nashville,Nashville,1456405470000.0,36.18,-86.74,Andy Matthews,TN,1456517175000.0,11625832
178742432,Nashville,,1504270102000.0,36.15,-86.79,Andy Million,TN,1508241939000.0,11625832
73895512,Nashville,,1461724272000.0,36.17,-86.78,Angela Howard,TN,1499362251000.0,11625832
184629452,Nashville,,1449072976000.0,36.16,-86.79,Angelita G,TN,1453824533000.0,11625832
201861629,Nashville,,1496341632000.0,36.17,-86.78,Angus Gray,TN,1507750047000.0,11625832
195799113,Nashville,,1447964020000.0,36.15,-86.86,Anirban Bhattacharjee,TN,1472145813000.0,11625832
236314344,Murfreesboro,,1505233438000.0,35.85,-86.36,ankit patel,TN,1506790832000.0,11625832
183029100,Franklin,,1437104810000.0,35.92,-86.89,Anne,TN,1437104810000.0,11625832
143437442,Franklin,,1429830248000.0,35.92,-86.89,Anthony Fox,TN,1503655373000.0,11625832
195093562,Franklin,,1449113757000.0,35.92,-86.89,Anthony Gentry,TN,1449113757000.0,11625832
63547732,Nashville,,1406608613000.0,36.17,-86.78,Anthony Gentry,TN,1406608613000.0,11625832
217749308,Nashville,,1480952309000.0,36.17,-86.78,Anthony Manker,TN,1501194893000.0,11625832
205010609,Smyrna,,1463069886000.0,35.97,-86.51,Anton Coleman,TN,1463069886000.0,11625832
204624290,Clarksville,,1472864729000.0,36.53,-87.35,Antonia Cassida,TN,1477508932000.0,11625832
200845247,Nashville,,1457033416000.0,36.06,-86.96,Antonio Lassandro,TN,1457033416000.0,11625832
14593999,Nashville,,1436479752000.0,36.07,-86.73,antonio Sanford,TN,1471617099000.0,11625832
192501596,Murfreesboro,,1507873609000.0,35.82,-86.45,April Faircloth Collier,TN,1507873609000.0,11625832
160636992,Washington,,1458237483000.0,38.91,-77.02,Ardy,DC,1494773610000.0,11625832
186777303,Madison,,1437780351000.0,36.26,-86.71,Arenas Viscatanius,TN,1485290424000.0,11625832
185037541,Nashville,,1425743765000.0,36.06,-86.96,Ariel Benjamin,TN,1425743765000.0,11625832
59507012,Nashville,nashville,1468518671000.0,36.08,-86.72,Aron,TN,1469020022000.0,11625832
71531062,Nashville,"Visakhapatnam, IN",1469497675000.0,36.13,-86.86,Arun Aryasomayajula,TN,1478028136000.0,11625832
211277827,Nashville,,1485466818000.0,36.17,-86.78,Arun Khatri,TN,1485466818000.0,11625832
95134222,Franklin,Franklin,1389813040000.0,35.93,-86.81,Asheesh Vashishtha,TN,1411567111000.0,11625832
204294527,Nashville,,1462034357000.0,36.17,-86.78,Ashish,TN,1462034357000.0,11625832
217825368,Nashville,Franklin,1486662911000.0,36.18,-86.81,Ashish Gauli,TN,1495753718000.0,11625832
201309823,Nashville,,1457710616000.0,36.17,-86.78,Ashleigh,TN,1463430239000.0,11625832
220614626,Nashville,,1501612965000.0,36.07,-86.78,Ashley Canino,TN,1501679280000.0,11625832
13334523,Nashville,,1422938430000.0,36.18,-86.74,Ashley Dowsley,TN,1422938430000.0,11625832
234059550,Brentwood,,1502757686000.0,36.0,-86.79,Ashley Hawkins,TN,1502757686000.0,11625832
238266218,Murfreesboro,,1507315950000.0,35.85,-86.36,Ashley Loftis,TN,1508292871000.0,11625832
126085452,Nashville,"Saint Louis, MO",1483976518000.0,36.17,-86.78,Aspen Nguyen,TN,1487432995000.0,11625832
14948621,Nashville,,1469822553000.0,36.16,-86.79,Audrey,TN,1471622675000.0,11625832
8403046,Nashville,,1422803753000.0,36.16,-86.79,Audrey Cermak,TN,1422803753000.0,11625832
234957265,Mount Juliet,,1503778404000.0,36.22,-86.52,"Aurora ""Murphy"" Carlisle",TN,1503778404000.0,11625832
185140466,Los Altos,Los Altos,1426875759000.0,37.37,-122.14,Austin,CA,1435114463000.0,11625832
186890127,Nashville,,1492134712000.0,36.07,-86.73,Austin,TN,1493507740000.0,11625832
183586944,Nashville,,1442278448000.0,36.08,-86.72,Austin Erlandson,TN,1491312246000.0,11625832
158212142,Nashville,,1406288346000.0,36.17,-86.78,Austin Fogle,TN,1406288346000.0,11625832
232300966,Clarksville,,1500647890000.0,36.56,-87.41,Austin Wheeler,TN,1500647890000.0,11625832
53439252,Hendersonville,Nashville,1507068172000.0,36.32,-86.61,Avi,TN,1508557527000.0,11625832
183749942,Nashville,,1435672646000.0,36.09,-86.82,ayumi fukuda bennett,TN,1441142863000.0,11625832
185673028,Nashville,,1494184779000.0,36.06,-86.96,Aziz,TN,1499873794000.0,11625832
182501037,Nashville,Nashville,1426034940000.0,36.11,-86.86,BA,TN,1508297282000.0,11625832
187906383,Nashville,,,36.18,-86.73,,TN,,11625832
214041709,San Francisco,,1477589648000.0,37.8,-122.41,Barrett Cook,CA,1477589648000.0,11625832
196664025,Hendersonville,,1449707771000.0,36.32,-86.61,Bart H,TN,1462385937000.0,11625832
231865789,Adolphus,,1500112619000.0,36.67,-86.28,BARTORICO,KY,1500112619000.0,11625832
75873682,Nashville,,1497912363000.0,36.17,-86.78,Bayron,TN,1499618701000.0,11625832
220624758,Nashville,,1486674629000.0,36.14,-86.74,BCaldwell,TN,1490025933000.0,11625832
8034675,Nashville,"McCalla, AL",1400725829000.0,36.08,-86.72,Beau Bristow,TN,1407974108000.0,11625832
214275739,Nashville,,1475538410000.0,36.17,-86.78,Belve Marks,TN,1505943086000.0,11625832
184251699,Hendersonville,,1469490934000.0,36.32,-86.61,ben,TN,1498170670000.0,11625832
225067604,Nashville,,1491360846000.0,36.13,-86.8,Ben,TN,1496777901000.0,11625832
207185905,Nashville,,1466025744000.0,36.09,-86.82,Ben,TN,1491281404000.0,11625832
234199314,Nashville,,1502918692000.0,36.17,-86.78,Ben Balch,TN,1504880877000.0,11625832
211122450,Spring Hill,,1471391410000.0,35.76,-86.88,Ben Elsberry,TN,1476209920000.0,11625832
232611325,Nashville,,1501024376000.0,36.17,-86.78,Ben Harrington,TN,1501024376000.0,11625832
217309361,Nashville,,1493334437000.0,36.17,-86.78,Ben Maxwell,TN,1503518866000.0,11625832
216636205,Nashville,Nashville,1482517405000.0,36.08,-86.72,Ben Miner,TN,1498067991000.0,11625832
7606093,Davis,"Davis, CA",1464703152000.0,38.56,-121.75,Ben S.,CA,1464880572000.0,11625832
184971649,Fairfax,,1425536801000.0,37.96,-122.62,Ben Schwartz,CA,1508243826000.0,11625832
196440238,Nolensville,,1456413908000.0,35.94,-86.67,Benjamin Bledsoe,TN,1461097302000.0,11625832
154468512,Nashville,,1405031492000.0,36.1,-86.66,Benjamin Sparks,TN,1421965067000.0,11625832
185016751,Shelbyville,,1425676022000.0,35.48,-86.47,Benji York,TN,1472892278000.0,11625832
160179142,Nashville,,1429048060000.0,36.06,-86.96,Bhumi,TN,1429048060000.0,11625832
198785980,Clarksville,,1454022153000.0,36.53,-87.35,Bill F.,TN,1476308027000.0,11625832
12140530,Nashville,"Birmingham, AL",1389371228000.0,36.11,-86.86,Bill Israel,TN,1508788092000.0,11625832
23469141,Nashville,,1433519936000.0,36.09,-86.82,Bill Nunley,TN,1433519936000.0,11625832
187188675,Bethpage,,1431353591000.0,36.51,-86.32,Bill Roberson,TN,1431353591000.0,11625832
140101592,Nashville,,1407357673000.0,36.17,-86.78,Bill Wilkinson,TN,1408042999000.0,11625832
234324964,Nashville,,1503065286000.0,36.17,-86.72,Bingxu Ren,TN,1503607092000.0,11625832
183090370,Brentwood,,1419294915000.0,36.0,-86.79,BJ,TN,1419294915000.0,11625832
136399942,Nashville,,1425486902000.0,36.21,-86.72,Blaise,TN,1500492930000.0,11625832
165547842,Kingston Springs,Kingston Springs,1436325501000.0,36.09,-87.12,Blake,TN,1438287324000.0,11625832
221750289,Nashville,,1495041962000.0,36.17,-86.78,Blake Harris,TN,1506128427000.0,11625832
209281350,Nashville,,1468858679000.0,36.17,-86.78,Blake Storts,TN,1468858679000.0,11625832
9005384,Nashville,"Greensboro, NC",1474218829000.0,36.17,-86.78,Blake Urmos,TN,1508241081000.0,11625832
200303216,Spring Hill,Spring Hill,1456257809000.0,35.76,-86.88,BMShake,TN,1456257809000.0,11625832
215842254,Franklin,,1477834744000.0,35.93,-86.84,Bob Perry,TN,1505618698000.0,11625832
125031252,Nashville,,1458372908000.0,36.17,-86.78,Bobby Mulligan,TN,1471809405000.0,11625832
237683429,Nashville,,1506671070000.0,36.15,-86.86,Boburmirzo Sirojiddinov,TN,1506671070000.0,11625832
235931355,Nashville,,1504840251000.0,36.1,-86.66,Bode Alao-Festus,TN,1504840251000.0,11625832
184776969,Nashville,,1424979707000.0,36.17,-86.72,Brad Applebaum,TN,1427320791000.0,11625832
105023452,Nashville,,1425579722000.0,36.17,-86.78,Brad Janke,TN,1444076690000.0,11625832
51689852,Franklin,Franklin,1407165359000.0,35.92,-86.89,Brad Lilley,TN,1464020600000.0,11625832
15360711,Memphis,"Bartlett, TN",1417793295000.0,35.23,-89.85,Brad Montgomery,TN,1500908643000.0,11625832
203239640,Franklin,,1460498979000.0,35.93,-86.81,Bradley Guthrie,TN,1462149944000.0,11625832
182825842,Nashville,,1435772837000.0,36.17,-86.78,Brady Bolf,TN,1449868994000.0,11625832
227186695,Hermitage,,1494250250000.0,36.19,-86.6,Branden Butler,TN,1504634782000.0,11625832
199783637,Franklin,,1455555529000.0,35.93,-86.81,Brandon,TN,1488384059000.0,11625832
137040072,Nashville,,1394683874000.0,36.08,-86.72,brandon,TN,1405027539000.0,11625832
14135900,Nashville,Nashville,1399295286000.0,36.11,-86.78,Brandon,TN,1399295286000.0,11625832
113455192,Nashville,Nashville,1413920459000.0,36.17,-86.72,Brandon,TN,1413920459000.0,11625832
184117514,Thompsons Station,Thompson's Station,1476207007000.0,35.8,-86.9,Brandon,TN,1508245903000.0,11625832
186658212,Killen,Killen,1468637067000.0,34.91,-87.5,Brandon Bost,AL,1469643920000.0,11625832
63821422,Dickson,,1399130024000.0,36.08,-87.43,Brandon Bradley,TN,1501188641000.0,11625832
75277202,Morrisville,Morrisville,1389723576000.0,35.83,-78.84,Brandon Joseph Lyons,NC,1437417945000.0,11625832
205330458,Nashville,,1463492309000.0,36.07,-86.73,Brandon No. 9,TN,1508621079000.0,11625832
20105041,Franklin,Franklin,1394639051000.0,35.93,-86.81,Brandon W,TN,1487881384000.0,11625832
38665162,Nashville,Nashville,1392141837000.0,36.07,-86.78,bren letson,TN,1508597054000.0,11625832
62418442,Nashville,,1472221397000.0,36.16,-86.79,Brenda Dillard,TN,1472221397000.0,11625832
202812849,Christiana,,1459896009000.0,35.71,-86.36,Brendan Cooney,TN,1469799487000.0,11625832
189366135,Murfreesboro,,1435792288000.0,35.87,-86.44,Brendan Englehart,TN,1441825093000.0,11625832
177283622,Nashville,,1413157904000.0,36.13,-86.8,Brendan Kennedy,TN,1414018024000.0,11625832
60802462,Nashville,,1436305457000.0,36.15,-86.79,Brendon Pierson,TN,1506634199000.0,11625832
237083534,Clarksville,,1506006365000.0,36.49,-87.23,Brent Berry,TN,1506006365000.0,11625832
6515953,Nashville,Nashville,1433118009000.0,36.16,-86.79,brian,TN,1433118009000.0,11625832
3438546,Nashville,New York,1389367077000.0,36.22,-86.86,Brian,TN,1506539100000.0,11625832
82911172,Springfield,Springfield,1456416088000.0,36.52,-86.87,Brian Beard,TN,1458598844000.0,11625832
184135445,Nashville,Nashville,1423096298000.0,36.08,-86.72,Brian Broll,TN,1503536773000.0,11625832
7752299,Atlanta,,1455142375000.0,33.86,-84.4,Brian Holland,GA,1506127571000.0,11625832
14589429,Franklin,Nashville,1405368001000.0,35.92,-86.89,Brian Johnson,TN,1503511420000.0,11625832
185985798,Nashville,,1446217596000.0,36.17,-86.72,Brian Macheski,TN,1478924216000.0,11625832
41530662,Clarksville,Clarksville,1502825670000.0,36.49,-87.23,Brian Mautz,TN,1502825670000.0,11625832
7981818,Nashville,Nashville,1392953417000.0,36.15,-86.86,Brian Pitts,TN,1503574447000.0,11625832
186256670,Nashville,,1429240512000.0,36.06,-86.96,Brian Rutledge,TN,1494988556000.0,11625832
203774618,Nashville,,1461266288000.0,36.17,-86.78,Brian Sauls,TN,1461266288000.0,11625832
184019319,Hermitage,Nashville,1456414251000.0,36.19,-86.6,Brian Stumbaugh,TN,1501122707000.0,11625832
150774502,Nashville,,1450552339000.0,36.08,-86.72,Brian Tonnies,TN,1450552339000.0,11625832
8079085,Nashville,,1416423500000.0,36.06,-86.96,Brian Wilkins,TN,1416423500000.0,11625832
192170178,Spring Hill,,1441220622000.0,35.76,-86.88,Brian Wilkins,TN,1487349815000.0,11625832
189578984,Madison,,1486616689000.0,36.26,-86.71,Brian York,TN,1490981226000.0,11625832
136867332,North Charleston,Charleston,1394593475000.0,32.86,-79.99,Brice Burgess,SC,1410993280000.0,11625832
205227586,Nashville,,1463358499000.0,36.08,-86.72,Brindha,TN,1463358499000.0,11625832
186005970,Nashville,Nashville,1497219682000.0,36.18,-86.74,Brittain Brantley,TN,1504638527000.0,11625832
193175352,Nashville,,1502683017000.0,36.06,-86.96,Britton Woodall,TN,1502683017000.0,11625832
174577162,Nashville,,1464714344000.0,36.17,-86.78,Brock,TN,1487892309000.0,11625832
4583759,Nashville,,1443029023000.0,36.06,-86.96,Bruce Lueckenhoff,TN,1475239816000.0,11625832
196605133,Nashville,,1490367235000.0,36.15,-86.86,Bryan DeLeon,TN,1495470626000.0,11625832
183056813,Nashville,Nashville,1432240878000.0,36.1,-86.66,Bryan Finlayson,TN,1452875550000.0,11625832
22199791,Nashville,Jackson TN,1460656744000.0,36.17,-86.79,Bryan Kemp,TN,1469570487000.0,11625832
14494537,Franklin,"Mission Viejo, CA",1399479962000.0,35.93,-86.81,Bryan Mayes,TN,1508464470000.0,11625832
129122472,Antioch,,1437320802000.0,36.17,-86.88,Bryan Overbey,TN,1484148673000.0,11625832
127214502,Smyrna,,1482896374000.0,35.97,-86.51,Bryan P Marlowe,TN,1508245196000.0,11625832
119899042,Nashville,Nashville,1498241083000.0,36.17,-86.78,Bryan Ricci,TN,1498241083000.0,11625832
19147021,Nashville,,1491358364000.0,36.16,-86.79,Bryon Larrance,TN,1505533614000.0,11625832
237110939,Nashville,,1506031055000.0,36.17,-86.78,Burns Proctor,TN,1506624850000.0,11625832
197440669,Clarksville,,1464012142000.0,36.49,-87.23,C.J Tate,TN,1469023748000.0,11625832
27432622,Pittsburgh,,1394668498000.0,40.5,-80.07,Caitlin Windsor Cunningham,PA,1394668498000.0,11625832
195750926,Nashville,,1454361213000.0,36.17,-86.78,Caleb,TN,1466361201000.0,11625832
230688809,Nashville,,1498685576000.0,36.17,-86.78,Caleb Bates,TN,1498685576000.0,11625832
206198140,Nashville,,1505051352000.0,36.17,-86.77,Caleb Cordell,TN,1505051352000.0,11625832
185930712,Nashville,,1440788381000.0,36.17,-86.72,Caleb Gregory,TN,1444171854000.0,11625832
3567354,Fishers,"New Palestine, IN",1429823012000.0,39.95,-85.97,Calvin Hendryx-Parker,IN,1429823012000.0,11625832
216304685,Saint Louis,,1498097033000.0,38.63,-90.19,Calvin Horrell,MO,1498219804000.0,11625832
203244569,Antioch,"Nashville, TN",1478793401000.0,36.04,-86.64,Calvin J.,TN,1498088449000.0,11625832
1996452,Nashville,Murfreesboro/Nashville,1445022353000.0,36.08,-86.72,Cam Marshall,TN,1474667261000.0,11625832
198774029,Cincinnati,,1499140373000.0,39.15,-84.52,Cambric,OH,1499140373000.0,11625832
10219152,Nashville,Nashville,1487084007000.0,36.17,-86.78,Cameron,TN,1505943399000.0,11625832
185214546,Franklin,,1426267310000.0,35.92,-86.89,Carl,TN,1498233251000.0,11625832
206507631,Nashville,,1465128209000.0,36.05,-86.67,Carl D ,TN,1466267771000.0,11625832
176787362,Nashville,Nashville,1426940599000.0,36.17,-86.72,Carl F.,TN,1426940599000.0,11625832
205937561,Nashville,,1464319987000.0,36.08,-86.72,Carleton Coggins,TN,1506284872000.0,11625832
233236221,Nashville,,1501808188000.0,36.18,-86.74,Carol Kraemer,TN,1501808188000.0,11625832
94967522,Madison,,1471404965000.0,36.28,-86.72,Carol Mears,TN,1485646178000.0,11625832
137118442,Nashville,,1394733513000.0,36.17,-86.78,Carolyn Bartkus,TN,1394733513000.0,11625832
110532532,Franklin,,1425484595000.0,35.92,-86.89,Carrie,TN,1425484595000.0,11625832
155529942,Bowling Green,,1407768865000.0,37.02,-86.46,Carson White,KY,1469728119000.0,11625832
208949319,Nashville,,1468990581000.0,36.17,-86.78,Carter Harris,TN,1477507387000.0,11625832
190353760,Nashville,,1437753164000.0,36.16,-86.79,Cartter Kerr,TN,1437759648000.0,11625832
1775843,Nashville,Nashville,1453240722000.0,36.17,-86.79,Casey,TN,1493318130000.0,11625832
69108412,Nashville,,1475010378000.0,36.09,-86.82,Casey Brock,TN,1475010378000.0,11625832
217562544,Nashville,,1480622299000.0,36.17,-86.78,Casey Dailey,TN,1497994955000.0,11625832
216892372,Murfreesboro,,1479480434000.0,35.85,-86.36,Casey Tomberlin,TN,1502293871000.0,11625832
191848330,Nashville,,1440602442000.0,36.17,-86.78,Catherine Hardin,TN,1458244994000.0,11625832
197965134,Nashville,,1452542751000.0,36.08,-86.72,cgpeanut,TN,1452542751000.0,11625832
238263852,Nashville,,1507314327000.0,36.16,-86.79,Chad,TN,1507314327000.0,11625832
233601566,Nashville,,1503939541000.0,36.17,-86.78,Chad Rusk,TN,1504703848000.0,11625832
57907252,Nashville,,1389749221000.0,36.09,-86.82,Chad Upjohn,TN,1508240959000.0,11625832
12825115,Nashville,Nashville,1480566595000.0,36.15,-86.86,Chad You,TN,1506541497000.0,11625832
171146012,Bentonville,,1470619880000.0,36.34,-94.24,Chaitanya Kolluru,AR,1471967797000.0,11625832
214422389,Nashville,,1492052324000.0,36.17,-86.78,Chandan Marella,TN,1492052324000.0,11625832
226450956,Nashville,,1493234363000.0,36.17,-86.78,Chandler W.,TN,1493327175000.0,11625832
211626236,Davidson,,1472174058000.0,35.48,-80.82,Chang,NC,1501120595000.0,11625832
189049801,Nashville,,1435135436000.0,36.17,-86.78,Chardonne Dixon,TN,1435254698000.0,11625832
5216038,Hendersonville,Hendersonville,1424979015000.0,36.32,-86.61,Charles,TN,1495754656000.0,11625832
12541555,Huntsville,,1484874855000.0,34.76,-86.68,Charles,AL,1493320000000.0,11625832
228490927,Memphis,,1495942858000.0,35.15,-90.05,Charles Constantine,TN,1495942858000.0,11625832
182244702,Chattanooga,,1495021311000.0,35.04,-85.31,Charles Mcdowell,TN,1495021311000.0,11625832
222957474,Brentwood,,1488386539000.0,36.0,-86.79,Charles Paik,TN,1497451715000.0,11625832
232010564,Murfreesboro,,1500296546000.0,35.82,-86.45,Charlie Apigian,TN,1503281681000.0,11625832
135965262,Nashville,Nashville,1394076793000.0,36.16,-86.79,Charlie McMackin,TN,1427369908000.0,11625832
202907404,Nashville,,1460037719000.0,36.17,-86.78,Chase Ramsey,TN,1500936966000.0,11625832
227816832,Nashville,,1495083359000.0,36.11,-86.78,Chauncey Nahsco,TN,1495083359000.0,11625832
186214562,Nashville,Nashville,1432136105000.0,36.1,-86.66,Chelsea (Creative) Burns,TN,1442537657000.0,11625832
113032392,Nashville,Nashville,1490274761000.0,36.16,-86.79,chen hajaj,TN,1508335087000.0,11625832
49850062,Nashville,Santa Ana,1466047492000.0,36.11,-86.78,Cheo,TN,1489683872000.0,11625832
191426144,Nashville,,1473277737000.0,36.17,-86.78,Chip Carnes,TN,1506487297000.0,11625832
10315636,Nashville,,1480516176000.0,36.17,-86.78,"Chris ""Van"" Deventer",TN,1480516176000.0,11625832
199006708,Nashville,,1460496974000.0,36.07,-86.78,Chris Anderson,TN,1467262184000.0,11625832
191812682,Lebanon,,1440531629000.0,36.21,-86.31,Chris Berry,TN,1441119446000.0,11625832
194144818,Nashville,,1478207829000.0,36.17,-86.79,Chris Birdsong,TN,1478207829000.0,11625832
162747192,Thompsons Station,,1408643031000.0,35.8,-86.9,Chris C,TN,1476795154000.0,11625832
12965333,Charlotte,Knoxville,1390938508000.0,35.31,-80.81,Chris Clark,NC,1390938508000.0,11625832
72584402,Huntsville,Huntsville,1396534510000.0,34.67,-86.56,Chris Compton,AL,1404940913000.0,11625832
207053119,Nashville,,1499876666000.0,36.17,-86.78,Chris Cummings,TN,1499876666000.0,11625832
30486582,Nashville,,1399295025000.0,36.17,-86.79,Chris Douglass,TN,1399295025000.0,11625832
204609819,Nashville,Nashville,1474493941000.0,36.08,-86.72,Chris Duke,TN,1478005736000.0,11625832
224389047,Franklin,,1493669447000.0,35.92,-86.89,Chris Dunleavy,TN,1493669447000.0,11625832
209082365,Nashville,,1506609988000.0,36.17,-86.78,Chris Dunleavy,TN,1507045905000.0,11625832
4393825,Nashville,Nashville,1420431357000.0,36.18,-86.74,Chris Fonnesbeck,TN,1508246294000.0,11625832
13141514,Nashville,Nashville,1389729968000.0,36.06,-86.96,Chris Gemignani,TN,1490013754000.0,11625832
58223312,Nashville,"Nashville, TN",1389649814000.0,36.06,-86.96,Chris Graffagnino,TN,1503590610000.0,11625832
184547023,Nashville,,1427682865000.0,36.16,-86.79,Chris Jarvis,TN,1508238895000.0,11625832
2417378,Nashville,Nashville,1506460171000.0,36.21,-86.72,Chris Lee,TN,1508369501000.0,11625832
173858412,Franklin,"Slidell, LA",1475591269000.0,35.92,-86.89,Chris McKnight,TN,1504297186000.0,11625832
9566749,Murfreesboro,,1420733994000.0,35.82,-86.45,Chris McLaurin,TN,1420733994000.0,11625832
42506,Nashville,,1402623101000.0,36.06,-86.96,Chris Meador,TN,1508283327000.0,11625832
236578093,Nashville,,1505483319000.0,36.21,-86.72,Chris Mellor,TN,1505483319000.0,11625832
36484792,Nashville,"Niceville, FL",1390859299000.0,36.17,-86.78,Chris Mihalcik,TN,1478021875000.0,11625832
208732641,Nashville,,1468150625000.0,36.18,-86.74,Chris Miller,TN,1468150625000.0,11625832
184185824,Nashville,Nashville,1423141768000.0,36.08,-86.72,Chris Newman,TN,1503585255000.0,11625832
212702006,Nashville,,1473564564000.0,36.17,-86.79,Chris O,TN,1473564564000.0,11625832
225797989,Madison,,1495312303000.0,36.26,-86.71,Chris Plettner,TN,1495312303000.0,11625832
154569692,Nashville,,1479178810000.0,36.17,-86.78,Chris Ramirez,TN,1479178810000.0,11625832
215531726,Nashville,,1480984904000.0,36.17,-86.78,Chris S,TN,1481006719000.0,11625832
47572122,Nashville,Chicago,1395081912000.0,36.17,-86.78,Chris SpinMan Spintzyk,TN,1424813186000.0,11625832
222300882,La Vergne,,1487468732000.0,36.01,-86.57,Chris Talley,TN,1487468732000.0,11625832
227014606,Nashville,,1504289207000.0,36.17,-86.78,Chris Vandenberg,TN,1504289207000.0,11625832
217458895,Nashville,,1480446865000.0,36.17,-86.78,Christa Deeanne,TN,1480446865000.0,11625832
184921907,Hendersonville,,1434049214000.0,36.32,-86.61,Christel Alvarez ,TN,1470331281000.0,11625832
183845401,Nashville,,1426197799000.0,36.17,-86.78,Christen Butler,TN,1463509864000.0,11625832
93358632,Nashville,,1447355209000.0,36.18,-86.74,Christian Hung,TN,1489852123000.0,11625832
197773687,Nashville,,1452196527000.0,36.09,-86.82,Christian Rachmaninoff,TN,1463932842000.0,11625832
184861611,Murfreesboro,,1475024078000.0,35.87,-86.34,Christina,TN,1475024078000.0,11625832
143407172,Nashville,"Bay Area, CA",1472872299000.0,36.08,-86.72,Christina Keelan Cottrell,TN,1498002156000.0,11625832
25228452,Brentwood,,1432903984000.0,36.0,-86.79,Christopher Dorn,TN,1474926828000.0,11625832
173769292,Nashville,,1413980046000.0,36.08,-86.72,Christopher Gabel,TN,1493346792000.0,11625832
112725222,Nashville,,1394388419000.0,36.17,-86.78,Christopher Gordon,TN,1394388419000.0,11625832
192638043,Nashville,,1442093970000.0,36.09,-86.82,Christopher Lane,TN,1442093970000.0,11625832
188661696,Nashville,,1474073036000.0,36.22,-86.77,Christopher Wilson,TN,1486540015000.0,11625832
211029382,Memphis,,1491571788000.0,35.15,-90.05,Claire Coulter,TN,1497452029000.0,11625832
186732809,Nashville,,1430326707000.0,36.17,-86.78,Clark Perkins,TN,1440718419000.0,11625832
238436158,Murfreesboro,,1507501172000.0,35.78,-86.33,Claudius ,TN,1507501172000.0,11625832
218244552,Nashville,,1481830041000.0,36.14,-86.74,Clayton Coffman,TN,1481830041000.0,11625832
82849812,Nashville,Nashville,1441115256000.0,36.17,-86.72,Clint Stephen Jones,TN,1447800031000.0,11625832
93594822,Nashville,,1403237868000.0,36.17,-86.78,Clyde Bearss,TN,1484028028000.0,11625832
217865557,Nashville,,1481140574000.0,36.17,-86.72,CobaltCPD,TN,1481140574000.0,11625832
62630612,Nashville,,1443448854000.0,36.18,-86.74,Cody Dysert,TN,1495554435000.0,11625832
172403542,Franklin,,1411391394000.0,35.93,-86.81,Cody Taylor,TN,1411746695000.0,11625832
227652032,Nashville,,1494881788000.0,36.14,-86.81,Cody Travis,TN,1505948722000.0,11625832
151453532,Nashville,,1402709028000.0,36.11,-86.77,Colburn Hayden,TN,1415746396000.0,11625832
210570887,Nashville,,1470607487000.0,36.15,-86.81,Cole McKenna,TN,1470607487000.0,11625832
58628942,Nashville,,1495050721000.0,36.14,-86.81,Cole Mehring,TN,1495770028000.0,11625832
224308582,Nashville,,1490281729000.0,36.17,-86.78,Colin K,TN,1490281729000.0,11625832
132968302,Nashville,,1396158584000.0,36.13,-86.8,Corey,TN,1502488727000.0,11625832
189931116,Nashville,,1436919544000.0,36.06,-86.96,Corey,TN,1436919544000.0,11625832
54154772,Nashville,,1399488666000.0,36.13,-86.8,Corey Griggs,TN,1446065497000.0,11625832
129003472,Smyrna,,1503612158000.0,35.95,-86.54,Corey Gross,TN,1503612158000.0,11625832
195256005,Woodland Mills,,1446952118000.0,36.43,-89.12,Corey Ramsey,TN,1451754277000.0,11625832
200377139,Nashville,,1456357178000.0,36.08,-86.72,Cory Street,TN,1477842112000.0,11625832
213883995,Nashville,,1475086860000.0,36.17,-86.78,Cory Tohill,TN,1481306927000.0,11625832
7813939,Nashville,Nashville,1411832212000.0,36.11,-86.78,Courey,TN,1473255272000.0,11625832
232238480,Nashville,,1500567396000.0,36.07,-86.73,Craig Ammon,TN,1500567396000.0,11625832
138764482,Nashville,Miami,1467577587000.0,36.17,-86.78,Cristian,TN,1491404736000.0,11625832
199519697,Antioch,,1455163846000.0,36.04,-86.64,Crystal Staples,TN,1455163846000.0,11625832
172470772,Antioch,Nashville,1496696409000.0,36.04,-86.64,ctaylorgraphics,TN,1496696409000.0,11625832
194016549,Nolensville,,1444681720000.0,35.94,-86.67,Curt Walker,TN,1448975241000.0,11625832
210392442,Nashville,,1470346964000.0,36.17,-86.78,Curtis Crawford,TN,1477970636000.0,11625832
209224933,Antioch,,1477106964000.0,36.04,-86.64,Dakota Copeland,TN,1477112643000.0,11625832
57169392,Nashville,Nashville,1446940155000.0,36.13,-86.8,Dalton Banks,TN,1503664337000.0,11625832
187648503,Brentwood,,1465490996000.0,36.0,-86.79,Damien Plunkett,TN,1503518541000.0,11625832
199801302,Cookeville,,1487733030000.0,36.2,-85.52,Damion C,TN,1506306101000.0,11625832
204958407,Thompsons Station,,1462993331000.0,35.8,-86.9,Damon Romano,TN,1484157496000.0,11625832
206748488,Nashville,,1465436420000.0,36.17,-86.78,Dan,TN,1485369460000.0,11625832
156626172,Nashville,Nashville,1405516007000.0,36.11,-86.86,Dan Burger,TN,1508596730000.0,11625832
212472595,Nashville,,1474076140000.0,36.08,-86.72,Dan Cain,TN,1478037698000.0,11625832
207382803,Nashville,,1466304204000.0,36.17,-86.78,Dan Huenecke,TN,1466304204000.0,11625832
11295876,Burns,,1473249908000.0,36.04,-87.26,Dan M,TN,1473249908000.0,11625832
199981939,Nashville,,1455819487000.0,36.14,-86.74,Dan Ventura,TN,1455819487000.0,11625832
232105953,Nashville,,1500406199000.0,36.17,-86.78,Dana,TN,1508207745000.0,11625832
192764565,Brentwood,,1442329777000.0,36.0,-86.79,Dane Hoffmeister,TN,1442329777000.0,11625832
155433082,Nashville,,1404864057000.0,36.16,-86.79,Daniel,TN,1506542885000.0,11625832
220377003,Nashville,Antioch,1499279261000.0,36.22,-86.77,Daniel Babcock,TN,1499279261000.0,11625832
191895166,Nashville,,1440691218000.0,36.16,-86.79,Daniel C,TN,1443107376000.0,11625832
206675198,Nashville,,1475176584000.0,36.16,-86.79,Daniel Chapdelaine,TN,1475176584000.0,11625832
27644372,Nashville,,1391644890000.0,36.17,-86.78,Daniel Heacock,TN,1416417905000.0,11625832
183041060,Lebanon,,1418962958000.0,36.21,-86.31,Daniel Hill,TN,1422579690000.0,11625832
189016888,Nashville,,1437088164000.0,36.1,-86.66,Daniel Hodges,TN,1467395078000.0,11625832
108929642,Nashville,,1391636529000.0,36.13,-86.8,Daniel Johnson,TN,1414428793000.0,11625832
183125753,Chicago,Chicago,1419577013000.0,41.92,-87.7,Daniel Lawhon,IL,1419577013000.0,11625832
1939496,Antioch,,1433417682000.0,36.04,-86.64,Daniel Newman,TN,1493473329000.0,11625832
185173098,Knoxville,,1426394477000.0,36.03,-83.89,Daniel Oliver,TN,1506038393000.0,11625832
182943570,Nashville,,1445870569000.0,36.16,-86.79,Daniel P.,TN,1446650067000.0,11625832
80012312,Englewood,,1429313302000.0,35.33,-84.52,Daniel Solsbee,TN,1429313302000.0,11625832
182626128,Florence,"Florence, AL",1423837743000.0,34.82,-87.66,Daniel Spurgeon,AL,1423837743000.0,11625832
61262282,Cookeville,"Fairfax, VA",1498319619000.0,36.18,-85.46,Danielle,TN,1498319619000.0,11625832
113482852,Nashville,Nashville,1484248431000.0,36.13,-86.8,Danielle Adkins,TN,1506639592000.0,11625832
9363105,Nashville,,1459917316000.0,36.11,-86.78,danielle duer,TN,1475197727000.0,11625832
185314082,Nashville,"Nashville, TN",1447946424000.0,36.17,-86.78,Danielle Hollis,TN,1447946424000.0,11625832
224850724,Nashville,,1491039608000.0,36.16,-86.79,Danyel Campbell,TN,1491039608000.0,11625832
206240756,Murfreesboro,,1483988422000.0,35.87,-86.44,Dara,TN,1503607957000.0,11625832
194768312,Nashville,,1446047691000.0,36.17,-86.78,Darin Rajabian,TN,1446047691000.0,11625832
202402786,Clarksville,,1459302322000.0,36.49,-87.23,Darnell Dennis,TN,1459302322000.0,11625832
27157532,Nashville,"Nashville, TN",1434940754000.0,36.15,-86.86,Darwin,TN,1434940754000.0,11625832
155258552,Hendersonville,,1427902089000.0,36.32,-86.61,Dave Boling,TN,1454426997000.0,11625832
3517021,Nashville,"Tampa, FL",1423505705000.0,36.11,-86.86,Dave D,TN,1425311716000.0,11625832
185771141,Nashville,,1474472384000.0,36.17,-86.78,Dave Seeman,TN,1506560741000.0,11625832
192828470,New York,"New York, NY",1448422862000.0,40.72,-73.98,DaveLeak,NY,1448422862000.0,11625832
93820322,Nashville,,1423940924000.0,36.17,-86.78,David Bailey,TN,1428542650000.0,11625832
229102995,Madison,,1496704174000.0,36.26,-86.71,David Jay,TN,1496704174000.0,11625832
83393282,Nashville,"Louisville, KY",1390022646000.0,36.17,-86.72,David Krause,TN,1508244644000.0,11625832
95168392,Murfreesboro,,1462938472000.0,35.82,-86.45,David Lee,TN,1477662174000.0,11625832
152686682,Boston,,1403843274000.0,42.36,-71.07,David Mashburn,MA,1491331644000.0,11625832
9001173,Nashville,Milwaukee,1443890420000.0,36.16,-86.79,David Peters,TN,1462235536000.0,11625832
203961095,Woodbury,,1463614591000.0,35.81,-86.07,David Piper,TN,1463614591000.0,11625832
12578046,Nashville,,1493057724000.0,36.13,-86.8,David Repas,TN,1493057724000.0,11625832
4211111,Nashville,,1485155711000.0,36.17,-86.78,David Steele,TN,1485155711000.0,11625832
217448658,Nashville,,1480433090000.0,36.17,-86.78,David Wilcox,TN,1480433090000.0,11625832
230279143,Nashville,,1498181901000.0,36.17,-86.78,David Wilson,TN,1498181901000.0,11625832
206593868,Nashville,,1465238621000.0,36.17,-86.78,David Wooten,TN,1465238621000.0,11625832
228533008,West Palm Beach,West Palm Beach,1496002674000.0,26.66,-80.26,Davy Yue,FL,1500746632000.0,11625832
235108381,Nashville,,1507681582000.0,36.16,-86.79,Dayi Bian,TN,1508279605000.0,11625832
161200492,Nashville,,1478707388000.0,36.17,-86.78,De'on Summers,TN,1479134323000.0,11625832
82209622,Nashville,,1453607902000.0,36.17,-86.78,DeAndre Courtney,TN,1495679752000.0,11625832
190983789,Nashville,St. Louis,1476227556000.0,36.11,-86.86,Deane,TN,1476227556000.0,11625832
53788772,Nashville,,1459777126000.0,36.06,-86.96,Dee Wilcox,TN,1506637958000.0,11625832
186627575,London,,1430098312000.0,51.52,-0.1,Deeessemm,17,1462380896000.0,11625832
208430646,Nashville,,1471695575000.0,36.14,-86.74,Delaine Wendling,TN,1501189575000.0,11625832
12798306,Eddington,Eddington,1475793405000.0,44.8,-68.56,Denis Santerre,ME,1478080233000.0,11625832
90011912,San Francisco,,1421879582000.0,37.77,-122.4,Deniz,CA,1421879582000.0,11625832
36925522,Nashville,"Nashville, TN",1454062762000.0,36.17,-86.78,Dennis deMenace,TN,1504674149000.0,11625832
210614410,Hendersonville,,1478056853000.0,36.32,-86.61,Dennis McGhee,TN,1487454508000.0,11625832
185275990,Nashville,,1426635410000.0,36.17,-86.78,Derek Cocomo,TN,1426635410000.0,11625832
203223094,Hermitage,,1460732018000.0,36.19,-86.6,Derrick Adom,TN,1503976136000.0,11625832
185942863,Franklin,,1446378503000.0,35.92,-86.89,Desiree,TN,1449004761000.0,11625832
189062978,Nashville,,1435165064000.0,36.17,-86.78,Destiny,TN,1435268723000.0,11625832
73042822,Nashville,Billings,1466613405000.0,36.17,-86.79,Devyn Cunningham,TN,1503585322000.0,11625832
183822086,Nashville,,1421964298000.0,36.16,-86.79,Di,TN,1421964298000.0,11625832
196907167,Nashville,,1497976640000.0,36.14,-86.74,Diamond,TN,1497976640000.0,11625832
234179814,Nashville,,1507038167000.0,36.17,-86.78,Didi Hill,TN,1507129245000.0,11625832
226594728,Nashville,Nashville,1507134992000.0,36.17,-86.72,Didi Hill,TN,1507134992000.0,11625832
208916701,Smyrna,,1473868726000.0,35.97,-86.51,Dominic Serrano,TN,1475176410000.0,11625832
185902150,Franklin,"Orlando, FL",1458613748000.0,35.99,-86.9,Don Cline,TN,1458788132000.0,11625832
69411382,Nashville,,1389813223000.0,36.17,-86.78,Don Ross,TN,1463431227000.0,11625832
13374222,Nashville,,1457059753000.0,36.16,-86.79,Donna,TN,1457059753000.0,11625832
190870986,Nashville,,1438699452000.0,36.08,-86.72,Donovan Jordan,TN,1438699452000.0,11625832
222153711,Nashville,,1487265141000.0,36.18,-86.74,Doug Altenbern,TN,1500937530000.0,11625832
186495458,Nashville,,1460733321000.0,36.17,-86.78,Doug DeAngelis - A3E,TN,1466260281000.0,11625832
3503362,Nashville,,1444232008000.0,36.17,-86.79,Douglas Sims,TN,1473201682000.0,11625832
9917104,Oakland,Oakland,1399038359000.0,35.21,-89.54,Douglas Starnes,TN,1503597177000.0,11625832
237395775,Nashville,,1506359268000.0,36.18,-86.74,Drew Bolotte,TN,1506445139000.0,11625832
12291036,Smyrna,,1402326225000.0,35.97,-86.51,Drew Butler,TN,1408204825000.0,11625832
223318349,Franklin,,1488899430000.0,35.92,-86.89,drew hyatt,TN,1488899430000.0,11625832
231185563,Hendersonville,,1499303590000.0,36.32,-86.61,Drew Williams,TN,1501168891000.0,11625832
180698772,Spring Hill,,1423755615000.0,35.76,-86.88,Duane Waddle,TN,1485463493000.0,11625832
154354712,Nashville,,1422462344000.0,36.08,-86.72,Dustin,TN,1485376968000.0,11625832
195161271,Goodlettsville,,1446828119000.0,36.33,-86.74,Dustin Davidson,TN,1447352054000.0,11625832
95625892,Nashville,,1426099401000.0,36.18,-86.74,Dustin Keith Weld,TN,1426099401000.0,11625832
47428112,Nashville,,1463961603000.0,36.17,-86.78,Dustin Potter,TN,1483457764000.0,11625832
235410265,Nashville,,1504289367000.0,36.08,-86.72,Dusty Carver,TN,1504289367000.0,11625832
197674291,Murfreesboro,,1452013148000.0,35.82,-86.45,Dusty Lane Carver,TN,1452013148000.0,11625832
155431992,Nashville,,1404864221000.0,36.14,-86.74,Dusty Wilson,TN,1409683532000.0,11625832
198026946,Columbia,,1452650217000.0,35.61,-87.05,Dv Bull Tn,TN,1452650217000.0,11625832
214809104,Nashville,,1476286790000.0,36.17,-86.78,Dylan Morrow-Jones,TN,1477610645000.0,11625832
189316019,Nashville,,1463774703000.0,36.13,-86.8,Dylan Thomas,TN,1465850084000.0,11625832
11889893,Nashville,"Birmingham, MI",1392140179000.0,36.06,-86.96,Ed Hickey ,TN,1457554396000.0,11625832
58462212,Nashville,,1500222395000.0,36.15,-86.79,Ed K,TN,1503512116000.0,11625832
7563113,Brentwood,,1394302149000.0,36.0,-86.79,Ed O.,TN,1469013427000.0,11625832
7658930,Murfreesboro,,1490289880000.0,35.82,-86.47,Ed Pearson,TN,1508761602000.0,11625832
211501851,Nashville,,1471928456000.0,36.06,-86.96,Edward,TN,1471928456000.0,11625832
204945437,Nashville,,1462976861000.0,36.17,-86.78,El Waters,TN,1462976861000.0,11625832
198439054,Hopkinsville,,1453413816000.0,36.87,-87.48,El'twyquan Vinson,KY,1453413816000.0,11625832
214144312,Clarksville,,1499823199000.0,36.56,-87.41,Eli Ellison,TN,1499823199000.0,11625832
108477342,Nashville,,1447707772000.0,36.16,-86.79,Elise Zieman,TN,1448392974000.0,11625832
129464312,Franklin,,1394576867000.0,35.92,-86.89,Elizabeth Ann Stringer,TN,1432650941000.0,11625832
211977997,Nashville,,1476936403000.0,36.15,-86.86,Elton,TN,1476936403000.0,11625832
185385858,Raeford,"Newark, NJ",1484230005000.0,34.99,-79.21,Emilie Burke,NC,1493231701000.0,11625832
94498242,Nashville,"Kailua Kona, HI",1498075215000.0,36.16,-86.79,Emily ,TN,1508786919000.0,11625832
195329871,Nashville,,1454361367000.0,36.17,-86.78,Emma Beaton,TN,1484765339000.0,11625832
214973487,Nashville,,1476558434000.0,36.17,-86.78,Emmanuel Ogunkoya,TN,1476558434000.0,11625832
186045687,Nashville,,1463441505000.0,36.08,-86.72,Emrith Hodge,TN,1481761342000.0,11625832
107960352,Brentwood,Brentwood,1422836705000.0,36.03,-86.77,Enam Haque,TN,1431991696000.0,11625832
190021732,Murfreesboro,,1437101971000.0,35.82,-86.45,Enrique Martinez,TN,1438310024000.0,11625832
191200422,Nashville,,1439339539000.0,36.17,-86.78,Eric,TN,1455556021000.0,11625832
112326762,Smyrna,"Birmingham, AL",1438820574000.0,35.97,-86.5,Eric,TN,1506829877000.0,11625832
9754635,Antioch,,1447075343000.0,36.04,-86.64,Eric,TN,1447075343000.0,11625832
200095414,Smyrna,,1491727119000.0,35.97,-86.51,Eric,TN,1503505284000.0,11625832
49353562,Nashville,,1432670817000.0,36.15,-86.86,eric andre,TN,1437664068000.0,11625832
199075147,Nashville,,1454468446000.0,36.17,-86.78,Eric Appelt,TN,1503606770000.0,11625832
199084409,Nashville,,1458758202000.0,36.11,-86.86,Eric B,TN,1458862944000.0,11625832
182167672,Nashville,,1419265597000.0,36.09,-86.82,Eric Braley,TN,1419265597000.0,11625832
219952884,Clarksville,,1484439449000.0,36.49,-87.23,eric dimon,TN,1484439449000.0,11625832
182525541,Hendersonville,Nashville,1491404388000.0,36.32,-86.61,Eric Goddard,TN,1508349555000.0,11625832
198583563,Ashland City,,1453687737000.0,36.28,-87.07,eric mawso,TN,1453687737000.0,11625832
229446139,Brentwood,,1497553746000.0,36.0,-86.79,eric roll,TN,1505943093000.0,11625832
2210218,Nashville,,1421022080000.0,36.17,-86.72,Eric Stephens,TN,1474742125000.0,11625832
10085652,Nashville,,1494270881000.0,36.07,-86.78,Eric Wagner,TN,1501247599000.0,11625832
11804293,Nashville,,1389722837000.0,36.07,-86.73,Eric Warren,TN,1497463627000.0,11625832
216782046,Nashville,,1493132081000.0,36.17,-86.78,Eric Woodward,TN,1493324093000.0,11625832
155570172,Nashville,,1504733041000.0,36.16,-86.79,Erica,TN,1506133958000.0,11625832
210098836,Brentwood,,1469937872000.0,36.0,-86.79,Erik J. Olson,TN,1470007692000.0,11625832
237400397,Nashville,,1506362963000.0,36.17,-86.78,Erin F,TN,1506362963000.0,11625832
148050462,Nashville,,1464304513000.0,36.17,-86.78,Erin Orstrom,TN,1469859747000.0,11625832
77148762,Nashville,Fort Lauderdale,1453081905000.0,36.17,-86.78,Erin Oxborrow,TN,1477119173000.0,11625832
185810527,Alexandria,Alexandria,1437385238000.0,38.82,-77.06,Esube Bekele,VA,1447874992000.0,11625832
209624517,Nashville,,1469310124000.0,36.06,-86.96,Ethan,TN,1500832069000.0,11625832
189516124,Murfreesboro,,1436122510000.0,35.87,-86.34,Ethan Fox,TN,1436122510000.0,11625832
238135613,Nashville,,1507178237000.0,36.14,-86.74,Ethan Post,TN,1508601605000.0,11625832
188294902,Nashville,,1433609426000.0,36.17,-86.78,Ethan Raymond,TN,1433609426000.0,11625832
232311841,Nashville,,1500659547000.0,36.17,-86.78,Evan,TN,1502465624000.0,11625832
185606726,Nashville,,1427482878000.0,36.14,-86.74,Evan Kaiser,TN,1427482878000.0,11625832
183285226,Nashville,,1425423374000.0,36.06,-86.96,Evan Roane,TN,1439238520000.0,11625832
140124622,Nashville,,1396388787000.0,36.15,-86.81,Fabian Okeke,TN,1396388787000.0,11625832
190750035,Thompsons Station,,1438474232000.0,35.8,-86.9,Federico Campisano,TN,1438474232000.0,11625832
46679722,Nashville,,1389729305000.0,36.15,-86.86,Fernando Muñoz,TN,1506993857000.0,11625832
1202956,Evanston,Evanston,1389725552000.0,42.06,-87.7,Firas Wehbe,IL,1448562753000.0,11625832
208426796,Nashville,,1467739757000.0,36.17,-86.78,Fletcher,TN,1467739757000.0,11625832
192808490,Nashville,,1442412414000.0,36.07,-86.78,Francis Ralamb,TN,1454901635000.0,11625832
106740592,Nashville,,1402180114000.0,36.06,-86.96,Francois,TN,1463862275000.0,11625832
232595107,Nashville,,1501008875000.0,36.11,-86.78,Freddie,TN,1501008875000.0,11625832
200927751,Brentwood,,1494891357000.0,36.0,-86.79,G W Rudy,TN,1494891357000.0,11625832
204671827,Nashville,Nashville,1503332703000.0,36.13,-86.8,Gabriel Rowe,TN,1505742535000.0,11625832
494560,Fishers,Fishers,1429560778000.0,39.95,-85.97,Gabrielle Hendryx-Parker,IN,1429560778000.0,11625832
4169858,Nashville,Nashville,1437091092000.0,36.17,-86.72,Gaines Kergosien,TN,1493312621000.0,11625832
184038230,New York,,1497896386000.0,40.75,-73.99,Garrett Lovell,NY,1497896386000.0,11625832
208429247,Mount Pleasant,Nashville,1469158314000.0,32.82,-79.85,Garrett Vangilder,SC,1495746476000.0,11625832
198608782,Mount Juliet,,1466882559000.0,36.22,-86.52,Gary Warburton,TN,1478002411000.0,11625832
185311117,Bowling Green,,1426559711000.0,36.93,-86.45,Geekette,KY,1426559711000.0,11625832
216701712,Nashville,,1479177904000.0,36.11,-86.78,Gene,TN,1479177904000.0,11625832
204885517,Nashville,,1463432046000.0,36.08,-86.72,Geoffrey Gross,TN,1463432046000.0,11625832
154425202,Franklin,,1421091547000.0,35.92,-86.89,Geoffrey Gross,TN,1440604592000.0,11625832
4782696,Murfreesboro,Birmingham,1423755871000.0,35.87,-86.34,George Starcher,TN,1450629989000.0,11625832
11785419,Huntsville,,1400093104000.0,34.76,-86.68,George Titsworth,AL,1424885427000.0,11625832
120303082,Brentwood,,1420755070000.0,36.0,-86.79,Gerald A. Wakefield,TN,1479320427000.0,11625832
130734172,Goodlettsville,,1449091913000.0,36.33,-86.74,Gibbscars Gibbscars,TN,1449091913000.0,11625832
93428882,La Vergne,La Vergne,1480557803000.0,36.01,-86.57,Gilbert Diaz,TN,1498164512000.0,11625832
4475908,Roma,,1404163778000.0,41.9,12.48,Giovanni Delacqua,RM,1405013110000.0,11625832
155383302,Nashville,,1413924791000.0,36.17,-86.78,GIRIJA SAHU,TN,1488343923000.0,11625832
223828689,Memphis,,1489613116000.0,35.07,-89.96,Glen E. Lloyd III,TN,1508392853000.0,11625832
232477169,Franklin,,1500867302000.0,35.92,-86.89,Glenn Acree,TN,1501191810000.0,11625832
163398972,Nashville,,1417473337000.0,36.08,-86.72,Grant Copley,TN,1504043224000.0,11625832
59202292,Nashville,,1407163662000.0,36.13,-86.8,Grant Swertfeger,TN,1493712261000.0,11625832
121334792,Hendersonville,,1397084029000.0,36.32,-86.61,Greg Back,TN,1508251150000.0,11625832
220173643,Mount Juliet,,1484707537000.0,36.21,-86.52,Gregory Haney,TN,1487967030000.0,11625832
78930962,Nashville,,1409507527000.0,36.16,-86.79,H David Schaefer,TN,1437190736000.0,11625832
198035194,Nashville,,1454032584000.0,36.17,-86.78,Hakan,TN,1469113885000.0,11625832
196325224,Nashville,,1505432470000.0,36.09,-86.82,Haley Eidem,TN,1505432470000.0,11625832
43237102,Nashville,Nashville,1500572595000.0,36.11,-86.86,Hameed Gifford,TN,1508355464000.0,11625832
220787633,Nashville,,1503540811000.0,36.07,-86.73,Hamid Zare,TN,1504202588000.0,11625832
73301462,Chicago,,1504205936000.0,41.88,-87.63,Hao Luo,IL,1506631037000.0,11625832
39926142,Nashville,,1434500018000.0,36.15,-86.86,Hari P,TN,1489076973000.0,11625832
25020832,Kochi,Ernakulam,1507125986000.0,10.02,76.22,Harisankar P S,,1507125986000.0,11625832
182570644,Nashville,,1416151985000.0,36.11,-86.78,Harold Smith,TN,1493231433000.0,11625832
191452557,Dickson,,1487779685000.0,36.08,-87.43,Harold Smith,TN,1487947026000.0,11625832
184985509,Nashville,,1427572913000.0,36.17,-86.78,Harrison Bond,TN,1506128364000.0,11625832
194219253,Smyrna,"Nashville, TN",1459350289000.0,35.97,-86.51,Harrison Pickett,TN,1466214934000.0,11625832
188676883,Greenville,,1440628049000.0,34.8,-82.39,Harrison Stall,SC,1440628049000.0,11625832
230914457,Nashville,,1498971535000.0,36.13,-86.67,HASHIM Adam,TN,1507010130000.0,11625832
191344924,Hermitage,,1439632165000.0,36.19,-86.6,Hassan,TN,1440013326000.0,11625832
235118255,Nashville,,1503966155000.0,36.17,-86.78,hawani,TN,1503966155000.0,11625832
226185646,Nashville,,1492889550000.0,36.16,-86.79,Hawi,TN,1493330821000.0,11625832
225176978,Nashville,,1495494031000.0,36.17,-86.78,Hayley Landsberg,TN,1496170766000.0,11625832
218816696,Nashville,,1482962516000.0,36.13,-86.8,Heather,TN,1502552418000.0,11625832
187246671,Nashville,,1431465159000.0,36.08,-86.72,Hector,TN,1432524733000.0,11625832
226518103,Nashville,,1493324219000.0,36.17,-86.78,Helana Nosratbakhsh,TN,1498853250000.0,11625832
203930784,Antioch,,1461504464000.0,36.04,-86.64,Henan Wang,TN,1461504464000.0,11625832
227733392,Nashville,,1499186185000.0,36.17,-86.78,Henry,TN,1501258189000.0,11625832
13811636,Nashville,New York,1457616645000.0,36.13,-86.8,henry,TN,1506537723000.0,11625832
25691792,Nashville,,1496695275000.0,36.17,-86.79,Henry MacAfee,TN,1498077089000.0,11625832
13496308,Nashville,,1460566461000.0,36.17,-86.78,Hernan Ciudad,TN,1460566461000.0,11625832
224308745,Nashville,,1490281932000.0,36.17,-86.78,Hiatt C.,TN,1498154530000.0,11625832
11149110,Clarksville,Clarksville,1484957845000.0,36.53,-87.35,Hieu,TN,1484957845000.0,11625832
134650402,Nashville,,1393194915000.0,36.11,-86.86,Hilda Fehd,TN,1394737625000.0,11625832
118718142,Nashville,,1488817795000.0,36.08,-86.72,hiral,TN,1494478981000.0,11625832
2043103,Huntsville,"Huntsville, AL",1483688752000.0,34.62,-86.55,Holley,AL,1508240568000.0,11625832
191374437,Franklin,,1451869646000.0,35.92,-86.89,Holt,TN,1451869646000.0,11625832
199382699,Lithia Springs,,1454965511000.0,33.77,-84.64,Hugo N,GA,1454965511000.0,11625832
100316012,Nashville,,1404184614000.0,36.17,-86.78,Hung Le,TN,1485890625000.0,11625832
226442309,Grand Rapids,,1493225289000.0,43.0,-85.74,Hunter Mitchem,MI,1493225289000.0,11625832
222108546,Nashville,,1487196074000.0,36.07,-86.73,Hunter Wesson,TN,1487196074000.0,11625832
129551422,Richardson,Richardson,1394292027000.0,32.96,-96.75,Ian,TX,1491961847000.0,11625832
104115482,Nashville,San Luis Obispo,1489416558000.0,36.16,-86.79,ian eckert,TN,1490350761000.0,11625832
200842069,Nashville,,1503587157000.0,36.17,-86.78,Ian Noyes,TN,1503608959000.0,11625832
76704552,Nashville,,1394129088000.0,36.18,-86.74,Ian Tometich,TN,1405536997000.0,11625832
187920090,Nashville,,1469846956000.0,36.16,-86.79,Ibrahim,TN,1503517201000.0,11625832
199321351,Nashville,,1484248348000.0,36.22,-86.77,Ike,TN,1496273349000.0,11625832
187327974,Baltimore,,1431636255000.0,39.37,-76.69,Isaac,MD,1431636255000.0,11625832
208139980,Nashville,,1467340309000.0,36.17,-86.78,Isaac Saffold,TN,1495687400000.0,11625832
199597935,Franklin,Florence,1488914511000.0,35.92,-86.89,Isaac Simon,TN,1501690958000.0,11625832
206542079,Nashville,,1501188985000.0,36.17,-86.78,Isaac Weber,TN,1501258257000.0,11625832
212431440,Nashville,Nashville,1485213725000.0,36.22,-86.77,Ivan Rattliff,TN,1485213725000.0,11625832
106945172,Columbus,,1476628556000.0,39.99,-83.0,J. Darrell Dunn,OH,1476628556000.0,11625832
197671877,Melrose,"Montreal,  Quebec",1456097249000.0,42.46,-71.06,J. Steve Louis,MA,1490905426000.0,11625832
149568122,Nashville,,1401751721000.0,36.17,-86.78,Jacek Bajor,TN,1484163356000.0,11625832
194050330,Nashville,,1461861351000.0,36.16,-86.79,Jack B,TN,1461866893000.0,11625832
148116362,Brentwood,,1400904160000.0,36.0,-86.79,Jack Dahms,TN,1412193904000.0,11625832
203457014,Fort Campbell,,1460822213000.0,36.65,-87.46,Jack Judy,KY,1460822213000.0,11625832
198793707,Nashville,,1463415640000.0,36.08,-86.72,Jack Mocherman,TN,1494939221000.0,11625832
224989394,Smyrna,,1491238404000.0,35.97,-86.51,Jacob,TN,1491238404000.0,11625832
5300858,Hendersonville,,1470241614000.0,36.32,-86.61,Jacob,TN,1470241614000.0,11625832
183345433,Hermitage,,1420491373000.0,36.19,-86.6,Jacob Lewis,TN,1443038416000.0,11625832
11007702,Los Angeles,,1491364821000.0,33.99,-118.43,Jacob Nguyen,CA,1491364821000.0,11625832
185967477,Florence,Florence,1490877786000.0,34.82,-87.66,Jacob Senecal,AL,1500668511000.0,11625832
21990171,Nashville,,1389371662000.0,36.17,-86.78,Jacques,TN,1495476549000.0,11625832
217457170,Nashville,Nashville,1480444423000.0,36.15,-86.86,Jaime Shafer,TN,1480444423000.0,11625832
188124377,Smyrna,,1433256184000.0,35.97,-86.51,Jake McNabb,TN,1466617291000.0,11625832
131912082,Nashville,,1399033816000.0,36.17,-86.78,Jake Wegner,TN,1413840789000.0,11625832
214765518,Nashville,,1476216699000.0,36.17,-86.78,James,TN,1477588446000.0,11625832
202028316,New York,,1458735417000.0,40.75,-73.99,James Briggs,NY,1475327900000.0,11625832
7712083,Nashville,,1470865812000.0,36.17,-86.78,James Fryman,TN,1472175966000.0,11625832
186165686,Clarksville,,1435329786000.0,36.53,-87.35,James Logan,TN,1435329786000.0,11625832
2606806,Nashville,,1401987650000.0,36.19,-86.8,James Porter,TN,1506434002000.0,11625832
200963976,Murfreesboro,,1457210469000.0,35.78,-86.33,JAMES RAY DAVENPORT JR,TN,1457210469000.0,11625832
211656831,Nashville,,1472146004000.0,36.17,-86.78,James Robbins,TN,1503286387000.0,11625832
211585840,Nashville,,1478988373000.0,36.17,-86.78,James Tonkin,TN,1504272564000.0,11625832
196515694,Nashville,,1471261037000.0,36.13,-86.8,James Tortorelli,TN,1487461407000.0,11625832
177135382,Nashville,Clarksville,1442249037000.0,36.17,-86.78,James Winegar,TN,1506803871000.0,11625832
235740511,Greenbrier,,1504644352000.0,36.43,-86.8,Jamie,TN,1506599606000.0,11625832
222225352,Nashville,,1487361345000.0,36.13,-86.8,Jamie Isabel,TN,1489032427000.0,11625832
231297477,Nashville,Nashville,1499792672000.0,36.11,-86.78,Jan Van Zeghbroeck,TN,1508803741000.0,11625832
205858479,Mount Juliet,,1464208555000.0,36.22,-86.52,Jana Black,TN,1464208555000.0,11625832
222899804,Nashville,,1488303187000.0,36.17,-86.78,Jaquelin,TN,1488306890000.0,11625832
54083862,Nashville,,1396829011000.0,36.17,-86.72,Jared Bunting,TN,1473264140000.0,11625832
207613230,Oak Ridge,,1466617197000.0,36.02,-84.25,Jared Cleghorn,TN,1484675532000.0,11625832
192190093,Hixson,,1441254050000.0,35.16,-85.21,Jared Edwards,TN,1441254050000.0,11625832
217464856,Nashville,,1489029679000.0,36.17,-86.78,Jared Fuller,TN,1505253493000.0,11625832
190241118,Beaver Dam,,1437532536000.0,37.33,-86.88,Jarrod Smith,KY,1437532536000.0,11625832
45569562,Nashville,,1445955601000.0,36.17,-86.78,Jarvis Stubblefield,TN,1485532461000.0,11625832
206030466,Pegram,,1464465483000.0,36.12,-87.03,Jason,TN,1464535745000.0,11625832
208440190,Nashville,Nashville,1467754466000.0,36.09,-86.82,Jason Bates,TN,1471810156000.0,11625832
186492901,Nashville,,1429802377000.0,36.22,-86.73,Jason Bynum,TN,1452006239000.0,11625832
183816005,Nashville,,1426087664000.0,36.11,-86.86,Jason Bynum,TN,1426263371000.0,11625832
197016277,Hendersonville,,1450499073000.0,36.32,-86.61,Jason Cater,TN,1485044138000.0,11625832
137445042,Nashville,Nashville,1477542246000.0,36.22,-86.77,Jason K.,TN,1477542246000.0,11625832
30123762,Nashville,,1388420802000.0,36.17,-86.78,Jason Myers,TN,1502831007000.0,11625832
52195632,Goodlettsville,,1389371720000.0,36.33,-86.74,Jason Orendorff,TN,1464284449000.0,11625832
185521720,Nashville,,1427215427000.0,36.08,-86.72,Jason Schuster,TN,1432607642000.0,11625832
193063144,Brentwood,,1442881206000.0,36.0,-86.79,Jason Scott,TN,1442881206000.0,11625832
231553070,Nashville,,1500169258000.0,36.17,-86.78,Jason Smith,TN,1501093303000.0,11625832
187020424,Nashville,,1430961905000.0,36.13,-86.8,jason w,TN,1430961905000.0,11625832
185618867,Brentwood,,1427518723000.0,36.0,-86.78,Jason Weaver,TN,1427518723000.0,11625832
227344539,Nashville,,1494456703000.0,36.15,-86.79,Jay H,TN,1494456703000.0,11625832
115662482,Nashville,Nashville,1416845336000.0,36.1,-86.66,Jay Maul,TN,1452284172000.0,11625832
228198627,New York,,1495638556000.0,40.75,-73.99,Jayme Kolling,NY,1495638556000.0,11625832
232504138,Fort Campbell,,1500906062000.0,36.65,-87.46,Jayson Rich,KY,1500906062000.0,11625832
202710805,Nashville,,1459762084000.0,36.13,-86.8,JC Hwang,TN,1485237068000.0,11625832
75079962,Nashville,Chicago,1406237573000.0,36.09,-86.82,Jean Söderkvist,TN,1472072118000.0,11625832
180501142,Nashville,,1437137616000.0,36.13,-86.8,Jeff Bauer,TN,1437137616000.0,11625832
8731661,Nashville,"Durham, NC",1431025430000.0,36.17,-86.79,Jeff Bowen,TN,1506360303000.0,11625832
188740815,Madison,,1471057218000.0,36.26,-86.71,Jeff Collins,TN,1492524273000.0,11625832
194153351,Nashville,,1444933506000.0,36.15,-86.79,Jeff Deskins,TN,1468959483000.0,11625832
53191892,Franklin,,1472036231000.0,35.92,-86.89,Jeff Finley,TN,1475181780000.0,11625832
230441418,Nashville,,1498391241000.0,36.18,-86.81,Jeff Hammond,TN,1498391241000.0,11625832
188136870,Nashville,,1433276167000.0,36.17,-86.78,Jeff Kuykendall,TN,1433276167000.0,11625832
222960010,Nashville,,1501034022000.0,36.15,-86.86,Jeff Lockwood,TN,1501034022000.0,11625832
135733652,Ashland City,Pleasureville,1455025493000.0,36.28,-87.07,Jeffrey Druin,TN,1455025493000.0,11625832
194883200,Nashville,,1447539968000.0,36.08,-86.72,Jenese McCarroll,TN,1458351903000.0,11625832
213620854,Nashville,,1474752002000.0,36.17,-86.78,Jenkinsharold26,TN,1474752002000.0,11625832
199570331,Nashville,,1455241522000.0,36.17,-86.78,Jennie M,TN,1469732654000.0,11625832
182958011,Franklin,Franklin,1503959048000.0,35.93,-86.81,Jennifer,TN,1503959048000.0,11625832
192867227,Nashville,,1442868569000.0,36.17,-86.78,Jerad Clifford,TN,1442868569000.0,11625832
203573450,Gallatin,,1460986900000.0,36.39,-86.45,Jeremiah Mathis,TN,1460986900000.0,11625832
8688363,Nashville,Nashville,1502476996000.0,36.17,-86.72,Jeremy,TN,1508247893000.0,11625832
197627926,Nashville,,1455850772000.0,36.11,-86.86,Jeremy C. Swain,TN,1456366511000.0,11625832
121371272,Franklin,,1399563569000.0,35.93,-86.88,Jeremy Estrada,TN,1399563569000.0,11625832
109935072,Bowling Green,,1405357809000.0,37.02,-86.46,Jeremy Phelps,KY,1489675098000.0,11625832
219673476,Nashville,,1484077414000.0,36.16,-86.79,Jeremy Pitt,TN,1484077414000.0,11625832
212936502,Nashville,,1485041730000.0,36.08,-86.72,Jeremy Wink,TN,1485219858000.0,11625832
229320121,Nashville,,1496973850000.0,36.17,-86.78,Jeremy Young,TN,1496973850000.0,11625832
207195265,Nashville,,1466097624000.0,36.17,-86.78,Jerome Duran,TN,1470191128000.0,11625832
80388742,Nashville,,1503609882000.0,36.17,-86.78,Jerry Baker,TN,1504186785000.0,11625832
140339832,Seattle,,1454959493000.0,47.61,-122.33,Jess Short,WA,1459977913000.0,11625832
38030082,Franklin,,1431721096000.0,35.92,-86.89,Jesse,TN,1431721096000.0,11625832
85150562,Springfield,,1507055708000.0,36.52,-86.87,Jesse Ford,TN,1507055708000.0,11625832
218472693,Nashville,,1482273058000.0,36.16,-86.79,Jesse Keogh,TN,1482273058000.0,11625832
233898165,Nashville,,1502562889000.0,36.17,-86.78,Jessica ,TN,1502562889000.0,11625832
208259976,Nashville,,1496430967000.0,36.14,-86.8,Jessica,TN,1496430967000.0,11625832
238307094,Springfield,,1507357292000.0,36.52,-86.87,Jessica Whitman,TN,1507357292000.0,11625832
120761882,Smyrna,,1459860449000.0,35.97,-86.51,Jessica Wynn,TN,1497930005000.0,11625832
35949012,Nashville,,1493819792000.0,36.21,-86.72,Jessica Younker,TN,1496798659000.0,11625832
232376470,Nashville,,1500744378000.0,36.17,-86.78,Jessie Valentino,TN,1503253440000.0,11625832
38584482,Nashville,,1472127439000.0,36.17,-86.78,Jim Adkins,TN,1507132174000.0,11625832
32214442,Hendersonville,Hendersonville,1486610226000.0,36.32,-86.61,Jim Fuqua,TN,1508289682000.0,11625832
38852502,Nashville,Nashville,1436066638000.0,36.14,-86.81,Jim V,TN,1497661727000.0,11625832
217604792,Salt Lake City,Salt Lake City,1480700555000.0,40.71,-111.89,Jingsai Liang,UT,1480700555000.0,11625832
206726441,Nashville,,1465403031000.0,36.17,-86.78,Jingtian Fang,TN,1478290138000.0,11625832
182372032,Nashville,,1459090553000.0,36.17,-86.78,Jiovanni,TN,1502320922000.0,11625832
218505095,Hendersonville,,1482338365000.0,36.32,-86.61,jloftis,TN,1482338365000.0,11625832
217563086,Nashville,,1480709879000.0,36.17,-86.78,jlsnyder08,TN,1506693309000.0,11625832
128997432,Nashville,,1487886712000.0,36.16,-86.79,Jmead4,TN,1487886712000.0,11625832
95476352,Nashville,,1468782561000.0,36.07,-86.78,JoAnn Alvarez,TN,1500695803000.0,11625832
15575201,Lebanon,"Staten Island,NY",1464226335000.0,36.21,-86.31,Joanne Eckton,TN,1485037931000.0,11625832
105846122,Brentwood,,1466782655000.0,36.0,-86.79,Jody Sumner,TN,1466782655000.0,11625832
195307512,Madison,,1447044363000.0,36.26,-86.71,Joe Drury,TN,1453340478000.0,11625832
157045372,Charleston,,1467262627000.0,38.35,-81.63,Joe Hatcher,WV,1467262627000.0,11625832
8362127,Nashville,,1395859342000.0,36.13,-86.8,Joe Hills,TN,1429798448000.0,11625832
189479551,Nashville,"Damascus, MD",1476366371000.0,36.06,-86.96,Joe Morris,TN,1500908069000.0,11625832
14241608,Hendersonville,"Cashton, WI",1389721881000.0,36.32,-86.61,Joe Phillips,TN,1416336892000.0,11625832
182795281,Nashville,,1417459962000.0,36.17,-86.78,Joe_H,TN,1422904869000.0,11625832
33016112,Buffalo,,1500041259000.0,42.9,-78.88,Joel,NY,1500041259000.0,11625832
88416822,Nashville,,1389721529000.0,36.18,-86.74,Joel Kronk,TN,1435269416000.0,11625832
217160398,Nashville,,1479910500000.0,36.17,-86.78,Joel Legg,TN,1506559160000.0,11625832
202938144,Nashville,Louisville,1492057837000.0,36.16,-86.79,Joel Lowery,TN,1508256807000.0,11625832
111917572,Nashville,,1483953887000.0,36.16,-86.79,Joey Kirby ,TN,1506415236000.0,11625832
12578146,Nashville,,1458763602000.0,36.13,-86.8,Joey Krabacher,TN,1458783585000.0,11625832
193368891,Murfreesboro,"Murfreesboro, TN ",1469552593000.0,35.78,-86.33,Joey Turner,TN,1487662775000.0,11625832
192558134,Lebanon,,1489023254000.0,36.21,-86.29,Johan Stodberg,TN,1489023254000.0,11625832
198073317,Nashville,Lakeland,1492646056000.0,36.13,-86.8,John,TN,1492646056000.0,11625832
187273267,Brentwood,,1431525048000.0,36.0,-86.79,John,TN,1439764415000.0,11625832
7333165,Charlottesville,,1446945959000.0,38.04,-78.52,John,VA,1504193954000.0,11625832
173012002,Knoxville,KNOXVILLE,1441149307000.0,35.88,-84.17,John Cobb,TN,1455240609000.0,11625832
76743532,Bangor,,1442887992000.0,44.81,-68.78,John Harris,ME,1479148615000.0,11625832
205958098,Nashville,,1464358153000.0,36.08,-86.72,John Henry Green Jr.,TN,1497568648000.0,11625832
125677922,Nashville,Nashville,1397517074000.0,36.17,-86.78,John Liu,TN,1497915671000.0,11625832
198334785,Bon Aqua,,1453227060000.0,35.93,-87.25,John Mayberry,TN,1470248450000.0,11625832
227476554,Nashville,,1494637021000.0,36.17,-86.72,John O,TN,1503970145000.0,11625832
161054102,Franklin,Franklin,1414685552000.0,35.93,-86.81,john omahen,TN,1440790529000.0,11625832
195002936,Nashville,,1446488758000.0,36.13,-86.8,John Ottenlips,TN,1447131955000.0,11625832
193744268,Nashville,,1444170516000.0,36.18,-86.74,John P.,TN,1444170516000.0,11625832
182578041,Nashville,Oak Ridge,1428249977000.0,36.1,-86.66,John Quarles,TN,1441748994000.0,11625832
234580682,Franklin,,1503347067000.0,35.92,-86.89,John Simmons,TN,1503888988000.0,11625832
148990832,Nashville,,1443711820000.0,36.14,-86.74,John Smith,TN,1443711820000.0,11625832
202203532,Nashville,,1459012537000.0,36.17,-86.78,John Still,TN,1460416515000.0,11625832
159228992,Nashville,,1406820173000.0,36.17,-86.78,John Wagster,TN,1456785030000.0,11625832
194197206,Nashville,,1464273709000.0,36.17,-86.72,John Wark,TN,1468958621000.0,11625832
110923962,Nashville,Nashville,1439905229000.0,36.13,-86.8,John Wilson,TN,1486223147000.0,11625832
59013012,Nashville,,1391209902000.0,36.17,-86.78,John Wise,TN,1500985348000.0,11625832
227987255,Nashville,,1495315895000.0,36.14,-86.74,Johnathan,TN,1495315895000.0,11625832
222552028,Nashville,,1487806635000.0,36.17,-86.78,Johnathon Dewayne Davis,TN,1491415461000.0,11625832
224376384,Nashville,,1490375629000.0,36.17,-86.78,Johnie Waddell,TN,1490375629000.0,11625832
145868102,Nashville,,1400774834000.0,36.18,-86.74,Johnny Souriyaphong,TN,1473244740000.0,11625832
185182915,Nashville,,1426170726000.0,36.17,-86.78,Jon Hansen,TN,1466215027000.0,11625832
198286572,Mount Juliet,,1472480911000.0,36.21,-86.52,Jon Murillo,TN,1472480911000.0,11625832
79762332,Nashville,,1418456357000.0,36.18,-86.74,Jon Peck,TN,1503616747000.0,11625832
103279362,Franklin,,1390679071000.0,35.92,-86.89,Jon Staples,TN,1508242224000.0,11625832
223987872,Nashville,,1489846274000.0,36.18,-86.74,Jon Walker,TN,1490895315000.0,11625832
190804867,Columbia,,1438572552000.0,35.61,-87.05,Jonathan Adams,TN,1438572552000.0,11625832
226826148,Nashville,,1493750520000.0,36.17,-86.78,Jonathan H,TN,1507685673000.0,11625832
206403963,Nashville,,1464984032000.0,36.17,-86.78,Jonathan H.,TN,1465232982000.0,11625832
178090242,Nashville,,1413469990000.0,36.17,-86.78,Jonathan Holt,TN,1506621306000.0,11625832
131965862,Nashville,,1391714771000.0,36.17,-86.78,Jonathan Kryza,TN,1479852372000.0,11625832
174246072,Nashville,,1478779819000.0,36.2,-86.73,Jonathan McElroy,TN,1488417540000.0,11625832
186652002,Nashville,,1430154086000.0,36.16,-86.79,Jonathan Richardson,TN,1446655238000.0,11625832
239177900,Nashville,,1508340283000.0,36.08,-86.72,Jordan D,TN,1508340283000.0,11625832
212764291,La Vergne,,1473646440000.0,36.01,-86.57,Jordan Dodson,TN,1498178173000.0,11625832
32007512,Nashville,,1393216972000.0,36.16,-86.79,Jordan M.,TN,1503613858000.0,11625832
44882152,Nashville,Nashville,1483500218000.0,36.18,-86.74,Jordan Nelson,TN,1506568889000.0,11625832
230875172,Nashville,,1498926041000.0,36.17,-86.78,Jordan Singer,TN,1498926041000.0,11625832
212809286,Nashville,,1473705292000.0,36.17,-86.78,Jordan Speller,TN,1501070036000.0,11625832
192781139,Nashville,,1442354862000.0,36.09,-86.82,Joseph Degati,TN,1447547838000.0,11625832
109609782,Nashville,,1491331852000.0,36.06,-86.96,Joseph Dunn,TN,1491415637000.0,11625832
190834875,San Francisco,San Francisco,1447968141000.0,37.78,-122.42,Joseph Ensminger,CA,1484343734000.0,11625832
28450072,Clarksville,,1502819597000.0,36.56,-87.41,Joseph McMurry,TN,1502819597000.0,11625832
153322372,Nashville,,1403713238000.0,36.11,-86.86,Joseph Porter,TN,1508603056000.0,11625832
230831558,Nashville,,1498867379000.0,36.17,-86.78,Joseph Shively,TN,1498867379000.0,11625832
221381045,Nashville,,1486226793000.0,36.16,-86.79,Joseph Steimle,TN,1486226793000.0,11625832
105538032,Nashville,,1488059434000.0,36.17,-86.78,Joseph T Bradley,TN,1488387299000.0,11625832
212596944,Nashville,,1505241409000.0,36.17,-86.78,Joseph Tatarczuk,TN,1505241409000.0,11625832
71854632,Franklin,,1421608447000.0,35.92,-86.89,Joseph Wichman,TN,1488328135000.0,11625832
204901926,Nashville,,1468951828000.0,36.21,-86.72,JosephKane,TN,1490143870000.0,11625832
174212922,Nashville,Nashville,1478705325000.0,36.13,-86.8,Josh,TN,1506540968000.0,11625832
212611913,Nashville,,1473445441000.0,36.17,-86.78,Josh,TN,1473445441000.0,11625832
14010600,Nashville,"Palo Alto, CA",1466028940000.0,36.11,-86.78,Josh,TN,1466028940000.0,11625832
178842652,Nashville,,1425326014000.0,36.15,-86.86,Josh Arnold,TN,1495747063000.0,11625832
55029192,Franklin,Augusta,1469407287000.0,35.93,-86.81,Josh E,TN,1508245999000.0,11625832
154251402,Nashville,,1463431880000.0,36.17,-86.78,Josh Gieringer,TN,1483386596000.0,11625832
34821002,Nolensville,Nolensville,1406816287000.0,35.94,-86.67,Josh Kersey,TN,1433336614000.0,11625832
233650311,Hendersonville,,1502285305000.0,36.32,-86.61,Josh O'Rourke,TN,1506607239000.0,11625832
203131658,Nashville,,1460354670000.0,36.15,-86.81,Josh Palmer,TN,1460354670000.0,11625832
184446210,Nashville,,1423965748000.0,36.08,-86.72,Josh Price,TN,1423965748000.0,11625832
12853877,Nashville,,1407250910000.0,36.17,-86.78,Josh Stephens,TN,1508164643000.0,11625832
220289486,Nashville,,1485281222000.0,36.17,-86.78,Josh White,TN,1503594117000.0,11625832
152475792,Nashville,,1455717266000.0,36.18,-86.81,Josh Wolter,TN,1456015496000.0,11625832
4735211,Nashville,Nashville,1425514631000.0,36.15,-86.86,Joshua Aronson,TN,1434501893000.0,11625832
217409782,Brentwood,,1480368112000.0,36.0,-86.79,Joshua Atkins,TN,1480368112000.0,11625832
132012862,Nashville,Nashville,1443468711000.0,36.17,-86.78,Joshua Bowers,TN,1454006124000.0,11625832
202014452,Nashville,,1458776740000.0,36.14,-86.81,Joshua Fain,TN,1496292488000.0,11625832
184190169,Brentwood,,1425561839000.0,36.0,-86.79,Joshua H.,TN,1427253357000.0,11625832
209817672,Memphis,,1477604600000.0,35.23,-89.85,Joshua Keough,TN,1477618091000.0,11625832
5351550,Nashville,,1410720428000.0,36.17,-86.79,Joshua Pruitt,TN,1503537361000.0,11625832
230423216,Nashville,,1498363971000.0,36.17,-86.78,Joshua Puckett,TN,1498363971000.0,11625832
217831664,Nashville,,1481078212000.0,36.17,-86.78,Joshua Sonnenburg,TN,1481093052000.0,11625832
121609262,Brentwood,,1489517728000.0,36.0,-86.79,Joumana,TN,1489517728000.0,11625832
7670958,Nashville,,1502140126000.0,36.17,-86.78,Joy,TN,1507267467000.0,11625832
111589522,Nashville,,1441745769000.0,36.18,-86.74,Joy Pratt,TN,1477356928000.0,11625832
216319024,Nashville,,1478563274000.0,36.14,-86.8,Juan Felipe Ortiz,TN,1479410870000.0,11625832
157248622,Nashville,,1405812052000.0,36.16,-86.79,Juan Job,TN,1477610015000.0,11625832
190213084,Nashville,,1496361223000.0,36.06,-86.96,Jufe Brown-Tsai,TN,1506890851000.0,11625832
12573596,Nashville,California,1437417919000.0,36.21,-86.72,Juli,TN,1442245412000.0,11625832
3562568,Montréal,"Lowell, MA",1440948126000.0,45.65,-73.5,Julia,QC,1466561622000.0,11625832
217872107,Nashville,"Franklin, TN",1493757013000.0,36.17,-86.78,Julia Allen,TN,1500850294000.0,11625832
196898553,Nashville,,1450214053000.0,36.11,-86.86,Julia Brinkmann,TN,1461778945000.0,11625832
219809048,Nashville,,1486763826000.0,36.17,-86.78,Julia Kim-Chung,TN,1490913596000.0,11625832
13783999,Nashville,,1505348631000.0,36.15,-86.86,Julian Bankston,TN,1505348631000.0,11625832
193752364,Thompsons Station,Thompsons Station,1466657644000.0,35.8,-86.9,Julie,TN,1491396057000.0,11625832
154179502,Thompsons Station,,1404968916000.0,35.8,-86.9,Julie Barnick,TN,1478526170000.0,11625832
200612671,Murfreesboro,,1456709017000.0,35.82,-86.45,Junie George,TN,1456709017000.0,11625832
31756682,Antioch,,1421395202000.0,36.04,-86.64,Jurnell Cockhren,TN,1421765855000.0,11625832
194282886,Nashville,,1445380840000.0,36.17,-86.78,Justin Adams,TN,1445380840000.0,11625832
221374087,Spring Hill,Nashville,1486219097000.0,35.76,-86.88,Justin Barr,TN,1486219097000.0,11625832
208370952,Nashville,,1467663960000.0,36.17,-86.78,Justin Cox,TN,1467663960000.0,11625832
184528547,Alsip,,1424219458000.0,41.67,-87.74,Justin Cox,IL,1424219458000.0,11625832
188079507,Ashland City,,1433171622000.0,36.28,-87.07,Justin Hensley,TN,1474994238000.0,11625832
135113782,Franklin,,1452242668000.0,35.92,-86.89,Justin Hoover,TN,1508631269000.0,11625832
189349302,Nashville,,1435761540000.0,36.18,-86.74,Justin Sadler,TN,1453818367000.0,11625832
239328570,Nashville,,1508514418000.0,36.08,-86.72,Justin Sierk,TN,1508514418000.0,11625832
14368154,Nashville,,1498793298000.0,36.16,-86.79,Justin Threlkeld,TN,1501119134000.0,11625832
119581812,Chattanooga,,1436579350000.0,35.03,-85.14,juzten,TN,1503583590000.0,11625832
177423542,Nashville,,1440012297000.0,36.18,-86.81,Jyothi Jayakrishna,TN,1440012297000.0,11625832
216557683,Memphis,,1485964144000.0,35.07,-89.96,Kabir,TN,1485964144000.0,11625832
156308662,Smartt,,1441898363000.0,35.65,-85.83,Kadeem Pardue,TN,1441898363000.0,11625832
191186119,Nashville,,1506356179000.0,36.17,-86.78,Kadu,TN,1506356179000.0,11625832
197183245,Nashville,"Columbia, TN",1450921911000.0,36.17,-86.78,Kanesha Patterson,TN,1450921911000.0,11625832
200487104,Nashville,Nashville,1456519329000.0,36.17,-86.78,Kanesha Patterson,TN,1506302463000.0,11625832
184894632,Nashville,,1432851254000.0,36.17,-86.78,Kar Martirosyan,TN,1442470955000.0,11625832
222543963,Nashville,,1487797281000.0,36.18,-86.81,Kareem Nicholas,TN,1508251139000.0,11625832
4304748,Bowling Green,,1426780419000.0,37.02,-86.46,Karla,KY,1426780419000.0,11625832
145171172,Mount Juliet,,1399290383000.0,36.22,-86.52,Kasey Lawrence,TN,1399466429000.0,11625832
224978753,Nashville,,1503356627000.0,36.17,-86.78,Kassandra Pinori,TN,1507134978000.0,11625832
236998384,Baltimore,,1507128900000.0,39.29,-76.62,Kassy Pinori,MD,1507128900000.0,11625832
40152352,Nashville,,1423761645000.0,36.09,-86.82,Kate Brady,TN,1476211397000.0,11625832
194426354,Nashville,,1453822354000.0,36.11,-86.86,Kate Lovett,TN,1453822354000.0,11625832
17622151,Franklin,Franklin,1400862053000.0,35.93,-86.81,Katie Wright,TN,1402079992000.0,11625832
191230187,Nashville,,1439400447000.0,36.18,-86.74,Katrina McPeters,TN,1439400447000.0,11625832
81217232,Nashville,,1443820949000.0,36.11,-86.78,Katy,TN,1503587231000.0,11625832
214085642,Nashville,,1477402639000.0,36.16,-86.79,Kawika A. Moss,TN,1477402639000.0,11625832
17285351,Nashville,,1451276483000.0,36.16,-86.79,Kayla,TN,1451276483000.0,11625832
219201662,Murfreesboro,,1483487164000.0,35.87,-86.44,Kayla Brewer,TN,1493310138000.0,11625832
197628314,Nashville,,1451929722000.0,36.08,-86.72,Kaylee Cummings,TN,1464122459000.0,11625832
30145882,Nashville,,1460037446000.0,36.17,-86.78,Keith Bradley,TN,1472159678000.0,11625832
13822174,Nashville,,1389722767000.0,36.18,-86.74,keith johnson,TN,1392295948000.0,11625832
233247962,Nashville,,1501822327000.0,36.06,-86.96,Kellee Cunningham López,TN,1501822327000.0,11625832
133860272,Nashville,Nashville,1404670238000.0,36.18,-86.81,Kelley,TN,1447878159000.0,11625832
193863309,Nashville,,1444401143000.0,36.17,-86.72,Kelly C,TN,1444401143000.0,11625832
205615786,Nashville,,1463878260000.0,36.17,-86.78,Kemar Reid,TN,1506644060000.0,11625832
41993192,Nashville,"Grosse Pointe, MI",1505057457000.0,36.08,-86.72,Kemuel,TN,1505955937000.0,11625832
216748395,Nashville,,1479248965000.0,36.13,-86.8,Ken Moini,TN,1505845610000.0,11625832
221981600,Nashville,,1487023092000.0,36.16,-86.79,Kenneth Li,TN,1487023092000.0,11625832
207876207,Hickman,,1466984432000.0,36.11,-85.91,Kenny,TN,1466984432000.0,11625832
226865472,Antioch,,1493803999000.0,36.04,-86.64,Keno,TN,1494347910000.0,11625832
10309794,Nashville,,1472751834000.0,36.14,-86.74,Kent Perrier,TN,1477591467000.0,11625832
184608835,Franklin,,1494562265000.0,35.99,-86.9,Kenzie,TN,1494562265000.0,11625832
200625715,Nashville,,1456712270000.0,36.17,-86.78,Kevin,TN,1456712270000.0,11625832
182982296,Washington,,1450494699000.0,38.91,-77.02,Kevin,DC,1453995501000.0,11625832
142444202,Nashville,,1423406942000.0,36.17,-86.78,Kevin Cox,TN,1484619971000.0,11625832
187951183,Nashville,,1475100756000.0,36.14,-86.74,Kevin Griffis,TN,1478403731000.0,11625832
12074359,Nashville,Nashville,1403642380000.0,36.08,-86.72,Kevin Harvey,TN,1454606756000.0,11625832
185358570,Nashville,,1441898928000.0,36.17,-86.78,Kevin Holland,TN,1484779392000.0,11625832
184365656,Nashville,,1430967019000.0,36.11,-86.78,Kevin Huber,TN,1438298667000.0,11625832
202224239,Nashville,,1465781582000.0,36.15,-86.86,Kevin Liu,TN,1469330198000.0,11625832
187353081,Franklin,,1431696466000.0,35.92,-86.89,Kevin Marker,TN,1453586253000.0,11625832
188721382,Seminole,,1501264759000.0,27.84,-82.8,kevin mcnamee,FL,1501264759000.0,11625832
215773393,Nashville,,1477717279000.0,36.15,-86.8,Kevin Normandeau,TN,1477717279000.0,11625832
195561339,Antioch,,1447522628000.0,36.04,-86.64,Kevin Plaster,TN,1447522628000.0,11625832
217754475,Nashville,,1487977412000.0,36.17,-86.78,Kevin Tumminello,TN,1490115265000.0,11625832
201578834,Gallatin,,1458077317000.0,36.39,-86.45,Kevin Williams,TN,1458077317000.0,11625832
63386002,Hendersonville,"Florence, SC",1443452506000.0,36.32,-86.61,Kevin Williams,TN,1446057000000.0,11625832
188293900,Hendersonville,,1433608020000.0,36.32,-86.61,Kevin Williams,TN,1451886605000.0,11625832
85123582,Nashville,,1416915591000.0,36.18,-86.74,KeypadMathey,TN,1417571599000.0,11625832
199056574,Nashville,,1454444094000.0,36.17,-86.78,Kim,TN,1454444094000.0,11625832
49816142,Nashville,,1475156979000.0,36.13,-86.8,Kim Higdon,TN,1479588870000.0,11625832
195194092,Madison,,1506361040000.0,36.24,-86.68,Kim S,TN,1506361040000.0,11625832
199396025,Nashville,Nashville,1467555609000.0,36.08,-86.72,Kinman Covey,TN,1503594538000.0,11625832
49863072,Hermitage,,1489439029000.0,36.19,-86.6,kiran,TN,1489439029000.0,11625832
197737828,Nashville,,1452125317000.0,36.17,-86.72,Kirk Walker Graves,TN,1495480380000.0,11625832
217394664,Nashville,,1480345040000.0,36.17,-86.78,KirkDev,TN,1488920017000.0,11625832
205535019,Antioch,"Nashville, TN",1463766757000.0,36.17,-86.88,Kirolos Shahat,TN,1466002337000.0,11625832
187660868,Cookeville,,1476187255000.0,36.2,-85.52,Kirtika Anbalakan,TN,1480976017000.0,11625832
225609681,Nashville,,1492106900000.0,36.18,-86.74,Krashnaegoivic Prensky,TN,1492106900000.0,11625832
142789332,Knoxville,,1397929582000.0,36.03,-83.89,Kris Brown,TN,1470605626000.0,11625832
191308717,Cookeville,Maryville,1452321786000.0,36.2,-85.52,Kris Molinari,TN,1490712822000.0,11625832
196349830,Franklin,,1449081623000.0,35.92,-86.89,Krish Vsv,TN,1465082430000.0,11625832
12786520,Nashville,Sacramento,1413987180000.0,36.14,-86.74,Kristian,TN,1413987180000.0,11625832
11028407,Nashville,,1463589974000.0,36.18,-86.74,Kristin McKinney,TN,1501868918000.0,11625832
186467000,Nashville,,1429757505000.0,36.06,-86.96,Kristin Poole,TN,1429757505000.0,11625832
202311485,Mount Juliet,,1459180204000.0,36.22,-86.52,Kristy McGee,TN,1459180204000.0,11625832
94914602,Nashville,,1473280820000.0,36.18,-86.74,Krys Mathis,TN,1475085204000.0,11625832
98323362,Nashville,,1478011869000.0,36.16,-86.79,Krystal,TN,1478011869000.0,11625832
201083161,Nashville,,1459183373000.0,36.08,-86.72,Kumar,TN,1471896349000.0,11625832
230028756,Nashville,,1497899924000.0,36.17,-86.78,Kurt Thompson,TN,1506635415000.0,11625832
192141013,Nashville,,1441161402000.0,36.13,-86.8,Kyle Godbey,TN,1441161402000.0,11625832
198531860,Nashville,,1485550496000.0,36.11,-86.78,Kyle McCollom,TN,1485873564000.0,11625832
34223132,Nashville,,1411489073000.0,36.17,-86.72,Kyle White,TN,1411489073000.0,11625832
224837802,Mount Juliet,,1491015281000.0,36.21,-86.52,Lakesha Walker,TN,1491015281000.0,11625832
192068342,Montebello,,1441034535000.0,34.02,-118.11,Lana Miles,CA,1441034535000.0,11625832
107575602,Franklin,,1389810498000.0,35.92,-86.89,Larry Dawson,TN,1463440115000.0,11625832
131275602,Nashville,,1399301428000.0,36.22,-86.77,Larry Lee,TN,1410297355000.0,11625832
200656606,Nashville,,1495217737000.0,36.08,-86.72,Larsen Vojnic Zelic,TN,1495461395000.0,11625832
222288505,Franklin,,1488872637000.0,35.93,-86.83,Latish Khubnani,TN,1507011939000.0,11625832
192957263,Nashville,,1442692665000.0,36.16,-86.79,Lauren,TN,1498071440000.0,11625832
50540702,Nashville,,1483485631000.0,36.17,-86.78,Lea Camara,TN,1485452003000.0,11625832
238881232,Nashville,,1508003693000.0,36.17,-86.78,Leah,TN,1508003693000.0,11625832
227718747,Nashville,,1494963464000.0,36.17,-86.78,Leah,TN,1494963464000.0,11625832
219815596,Nashville,,1485276695000.0,36.08,-86.72,Leah Massey,TN,1485276695000.0,11625832
214042373,Nashville,,1475251080000.0,36.16,-86.79,Lee F,TN,1475251080000.0,11625832
38783652,Nashville,"Nashville, TN",1421028516000.0,36.07,-86.73,Lee Perry,TN,1476815052000.0,11625832
71327802,Tullahoma,,1464634210000.0,35.37,-86.21,Lei Shi,TN,1479319218000.0,11625832
215188854,Franklin,,1478715570000.0,35.92,-86.89,Lena Walker,TN,1493810969000.0,11625832
198152920,Nashville,,1452893538000.0,36.08,-86.72,Leo,TN,1452893538000.0,11625832
134543412,Nashville,,1420931749000.0,36.16,-86.8,Leon Peck,TN,1420931749000.0,11625832
199502531,Mount Juliet,,1456862005000.0,36.22,-86.52,Lewis Wade,TN,1463071596000.0,11625832
184109815,Nashville,,1425068961000.0,36.16,-86.79,Lexi Vernaglia,TN,1431380661000.0,11625832
199277854,Nashville,,1454798035000.0,36.14,-86.74,Liam Bonnie,TN,1454798035000.0,11625832
183148130,Arlington,,1473101357000.0,42.42,-71.16,Liam Cassidy,MA,1476213372000.0,11625832
23229581,Nashville,,1470229344000.0,36.17,-86.78,Lifeavinash,TN,1487713470000.0,11625832
192158461,Nashville,,1441202783000.0,36.16,-86.79,Light Whitewolf,TN,1441202783000.0,11625832
117370442,Nashville,Nashville,1498090981000.0,36.17,-86.78,Lina Mikhaylichenko,TN,1506545559000.0,11625832
223690505,Nashville,,1489422767000.0,36.13,-86.8,Lindsay Conlin,TN,1489422767000.0,11625832
185776715,Franklin,,1435069566000.0,35.92,-86.89,Lindsey Morris,TN,1502764136000.0,11625832
200451142,Nashville,,1460057255000.0,36.16,-86.79,Lingjun Fu,TN,1460057255000.0,11625832
5809279,Nashville,,1456337951000.0,36.17,-86.78,Lisa,TN,1456442124000.0,11625832
3098530,Nashville,"Memphis, TN",1389721523000.0,36.08,-86.72,Lisa French,TN,1478778153000.0,11625832
148906982,Nashville,,1401336883000.0,36.17,-86.78,Lisa Kaye LeVan,TN,1464558021000.0,11625832
155176622,Nashville,,1440718611000.0,36.17,-86.72,Logan Richardson,TN,1440722346000.0,11625832
119925422,Atlanta,,1444761422000.0,33.98,-84.33,Lola ,GA,1454464574000.0,11625832
223015434,Nashville,,1488469805000.0,36.16,-86.79,Lori Barratt,TN,1488469805000.0,11625832
102323422,Nashville,,1390403117000.0,36.13,-86.8,Lori McCurry,TN,1433906807000.0,11625832
188151049,Nashville,,1444198516000.0,36.17,-86.78,Lorne Swain,TN,1488604192000.0,11625832
187700521,Nashville,,1486494960000.0,36.08,-86.72,Lu Xiong,TN,1486494960000.0,11625832
2532220,Franklin,Franklin TN,1431484113000.0,35.92,-86.89,Lucas Lukasiak,TN,1495551961000.0,11625832
185930713,Nashville,,1488484401000.0,36.18,-86.64,Lucas McDaniel,TN,1493231800000.0,11625832
202811487,Nashville,,1459913734000.0,36.16,-86.79,Lucy,TN,1459913734000.0,11625832
225412049,Nashville,,1491845689000.0,36.17,-86.78,Luis Chunga,TN,1508682020000.0,11625832
187624371,Nashville,"Jackson, TN",1482276854000.0,36.17,-86.78,Luke N.,TN,1505692859000.0,11625832
217856665,Nashville,,1483553973000.0,36.21,-86.72,Luke Woodward,TN,1503611273000.0,11625832
185708032,Nashville,Lake Charles LA,1427797236000.0,36.18,-86.74,M. Jason Morgan,TN,1430349064000.0,11625832
235345691,Nashville,,1504213219000.0,36.17,-86.79,Maddie Rule,TN,1504917474000.0,11625832
188972315,Nashville,,1434987320000.0,36.08,-86.72,Maeva Ralafi,TN,1505610158000.0,11625832
143759992,Nashville,,1498068675000.0,36.1,-86.93,Magnolia McShane,TN,1508593519000.0,11625832
188182242,Nashville,,1473255617000.0,36.06,-86.96,Mahadi,TN,1473255617000.0,11625832
227587232,Nashville,,1508007357000.0,36.21,-86.72,mahi86,TN,1508549589000.0,11625832
200833778,Manchester,,1457023084000.0,35.47,-86.11,makeartnotsense,TN,1457023084000.0,11625832
6303396,Lebanon,,1389825371000.0,36.21,-86.31,Malcolm Roberts,TN,1426902540000.0,11625832
199274025,Nashville,,1454791684000.0,36.18,-86.74,Malek Damiri,TN,1454791684000.0,11625832
100972792,Brentwood,Brentwood,1406940327000.0,36.0,-86.79,Manjunath Shetty Subbaiah,TN,1406940327000.0,11625832
230889294,Nashville,,1498940372000.0,36.07,-86.73,Manny Ishboo Khawaja,TN,1499176878000.0,11625832
113218182,Nashville,,1457243810000.0,36.1,-86.72,Manoja ,TN,1457243810000.0,11625832
194692469,Brentwood,,1445908565000.0,36.0,-86.79,Manoja Muthukumar,TN,1445908565000.0,11625832
81213252,Franklin,,1501196133000.0,35.96,-86.89,Manuel Izturriaga,TN,1501196133000.0,11625832
32419162,Franklin,,1492704132000.0,35.93,-86.81,Marc Sexton,TN,1492704132000.0,11625832
208946987,Nashville,,1473260821000.0,36.13,-86.8,Marc Young,TN,1479506897000.0,11625832
192143285,Murfreesboro,,1443643842000.0,35.87,-86.34,Marcus Spears,TN,1506226818000.0,11625832
192819105,Nashville,,1442428663000.0,36.15,-86.86,Marea Chatman,TN,1442428663000.0,11625832
210189290,Nashville,,1470064945000.0,36.17,-86.78,Marian Rushdy,TN,1473198139000.0,11625832
210096250,Fosterville,,1469933875000.0,35.75,-86.39,Mario Allen,TN,1469933875000.0,11625832
237396707,Nashville,,1506359690000.0,36.17,-86.78,Marisol Ramírez Solano,TN,1506621378000.0,11625832
201636697,Brentwood,,1506031882000.0,36.0,-86.79,Mark Biga,TN,1506627523000.0,11625832
15529121,Murfreesboro,"Denver, CO",1481429023000.0,35.82,-86.45,Mark Ellis,TN,1495569251000.0,11625832
223153097,Hermitage,,1488661069000.0,36.19,-86.6,Mark Hoke,TN,1488661069000.0,11625832
198440790,Nashville,,1470743676000.0,36.13,-86.8,Mark Lefebvre,TN,1500912888000.0,11625832
197630409,Madison,,1464302957000.0,36.26,-86.71,Mark Z,TN,1492038995000.0,11625832
2412055,Sebastopol,Sebastopol,1392425562000.0,38.4,-122.85,Marsee Henon,CA,1392425562000.0,11625832
237999467,Columbia,,1507032943000.0,35.61,-87.05,Marshall Munoz,TN,1507032943000.0,11625832
191272888,Brentwood,,1461879210000.0,36.0,-86.79,Martin Cross,TN,1500603318000.0,11625832
199327908,Dallas,Nashville,1477337887000.0,32.79,-96.8,Martin Jones,TX,1477665224000.0,11625832
221212756,Nashville,,1486024134000.0,36.17,-86.78,Martynas ustavi?ius,TN,1486024134000.0,11625832
12653773,Nashville,,1392262157000.0,36.08,-86.72,Mary Beth Stephens,TN,1469277626000.0,11625832
210259158,Brentwood,,1470155767000.0,36.0,-86.79,Mary Veracco,TN,1470155767000.0,11625832
163173352,Nashville,Nashville,1464720934000.0,36.11,-86.86,Marybeth Snodgrass,TN,1473776257000.0,11625832
132559112,Nashville,,1447287756000.0,36.18,-86.74,MaryLvV,TN,1508239704000.0,11625832
157288432,Nashville,,1424281812000.0,36.07,-86.93,Mathew Williams,TN,1458853843000.0,11625832
204410106,Nashville,,1462203412000.0,36.13,-86.8,Mathilde G.,TN,1467308930000.0,11625832
154992672,Nashville,,1423233125000.0,36.08,-86.72,Matt,TN,1423233125000.0,11625832
185009650,Nashville,Nashville,1484873436000.0,36.21,-86.72,Matt,TN,1484873436000.0,11625832
59916552,Brentwood,Knoxville,1419985997000.0,36.0,-86.79,Matt,TN,1485239506000.0,11625832
124205492,Nashville,"Dayton, OH",1393900711000.0,36.16,-86.79,Matt Eby,TN,1492971947000.0,11625832
208430481,Nashville,,1467745031000.0,36.17,-86.78,Matt Hamil,TN,1508251624000.0,11625832
570581,Nashville,,1409581599000.0,36.17,-86.78,Matt Jordan,TN,1461790879000.0,11625832
157020682,Nashville,,1438672904000.0,36.17,-86.78,Matt Kasle,TN,1490553987000.0,11625832
234737179,Nashville,,1503518286000.0,36.17,-86.78,Matt Lummus,TN,1503518286000.0,11625832
204914631,Smyrna,"Smyrna, TN",1484248440000.0,35.97,-86.51,Matt McCord,TN,1491336513000.0,11625832
219938015,Franklin,,1485923758000.0,35.92,-86.89,Matt Meinel,TN,1501099751000.0,11625832
216096895,Nashville,,1478218800000.0,36.17,-86.78,Matt Nicholson,TN,1478313887000.0,11625832
193867008,Nashville,,1461770881000.0,36.17,-86.78,Matt Perkins,TN,1503524250000.0,11625832
186389338,Hermitage,,1450976938000.0,36.19,-86.6,Matt R,TN,1475113169000.0,11625832
105104652,Charleston,,1478482872000.0,32.78,-79.94,Matthew,SC,1503109479000.0,11625832
132473852,Franklin,,1409590272000.0,35.92,-86.89,Matthew A. Russell,TN,1416525671000.0,11625832
219876597,Nashville,,1505999995000.0,36.17,-86.78,Matthew Brown,TN,1506397099000.0,11625832
220421489,Nashville,,1487955853000.0,36.14,-86.74,Matthew McGarvey,TN,1508683983000.0,11625832
62050212,Nashville,,1394119718000.0,36.17,-86.78,Matthew Montgomery,TN,1505943048000.0,11625832
199780527,Nolensville,,1493508191000.0,35.94,-86.67,Matthew Valentine,TN,1493508191000.0,11625832
139332052,Nashville,,1401981944000.0,36.13,-86.8,Matthew William Lummus,TN,1460384549000.0,11625832
214899373,Nashville,,1488891453000.0,36.16,-86.77,Matti Gilmore,TN,1490310860000.0,11625832
87675622,Nashville,,1484709945000.0,36.17,-86.78,matty gilmore,TN,1498402047000.0,11625832
84101892,Nashville,,1442154553000.0,36.17,-86.78,maverick,TN,1442154553000.0,11625832
215695992,Franklin,,1477593628000.0,35.93,-86.81,Max,TN,1477625887000.0,11625832
201502786,Nashville,,1492008212000.0,36.22,-86.77,Max,TN,1499288601000.0,11625832
189973217,Nashville,,1444857690000.0,36.17,-86.78,Max Shenfield,TN,1508290495000.0,11625832
90430042,Nashville,,1390232925000.0,36.17,-86.78,Max Shenfield,TN,1461905591000.0,11625832
99979372,Paris,,1450041010000.0,48.86,2.34,Maxime Riahi,,1462155306000.0,11625832
230632138,Nashville,,1498626539000.0,36.17,-86.78,MD Lockridge,TN,1499113749000.0,11625832
223378257,Nashville,,1493820296000.0,36.17,-86.78,Meaghan Bizzell,TN,1493833305000.0,11625832
204479532,Nashville,,1471620068000.0,36.1,-86.66,Megan Ford,TN,1485465838000.0,11625832
208991302,Nashville,,1496250822000.0,36.09,-86.82,Megan McGuire,TN,1506010035000.0,11625832
5398482,Huntsville,,1404400286000.0,34.76,-86.68,Mel Woodgett,AL,1404400286000.0,11625832
214116347,Nashville,Nashville,1508425131000.0,36.11,-86.78,Meredith Broadway,TN,1508425131000.0,11625832
74830542,Nashville,"Wilson County, TN",1408377703000.0,36.11,-86.78,Michael ,TN,1462225891000.0,11625832
5010820,Murfreesboro,,1500161626000.0,35.78,-86.33,Michael,TN,1500740733000.0,11625832
214243734,Nashville,,1481157818000.0,36.17,-86.78,Michael Albert,TN,1481157818000.0,11625832
79677252,Nashville,,1409327402000.0,36.18,-86.74,Michael Barile ,TN,1409754029000.0,11625832
188985950,Spring Hill,,1444107840000.0,35.76,-86.88,Michael Brown,TN,1444107840000.0,11625832
11288886,Brentwood,Brentwood,1400165296000.0,36.0,-86.79,Michael Burns,TN,1443045790000.0,11625832
215970349,Nashville,,1478029061000.0,36.11,-86.86,Michael Butler,TN,1478052737000.0,11625832
71912792,Nashville,Nashville,1457902410000.0,36.17,-86.72,Michael Conrad,TN,1469028288000.0,11625832
237645407,Nashville,,1506626797000.0,36.17,-86.78,Michael Foster,TN,1506626797000.0,11625832
208571752,Brentwood,,1467933340000.0,36.0,-86.79,Michael Frost ,TN,1467933340000.0,11625832
226888008,Nashville,,1493833328000.0,36.17,-86.78,Michael Gilbertson,TN,1493833328000.0,11625832
8097382,Nashville,,1406756700000.0,36.13,-86.8,Michael Golden,TN,1406756700000.0,11625832
156736372,Hendersonville,Hendersonville,1464286401000.0,36.32,-86.61,Michael Hulet,TN,1493175487000.0,11625832
232312915,Nashville,,1500661753000.0,36.13,-86.8,Michael Kennedy,TN,1500661753000.0,11625832
197628527,Nashville,,1451932320000.0,36.17,-86.72,Michael Kennedy,TN,1451932320000.0,11625832
220663433,Hendersonville,,1485886088000.0,36.3,-86.62,Michael L,TN,1489832417000.0,11625832
188467589,Nashville,,1433953668000.0,36.18,-86.74,Michael Lauren,TN,1478190047000.0,11625832
202882025,Nashville,,1459993498000.0,36.14,-86.74,Michael mead,TN,1508245503000.0,11625832
192581930,Franklin,,1441990319000.0,35.92,-86.89,Michael Medley,TN,1442959885000.0,11625832
199340802,Nashville,,1454897159000.0,36.17,-86.72,Michael Pace,TN,1463449997000.0,11625832
90042112,Nashville,,1418264990000.0,36.17,-86.78,Michael Slade,TN,1493812856000.0,11625832
198128679,Nashville,,1488992495000.0,36.17,-86.72,michael tambornino,TN,1506537476000.0,11625832
151315052,Columbia,"Athens, AL",1499999191000.0,35.61,-87.05,Michael Tucker,TN,1499999191000.0,11625832
12157207,Warsaw,,1417659323000.0,52.26,21.02,Michal Wendrowski,,1417659323000.0,11625832
205860494,Franklin,,1464212461000.0,35.92,-86.89,Michele LeNoue-Newton,TN,1475024985000.0,11625832
158096102,Knoxville,Knoxville,1406225868000.0,35.92,-84.1,Mike,TN,1409091531000.0,11625832
186662002,Murfreesboro,,1440625878000.0,35.78,-86.33,Mike,TN,1442517907000.0,11625832
28652082,Brentwood,"Muncie, IN",1490367078000.0,36.0,-86.79,Mike Burrell,TN,1491366180000.0,11625832
230237578,Nashville,,1498133516000.0,36.16,-86.66,Mike Donahue,TN,1505954659000.0,11625832
221139699,Franklin,,1485925686000.0,35.92,-86.89,Mike King,TN,1485925686000.0,11625832
189347481,Nashville,,1435758036000.0,36.17,-86.78,Mike McDonald,TN,1452093429000.0,11625832
194099532,Nashville,,1464192180000.0,36.17,-86.78,Mike Meadows,TN,1479764716000.0,11625832
185421946,Nashville,,1426904741000.0,36.17,-86.78,Mike O'Nan,TN,1474553039000.0,11625832
189686218,Nashville,Dublin,1436447439000.0,36.16,-86.79,Mike Robinson,TN,1436879639000.0,11625832
10853675,Nashville,Emeryville,1450131585000.0,36.11,-86.78,mike robinson,TN,1489023275000.0,11625832
235854043,Nashville,,1504758174000.0,36.15,-86.86,Mike Stone,TN,1504758174000.0,11625832
193681740,Franklin,,1444930263000.0,35.92,-86.89,Mike Ulvila,TN,1466745883000.0,11625832
188094055,La Vergne,,1433338745000.0,36.01,-86.57,Mike W,TN,1464199488000.0,11625832
155706292,Nashville,,1405007153000.0,36.17,-86.78,Mikias M. Seid,TN,1405007153000.0,11625832
40845292,Nashville,nashville,1493227984000.0,36.06,-86.96,Miriam Rozenbaum,TN,1493333322000.0,11625832
226212530,Nashville,,1492924619000.0,36.09,-86.82,miriam rozenbaum,TN,1501087412000.0,11625832
184389351,Nashville,,1487774055000.0,36.11,-86.78,Mitchell Blom,TN,1508240329000.0,11625832
190272148,Nashville,,1504642124000.0,36.09,-86.82,MKM,TN,1508508511000.0,11625832
218557160,Nashville,,1482441067000.0,36.17,-86.78,Mohammed Rasras,TN,1482441067000.0,11625832
238012348,Nashville,,1507045498000.0,36.17,-86.78,Monnie,TN,1507045498000.0,11625832
183015093,Louisville,,1497893633000.0,38.25,-85.76,Morgan,KY,1506625735000.0,11625832
186038725,Nashville,,1442356000000.0,36.17,-86.78,Morgan higby-flowers,TN,1470155282000.0,11625832
29570042,Fairview,Fairview,1389924021000.0,45.54,-122.44,Morgan Reece,OR,1430661741000.0,11625832
62103862,Nashville,,1471358798000.0,36.13,-86.8,morley,TN,1504706847000.0,11625832
222356790,Nashville,,1491783324000.0,36.17,-86.78,Mukul,TN,1491783324000.0,11625832
235823431,Nashville,,1504728336000.0,36.17,-86.78,Nadia,TN,1504728336000.0,11625832
223097680,San Francisco,,1508048167000.0,37.78,-122.42,Naga M,CA,1508048167000.0,11625832
4389320,Nashville,Charlotte,1484272064000.0,36.17,-86.78,Nat,TN,1484272064000.0,11625832
225902759,Nashville,,1492520706000.0,36.17,-86.78,Natasha Matchett,TN,1494958565000.0,11625832
213360425,Nashville,,1474406070000.0,36.17,-86.78,Nate Lehman,TN,1474406070000.0,11625832
184698085,Louisville,,1495159948000.0,35.83,-84.05,Nathan B.,TN,1508251691000.0,11625832
191059701,Nashville,,1456435156000.0,36.17,-86.78,Nathan Baldwin,TN,1456435156000.0,11625832
128117352,Nashville,Nashville,1495630902000.0,36.18,-86.74,Nathan Butler,TN,1503175440000.0,11625832
182986549,Nashville,,1418615083000.0,36.17,-86.72,Nathan C,TN,1437657419000.0,11625832
182979922,Nashville,,1418579056000.0,36.17,-86.72,Nathan C.,TN,1418579056000.0,11625832
147690502,Mc Ewen,,1404759253000.0,36.14,-87.66,Nathan Davis,TN,1447700062000.0,11625832
234652185,Nashville,,1503427022000.0,36.17,-86.78,Nathan Davis,TN,1503520596000.0,11625832
7217653,Nashville,Nashville,1404195300000.0,36.11,-86.78,Nathan Hubbard,TN,1488391139000.0,11625832
152011532,Smyrna,"Smyrna, TN",1441324043000.0,35.97,-86.51,Nathan Martinez,TN,1505149153000.0,11625832
141620062,Nashville,,1504882587000.0,36.15,-86.79,Nathan T. Baker,TN,1506637570000.0,11625832
192874124,Thompsons Station,,1475509245000.0,35.8,-86.9,Nathan Tanner,TN,1490735762000.0,11625832
189770400,Antioch,,1436619917000.0,36.17,-86.88,Nathaniel oboh,TN,1455016088000.0,11625832
182823823,Nashville,,1432636589000.0,36.07,-86.73,neece tinsley,TN,1456231810000.0,11625832
155888802,Nashville,"Nashville, TN",1405100688000.0,36.09,-86.82,Neil Norman,TN,1485538235000.0,11625832
196618544,Nashville,,1459887860000.0,36.17,-86.78,Nicholas Huffman,TN,1476283827000.0,11625832
199435099,Madison,,1467817748000.0,36.26,-86.71,Nicholas Jeter,TN,1477579064000.0,11625832
184929921,Nashville,,1428519788000.0,36.06,-86.96,Nicholas McCamey,TN,1429823995000.0,11625832
233223011,Nashville,,1501811232000.0,36.17,-86.78,Nicholas Platt,TN,1501811232000.0,11625832
232740190,Nashville,,1501186933000.0,36.17,-86.78,Nick,TN,1507122233000.0,11625832
214688193,Nashville,,1476108478000.0,36.07,-86.73,Nick Chemsak,TN,1503323317000.0,11625832
204153614,Nashville,,1463093565000.0,36.09,-86.63,Nick Curry,TN,1477602861000.0,11625832
234785133,Nashville,,1503576241000.0,36.17,-86.78,Nick Darnley,TN,1503760488000.0,11625832
18382441,Nashville,Nashville,1484506308000.0,36.15,-86.86,Nick Herron,TN,1494250723000.0,11625832
162554982,Nashville,,1455115809000.0,36.06,-86.96,Nick Kroes,TN,1455115809000.0,11625832
209842501,Franklin,,1501721831000.0,35.92,-86.89,Nick Lotz,TN,1505934591000.0,11625832
149701492,Nashville,,1401768732000.0,36.17,-86.78,Nick Perry,TN,1410927527000.0,11625832
155764182,Fort Mill,,1405029922000.0,35.01,-80.95,Nick Williams,SC,1407331127000.0,11625832
183378188,Nashville,Nashville,1437665477000.0,36.17,-86.78,Nickalaus Wallace,TN,1475585906000.0,11625832
230079946,Clarksville,,1497960656000.0,36.53,-87.35,Nigel Plummer,TN,1497960656000.0,11625832
183727389,Brentwood,,1506545460000.0,36.0,-86.79,Nik Vierkant ,TN,1508775390000.0,11625832
171188212,Nashville,Nashville,1498081686000.0,36.16,-86.79,Nikhil,TN,1498081686000.0,11625832
73243812,Nashville,,1442609784000.0,36.17,-86.78,nikhil gaikwad,TN,1442609784000.0,11625832
86024262,Nashville,,1404317911000.0,36.2,-86.84,Nikki Norton,TN,1458854547000.0,11625832
198692148,Franklin,,1492553964000.0,35.93,-86.81,Nikki Rooks,TN,1506048723000.0,11625832
116674592,Mount Juliet,Mt Juliet,1497102076000.0,36.22,-86.52,Noah,TN,1497453638000.0,11625832
194882649,Lebanon,,1446257167000.0,36.21,-86.31,Noah Byrge,TN,1446330667000.0,11625832
13968585,Nashville,,1389722864000.0,36.13,-86.8,Noe Lopez,TN,1389722864000.0,11625832
194934564,Murfreesboro,,1446463578000.0,35.87,-86.34,Nolan,TN,1446463578000.0,11625832
190017002,Nashville,Nashville,1484956900000.0,36.16,-86.79,Obada Zaidany,TN,1484956900000.0,11625832
211547501,Nashville,,1471989385000.0,36.17,-86.78,Oliver Prince,TN,1508512744000.0,11625832
234168251,Franklin,,1502887953000.0,35.93,-86.81,Olivia Oetjens,TN,1502887953000.0,11625832
109486962,Nashville,"Dallas, TX",1505274051000.0,36.14,-86.79,Omair,TN,1505274051000.0,11625832
184290497,Smyrna,,1423473906000.0,35.97,-86.51,Omar,TN,1423473906000.0,11625832
221191725,Nashville,,1486589878000.0,36.08,-86.72,Omar Ali,TN,1504463301000.0,11625832
197759787,Lagos,,1500258630000.0,6.45,3.47,osayamen omigie,,1506999302000.0,11625832
210876362,Nashville,,1471041916000.0,36.17,-86.78,Oscar Koeneke,TN,1473270133000.0,11625832
113522242,Nashville,Valrico,1405014178000.0,36.16,-86.79,Osvaldo Gonzalez,TN,1471707592000.0,11625832
208825415,Nashville,,1468264732000.0,36.08,-86.72,Palmer Harrell,TN,1468264732000.0,11625832
208228352,Nashville,,1467475053000.0,36.17,-86.78,Pan Zhang,TN,1467475053000.0,11625832
161612452,Marietta,,1409167863000.0,35.06,-82.51,Pat Harvey,SC,1409167863000.0,11625832
29654972,San Francisco,,1429737374000.0,37.77,-122.44,Pat Poels,CA,1429737374000.0,11625832
220303948,Nashville,,1484865473000.0,36.17,-86.78,Pat Riley,TN,1484865473000.0,11625832
4667199,Nashville,,1389614513000.0,36.17,-86.78,Patrick Altman,TN,1433296341000.0,11625832
88659442,Nashville,,1476372036000.0,36.16,-86.79,Patrick Bentley,TN,1476372036000.0,11625832
205095793,Nashville,,1463182894000.0,36.08,-86.72,Patrick Duteau,TN,1463695035000.0,11625832
206822440,Nashville,,1466375984000.0,36.16,-86.79,Patrick Pei,TN,1477644027000.0,11625832
225904099,Nashville,,1492521894000.0,36.17,-86.78,Patrick Ragsdale,TN,1497451984000.0,11625832
183093517,Nashville,,1419312697000.0,36.14,-86.74,Paul,TN,1424892168000.0,11625832
14403986,Nashville,,1456426101000.0,36.17,-86.78,Paul Campbell,TN,1505160355000.0,11625832
151103812,Nashville,,1402519031000.0,36.17,-86.78,Peder Schacht,TN,1416415092000.0,11625832
3661197,Nashville,,1501028994000.0,36.17,-86.78,Pedro,TN,1506636647000.0,11625832
216550429,Nashville,,1478962641000.0,36.1,-86.66,Peggy Bertsch,TN,1488552706000.0,11625832
83565352,Mount Juliet,,1476533097000.0,36.22,-86.52,penny,TN,1476533097000.0,11625832
116788872,Nashville,"Chattanooga, TN",1435860638000.0,36.17,-86.78,Pete,TN,1435860638000.0,11625832
102695132,Nashville,Nashville,1488822417000.0,36.18,-86.74,Peter Buchan Jr,TN,1506088471000.0,11625832
63233432,Nashville,Nashville,1452755296000.0,36.22,-86.77,Peter Harris,TN,1493351985000.0,11625832
205261276,Nashville,,1463405015000.0,36.16,-86.79,Peter James,TN,1471615821000.0,11625832
53121132,Nashville,"Knights Landing, CA",1477330992000.0,36.17,-86.78,Peter Leiser,TN,1479488273000.0,11625832
119039542,Nashville,,1409327102000.0,36.17,-86.79,Peyton Townley,TN,1409779664000.0,11625832
185406944,Nashville,,1458069494000.0,36.18,-86.74,Phil Ko,TN,1458069494000.0,11625832
223421595,Nashville,,1501012108000.0,36.14,-86.74,Phil Varela,TN,1506569381000.0,11625832
80256802,Nashville,,1422197453000.0,36.06,-86.96,Philip Best,TN,1475118002000.0,11625832
230257091,Nashville,Nashville,1502734318000.0,36.15,-86.81,Phillip Adam,TN,1502734318000.0,11625832
239207970,Nashville,,1508369318000.0,36.17,-86.78,Phillip Hutton,TN,1508369318000.0,11625832
123992672,Murfreesboro,Miami,1451800455000.0,35.82,-86.45,Pierre ,TN,1451800455000.0,11625832
197376374,Spring Hill,,1462499834000.0,35.76,-86.88,Ping G.,TN,1489015164000.0,11625832
152457842,Nashville,,1506195420000.0,36.04,-86.72,Pitu,TN,1506195420000.0,11625832
192316228,Nashville,,1475065844000.0,36.17,-86.78,Ppais,TN,1479782467000.0,11625832
162769792,Franklin,,1436086609000.0,35.92,-86.89,Preston Nalls,TN,1456973915000.0,11625832
199130686,Smyrna,,1461166408000.0,35.97,-86.51,Preston Sparks,TN,1475165338000.0,11625832
215201845,Nashville,,1476844057000.0,36.17,-86.78,PyNash Organizers,TN,1489006695000.0,11625832
157819992,Franklin,,1406116456000.0,35.92,-86.89,Qiliang He,TN,1417097063000.0,11625832
41761902,Annandale,Annandale,1429228952000.0,38.83,-77.21,Rachael,VA,1433294605000.0,11625832
200560661,Shelbyville,,1456623712000.0,35.48,-86.47,Rachel Shannon,TN,1456623712000.0,11625832
212538180,Nashville,,1473347068000.0,36.07,-86.73,Rama Chillara,TN,1473347068000.0,11625832
190727070,Nashville,,1438433757000.0,36.17,-86.78,Rasun&Kelz,TN,1438433757000.0,11625832
234109593,Nashville,,1502818013000.0,36.16,-86.79,Raul Ibarra,TN,1505240221000.0,11625832
175300482,Nashville,,1459907668000.0,36.16,-86.79,Rav,TN,1507128706000.0,11625832
224563017,Nashville,,1490637455000.0,36.08,-86.72,Ravi Teja,TN,1490637455000.0,11625832
208526066,Clarksville,,1467862443000.0,36.53,-87.35,Ray,TN,1494978454000.0,11625832
198332016,Nashville,,1498104593000.0,36.17,-86.78,Ray,TN,1498104593000.0,11625832
229049863,Nashville,,1496645035000.0,36.15,-86.8,Ray Li,TN,1503506251000.0,11625832
214460093,Murfreesboro,,1475763195000.0,35.78,-86.33,Raymond Adair,TN,1475763195000.0,11625832
100367272,Nashville,,1429582133000.0,36.13,-86.8,Rebecca Cronin-Dixon,TN,1501179022000.0,11625832
194813058,Murfreesboro,,1446138125000.0,35.87,-86.34,Reece Boyd,TN,1502481284000.0,11625832
188848346,Hermitage,,1434724168000.0,36.19,-86.6,Rehan,TN,1434724168000.0,11625832
221161925,Clarksville,,1485961036000.0,36.56,-87.41,Renee Palicia,TN,1485961036000.0,11625832
196838090,San Francisco,San Francisco,1471789667000.0,37.8,-122.41,Richard,CA,1472070366000.0,11625832
226502472,Nashville,,1493306841000.0,36.11,-86.67,Richard Beauchamp,TN,1493306841000.0,11625832
58363422,Chattanooga,Chattanooga ,1462616317000.0,35.07,-85.31,Richard L Smith,TN,1498140656000.0,11625832
219740646,Nashville,,1484164299000.0,36.18,-86.81,Richard Whitfield,TN,1493052091000.0,11625832
211596798,Nashville,,1474472678000.0,36.18,-86.74,Richard Z.,TN,1477598768000.0,11625832
215233420,Franklin,Nashville,1484251801000.0,35.93,-86.81,Richie Van Sickle,TN,1485442689000.0,11625832
71851852,Franklin,,1408843415000.0,35.92,-86.89,Rick Murdock,TN,1501126197000.0,11625832
198090904,Smyrna,,1454558039000.0,35.97,-86.51,Ricky Cook,TN,1460489957000.0,11625832
205780937,Nashville,,1464105045000.0,36.17,-86.78,Rob Campbell,TN,1494966835000.0,11625832
239412925,Nashville,,1508609938000.0,36.17,-86.78,Rob Combs,TN,1508609938000.0,11625832
101901152,Nashville,"Gernsheim, Hesse",1405342006000.0,36.11,-86.78,Rob H,TN,1405342006000.0,11625832
214761951,Nashville,,1476212487000.0,36.17,-86.78,Rob Harrigan,TN,1501123298000.0,11625832
237392244,North Bergen,,1506630134000.0,40.79,-74.02,Rob Markowitz,NJ,1506630134000.0,11625832
201249049,Nashville,,1493117680000.0,36.08,-86.72,Rob Marlow,TN,1506022139000.0,11625832
184066993,Nashville,Evansville,1501025030000.0,36.17,-86.78,Rob Wilson,TN,1506366744000.0,11625832
44193692,Pleasant View,,1389723203000.0,36.38,-87.04,Robert,TN,1503420109000.0,11625832
207103542,White House,,1467722809000.0,36.48,-86.69,Robert Allman,TN,1467722809000.0,11625832
145901412,Plano,,1436145907000.0,33.03,-96.68,Robert Dixon,TX,1436145907000.0,11625832
192899035,Nashville,,1442584806000.0,36.06,-86.96,Robert Gambrel,TN,1508288996000.0,11625832
236438111,Nashville,,1506601624000.0,36.13,-86.8,Robert Johnson,TN,1506970983000.0,11625832
193435773,Mc Minnville,,1443579157000.0,35.68,-85.78,Robert Newby,TN,1479039417000.0,11625832
235162972,Nashville,,1504021670000.0,36.14,-86.74,Robert Shunk,TN,1504021670000.0,11625832
205258299,Brentwood,,1463401272000.0,36.0,-86.79,Robert Sloan,TN,1463401272000.0,11625832
216782860,Nashville,,1479307856000.0,36.17,-86.78,Robert Tortorelli,TN,1486392717000.0,11625832
233090389,Nashville,,1501805450000.0,36.17,-86.78,Robert Trone,TN,1501805450000.0,11625832
9317828,Antioch,,1434339691000.0,36.17,-86.88,robertschley,TN,1464032991000.0,11625832
141376462,Nashville,,1428848603000.0,36.17,-86.78,Rodney Norris,TN,1463773913000.0,11625832
184359365,Nashville,"Nashville, TN",1453764747000.0,36.15,-86.86,Roe Rogers,TN,1478100750000.0,11625832
80278962,Nashville,Nashville,1457858537000.0,36.17,-86.72,Roger Ball,TN,1466566806000.0,11625832
99285742,Nashville,,1492186741000.0,36.17,-86.78,Roman Rodriguez,TN,1507123152000.0,11625832
225188047,Nashville,Nashville,1492929399000.0,36.15,-86.86,Ron,TN,1495296278000.0,11625832
6548558,Nashville,"Chester, West Virginia",1465146273000.0,36.13,-86.8,Ron Brunk,TN,1465146273000.0,11625832
216660454,Nashville,,1479125217000.0,36.17,-86.78,Ronald Swanson,TN,1495952715000.0,11625832
185900743,Antioch,,1428343982000.0,36.04,-86.64,Ronisha ,TN,1428343982000.0,11625832
14568344,Nashville,,1403625653000.0,36.1,-86.66,Ross Kimberlin,TN,1463431791000.0,11625832
192919256,Nashville,,1442616920000.0,36.15,-86.81,Rounak Salim,TN,1442616920000.0,11625832
184770847,Nashville,,1437596435000.0,36.08,-86.72,Rueben Banalagay,TN,1491933292000.0,11625832
218287357,Nashville,,1497969924000.0,36.11,-86.78,Ruslan Mardugalliamov,TN,1501188389000.0,11625832
191135384,Nashville,,1485962392000.0,36.21,-86.72,Russ Anderson,TN,1495473307000.0,11625832
183621154,Smyrna,,1421386271000.0,35.97,-86.51,Russell Church,TN,1421386271000.0,11625832
201857441,Nashville,,1479490557000.0,36.11,-86.78,Ryan,TN,1500748364000.0,11625832
52175782,Nashville,,1485630588000.0,36.17,-86.78,Ryan Bliton,TN,1485630588000.0,11625832
191555917,Nashville,,1442258355000.0,36.06,-86.96,Ryan D,TN,1442333360000.0,11625832
227922819,Franklin,,1495224385000.0,35.92,-86.89,Ryan Florida,TN,1495224385000.0,11625832
203664064,Nashville,,1461104223000.0,36.16,-86.79,Ryan Gilreath,TN,1476711687000.0,11625832
14466241,Franklin,"Franklin, TN",1485473913000.0,35.92,-86.89,Ryan Goltry,TN,1485473913000.0,11625832
218769855,Nashville,,1482882920000.0,36.17,-86.78,Ryan Hanlin,TN,1482882920000.0,11625832
190392897,Smyrna,,1437834388000.0,35.97,-86.51,Ryan Harper,TN,1442403905000.0,11625832
184878207,Nashville,"Louisville, KY",1449812406000.0,36.17,-86.78,Ryan LaMarr Fuqua,TN,1449812406000.0,11625832
26576702,Nashville,Nasvhille,1415983325000.0,36.18,-86.74,Ryan Macy,TN,1500908946000.0,11625832
183564319,Nashville,,1421200419000.0,36.14,-86.8,Ryan Murray,TN,1506915691000.0,11625832
13214587,Nashville,,1432824266000.0,36.07,-86.73,Ryan Osborne,TN,1456504360000.0,11625832
211271973,Nashville,,1471611831000.0,36.17,-86.78,Ryan Stubbs,TN,1501263343000.0,11625832
195328266,Nashville,,1461683814000.0,36.17,-86.78,Ryan Tanay,TN,1479568409000.0,11625832
34208282,Nashville,,1472493571000.0,36.08,-86.72,Ryan Trebilcock,TN,1488307914000.0,11625832
151985022,Nashville,,1403019466000.0,36.17,-86.78,Ryan York,TN,1406748956000.0,11625832
113070952,Kirkland,kirkland,1499307894000.0,47.69,-122.19,Sabrina Bina,WA,1499307894000.0,11625832
147583252,Nashville,,1400619915000.0,36.17,-86.78,Sal Salvatierra,TN,1400619915000.0,11625832
237882924,Nashville,,1506900218000.0,36.17,-86.78,Sally Amkoa,TN,1506953626000.0,11625832
48545422,Nashville,Nashville,1498311981000.0,36.11,-86.78,Sally MacNicholas,TN,1502832877000.0,11625832
13772465,Nashville,,1414381381000.0,36.13,-86.8,Sam,TN,1425449577000.0,11625832
189908251,Nashville,,1436882521000.0,36.15,-86.86,sam brooker,TN,1436882521000.0,11625832
192140941,Franklin,,1441164307000.0,35.92,-86.89,Sam Butler,TN,1447875016000.0,11625832
19384571,Nashville,"Columbus, MS",1442677969000.0,36.17,-86.78,Sam Dornan,TN,1442852070000.0,11625832
215065731,Spring Hill,,1476656765000.0,35.76,-86.88,Sam Lax,TN,1479486193000.0,11625832
222617819,Franklin,,1487898487000.0,35.92,-86.89,Sam Lax,TN,1487898487000.0,11625832
192858592,Nashville,,1442505778000.0,36.14,-86.74,Sam Lingo,TN,1442505778000.0,11625832
225365919,Murfreesboro,,1491778908000.0,35.82,-86.45,Sam M.,TN,1491778908000.0,11625832
225120700,Franklin,,1491419844000.0,35.92,-86.89,Sam Phillips,TN,1497912533000.0,11625832
7222138,Nashville,East Nashville,1405352502000.0,36.18,-86.74,Samantha,TN,1508768771000.0,11625832
237392126,Nashville,,1506355690000.0,36.17,-86.78,Samantha Terker,TN,1507131491000.0,11625832
143069742,Franklin,,1398114950000.0,36.04,-86.78,Samarth Wahal,TN,1398114950000.0,11625832
202787796,Antioch,,1459866400000.0,36.04,-86.64,Samir Marcos,TN,1464203487000.0,11625832
170846382,Nashville,Nashville,1491418818000.0,36.17,-86.78,Samuel Christos Phillips,TN,1491418818000.0,11625832
112044792,Memphis,,1492199079000.0,35.12,-89.86,Sandeep Manocha,TN,1492199079000.0,11625832
221128997,Nashville,,1485912405000.0,36.17,-86.78,Sandeep Reddy,TN,1503636758000.0,11625832
152213612,Nashville,,1453913691000.0,36.08,-86.72,Sandya L,TN,1453913691000.0,11625832
198667802,Nashville,,1453838372000.0,36.06,-86.96,Sanjay Mishra,TN,1454725704000.0,11625832
190637411,Lebanon,,1438251304000.0,36.21,-86.29,Sara,TN,1438310153000.0,11625832
194000459,Nashville,Colleyville,1507751843000.0,36.1,-86.66,Sarah,TN,1507751843000.0,11625832
13431466,Nashville,Nashville,1389818603000.0,36.13,-86.8,Sarah Edwards,TN,1424203173000.0,11625832
237639679,Nashville,,1506621398000.0,36.17,-86.78,Sarah Maddox,TN,1506621398000.0,11625832
190566193,Christiana,,1438119850000.0,35.71,-86.36,Sarah Story,TN,1438119850000.0,11625832
214590028,Nashville,,1475954918000.0,36.18,-86.81,Sarai Corea,TN,1475954918000.0,11625832
229694377,Nashville,,1497447527000.0,36.17,-86.78,Sarajane McMahon,TN,1498166843000.0,11625832
236617129,Nashville,,1505517990000.0,36.08,-86.72,Satish Dodda,TN,1505517990000.0,11625832
182301862,Nashville,,1416401714000.0,36.17,-86.78,saud,TN,1428364161000.0,11625832
191769354,Nashville,,1440450727000.0,36.21,-86.72,Savvy Coders,TN,1440697036000.0,11625832
3710232,Nashville,,1394540029000.0,36.17,-86.78,Scott,TN,1503539323000.0,11625832
42767962,Nashville,USA,1397164905000.0,36.17,-86.78,Scott,TN,1486579268000.0,11625832
12579661,Nashville,Nashville,1389365087000.0,36.07,-86.78,Scott Burns,TN,1501643496000.0,11625832
86263532,Nashville,,1415386474000.0,36.06,-86.96,Scott Haber,TN,1454367176000.0,11625832
12625982,Nashville,Nashville,1485444064000.0,36.18,-86.74,Scott Lewis,TN,1486154162000.0,11625832
176830582,Spring Hill,,1424717260000.0,35.76,-86.88,Scott Pilkinton,TN,1424717260000.0,11625832
185367567,Franklin,,1426820566000.0,35.93,-86.81,Scott Schaffer,TN,1508257411000.0,11625832
10316308,Antioch,,1406255994000.0,36.04,-86.64,Scott Southworth,TN,1485878134000.0,11625832
73329392,Lebanon,,1392220240000.0,36.15,-86.32,ScottandGeneva Winslow,TN,1495039479000.0,11625832
13817898,Nashville,,1412996329000.0,36.16,-86.79,Sean,TN,1501530748000.0,11625832
238836409,Nashville,,1507944524000.0,36.14,-86.74,Sean Kendall,TN,1507944524000.0,11625832
219462455,Nashville,,1483819797000.0,36.17,-86.78,Sean Logan,TN,1483819797000.0,11625832
189118479,Nashville,,1435272101000.0,36.17,-86.78,Sean Rhea,TN,1435771036000.0,11625832
200407318,Nashville,"Lima, PE",1467744967000.0,36.17,-86.78,Sebastián Alegre,TN,1470238848000.0,11625832
92795252,Nashville,,1505257320000.0,36.17,-86.78,Sekou,TN,1505257320000.0,11625832
186438396,Nashville,,1429677492000.0,36.17,-86.78,selvia nakhla,TN,1429841385000.0,11625832
190978121,Lebanon,,1438905684000.0,36.21,-86.31,Senn Nathan,TN,1438913484000.0,11625832
235541488,Nashville,,1504444956000.0,36.07,-86.73,Sergio Bello,TN,1504444956000.0,11625832
188295207,Nashville,,1471883302000.0,36.16,-86.79,Seth Elliott,TN,1493329038000.0,11625832
211398833,Nashville,Philadelphia,1504829765000.0,36.18,-86.81,Seth Rhoades,TN,1504829765000.0,11625832
185973140,Nashville,,1428519888000.0,36.08,-86.72,Seth Thompson,TN,1428519888000.0,11625832
145088312,Nashville,,1405354901000.0,36.11,-86.86,sfrapoport,TN,1452866478000.0,11625832
8539046,Nashville,,1504704171000.0,36.13,-86.8,Shalini,TN,1504704171000.0,11625832
216514265,Clarksville,,1485314581000.0,36.53,-87.35,Shandralynn Mayberry,TN,1487614089000.0,11625832
190845324,Huntsville,,1438645918000.0,34.73,-86.57,Shane Kamar,AL,1438645918000.0,11625832
221023909,Nashville,,1485789685000.0,36.17,-86.78,Shanin ,TN,1485789685000.0,11625832
5783863,Nashville,,1389734578000.0,36.17,-86.79,shannon,TN,1469642593000.0,11625832
193177054,Lebanon,,1443101915000.0,36.21,-86.31,Shannon Williams,TN,1443101915000.0,11625832
189100499,Nashville,Nashville,1491407152000.0,36.16,-86.79,Sharon Chou,TN,1491407152000.0,11625832
204412550,Murfreesboro,,1485453209000.0,35.87,-86.44,Shaun Willis,TN,1487946855000.0,11625832
194381707,Nashville,Nashville,1445359463000.0,36.17,-86.78,Shawn,TN,1479601223000.0,11625832
196390199,Nashville,,1452715103000.0,36.16,-86.79,Shawn Cothran,TN,1453847741000.0,11625832
12480841,Nashville,"Shreveport, LA",1389723511000.0,36.17,-86.72,Shawn Oden,TN,1435258542000.0,11625832
216893741,Nashville,,1479482221000.0,36.17,-86.78,Shawnda Chabot,TN,1479489025000.0,11625832
163518982,Brentwood,,1449169346000.0,36.0,-86.79,Shayleen,TN,1449586134000.0,11625832
222214601,Murfreesboro,,1487348230000.0,35.78,-86.33,Shoira S,TN,1489513262000.0,11625832
45597012,Nashville,,1412093357000.0,36.17,-86.78,Shruti Sharma,TN,1477589375000.0,11625832
231522514,Nashville,,1499708223000.0,36.17,-86.78,Shu XU,TN,1499708223000.0,11625832
228125989,Nashville,,1506544409000.0,36.11,-86.78,siddhesh tiwari,TN,1506544409000.0,11625832
29017132,Franklin,,1475639150000.0,35.93,-86.81,Simon Herrera,TN,1484968999000.0,11625832
150289852,Nashville,,1445885030000.0,36.17,-86.72,Simone Gonzalez,TN,1506630709000.0,11625832
229121218,Nashville,,1496724701000.0,36.17,-86.78,Simone McCarron,TN,1497485945000.0,11625832
221587497,Nashville,,1491163640000.0,36.17,-86.78,Sinney Chan,TN,1500330310000.0,11625832
221596091,Franklin,nashville,1486503760000.0,35.92,-86.89,Sinney Chan,TN,1486503760000.0,11625832
238021936,Nashville,,1507054548000.0,36.16,-86.79,Sisi Wang,TN,1507054548000.0,11625832
153412662,Gurgaon,Bangalore,1473599886000.0,28.47,77.01,Sivagnanam K P,,1473599886000.0,11625832
190938988,Brentwood,,1475806160000.0,36.0,-86.79,Sonny Clark,TN,1476240674000.0,11625832
184768679,Brentwood,,1424954629000.0,36.0,-86.79,Spencer C,TN,1425141643000.0,11625832
183585692,Nashville,,1427754425000.0,36.17,-86.78,Spencer Sharpe,TN,1427754425000.0,11625832
194438225,Nashville,,1445882748000.0,36.17,-86.78,Sri Macherla,TN,1446059398000.0,11625832
214049144,Nashville,,1484686934000.0,36.17,-86.78,Sridhar K,TN,1484686934000.0,11625832
236332354,Fairview,,1505246404000.0,35.97,-87.13,Stacey Joplin,TN,1505246404000.0,11625832
203053536,Clarksville,,1475518073000.0,36.56,-87.41,staggosaurus,TN,1475518073000.0,11625832
189938452,Fort Campbell,,1436932055000.0,36.65,-87.46,Stain003,KY,1436932055000.0,11625832
14360230,Brooklyn,,1492613800000.0,40.64,-74.02,Stanton B,NY,1505067514000.0,11625832
190557229,Nashville,,1459551506000.0,36.18,-86.74,Stephanie,TN,1459551506000.0,11625832
20604351,Madison,,1462114401000.0,36.26,-86.71,Stephanie,TN,1462114401000.0,11625832
195767229,Nashville,,1447901711000.0,36.22,-86.86,stephanie goldstein,TN,1461098697000.0,11625832
189887587,Nashville,,1436836992000.0,36.150001525878906,-86.86000061035156,Stephen,TN,1508495811000.0,11625832
200777643,Lincoln Park,,1456933933000.0,42.25,-83.18,Stephen Brady,MI,1459448899000.0,11625832
13296497,Nashville,,1404929190000.0,36.13,-86.8,Stephen Burgin,TN,1413560926000.0,11625832
199385114,Franklin,,1454967855000.0,35.92,-86.89,Stephen Clancy,TN,1454967855000.0,11625832
182814230,Nashville,,1417556091000.0,36.17,-86.78,Stephen Scribner,TN,1417556091000.0,11625832
197913247,Nashville,,1500580237000.0,36.21,-86.72,Stephen Szpak,TN,1503608421000.0,11625832
10223251,Nashville,"Nashville, TN",1479186769000.0,36.18,-86.74,Stephen Yeargin,TN,1479570993000.0,11625832
186351141,Nashville,,1493256056000.0,36.18,-86.74,Stephen Ziehr,TN,1493256056000.0,11625832
184280399,Nashville,,1423441742000.0,36.17,-86.72,stephkarkls,TN,1508277228000.0,11625832
3246917,Nashville,,1389724406000.0,36.11,-86.86,steve ghertner,TN,1508243917000.0,11625832
124378502,Nashville,,1412007708000.0,36.17,-86.79,Steve Henke,TN,1503596203000.0,11625832
37633802,Nashville,,1456429204000.0,36.17,-86.78,Steve MacLaren,TN,1456429204000.0,11625832
194640094,Nashville,,1445820351000.0,36.17,-86.78,Steve Nyemba,TN,1480616826000.0,11625832
195581088,Nashville,,1447557045000.0,36.17,-86.78,Steve Welch,TN,1483978154000.0,11625832
12479395,Franklin,Pittsburgh,1413936399000.0,35.93,-86.81,Steven Brownlee,TN,1456783561000.0,11625832
217378572,Nashville,,1480313137000.0,36.17,-86.78,Steven Holmes,TN,1496791053000.0,11625832
159851832,Nashville,,1499355008000.0,36.08,-86.72,Steven Purcell,TN,1499355008000.0,11625832
27531452,Nashville,,1500158895000.0,36.17,-86.79,Steven Rodriguez,TN,1502507184000.0,11625832
176128392,Nashville,,1412616715000.0,36.17,-86.78,Steven Wilcox,TN,1495470614000.0,11625832
72682512,Murfreesboro,Murfreesboro,1400421536000.0,35.87,-86.44,Steven Williams,TN,1400421536000.0,11625832
192710956,Nashville,,1442235724000.0,36.16,-86.79,Stoney Enix,TN,1443035014000.0,11625832
102132772,Nashville,,1428944028000.0,36.17,-86.78,sudhir nair,TN,1428944028000.0,11625832
12753254,Pewaukee,Milwaukee,1470262436000.0,43.08,-88.26,Sufi,WI,1470262436000.0,11625832
214350596,Nashville,,1475623187000.0,36.17,-86.78,Sulaiman Allen,TN,1475697673000.0,11625832
149171732,Nashville,,1404331468000.0,36.13,-86.8,Summer,TN,1450127266000.0,11625832
214185043,Nashville,,1475428303000.0,36.17,-86.78,Sundar Kuppuswamy,TN,1475428303000.0,11625832
202558911,Christiana,,1459540725000.0,35.71,-86.36,Susan,TN,1459540725000.0,11625832
42955792,Nashville,,1407260884000.0,36.13,-86.8,Susanna Richards,TN,1503517813000.0,11625832
230754445,Nashville,,1498768265000.0,36.17,-86.78,Swarna Nrupen,TN,1498768265000.0,11625832
216364877,Nashville,,1503604240000.0,36.06,-86.96,Sydney Elizabeth,TN,1503950527000.0,11625832
182903698,Cottontown,,1418121380000.0,36.49,-86.59,T.Rex,TN,1485459151000.0,11625832
124505912,Canoga Park,Los Angeles,1412716602000.0,34.22,-118.63,Tacho Magala,CA,1412716602000.0,11625832
14020645,Nashville,,1493060861000.0,36.18,-86.74,Talbot Lawrence,TN,1498090904000.0,11625832
185552289,Lyles,,1427306399000.0,35.89,-87.34,tallenttu,TN,1427460632000.0,11625832
199854245,Nashville,,1455650949000.0,36.17,-86.72,Tamarcus Summers,TN,1455650949000.0,11625832
231779693,Nashville,,1506617555000.0,36.17,-86.78,Tamela Lerma,TN,1506650231000.0,11625832
235540471,Nashville,,1504443687000.0,36.17,-86.78,Tanay,TN,1504443687000.0,11625832
204129504,Mount Juliet,,1502673638000.0,36.22,-86.52,Tanner Plauché,TN,1506623244000.0,11625832
193013525,Nashville,,1445390341000.0,36.18,-86.74,Tanner Terry,TN,1445390341000.0,11625832
213768028,Oak Grove,,1474935860000.0,36.68,-87.45,Tarshena Rodriguez,KY,1474935860000.0,11625832
134171762,Indianapolis,,1468540117000.0,39.79,-86.16,Taylor ,IN,1508245725000.0,11625832
188847988,Nashville,,1434723385000.0,36.06,-86.96,Taylor Hutchison,TN,1474782702000.0,11625832
228153255,Nashville,,1495497438000.0,36.09,-86.82,Taylor Johnson,TN,1495497438000.0,11625832
34242502,Nashville,,1390230826000.0,36.09,-86.82,Taylor Murphy,TN,1477359251000.0,11625832
219181828,Nashville,,1483469827000.0,36.17,-86.78,Taylor Perkins,TN,1508348862000.0,11625832
197928971,Franklin,,1477503983000.0,35.92,-86.89,Ted,TN,1481030614000.0,11625832
151584092,Berkeley,Nashville,1486974533000.0,37.87,-122.26,Tejas Manohar,CA,1486974533000.0,11625832
229643678,Nashville,,1502912767000.0,36.11,-86.78,ten,TN,1508568248000.0,11625832
185966824,Nashville,,1440252206000.0,36.11,-86.78,Tennis Smith,TN,1440252206000.0,11625832
197731890,Nashville,,1452116093000.0,36.17,-86.78,Theron S.,TN,1476200305000.0,11625832
202858187,Hendersonville,,1459968439000.0,36.32,-86.61,Thom Golden,TN,1486650420000.0,11625832
237642878,Nashville,,1506624388000.0,36.17,-86.78,Thomas Aiman,TN,1506724707000.0,11625832
87420672,Nashville,,1443098919000.0,36.0,-86.69,Thomas Bangs,TN,1443098919000.0,11625832
136981132,Nashville,,1394656193000.0,36.17,-86.78,Thomas Bartkus,TN,1394742894000.0,11625832
198726996,Nashville,,1453929182000.0,36.17,-86.78,Thomas Britton,TN,1489799324000.0,11625832
188219505,Franklin,,1433444955000.0,35.93,-86.81,Tiffany McCarty,TN,1433444955000.0,11625832
182591120,Nashville,,1505019262000.0,36.13,-86.8,Tim Beach,TN,1506622613000.0,11625832
13766608,Spring Hill,Gogona,1491190402000.0,35.76,-86.88,Tim Duncklee,TN,1491190402000.0,11625832
234800842,Nashville,,1503592729000.0,36.17,-86.78,Tim Duren,TN,1503631774000.0,11625832
137132992,Nashville,,1394739561000.0,36.17,-86.78,Tim Edwards,TN,1461642808000.0,11625832
209738519,Franklin,,1469459270000.0,35.93,-86.81,Tim Enders,TN,1502810929000.0,11625832
214930242,Nashville,,1476470451000.0,36.17,-86.78,Tim Gladson,TN,1476470451000.0,11625832
90350612,Nashville,,1404922438000.0,36.17,-86.78,Tim Kucejko,TN,1430416123000.0,11625832
4354087,Franklin,Chicago,1398444304000.0,35.93,-86.81,Tim O'Donnell,TN,1413300389000.0,11625832
9581302,Goodlettsville,Goodlettsville,1390855996000.0,36.33,-86.74,Tim O'Guin,TN,1458764086000.0,11625832
125196282,Murfreesboro,Murfressboro,1501559452000.0,35.87,-86.44,Tim Waldo,TN,1508240567000.0,11625832
195806604,Nashville,,1447975944000.0,36.17,-86.78,TimGragg,TN,1479341409000.0,11625832
154269972,Franklin,,1443384287000.0,35.92,-86.89,Timothy James,TN,1457542656000.0,11625832
98835872,Nashville,Seattle,1442413339000.0,36.15,-86.86,Timothy John Perisho Eccleston,TN,1508289762000.0,11625832
5317212,Nashville,"Dearborn, MI",1438009825000.0,36.22,-86.77,Tina Belli,TN,1496007207000.0,11625832
101312342,Nashville,,1416257511000.0,36.17,-86.78,Tobin Quadros,TN,1506619174000.0,11625832
220705747,Nashville,,1487794909000.0,36.16,-86.79,Todd Broll,TN,1499826543000.0,11625832
81930182,Franklin,,1460349066000.0,35.92,-86.89,Todd Plambeck,TN,1460349066000.0,11625832
200003607,Nashville,"Le Mans, FR",1487038115000.0,36.16,-86.77,Tom,TN,1487052534000.0,11625832
222212836,Nashville,,1487345611000.0,36.11,-86.78,Tom Wilson,TN,1487345611000.0,11625832
149686322,Nashville,,1401761516000.0,36.17,-86.78,Tommy LeBlanc,TN,1485458789000.0,11625832
1889955,Murfreesboro,Hong Kong,1425300718000.0,35.82,-86.44,Tony Wan,TN,1481919898000.0,11625832
186111235,Nashville,"Bellingham, WA",1502251292000.0,36.07,-86.78,Tony-Tones,TN,1506550166000.0,11625832
209290669,Nashville,,1474315851000.0,36.17,-86.78,Toren Carr,TN,1474315851000.0,11625832
8228323,Nashville,,1476114383000.0,36.17,-86.78,tracy ,TN,1500690315000.0,11625832
227382202,Nashville,,1494509317000.0,36.08,-86.72,Travis Green,TN,1494509317000.0,11625832
218502866,Murfreesboro,,1482334328000.0,35.82,-86.45,Travis Lee Kenyon,TN,1482334328000.0,11625832
184332334,Nashville,,1442824556000.0,36.17,-86.78,Tremaine James,TN,1443515072000.0,11625832
189698667,Brentwood,,1436468651000.0,36.0,-86.79,trent draughon,TN,1440696841000.0,11625832
138867992,Nashville,,1463918537000.0,36.17,-86.72,Trent Hand,TN,1504705540000.0,11625832
232676485,Nashville,,1501105475000.0,36.15,-86.81,Trev Lawson,TN,1508785962000.0,11625832
215319799,Antioch,Memphis,1477247933000.0,36.04,-86.64,Trevor Guinn,TN,1477247933000.0,11625832
218245402,Nashville,,1481831356000.0,36.13,-86.8,Trevor Noack,TN,1506547804000.0,11625832
2896514,Nashville,,1389721592000.0,36.19,-86.8,Trey Brooks,TN,1508596020000.0,11625832
208561446,Nashville,,1467915515000.0,36.17,-86.78,Tristan Greeno,TN,1467915515000.0,11625832
185106048,Nashville,,1425937564000.0,36.1,-86.66,Troy,TN,1425937564000.0,11625832
193609612,Nashville,,1505845368000.0,36.17,-86.78,Troy S.,TN,1506471093000.0,11625832
18595881,Nashville,,1402727920000.0,36.17,-86.78,Tyler Campbell,TN,1403232256000.0,11625832
206806749,Nashville,,1465507657000.0,36.17,-86.78,Tyler Evans,TN,1477599024000.0,11625832
234719094,Nashville,,1503502768000.0,36.17,-86.78,Tyler Neu,TN,1506773509000.0,11625832
200636299,Nashville,,1464301809000.0,36.17,-86.78,Tyler Roberts,TN,1471936863000.0,11625832
216962893,Murfreesboro,,1479590083000.0,35.85,-86.36,Ukela Alred,TN,1487889447000.0,11625832
208555372,Nashville,,1477366952000.0,36.08,-86.72,Valerie Hoagland,TN,1477492358000.0,11625832
177289382,Nashville,,1427512766000.0,36.06,-86.96,Varghese Eyadiel,TN,1433352864000.0,11625832
214729620,Nashville,,1484803277000.0,36.17,-86.78,Vickie Woods,TN,1503629309000.0,11625832
184492327,Nashville,,1452052837000.0,36.11,-86.78,Victor,TN,1460600805000.0,11625832
219463047,Dallas,,1483820279000.0,33.0,-96.85,Vijay Koju,TX,1483820279000.0,11625832
200946236,Franklin,,1457190987000.0,35.92,-86.89,Vincentzenno Cappelli,TN,1457190987000.0,11625832
197347447,Spring Hill,,1489760604000.0,35.76,-86.88,Vish,TN,1492051556000.0,11625832
185106663,Brentwood,,1436899353000.0,36.0,-86.79,Vishnu Vardhan Nelluri,TN,1436899353000.0,11625832
153676732,Nashville,,1422121348000.0,36.17,-86.78,Vishu G,TN,1495467137000.0,11625832
118213922,Cambridge,,1477251363000.0,42.37,-71.1,W4,MA,1491310955000.0,11625832
190344032,Nashville,,1500238858000.0,36.17,-86.78,Wallace P.,TN,1500238858000.0,11625832
238605128,Nashville,,1507684227000.0,36.14,-86.8,Wanying Zhu,TN,1507684227000.0,11625832
225708598,Brentwood,,1492230403000.0,36.0,-86.79,WarFoxSergei (Alex),TN,1492230403000.0,11625832
13812470,Nashville,,1419822612000.0,36.15,-86.86,Wayne Martin,TN,1508242706000.0,11625832
230753190,Franklin,,1498767141000.0,35.93,-86.81,Werner Mendoza,TN,1506697779000.0,11625832
141055762,Nashville,,1407253172000.0,36.16,-86.79,Wes Mangum,TN,1452092961000.0,11625832
2069,Brentwood,Brentwood,1456759388000.0,36.0,-86.79,Wesley Duffee-Braun,TN,1506956658000.0,11625832
207118547,Nashville,,1480652288000.0,36.08,-86.72,Wesley Lewis,TN,1501162993000.0,11625832
9333540,Nashville,Norfolk,1406422955000.0,36.08,-86.72,Westley,TN,1406422955000.0,11625832
9852711,Nashville,Nashville,1389384240000.0,36.11,-86.86,Weston Hunter,TN,1508535933000.0,11625832
12248783,San Francisco,"Churchville, VA",1392311833000.0,37.77,-122.44,Whit Morriss,CA,1502810302000.0,11625832
202978621,Nashville,,1462632654000.0,36.1,-86.66,Whitney Mitchell,TN,1477602766000.0,11625832
52535922,Nashville,Nashville,1413408426000.0,36.11,-86.86,will,TN,1479150626000.0,11625832
11452800,Nashville,"Nashville, TN",1489841927000.0,36.08,-86.72,Will C.,TN,1489841927000.0,11625832
35949052,Nashville,,1423408930000.0,36.21,-86.72,Will Gaggioli,TN,1494874842000.0,11625832
55920722,Nashville,,1489693964000.0,36.16,-86.79,Will Haight,TN,1491834037000.0,11625832
120578592,Nashville,,1413833429000.0,36.13,-86.8,Will Harvey,TN,1504312240000.0,11625832
190091171,Houston,,1485786174000.0,29.74,-95.39,Will Jewell,TX,1485871309000.0,11625832
211998902,Nashville,,1478041059000.0,36.17,-86.78,Will Norton,TN,1489772703000.0,11625832
219758760,Brentwood,,1484182823000.0,36.0,-86.79,Will Sims,TN,1500330011000.0,11625832
48232882,Nashville,Nashville,1443100733000.0,36.16,-86.79,Will Ward,TN,1500989458000.0,11625832
227251282,Nashville,,1500065017000.0,36.18,-86.74,William Caldwell,TN,1506621774000.0,11625832
127994682,Franklin,,1389809599000.0,35.92,-86.89,William French,TN,1463435722000.0,11625832
8111102,Nashville,,1389364842000.0,36.13,-86.8,William Golden,TN,1504706082000.0,11625832
123769982,Nashville,,1466115588000.0,36.16,-86.79,William Marshall Friskics-Warren,TN,1466115588000.0,11625832
150950742,Nashville,,1456623503000.0,36.17,-86.78,willkotheimer,TN,1456623503000.0,11625832
14434014,Nashville,Memphis,1501725167000.0,36.09,-86.82,Witt Allen,TN,1501793125000.0,11625832
6160486,Franklin,,1393949307000.0,35.92,-86.89,yan fei,TN,1484336035000.0,11625832
238562122,Nashville,,1507637543000.0,36.15,-86.86,Yanina Bonetto,TN,1507637543000.0,11625832
142930732,Nashville,,1455933868000.0,36.17,-86.78,Yannick Antonin,TN,1477695380000.0,11625832
146780342,Nashville,,1477426724000.0,36.16,-86.79,yes,TN,1477426724000.0,11625832
217814570,Nashville,,1498747306000.0,36.17,-86.78,Ying,TN,1503030877000.0,11625832
185393906,Nashville,,1500057489000.0,36.17,-86.78,Yongqin Zhang,TN,1508181333000.0,11625832
231823433,Nashville,,1500056635000.0,36.17,-86.78,Yongqin Zhang,TN,1500056635000.0,11625832
183707721,San Diego,,1421652451000.0,33.02,-117.1,Yongxin,CA,1421725703000.0,11625832
90420312,Nashville,,1459692365000.0,36.17,-86.78,Yoseph Ali Beki,TN,1508244682000.0,11625832
211844922,Nashville,,1497499347000.0,36.11,-86.78,Youyang,TN,1500254757000.0,11625832
237082500,Nashville,,1506377358000.0,36.17,-86.78,Yu Zhang,TN,1506377358000.0,11625832
16503121,Brentwood,,1447865514000.0,36.0,-86.79,Yun,TN,1487607032000.0,11625832
219275333,Nashville,,1483575368000.0,36.15,-86.86,Yusuf Gürbüz,TN,1488330358000.0,11625832
221454263,Antioch,,1486320339000.0,36.04,-86.64,Yusuf Yusuf,TN,1486320339000.0,11625832
198657470,Nashville,,1453823804000.0,36.17,-86.72,Zach Casebolt,TN,1453823804000.0,11625832
183602124,Nashville,,1479774735000.0,36.11,-86.78,Zach Leaver,TN,1479774735000.0,11625832
95204562,Nashville,,1473205824000.0,36.17,-86.78,Zach McCormick,TN,1498170580000.0,11625832
182992991,Nashville,,1418661404000.0,36.17,-86.78,Zach Swift,TN,1508788683000.0,11625832
214480697,Canton,,1476852217000.0,35.53,-82.84,Zachary Cline ,NC,1506967690000.0,11625832
219502636,Nashville,,1494618475000.0,36.16,-86.79,Zachary Spence,TN,1508299066000.0,11625832
183535235,Nashville,Flushing,1506517391000.0,36.17,-86.78,Zhenting Zhou,TN,1506517391000.0,11625832
23897412,Charlottesville,Charlottesvile,1456017848000.0,38.04,-78.52,Zoe ,VA,1497821454000.0,11625832
155191662,Nashville,,1414699419000.0,36.17,-86.72,Zoe Ames,TN,1477609928000.0,11625832
193053558,Brentwood,,1442866547000.0,36.0,-86.79,Zoe Yim,TN,1442866547000.0,11625832
185487853,Nashville,,1427119585000.0,36.16,-86.79,???,TN,1432835569000.0,11625832
