id,city,hometown,joined,lat,lon,name,state,visited,group_id
204173902,Nashville,,1473700576000.0,36.08,-86.72,Afton Crumitie,TN,1473700576000.0,1307837
208249877,Murfreesboro,,1467501648000.0,35.78,-86.33,AH,TN,1467501648000.0,1307837
112846072,Smyrna,,1438483134000.0,35.97,-86.51,Alesha,TN,1438487667000.0,1307837
81759842,Franklin,,1361554883000.0,35.92,-86.89,Alice Johnson,TN,1487511019000.0,1307837
114130972,Clarkrange,,1380861963000.0,36.22,-84.97,Aline,TN,1462232605000.0,1307837
6867023,Nashville,Nashville,1444949484000.0,36.08,-86.72,Alison,TN,1454005249000.0,1307837
3926175,Franklin,Indianapolis,1372443702000.0,35.93,-86.81,Alissa,TN,1508635050000.0,1307837
190313602,Bell Buckle,,1437680292000.0,35.6,-86.41,Allison Jones Scribner,TN,1437680292000.0,1307837
82359472,Franklin,,1361912393000.0,35.92,-86.89,Amanda Braley,TN,1361912393000.0,1307837
223814176,Nashville,,1489637896000.0,36.13,-86.8,Amanda Kirby,TN,1489637896000.0,1307837
183742617,Franklin,,1465393126000.0,35.99,-86.9,Amanda Romano,TN,1465483836000.0,1307837
198473006,Lebanon,,1453483649000.0,36.21,-86.31,Amber,TN,1453483649000.0,1307837
184138169,Fayetteville,Fayetteville,1422992752000.0,36.05,-94.14,Amber Dawn Gardner-Alsbury,AR,1422992752000.0,1307837
189054264,Lascassas,,1435148431000.0,35.94,-86.27,Amie  Lyn,TN,1497539670000.0,1307837
10958811,Brentwood,,1476241017000.0,36.0,-86.79,Amie Smeykal,TN,1476474103000.0,1307837
182963173,Kingston Springs,,1418457019000.0,36.09,-87.12,Amy,TN,1439384263000.0,1307837
182030842,Franklin,,1419885322000.0,35.92,-86.89,Amy,TN,1419885322000.0,1307837
11801818,Nashville,,1368887478000.0,36.16,-86.79,Amy Johnson,TN,1437006545000.0,1307837
7363591,Northridge,,1316379765000.0,34.24,-118.55,Amy Paul,CA,1386274296000.0,1307837
11684651,Nashville,,1299164896000.0,36.17,-86.72,Amy Stielstra,TN,1359926676000.0,1307837
14098989,Woodbury,"Las Vegas, NV",1467152821000.0,35.81,-86.07,Amy Wallace,TN,1485953622000.0,1307837
237582445,Hendersonville,,1506554258000.0,36.32,-86.61,Andrea Madson,TN,1506554258000.0,1307837
218808257,Franklin,,1482950672000.0,35.92,-86.89,Angela Havener,TN,1489664983000.0,1307837
210807012,Franklin,,1470937038000.0,35.93,-86.81,Angela Neale Wattigney,TN,1470937038000.0,1307837
230801644,Franklin,,1498834641000.0,35.92,-86.89,Angela Wattigney,TN,1503160624000.0,1307837
3676216,Nashville,,1236002632000.0,36.17,-86.78,Anita Hyche Rains,TN,1457404090000.0,1307837
192946968,Murfreesboro,,1442854809000.0,35.82,-86.45,Anna Gonzalez ,TN,1460737573000.0,1307837
192947022,Murfreesboro,,1442676774000.0,35.82,-86.45,Anna Gonzalez,TN,1442676774000.0,1307837
171193702,Franklin,,1410830499000.0,35.92,-86.89,Annette Takko,TN,1410830499000.0,1307837
203791756,Nashville,,1461292579000.0,36.18,-86.81,Annice ,TN,1500079562000.0,1307837
193382338,Nashville,,1443483170000.0,36.13,-86.8,Annie Solomon,TN,1478575891000.0,1307837
85789812,Franklin,,1363869978000.0,35.92,-86.89,Anthea Mazer,TN,1468462802000.0,1307837
110662282,Nashville,Dallas,1503247246000.0,36.17,-86.78,April,TN,1506816476000.0,1307837
190287735,Columbia,"Columbiana, OH",1437622042000.0,35.61,-87.05,Ashley Pieren,TN,1443320560000.0,1307837
131810122,Franklin,Franklin,1448379779000.0,35.93,-86.81,Audrey,TN,1457054482000.0,1307837
219028927,Kingston Springs,,1483298540000.0,36.09,-87.12,Auga Roark Gossett,TN,1489351923000.0,1307837
220567707,Columbia,,1497265582000.0,35.61,-87.05,Baiyan Manivanh,TN,1502797014000.0,1307837
8849214,Nashville,,1234159131000.0,36.17,-86.78,Barbara,TN,1501789040000.0,1307837
144519772,Brentwood,Brentwood,1459541866000.0,36.0,-86.79,Barbara,TN,1505478369000.0,1307837
191670664,Murfreesboro,,1481316440000.0,35.85,-86.36,Barbara Dunn,TN,1489408364000.0,1307837
227882730,Franklin,,1495166666000.0,35.92,-86.89,Barnesfam,TN,1508099881000.0,1307837
211095632,Murfreesboro,,1471357663000.0,35.87,-86.44,Becky Jones,TN,1478571411000.0,1307837
91829062,Brentwood,Chesterfield,1373756185000.0,36.0,-86.79,Belinda,TN,1399501094000.0,1307837
199682848,Nashville,,1455407803000.0,36.17,-86.78,Beth Halpin,TN,1487612812000.0,1307837
51709822,Brentwood,,1414505975000.0,36.0,-86.79,Bonnie Dalager,TN,1436670684000.0,1307837
199190565,Nashville,,1495942715000.0,36.17,-86.78,Brandi Montgomery,TN,1495942715000.0,1307837
46744162,Nashville,,1336086579000.0,36.17,-86.78,Breanne Mccrory,TN,1336086579000.0,1307837
93765722,Thompsons Station,,1427841692000.0,35.8,-86.9,Brenda Bliss,TN,1427841692000.0,1307837
62418442,Nashville,,1472221253000.0,36.16,-86.79,Brenda Dillard,TN,1472221253000.0,1307837
223168495,Franklin,,1488680954000.0,35.92,-86.89,Brenda Vaughan,TN,1508201720000.0,1307837
11633390,Estill Springs,"Rossville, GA",1494364239000.0,35.27,-86.13,Brigett Dempsey,TN,1494956463000.0,1307837
190647576,Murfreesboro,,1472482075000.0,35.78,-86.33,Brittany Cupp,TN,1472482075000.0,1307837
227126789,Nashville,,1494168855000.0,36.08,-86.72,Brittney Brewington,TN,1495554199000.0,1307837
236389949,Murfreesboro,,1505304796000.0,35.87,-86.34,Brook Breece,TN,1505304796000.0,1307837
191651820,Bell Buckle,,1440230796000.0,35.6,-86.41,Brooke,TN,1440230796000.0,1307837
103531862,Franklin,,1374604085000.0,35.92,-86.89,Brooke King,TN,1428931382000.0,1307837
183760092,Manchester,,1421797008000.0,35.47,-86.11,Bruce Atnip,TN,1421797008000.0,1307837
209663250,Franklin,,1469365922000.0,35.92,-86.89,Candice Moy ,TN,1469365922000.0,1307837
203124881,Nashville,,1460343778000.0,36.1,-86.66,Candy Ferrell Edmondson,TN,1460343778000.0,1307837
7964757,Nashville,,1366139181000.0,36.17,-86.78,carol miller,TN,1366139181000.0,1307837
189656294,Madison,,1436384780000.0,36.26,-86.71,Carol Thurston,TN,1436384780000.0,1307837
4586183,Hohenwald,Hohenwald,1424616550000.0,35.55,-87.55,Carole Hankins,TN,1437089757000.0,1307837
184671272,Franklin,,1424664134000.0,35.92,-86.89,Casie,TN,1424664134000.0,1307837
160184982,Antioch,,1407612819000.0,36.04,-86.64,Cassie,TN,1413639641000.0,1307837
192643108,Columbia,,1442102322000.0,35.61,-87.05,Cat Graves,TN,1450233940000.0,1307837
185029388,Columbia,Columbia,1425712118000.0,35.61,-87.05,Cat Graves,TN,1450129471000.0,1307837
232816641,Franklin,,1501284339000.0,35.92,-86.89,Cat Hoort,TN,1501284339000.0,1307837
12128207,Franklin,"Columbia, SC",1505790934000.0,35.93,-86.81,Catherine,TN,1507630811000.0,1307837
3691878,Nashville,,1236440000000.0,36.16,-86.79,Catherine D.,TN,1457650946000.0,1307837
112665362,Franklin,,1379984374000.0,35.92,-86.89,Cathy Hall,TN,1508460508000.0,1307837
187830142,Knoxville,,1457798440000.0,35.86,-84.13,Cathy Kane,TN,1457798440000.0,1307837
200419938,Mount Juliet,,1456422476000.0,36.22,-86.52,Cerridwen,TN,1456422476000.0,1307837
103572562,Franklin,,1440891333000.0,35.92,-86.89,Char,TN,1508198351000.0,1307837
193436608,Cedar Hill,,1443580967000.0,36.51,-87.02,CharCats7,TN,1501785297000.0,1307837
202033105,Hendersonville,,1458742422000.0,36.32,-86.61,Charlene,TN,1458742422000.0,1307837
93366632,Antioch,Nashville,1405639018000.0,36.04,-86.64,Charlotte Hyman,TN,1405639018000.0,1307837
183894755,Hermitage,,1422209388000.0,36.19,-86.6,Chelsea Brueckner,TN,1422221077000.0,1307837
9635822,Nashville,clarksville,1459217805000.0,36.17,-86.78,Chessie,TN,1476062708000.0,1307837
186043146,Nashville,,1429367991000.0,36.07,-86.72,Chloe Barker,TN,1429367991000.0,1307837
215546518,Nashville,,1479745735000.0,36.17,-86.78,Christel T.,TN,1479745735000.0,1307837
183346989,Cottontown,,1420495061000.0,36.49,-86.59,Christina,TN,1498791673000.0,1307837
229515491,Tullahoma,,1497230843000.0,35.37,-86.21,Christina Bartelt,TN,1497230843000.0,1307837
113581972,Nashville,"Atlanta, GA",1415803509000.0,36.17,-86.78,Christine Ó Coileáin,TN,1421473635000.0,1307837
79531702,Nashville,,1360174067000.0,36.17,-86.72,Chrystal,TN,1361970699000.0,1307837
11303266,Nashville,,1483526452000.0,36.11,-86.86,Cindy Harding,TN,1503163355000.0,1307837
27775262,Murfreesboro,,1320985763000.0,35.82,-86.45,conni  ferrell,TN,1351058130000.0,1307837
190033647,Soddy Daisy,,1437135368000.0,35.27,-85.16,Connie Powell,TN,1441941328000.0,1307837
183883359,Franklin,,1422164344000.0,35.92,-86.89,Connie Sweeney,TN,1441807064000.0,1307837
193133004,Franklin,,1443023377000.0,35.92,-86.89,Courtney & Josh,TN,1443023377000.0,1307837
6257722,Nashville,somewhere in TN,1280953901000.0,36.15,-86.86,Crafty McCrafty,TN,1485048239000.0,1307837
212273793,Smyrna,,1487621140000.0,35.97,-86.51,Cricket L,TN,1487621140000.0,1307837
4526221,Nashville,Nashville,1358262757000.0,36.22,-86.86,"Cyndi ""Scrappin Chick""",TN,1495198720000.0,1307837
195852272,Franklin,,1448084744000.0,35.92,-86.89,Danielle,TN,1489950411000.0,1307837
211554438,Lebanon,,1471998412000.0,36.21,-86.31,Danielle Blackwell,TN,1501859551000.0,1307837
94343802,Fairview,Eagle River Alaska,1369106746000.0,35.97,-87.13,Danielle Hurst,TN,1407088595000.0,1307837
9529468,Los Angeles,,1274087345000.0,33.97,-118.24,DaNietra,CA,1380282269000.0,1307837
141663522,Brentwood,,1397248843000.0,36.0,-86.79,darleen,TN,1397248843000.0,1307837
193507815,Ladera Ranch,"Simi Valley, CA",1453947037000.0,33.56,-117.67,Darlene Knudsen,CA,1479093589000.0,1307837
218196725,Nashville,,1481739078000.0,36.17,-86.78,Darlene Raftery,TN,1492873049000.0,1307837
188900860,Franklin,"Nashville, TN",1434832795000.0,35.93,-86.81,David Potter,TN,1434832795000.0,1307837
201207350,Columbia,,1457556330000.0,35.61,-87.05,Dawn,TN,1457556330000.0,1307837
229743553,White Bluff,,1497519082000.0,36.12,-87.23,Dawn Carr,TN,1497519082000.0,1307837
227045538,Franklin,,1494046920000.0,35.92,-86.89,Deanna Wauford,TN,1494046920000.0,1307837
97190912,Franklin,,1370830327000.0,35.92,-86.89,debbie baker,TN,1503156782000.0,1307837
205731312,Spring Hill,,1464035754000.0,35.76,-86.88,Debbie Hood Hobgood,TN,1464035754000.0,1307837
7362714,Nashville,Nashville,1278557996000.0,36.08,-86.72,Debbie Thomas,TN,1348532828000.0,1307837
195190947,Franklin,,1446831500000.0,35.92,-86.89,Debbie W,TN,1447419164000.0,1307837
50831312,Nashville,,1459826756000.0,36.17,-86.78,Debra,TN,1471266822000.0,1307837
111863302,Smyrna,Nashville,1389025990000.0,35.97,-86.51,Dee,TN,1405276421000.0,1307837
185535083,Franklin,,1427248533000.0,35.92,-86.89,Dee Ann ,TN,1492996443000.0,1307837
155317382,Franklin,,1471729352000.0,35.92,-86.89,Deepa,TN,1474596372000.0,1307837
205677713,Nashville,nashville,1463963856000.0,36.17,-86.79,Delaney,TN,1470361184000.0,1307837
192968569,Franklin,,1442712074000.0,35.93,-86.81,Denise,TN,1442712074000.0,1307837
206493473,Manchester,,1465103152000.0,35.47,-86.08,Denise,TN,1483780259000.0,1307837
198718480,La Vergne,,1453918650000.0,36.01,-86.57,Denisha Vazquez,TN,1453918650000.0,1307837
182662118,Franklin,Brentwood,1416621491000.0,35.92,-86.89,Diana Norsworthy Meade,TN,1423711904000.0,1307837
102705772,Columbia,,1374101993000.0,35.61,-87.05,Donna,TN,1374101993000.0,1307837
67250322,Mobile,"Sturgis, KY",1365000201000.0,30.65,-88.17,Donna Brown,AL,1433311044000.0,1307837
194546012,Old Hickory,,1445652837000.0,36.25,-86.63,Donna Danos,TN,1445652837000.0,1307837
170671342,Lebanon,,1410560177000.0,36.21,-86.31,Donna Lynn Nuszbaum,TN,1410560177000.0,1307837
206387790,Santa Fe,,1464964652000.0,35.76,-87.17,Doris Laramore,TN,1464964652000.0,1307837
182570117,Antioch,,1491182779000.0,36.17,-86.88,doyi,TN,1491182779000.0,1307837
45410862,Nashville,,1458746841000.0,36.09,-86.82,Ebby Shanks,TN,1497566327000.0,1307837
97440942,Murfreesboro,,1440451105000.0,35.82,-86.45,Eileen Chalmers,TN,1492693369000.0,1307837
220988560,Nashville,,,36.13,-86.67,,TN,,1307837
222909171,Nashville,,1488314661000.0,36.08,-86.72,Elizabeth,TN,1488314661000.0,1307837
188538380,Smyrna,,1434123351000.0,35.97,-86.51,Elizabeth Damon's,TN,1434123351000.0,1307837
215182491,Spring Hill,,1476819809000.0,35.76,-86.88,Elizabeth Johnson Hampton,TN,1477713396000.0,1307837
215137849,Brentwood,,1476755274000.0,36.0,-86.79,Elizabeth Ortlieb,TN,1476755274000.0,1307837
202691066,Bradyville,,1466487356000.0,35.7,-86.1,Erica Goldberg Senecal,TN,1479654423000.0,1307837
8489225,Nashville,,1405755152000.0,36.17,-86.78,Erinne R,TN,1408378654000.0,1307837
74116352,Nashville,Japan,1462663130000.0,36.09,-86.82,Eureka,TN,1462663130000.0,1307837
218978881,Spring Hill,,1483209976000.0,35.76,-86.88,Fabrienne Ewald,TN,1483209976000.0,1307837
114908112,Franklin,,1453152315000.0,35.92,-86.89,FlowerWay,TN,1464065643000.0,1307837
192974586,Nashville,,1442723449000.0,36.06,-86.96,Forward grace,TN,1442723449000.0,1307837
212040826,Murfreesboro,,1484355792000.0,35.87,-86.44,Gail,TN,1501891915000.0,1307837
7644793,Smyrna,,1265474743000.0,35.97,-86.51,Gale,TN,1502730672000.0,1307837
134491632,Franklin,,1393103170000.0,35.92,-86.89,Gay Johnson,TN,1488165798000.0,1307837
94098502,Hendersonville,,1457365114000.0,36.32,-86.61,Georgie,TN,1479836989000.0,1307837
39472262,Murfreesboro,Murfreesboro,1445262420000.0,35.78,-86.33,Gina McDonald Brandstetter,TN,1501861374000.0,1307837
175638942,Columbia,,1413209813000.0,35.61,-87.05,Ginger,TN,1413218856000.0,1307837
227211693,Franklin,,1494277092000.0,35.92,-86.89,Ginger Lohr Milne,TN,1494277092000.0,1307837
46121842,Murfreesboro,New Orleans,1360558978000.0,35.78,-86.33,Glenda Padilla Moret,TN,1441851006000.0,1307837
185277446,Nashville,,1426465286000.0,36.08,-86.72,Hannah Kelly,TN,1426465286000.0,1307837
183630169,Lebanon,"Anchorage, AK",1421424744000.0,36.21,-86.31,Heather,TN,1421424744000.0,1307837
8313430,Franklin,,1231617770000.0,35.93,-86.81,Heather,TN,1361172749000.0,1307837
190349162,Franklin,,1437827564000.0,35.92,-86.89,Heather Boldizsar,TN,1437827564000.0,1307837
10085785,Franklin,,1250695395000.0,35.93,-86.81,Heidi Lovett,TN,1508098726000.0,1307837
12119342,Brentwood,Brentwood,1317054111000.0,36.0,-86.79,Heidi Matthewman,TN,1459281020000.0,1307837
192679468,Franklin,,1442173972000.0,35.99,-86.9,Heidi Sutton,TN,1442173972000.0,1307837
157273592,Spring Hill,Spring Hill,1405824339000.0,35.76,-86.88,Helen Tibbetts,TN,1508092979000.0,1307837
196789164,Spring Hill,,1449971324000.0,35.76,-86.88,Holly,TN,1449971324000.0,1307837
187805659,Clarksville,,1432619819000.0,36.53,-87.35,holly,TN,1437180173000.0,1307837
11996421,Jacksonville,jacksonville,1440549236000.0,30.22,-81.76,Holly Hickman,FL,1440549236000.0,1307837
199333803,Summertown,,1454886093000.0,35.43,-87.34,Holly S,TN,1485808010000.0,1307837
155253302,Adolphus,,1440689486000.0,36.67,-86.28,Isabel Jenkins,KY,1441763276000.0,1307837
159441602,Murfreesboro,,1464105080000.0,35.78,-86.33,Ivy Blackmon,TN,1496380567000.0,1307837
195431810,Clarksville,,1447273734000.0,36.49,-87.23,Jacque Edwards,TN,1447273734000.0,1307837
198723368,Nashville,,1453924267000.0,36.06,-86.96,Jacque Roberts,TN,1453924267000.0,1307837
205714776,Columbia,"Charlotte, TN",1464209633000.0,35.61,-87.18,Jacquelin Wolfe,TN,1464209633000.0,1307837
130453442,Franklin,,1390926675000.0,35.92,-86.89,Jamie G,TN,1500485158000.0,1307837
217270541,Brentwood,,1492229528000.0,36.0,-86.79,Jamie Lynn Hansen,TN,1508325619000.0,1307837
186297580,Bowling Green,,1448364387000.0,37.02,-86.46,Jamie powell,KY,1448364387000.0,1307837
75251322,Nashville,,1456615563000.0,36.17,-86.78,Jamie Schoepke,TN,1461909282000.0,1307837
2559067,Arrington,Arrington,1224882279000.0,35.86,-86.66,Jane,TN,1505426660000.0,1307837
226369649,Franklin,,1493132726000.0,35.92,-86.89,Janeen Ward,TN,1508773685000.0,1307837
210080750,Nashville,,1471202009000.0,36.08,-86.72,Janelle Graham,TN,1502454882000.0,1307837
236340643,Murfreesboro,,1505252789000.0,35.82,-86.45,Jariyah C,TN,1505252789000.0,1307837
1727684,Spring Hill,"Broomfield, CO",1234540217000.0,35.76,-86.88,Jaymie,TN,1317985597000.0,1307837
3177159,Franklin,,1472791290000.0,35.93,-86.81,Jeanne,TN,1508095900000.0,1307837
13616210,Nashville,,1483097284000.0,36.16,-86.79,jeannie,TN,1483097284000.0,1307837
214961078,Murfreesboro,,1476502656000.0,35.78,-86.33,Jen,TN,1476502656000.0,1307837
11757989,Thompsons Station,,1499395984000.0,35.8,-86.9,Jenelle Penfold,TN,1505518507000.0,1307837
195166428,Murfreesboro,,1446778914000.0,35.87,-86.44,Jenn,TN,1447710024000.0,1307837
60497942,Nolensville,,1358621207000.0,35.94,-86.67,Jenn Cudmore Maguire,TN,1421624454000.0,1307837
37258812,Nashville,,1403119926000.0,36.14,-86.74,Jennifer Every,TN,1413565676000.0,1307837
184705290,Nashville,,1424758438000.0,36.17,-86.72,Jennifer Hartman,TN,1438107948000.0,1307837
223346467,Murfreesboro,,1488932146000.0,35.82,-86.45,Jennifer L. Geiger,TN,1488932146000.0,1307837
4347432,Clarksville,Tullahoma,1508335024000.0,36.53,-87.35,Jennifer Silvertooth,TN,1508335024000.0,1307837
235116861,Franklin,,1503965121000.0,35.92,-86.89,Jennifer Summers,TN,1508597182000.0,1307837
13793092,Raleigh,,1389570806000.0,35.94,-78.63,Jennifer Weigand,NC,1389570806000.0,1307837
144538042,Franklin,,1402175838000.0,35.93,-86.81,Jennifer Weigand,TN,1458710631000.0,1307837
12136285,Brentwood,Brentwood,1296528798000.0,36.0,-86.79,Jennifer Whitmire Cherry,TN,1484190974000.0,1307837
198947103,Clarksville,,1467678113000.0,36.53,-87.35,Jenny Lynn Crews,TN,1467678113000.0,1307837
107414072,Franklin,,1439171177000.0,35.92,-86.89,Jenny Tuthill Maresca,TN,1503193195000.0,1307837
199981057,Spring Hill,,1455818193000.0,35.76,-86.88,Jess,TN,1501858083000.0,1307837
187732912,Nashville,,1432486163000.0,36.16,-86.79,Jess,TN,1432486163000.0,1307837
206759499,Joelton,,1465440403000.0,36.33,-86.91,Jess,TN,1465440403000.0,1307837
201199637,Murfreesboro,,1457546249000.0,35.82,-86.45,Jess.Erricks,TN,1457546249000.0,1307837
13203057,Stamford,Stamford,1427818695000.0,41.05,-73.54,Jessica,CT,1427818695000.0,1307837
9436198,Murfreesboro,,1240769488000.0,35.82,-86.45,Jessica Baldwin,TN,1483475881000.0,1307837
183690596,Nashville,,1421610476000.0,36.17,-86.78,Jessica Belinda Metzger,TN,1501934744000.0,1307837
37001312,Nashville,Nashville,1416349286000.0,36.21,-86.72,Jessica Bowling,TN,1416349286000.0,1307837
192184367,Brentwood,,1441244025000.0,35.91,-86.54,Jessica King,TN,1508635274000.0,1307837
11472898,Nashville,,1266459949000.0,36.17,-86.72,Jessica Owens,TN,1411830594000.0,1307837
220334912,Nashville,,1484913287000.0,36.14,-86.74,Jessica Pike,TN,1484913287000.0,1307837
188534952,Nashville,,1481950246000.0,36.08,-86.72,Jessica R. Hardy,TN,1485652107000.0,1307837
232617227,Columbia,,1501030978000.0,35.62,-87.03,Jessica Wilson,TN,1501030978000.0,1307837
27484382,Clarksville,,1487735509000.0,36.56,-87.39,Jessie,TN,1501896456000.0,1307837
43832512,Murfreesboro,"Murfreesboro,TN",1436587865000.0,35.82,-86.45,JH Darveau,TN,1458732967000.0,1307837
12668425,Nashville,,1416522957000.0,36.17,-86.78,Jill Ryder,TN,1491567126000.0,1307837
207387957,Saint Louis,,1475967430000.0,38.63,-90.19,Joanne Song,MO,1475967430000.0,1307837
7823566,Murfreesboro,,1420458802000.0,35.82,-86.45,Joeli Clark,TN,1420458802000.0,1307837
188482309,Clarksville,,1433978086000.0,36.56,-87.41,Johnn Rios,TN,1445883438000.0,1307837
199157981,Antioch,,1454603806000.0,36.04,-86.64,Joplin,TN,1501859585000.0,1307837
2220127,Antioch,,1280705745000.0,36.04,-86.64,Joyce,TN,1500236973000.0,1307837
148889152,Johnson City,Johnson city,1401325931000.0,36.31,-82.38,Judyk684,TN,1402358250000.0,1307837
88666622,Franklin,Iowa,1368316400000.0,35.99,-86.9,Julie,TN,1508509624000.0,1307837
216377146,Franklin,,1478655461000.0,35.92,-86.89,Julie A. Smith,TN,1478655461000.0,1307837
233387778,Franklin,,1501989411000.0,35.93,-86.81,Julie Anastasi,TN,1501989411000.0,1307837
140629542,Nashville,,1397486292000.0,36.17,-86.78,Julie Jelf,TN,1397486292000.0,1307837
134397342,Spring Hill,,1393043374000.0,35.76,-86.88,Julie Pfund,TN,1506286270000.0,1307837
5499001,Franklin,Franklin,1299620532000.0,35.93,-86.81,Julie Pokorny Klier,TN,1474636396000.0,1307837
212830415,Franklin,,1473731302000.0,35.92,-86.89,Julie Roussel,TN,1473731302000.0,1307837
199573710,Clarksville,,1455246357000.0,36.49,-87.23,K Bee,TN,1455246357000.0,1307837
205144217,Murfreesboro,,1463250498000.0,35.82,-86.45,Karen and Tim McNaughton,TN,1463250498000.0,1307837
127226512,Nashville,"Jackson, MS",1402933116000.0,36.05,-86.74,Karen Atkins,TN,1478744354000.0,1307837
208741876,Clarksville,,1468162745000.0,36.56,-87.41,Karen Barnes,TN,1468162745000.0,1307837
224704125,Nashville,,1490822389000.0,36.17,-86.78,Karen Freeze,TN,1492522582000.0,1307837
226444122,Murfreesboro,,1493226962000.0,35.87,-86.44,Karen Schaefer Claing,TN,1502649106000.0,1307837
25282842,Nashville,,1416535228000.0,36.17,-86.78,Karen Violet Bruce,TN,1423151944000.0,1307837
1819304,Nashville,,1498257675000.0,36.16,-86.79,Kat,TN,1498257675000.0,1307837
226420459,Nashville,,1494908876000.0,36.17,-86.78,Kat Binkley ,TN,1494908876000.0,1307837
6109951,Franklin,USA,1418007071000.0,35.92,-86.89,Kate,TN,1483990397000.0,1307837
18665321,Nashville,,1471835922000.0,36.17,-86.78,Kate,TN,1471835922000.0,1307837
10374483,Brentwood,,1252516781000.0,36.0,-86.79,Katherine Emerson,TN,1294162726000.0,1307837
183111759,Franklin,,1438645568000.0,35.92,-86.89,Katherine Emerson,TN,1438645568000.0,1307837
6697866,Franklin,"Nashville, TN",1297254623000.0,35.92,-86.89,Kathryn Alexander,TN,1413146333000.0,1307837
96438392,Nashville,,1401821739000.0,36.06,-86.96,Kathryne,TN,1429750251000.0,1307837
49264392,Nashville,,1364610148000.0,36.09,-86.82,Kathy,TN,1434332016000.0,1307837
105896822,Franklin,,1375995416000.0,35.92,-86.89,Kathy Barrons-Sweeney,TN,1384646091000.0,1307837
222227872,Nashville,,1493521319000.0,36.17,-86.78,Kati Barbeau,TN,1494205743000.0,1307837
33178222,Franklin,,1399235712000.0,35.92,-86.89,Kayla Canessa,TN,1402919685000.0,1307837
211386771,Murfreesboro,,1471782367000.0,35.82,-86.45,Kayla Dean Sosa,TN,1483669743000.0,1307837
232296532,Franklin,,1500907127000.0,35.92,-86.89,Kelley Hughes,TN,1508511393000.0,1307837
232302479,Franklin,,1500649208000.0,35.92,-86.89,Kelley Hughes,TN,1502596695000.0,1307837
183560521,Franklin,"Austin, TX",1455941670000.0,35.92,-86.89,Kelly,TN,1501788719000.0,1307837
3451311,Nashville,,1314585623000.0,36.16,-86.79,Kelly,TN,1364565876000.0,1307837
204230919,Franklin,,1461938049000.0,35.92,-86.89,Kelly,TN,1475198628000.0,1307837
209052465,Nashville,,1468553350000.0,36.06,-86.96,Kelly Jo Boshers,TN,1468553350000.0,1307837
183733707,Spring Hill,,1421718390000.0,35.76,-86.88,Kelly Kirkland,TN,1476460446000.0,1307837
96371802,Nashville,,1504455949000.0,36.17,-86.78,Kendra Lancaster,TN,1504455949000.0,1307837
206268229,Hendersonville,,1464797311000.0,36.32,-86.61,Kendrick Esiason,TN,1464797311000.0,1307837
62415782,Franklin,,1347662632000.0,35.92,-86.89,Kendyl Stokes,TN,1348263739000.0,1307837
201039703,Pleasant View,,1457317428000.0,36.38,-87.04,Kerrica,TN,1457317428000.0,1307837
143837672,Florence,,1398909576000.0,34.82,-87.66,Kerry,AL,1405279950000.0,1307837
224186709,Columbia,Columbia,1490112560000.0,35.61,-87.05,Kim O.,TN,1492959797000.0,1307837
13553193,Franklin,,1291926984000.0,35.92,-86.89,Kim Smith,TN,1291926984000.0,1307837
121354332,Nashville,,1385346076000.0,36.17,-86.78,Kim Wilson,TN,1429364745000.0,1307837
199343688,Nashville,,1454901696000.0,36.06,-86.96,Kimberly Wilkins,TN,1454901696000.0,1307837
95747262,Nashville,,1394831129000.0,36.17,-86.78,Kimm,TN,1508510429000.0,1307837
10672706,Franklin,IL,1374191451000.0,35.92,-86.89,Krista Dial,TN,1374191451000.0,1307837
182662859,Murfreesboro,,1418773410000.0,35.87,-86.34,Kristen Brown,TN,1418773410000.0,1307837
8553243,Nolensville,Nolensville,1391981175000.0,35.94,-86.67,Kristen Kern,TN,1424746793000.0,1307837
12758610,Franklin,,1362499309000.0,35.99,-86.9,Kristen Melichar,TN,1362499309000.0,1307837
123751012,Brentwood,,1387067903000.0,36.0,-86.79,Kristie,TN,1502189526000.0,1307837
121368402,Spring Hill,,1391133928000.0,35.76,-86.88,Kristie Brewton,TN,1391133928000.0,1307837
4955562,Murfreesboro,,1224878531000.0,35.82,-86.45,Kristina ,TN,1438665273000.0,1307837
183209864,Nashville,,1420006810000.0,36.17,-86.78,Kristina Raschelle Seyer,TN,1420006810000.0,1307837
214274115,Nashville,,1475537167000.0,36.17,-86.72,Kristina Whitlow,TN,1475537167000.0,1307837
134298772,Franklin,,1392993699000.0,35.92,-86.89,Lana Bennett,TN,1441851512000.0,1307837
7921194,Nashville,,1225679810000.0,36.17,-86.78,Lanier Schreiner,TN,1393769826000.0,1307837
44520762,Clarksville,Clarksville,1334320702000.0,36.56,-87.41,Lanita,TN,1380488042000.0,1307837
212147144,Brentwood,,1472827649000.0,36.0,-86.79,Laura,TN,1472843656000.0,1307837
3203814,Franklin,,1379561093000.0,35.99,-86.9,Laura,TN,1458769820000.0,1307837
204425736,Franklin,,1462221743000.0,35.93,-86.81,Laura,TN,1463426558000.0,1307837
40499262,Ashland City,,1410795471000.0,36.28,-87.07,Laura Ballard,TN,1410800789000.0,1307837
119889432,Nashville,Hermitage,1403664011000.0,36.15,-86.86,Laura Gimpelson,TN,1501870542000.0,1307837
120187692,Nashville,Nashville,1384564425000.0,36.11,-86.86,Laura Gimpelson,TN,1492271187000.0,1307837
156090352,Murfreesboro,Murfreesboro,1479717656000.0,35.87,-86.34,Laura Hayes,TN,1498105287000.0,1307837
190347535,Franklin,,1437743006000.0,35.92,-86.89,Laura Leuty,TN,1437743006000.0,1307837
10487554,Franklin,,1309412131000.0,35.92,-86.89,Laura McAlister,TN,1315797000000.0,1307837
97872562,Franklin,,1371218750000.0,35.92,-86.89,Laura Warren,TN,1508766842000.0,1307837
198683835,Nashville,,1453860494000.0,36.06,-86.96,Laurie Oakes,TN,1453860494000.0,1307837
182770563,Nashville,,1457577373000.0,36.15,-86.86,LaVon Bowen,TN,1471714235000.0,1307837
220253649,Nashville,,1484801173000.0,36.08,-86.72,Lavon Chandler,TN,1484801173000.0,1307837
232137196,Columbia,,1500441008000.0,35.61,-87.05,Leah Hayward,TN,1500441008000.0,1307837
38783652,Nashville,"Nashville, TN",1421028256000.0,36.07,-86.73,Lee Perry,TN,1421028256000.0,1307837
129464812,Fairview,"Selmer, TN",1390409231000.0,35.97,-87.13,Leigh Ann Scott,TN,1390409231000.0,1307837
79451092,Franklin,,1360252123000.0,35.92,-86.89,leila holt,TN,1360252123000.0,1307837
225436370,Franklin,,1491874702000.0,35.92,-86.89,Leo Kennedy,TN,1491874702000.0,1307837
234193435,Franklin,,1502913115000.0,35.92,-86.89,Lesa Bordeaux McPherson,TN,1504460818000.0,1307837
193317060,Brentwood,,1443373482000.0,36.0,-86.79,Leslie ,TN,1443373482000.0,1307837
236329969,Nashville,,1505244917000.0,36.17,-86.78,Libby Ford,TN,1505352753000.0,1307837
157294172,Franklin,,1405877184000.0,35.92,-86.89,Linda Canada,TN,1468624785000.0,1307837
195134332,Franklin,,1446898616000.0,35.92,-86.89,Linda Tasser Gaskill,TN,1446898616000.0,1307837
204971518,Nashville,,1463008756000.0,36.07,-86.73,LindsayP,TN,1463008756000.0,1307837
13437539,Nashville,,1461760151000.0,36.16,-86.79,Lindsey Frizzell Morgan,TN,1508117748000.0,1307837
211131914,Nashville,,1471401360000.0,36.22,-86.77,Lindsey Thornton,TN,1471401360000.0,1307837
183670311,Erin,,1421543391000.0,36.29,-87.75,Lisa,TN,1421543391000.0,1307837
222278088,Franklin,,1487439850000.0,35.92,-86.89,Lisa Barrenechea Lee,TN,1488718491000.0,1307837
232628021,Franklin,,1501097761000.0,35.92,-86.89,lisa dever;,TN,1505233565000.0,1307837
215876742,Nashville,,1491744285000.0,36.08,-86.72,Lisa K,TN,1502967174000.0,1307837
8041444,Smyrna,Murfreesboro,1257202754000.0,35.97,-86.51,Lisa Mastin Hudson,TN,1500915135000.0,1307837
222865383,Thompsons Station,,1488251287000.0,35.8,-86.9,Lisa Michelle,TN,1488251287000.0,1307837
188140405,Hermitage,,1433282859000.0,36.19,-86.6,Lisa Reeder,TN,1434403707000.0,1307837
13135928,Franklin,"Franklin, TN",1429751898000.0,35.92,-86.89,LisaAnn,TN,1495239671000.0,1307837
191854492,Nashville,,1440612336000.0,36.06,-86.96,liz alley,TN,1440612336000.0,1307837
173065292,Nashville,,1437878485000.0,36.17,-86.78,Liz W.,TN,1441550551000.0,1307837
233034809,Leoma,,1501559414000.0,35.23,-87.34,Lizzy Holman Hargrove,TN,1501904570000.0,1307837
219527099,Nashville,,1483902761000.0,36.08,-86.72,LJ,TN,1497212821000.0,1307837
173897112,Nashville,Fayetteville ,1421180547000.0,36.19,-86.83,Lucinda Darling Loya,TN,1482899738000.0,1307837
4607229,Nashville,,1403278354000.0,36.17,-86.78,Lynn Cook,TN,1494943922000.0,1307837
227647342,Franklin,,1494877148000.0,35.92,-86.89,Lynn McCulloch Trulock,TN,1494877148000.0,1307837
224182119,Murfreesboro,,1490107771000.0,35.78,-86.33,M Carroll,TN,1490107771000.0,1307837
202411102,Nashville,,1459314051000.0,36.15,-86.86,MacKenzie,TN,1478657373000.0,1307837
194700251,Franklin,,1445920982000.0,35.92,-86.89,Madison,TN,1447395165000.0,1307837
108456532,Franklin,"Auburn, AL",1403117353000.0,35.92,-86.89,Margaret Bearss,TN,1505438065000.0,1307837
94718632,Nashville,,1464006466000.0,36.08,-86.72,Margaret Miles,TN,1483905566000.0,1307837
11062417,Franklin,,1261511185000.0,35.92,-86.89,Margie,TN,1508328934000.0,1307837
219486240,Franklin,,1483845495000.0,35.92,-86.89,Margie Flanagan,TN,1497647525000.0,1307837
55983402,Murfreesboro,,1377204950000.0,35.78,-86.33,Maria Elliott,TN,1440441789000.0,1307837
65668512,Smyrna,"Kingston, N.Y.",1413033972000.0,35.97,-86.51,Marie Born,TN,1456690714000.0,1307837
214655507,Nashville,,1477620081000.0,36.17,-86.78,Marilyn Dietz,TN,1481591779000.0,1307837
206913741,Franklin,,1465661870000.0,35.92,-86.89,Marilyn Rickard,TN,1465661870000.0,1307837
69729662,Franklin,,1382323551000.0,35.92,-86.89,Marjorie Jordan,TN,1415360873000.0,1307837
235695658,Franklin,,1504605180000.0,35.93,-86.84,Marjorie Morris,TN,1506403639000.0,1307837
85584132,Nashville,,1374621429000.0,36.15,-86.86,Marjorie Pess,TN,1380472686000.0,1307837
196831410,Franklin,,1450062894000.0,35.99,-86.9,Marjorie Pess,TN,1450062894000.0,1307837
198534338,Nashville,,1453595862000.0,36.17,-86.78,Mark Venchy,TN,1456903903000.0,1307837
210389009,Hendersonville,,1470343360000.0,36.32,-86.61,Martha Ann Batchelor,TN,1470343360000.0,1307837
157629112,Franklin,,1405998989000.0,35.92,-86.89,Mary Frances Griffin,TN,1428895453000.0,1307837
722059,Norfolk,,1419730347000.0,36.9,-76.21,Mary Full,VA,1508069907000.0,1307837
232825926,Lewisburg,,1501295070000.0,35.45,-86.8,Mary H Miller,TN,1503194773000.0,1307837
13633115,Nashville,,1301183866000.0,36.06,-86.96,mary hampton,TN,1442267819000.0,1307837
11884077,Franklin,,1271166490000.0,35.92,-86.89,Mary Nell Snoddy,TN,1508100441000.0,1307837
9848095,Rockvale,Rockvale,1390526260000.0,35.76,-86.55,Mary S. Bailey,TN,1488648801000.0,1307837
28521952,Smyrna,,1427161168000.0,35.97,-86.51,Mary Singleton,TN,1476127005000.0,1307837
191607517,Brentwood,,1440139668000.0,36.0,-86.79,Matthew Brajkovich,TN,1440139668000.0,1307837
204629686,Nashville,,1462515372000.0,36.08,-86.72,Maura Gonzalez,TN,1463505803000.0,1307837
211451981,Fort Myers Beach,,1471870633000.0,26.45,-81.93,Meg. Cyr,FL,1471870633000.0,1307837
210003616,Gallatin,,1469811616000.0,36.39,-86.45,Megan Iverson,TN,1469811616000.0,1307837
200232473,Nashville,,1456165762000.0,36.15,-86.86,Meghan Ploch,TN,1456165762000.0,1307837
205887282,Nashville,,1464249499000.0,36.06,-86.96,Meghan Robertson,TN,1464249499000.0,1307837
206229029,Antioch,,1464737826000.0,36.04,-86.64,Meke Smith,TN,1464737826000.0,1307837
233148506,Nashville,,1501702716000.0,36.17,-86.78,Melinda Higgins,TN,1501702716000.0,1307837
158567462,Franklin,,1406493312000.0,35.92,-86.89,Melinda Meyers,TN,1458738264000.0,1307837
183949822,Nolensville,,1422380717000.0,35.94,-86.67,Melissa Boyd,TN,1424463399000.0,1307837
231852256,Franklin,,1500089730000.0,35.92,-86.89,Melissa Kimery,TN,1500089730000.0,1307837
198213959,Pulaski,,1453008282000.0,35.19,-87.03,Melissa Walker Kimery,TN,1453008282000.0,1307837
55924062,Smyrna,,1343098428000.0,35.97,-86.51,Melissa Willems Pettie,TN,1353944610000.0,1307837
123797742,South Portland,"Cleveland, OH",1436156565000.0,43.62,-70.29,Mia Worth,ME,1436156565000.0,1307837
22008711,Murfreesboro,,1483424974000.0,35.82,-86.45,Michel Holder,TN,1483424974000.0,1307837
209050975,Franklin,,1468551377000.0,35.92,-86.89,Michele Cilurzo,TN,1503455789000.0,1307837
185020970,Franklin,,1425700039000.0,35.99,-86.9,Michele Kirkpatrick,TN,1483130797000.0,1307837
10289028,Franklin,,1251483871000.0,35.92,-86.89,Michele Kirkpatrick,TN,1251488217000.0,1307837
37159942,Nashville,Nashville,1456595677000.0,36.15,-86.86,Michelle ,TN,1492558672000.0,1307837
210629395,Hendersonville,,1470685365000.0,36.32,-86.61,Michelle,TN,1470685365000.0,1307837
61829082,Spring Hill,,1437241607000.0,35.76,-86.88,Michelle Armstrong,TN,1489948059000.0,1307837
13519556,Thompsons Station,,1293656097000.0,35.8,-86.9,Michelle Barker,TN,1299292801000.0,1307837
43994802,Hendersonville,,1345700492000.0,36.32,-86.61,Michelle C,TN,1472140937000.0,1307837
119020312,West Palm Beach,,1452171950000.0,26.71,-80.06,Michelle DiGiovanni,FL,1458743228000.0,1307837
9542030,Nashville,,1283830218000.0,36.21,-86.72,Michelle Winn,TN,1315524863000.0,1307837
203590010,Bradyville,,1461005937000.0,35.7,-86.1,MichelleNextDoor,TN,1461005937000.0,1307837
40161872,Columbia,Columbia,1330857741000.0,35.61,-87.05,Mickey Jo Corbin,TN,1506187340000.0,1307837
9573331,Franklin,,1242562483000.0,35.92,-86.89,miki Z,TN,1242811956000.0,1307837
134359692,Murfreesboro,Murfreesboro,1487145082000.0,35.78,-86.33,Millie,TN,1487145082000.0,1307837
118620902,Franklin,,1383612883000.0,35.92,-86.89,Misty Phillips,TN,1406233494000.0,1307837
176976882,Franklin,,1412984530000.0,35.93,-86.81,mollytinkers,TN,1412984530000.0,1307837
95005392,Hendersonville,,1369512553000.0,36.32,-86.61,Monica Darbyshire,TN,1371820980000.0,1307837
217101042,Franklin,,1479809512000.0,35.92,-86.89,Mouna Mounass Coulibaly,TN,1479809512000.0,1307837
209447032,Murfreesboro,,1469068422000.0,35.78,-86.33,Mrs. Packman,TN,1469068422000.0,1307837
13824081,Lewisburg,,1452174931000.0,35.45,-86.8,Nadine Birge,TN,1452174931000.0,1307837
205991471,Brentwood,,1464404896000.0,36.0,-86.79,Nancy Posey,TN,1464404896000.0,1307837
183634270,Franklin,,1421433619000.0,35.92,-86.89,Nanette Faulkner Taylor,TN,1431784029000.0,1307837
184991104,Nashville,,1425596814000.0,36.1,-86.66,Natasha Bean,TN,1425596814000.0,1307837
194863334,Bell Buckle,,1446225842000.0,35.6,-86.41,Nathaniel Lessard,TN,1446225842000.0,1307837
196879824,Nashville,,1450167204000.0,36.07,-86.73,Nichole,TN,1450167204000.0,1307837
182319842,La Vergne,"Hattiesburg, MS",1443365679000.0,35.99,-86.56,Nicky,TN,1443365679000.0,1307837
203680972,Brentwood,,1462587090000.0,36.0,-86.79,Nicole Ellis,TN,1462587090000.0,1307837
199877089,Antioch,,1455671862000.0,36.04,-86.64,Nicole Guziak,TN,1455671862000.0,1307837
184909991,Franklin,,1431318946000.0,35.92,-86.89,Niesha,TN,1442152337000.0,1307837
8405922,Nashville,,1293221552000.0,36.17,-86.78,Nikki Meyer,TN,1393764999000.0,1307837
230379779,Clarksville,Clarksville,1499385767000.0,36.53,-87.35,Nina Suggs,TN,1501861994000.0,1307837
234168251,Franklin,,1502888624000.0,35.93,-86.81,Olivia Oetjens,TN,1502888624000.0,1307837
185586589,Franklin,,1427409690000.0,35.99,-86.9,Paige Cram ,TN,1427409690000.0,1307837
10066706,Nashville,,1324931272000.0,36.06,-86.96,Pam,TN,1328996558000.0,1307837
4163995,Franklin,Franklin,1224872205000.0,35.92,-86.89,Pam Butler,TN,1508596719000.0,1307837
198200785,Franklin,,1452984624000.0,35.92,-86.89,Pam Dugger,TN,1462463513000.0,1307837
224644004,Spring Hill,,1490928716000.0,35.76,-86.88,Pam Earps Russell,TN,1501904652000.0,1307837
3008350,Smyrna,,1390326078000.0,35.97,-86.51,Pam Martin,TN,1398620309000.0,1307837
197540503,Murfreesboro,,1451768724000.0,35.87,-86.44,Pam Pack,TN,1451768724000.0,1307837
58394242,Franklin,Franklin,1392986272000.0,35.99,-86.9,Pam Robertson Stone,TN,1505687535000.0,1307837
158368872,Franklin,,1406379940000.0,35.92,-86.89,Pat Curley,TN,1494932272000.0,1307837
10913347,Newport,"Westminster, CA",1260484327000.0,44.69,-124.01,Pat Larson,OR,1482975085000.0,1307837
117841312,Nashville,,1383110650000.0,36.17,-86.78,Patrícia Rosa,TN,1383283421000.0,1307837
93170282,Franklin,,1368400148000.0,35.92,-86.89,Patty Gaines,TN,1459107472000.0,1307837
223575948,Murfreesboro,,1489265804000.0,35.82,-86.45,Patty Gray,TN,1489265804000.0,1307837
137789642,Brentwood,,1455174413000.0,36.0,-86.79,Paula Guerra,TN,1464652396000.0,1307837
131677042,Nashville,,1411244844000.0,36.14,-86.89,Peg,TN,1414422090000.0,1307837
220758512,Waynesboro,,1485448870000.0,35.32,-87.76,PEGGY BURKE,TN,1485448870000.0,1307837
130498882,Franklin,,1390942451000.0,35.92,-86.89,Penny Hall,TN,1391117084000.0,1307837
236532848,Chapmansboro,,1505431490000.0,36.37,-87.14,Penny Kong,TN,1505431490000.0,1307837
212378653,Nashville,,1473131206000.0,36.17,-86.78,Persephanie Celiene Rogers,TN,1473131206000.0,1307837
8320075,Murfreesboro,Murfreesboro,1337363615000.0,35.82,-86.45,Pinky,TN,1345210194000.0,1307837
101179652,Madison,,1386511123000.0,36.26,-86.71,Porsche Reese,TN,1441935855000.0,1307837
8423175,Brentwood,"Falls Church, VA",1252602789000.0,36.0,-86.79,Rachel Campbell,TN,1498672748000.0,1307837
98010492,Nashville,,1375578091000.0,36.17,-86.78,Rachel Farr,TN,1471572776000.0,1307837
215124979,Nashville,,1476739451000.0,36.19,-86.8,Rachel Harville,TN,1476739451000.0,1307837
217033926,Murfreesboro,,1479701996000.0,35.84,-86.39,Rae StFort,TN,1479701996000.0,1307837
206200681,Murfreesboro,,1464705088000.0,35.78,-86.33,Ralonda H,TN,1501878514000.0,1307837
5022888,Nashville,,1228320205000.0,36.17,-86.79,Rebecca Dunaway,TN,1399051618000.0,1307837
53416812,Spring Hill,"Frisco, tx",1421168675000.0,35.76,-86.88,Rebecca Eberhardy-Thomas,TN,1503145753000.0,1307837
174445362,Mountain View,,1412055103000.0,37.41,-122.08,Rebecca Jordan Durand,CA,1412055103000.0,1307837
4272713,Clarksville,Clarksville,1464318862000.0,36.53,-87.35,Regge,TN,1474329151000.0,1307837
199342960,Brentwood,,1454900499000.0,36.0,-86.79,Regina McWethy Phillips,TN,1460238804000.0,1307837
203099274,Brentwood,,1460311038000.0,36.0,-86.79,Regina Phillips,TN,1460311038000.0,1307837
13533889,Smyrna,,1359478897000.0,35.97,-86.51,Rene,TN,1477262967000.0,1307837
184816567,New York,,1425098417000.0,40.75,-73.99,Renee Perkins Hurst,NY,1425098417000.0,1307837
34437552,Nashville,,1325897036000.0,36.15,-86.86,Rhonda Beard,TN,1476728322000.0,1307837
155819812,Spring Hill,,1420697985000.0,35.76,-86.88,Rhonda Oliver Greene,TN,1476068201000.0,1307837
85636362,Franklin,,1363781076000.0,35.92,-86.89,Rita Baker,TN,1416491966000.0,1307837
115032312,Franklin,,1439046194000.0,35.99,-86.9,Robbielynn,TN,1441417963000.0,1307837
84512892,Joelton,,1463695561000.0,36.33,-86.91,Robin-Lynn Snow,TN,1463695561000.0,1307837
78131812,Franklin,,1390368055000.0,35.93,-86.81,Rochelle,TN,1505314641000.0,1307837
204160961,La Vergne,,1461824481000.0,36.01,-86.57,Ronda,TN,1461824481000.0,1307837
223640705,Clarksville,,1489365409000.0,36.53,-87.35,Rose Redden-Collins,TN,1491326426000.0,1307837
189534266,Nashville,,1436582884000.0,36.06,-86.96,Rosemarie,TN,1436582884000.0,1307837
199859891,Franklin,,1455652557000.0,35.92,-86.89,S.Thompson,TN,1455652557000.0,1307837
157350702,Franklin,,1405875865000.0,35.92,-86.89,Sabrina Shamley Sayers,TN,1405875865000.0,1307837
26763592,Nashville,,1465613480000.0,36.11,-86.86,Sally LaFave,TN,1465613480000.0,1307837
96019842,Franklin,,1387063958000.0,35.92,-86.89,Samantha,TN,1438664264000.0,1307837
166085402,Smyrna,,1428461492000.0,35.97,-86.51,Samantha Kerschieter,TN,1454040909000.0,1307837
77202612,Franklin,,1358784926000.0,35.92,-86.89,Sandi Schey,TN,1424042668000.0,1307837
108208182,Smyrna,,1422295399000.0,35.97,-86.51,sandie scott,TN,1508650017000.0,1307837
104821432,Nashville,,1395865862000.0,36.08,-86.72,Sandra D,TN,1455469934000.0,1307837
205716050,Lebanon,,1464019533000.0,36.21,-86.31,Sandra Dancy,TN,1500210605000.0,1307837
187993283,Nashville,,1433002544000.0,36.17,-86.72,Sara,TN,1433002544000.0,1307837
235901934,Franklin,,1504809719000.0,35.93,-86.84,Sarah,TN,1504809719000.0,1307837
8370022,Tyler,Nashville,1226804455000.0,32.33,-95.29,Sarah,TX,1454221439000.0,1307837
215224608,Nashville,,1476885100000.0,36.08,-86.72,Sarah Crews Nehasil,TN,1499606469000.0,1307837
208749122,Goodlettsville,,1468169951000.0,36.32,-86.72,Sarah Dooley,TN,1468169951000.0,1307837
217416910,Gladeville,,1480377260000.0,36.19,-86.28,Sarah Elizabeth Osuch,TN,1480377260000.0,1307837
8199482,Franklin,,1236708726000.0,35.92,-86.89,Sarah Holton,TN,1371853470000.0,1307837
198412968,Nashville,,1454061721000.0,36.06,-86.96,Sarah Martinez,TN,1454061721000.0,1307837
206699955,Clarksville,,1465363675000.0,36.56,-87.41,Sarah Rachel Judd,TN,1465363675000.0,1307837
205732798,Mount Juliet,,1464037700000.0,36.22,-86.52,Sarra Godwin ,TN,1468180108000.0,1307837
190416910,Murfreesboro,,1437865898000.0,35.82,-86.45,Sasha,TN,1437865898000.0,1307837
204964452,Madison,,1463000668000.0,36.26,-86.71,Sekita Hicks,TN,1464333083000.0,1307837
11173105,White Bluff,,1263141173000.0,36.12,-87.23,Shanee,TN,1490903251000.0,1307837
186309449,Clarksville,,1440086593000.0,36.56,-87.41,Shannon,TN,1452791007000.0,1307837
78223,Murfreesboro,Rockvale,1362350502000.0,35.78,-86.33,Shannon Minner,TN,1501808533000.0,1307837
198146074,Franklin,,1452974956000.0,35.92,-86.89,Sharon Carroll,TN,1452974956000.0,1307837
231298043,Knoxville,,1499444609000.0,35.88,-84.17,Sharon Carroll,TN,1501903362000.0,1307837
42879412,Nashville,,1358446886000.0,36.17,-86.78,Sharon James,TN,1508692728000.0,1307837
194612136,Spring Hill,,1445777496000.0,35.76,-86.88,Sharon Meredith,TN,1462392720000.0,1307837
8024895,Nashville,Franklin,1350394357000.0,36.06,-86.96,Sharon Rowley,TN,1386590454000.0,1307837
192921620,Franklin,,1442620928000.0,35.92,-86.89,Sharon T.,TN,1467137613000.0,1307837
198069039,Franklin,,1452729384000.0,35.92,-86.89,Shauna McCoy,TN,1452729384000.0,1307837
103659502,Nolensville,,1376914588000.0,35.94,-86.67,shayla mccarter,TN,1390845058000.0,1307837
2796308,Nashville,,1224963480000.0,36.17,-86.78,Sheila Hatcher,TN,1399912506000.0,1307837
82175972,Nashville,,1361845271000.0,36.17,-86.78,Sherri Roberts Lawrence,TN,1502214368000.0,1307837
183865809,Nashville,,1422114922000.0,36.07,-86.73,Signature,TN,1422114922000.0,1307837
203400,Sparta,London UK,1460680591000.0,35.93,-85.47,Slurper Lee,TN,1476721467000.0,1307837
190645606,Readyville,,1438268189000.0,35.82,-86.22,Stacey Early,TN,1438268189000.0,1307837
192100085,Franklin,,1441084248000.0,35.92,-86.89,Stacey Leach,TN,1441084248000.0,1307837
192367216,Jackson,,1441598268000.0,32.29,-90.18,Stacy Brookerd,MS,1475293912000.0,1307837
116961802,Nashville,,1440989921000.0,36.17,-86.78,Stacy Nicely Taylor,TN,1440989921000.0,1307837
37760412,Ooltewah,,1332862630000.0,35.09,-85.06,Stacy Sander- Slockbower,TN,1332863293000.0,1307837
232028215,Thompsons Station,,1500315208000.0,35.8,-86.9,Starla Nickell Taylor,TN,1500315208000.0,1307837
3641127,Franklin,"Pineville,Ky",1241788125000.0,35.92,-86.89,Stefen Brock,TN,1319889203000.0,1307837
230049169,Nashville,,1497922102000.0,36.17,-86.78,Stephanie,TN,1507266155000.0,1307837
8988174,La Vergne,,1235866124000.0,36.01,-86.57,stephanie,TN,1244638953000.0,1307837
202429181,Gallatin,,1459347864000.0,36.39,-86.45,Stephanie,TN,1459362478000.0,1307837
10572963,Nashville,,1254829901000.0,36.17,-86.78,Stephanie,TN,1254829901000.0,1307837
183629603,Clarksville,,1421421350000.0,36.56,-87.41,Stephanie A.,TN,1499172414000.0,1307837
125045602,Columbia,,1388127385000.0,35.61,-87.05,Stephanie Bloodgood,TN,1388127385000.0,1307837
9087735,Brentwood,,1326598907000.0,36.0,-86.79,Stephanie Holaday,TN,1452701102000.0,1307837
134226332,Franklin,,1392944725000.0,35.92,-86.89,Sue Wright,TN,1484401887000.0,1307837
183173081,Nashville,,1419841172000.0,36.18,-86.73,Summer Smith,TN,1419841172000.0,1307837
25270622,Madison,,1391112713000.0,34.68,-86.79,Sunny,AL,1430943595000.0,1307837
178667012,Franklin,,1416080698000.0,35.93,-86.81,susan,TN,1503078857000.0,1307837
12793115,Hermitage,,1282330632000.0,36.19,-86.6,Susan Burdorf,TN,1343041265000.0,1307837
207401705,Clarksville,,1466337818000.0,36.49,-87.23,Susan Gibler,TN,1466337818000.0,1307837
197857711,Franklin,,1452351146000.0,35.92,-86.89,Susan Harding,TN,1484360603000.0,1307837
143173272,Mount Juliet,,1398184546000.0,36.21,-86.52,Suzanne,TN,1487196423000.0,1307837
212602554,Murfreesboro,,1473435079000.0,35.78,-86.33,Syd,TN,1473435079000.0,1307837
200804116,Nashville,,1460683768000.0,36.06,-86.96,Sylvia Bosma,TN,1505211788000.0,1307837
60336612,Lebanon,,1354199797000.0,36.21,-86.31,Tamara Williams,TN,1367242052000.0,1307837
187009624,Spring Hill,"Spring Hill, TN",1430941899000.0,35.76,-86.88,Tami Tallent,TN,1460759377000.0,1307837
3049771,Nashville,Spring Lake,1392323453000.0,36.17,-86.72,Tamlin Lorenz,TN,1508093569000.0,1307837
185917092,Bowling Green,Bowling Green,1428373374000.0,37.02,-86.46,Tammi Whitlow Satterfield,KY,1428373374000.0,1307837
6297372,Laguna Niguel,,1454971462000.0,33.53,-117.71,Tammy ,CA,1508637357000.0,1307837
200075776,Bell Buckle,,1455950770000.0,35.6,-86.41,Tanya Yuker Jordan,TN,1470177405000.0,1307837
10408557,Burns,,1252900188000.0,36.04,-87.26,Taya Brady,TN,1253891246000.0,1307837
156270502,Brentwood,,1457012934000.0,36.0,-86.79,Taylor,TN,1459366254000.0,1307837
12525362,Nashville,East Nashville,1436742088000.0,36.18,-86.74,TeeJay,TN,1436742088000.0,1307837
171069082,Mount Juliet,,1410787846000.0,36.22,-86.52,Tenielle,TN,1501817119000.0,1307837
10479445,Franklin,,1253678143000.0,35.92,-86.89,Terra Wright,TN,1253678143000.0,1307837
100900202,Franklin,,1373042999000.0,35.92,-86.89,Terri Anderson,TN,1374472810000.0,1307837
156624712,Franklin,,1405479214000.0,35.92,-86.89,Terri Masington Cashion,TN,1449981271000.0,1307837
194207919,Decatur,,1445039421000.0,34.55,-86.98,Terri W.,AL,1455478966000.0,1307837
91247842,Tullahoma,,1367194125000.0,35.37,-86.21,Terry,TN,1367611475000.0,1307837
23790012,Murfreesboro,,1362401208000.0,35.78,-86.33,Terry Gassler Reid,TN,1397913919000.0,1307837
90092242,San Diego,,1454064457000.0,32.76,-117.2,The'resa,CA,1454064457000.0,1307837
146298212,Murfreesboro,"Reedley, CA",1447466503000.0,35.78,-86.33,Theaj,TN,1503026079000.0,1307837
209128086,Franklin,,1468665573000.0,35.92,-86.89,Thibisay Ruiz ,TN,1468665573000.0,1307837
197357660,Clarksville,,1451360687000.0,36.53,-87.35,Tiffany,TN,1451360687000.0,1307837
14402241,Sylva,,1302017432000.0,35.38,-83.21,Tiffany Dziadaszek,NC,1424926590000.0,1307837
188231384,Huntsville,,1433466523000.0,34.73,-86.57,Tina,AL,1476379146000.0,1307837
196500880,Nashville,,1449390209000.0,36.17,-86.78,Traci Lindsey Farmer,TN,1449390209000.0,1307837
148085912,Murfreesboro,,1400884176000.0,35.82,-86.45,tracy,TN,1508565936000.0,1307837
1379343,Nashville,Middle TN,1392987868000.0,36.06,-86.96,Tracy,TN,1479208908000.0,1307837
239058293,Franklin,,1508200083000.0,35.92,-86.89,Tracy Arentson,TN,1508330569000.0,1307837
104088392,Nashville,Nashville,1430626662000.0,36.08,-86.72,travis,TN,1430626662000.0,1307837
8595955,Nashville,,1390943686000.0,36.17,-86.78,Trina,TN,1501862508000.0,1307837
13193814,Mount Juliet,Mount Juliet,1428199093000.0,36.22,-86.52,Trish,TN,1428199093000.0,1307837
213707650,Normandy,,1474859900000.0,35.41,-86.24,Trish Knier,TN,1479248388000.0,1307837
199049673,Eagleville,,1485204521000.0,35.75,-86.64,Vanessa Dupree,TN,1500079771000.0,1307837
193657201,Murfreesboro,,1444013914000.0,35.87,-86.34,Vanessa Leithoff,TN,1444013914000.0,1307837
182589341,Franklin,Franklin TN,1491656968000.0,35.93,-86.81,VaradaSharma,TN,1495449761000.0,1307837
195165469,Murfreesboro,,1446777294000.0,35.82,-86.45,Veronica,TN,1448738468000.0,1307837
12785385,Nashville,Nashville,1282614276000.0,36.06,-86.96,Vicki Johnson,TN,1380291541000.0,1307837
186700846,Columbia,,1430254316000.0,35.61,-87.05,Vickie,TN,1432074121000.0,1307837
55980202,Nashville,,1427684847000.0,36.17,-86.79,Vickie Stanton,TN,1427684847000.0,1307837
190938944,Franklin,,1438826806000.0,35.92,-86.89,Wegner51,TN,1500080728000.0,1307837
8599126,Goodlettsville,,1315708331000.0,36.33,-86.74,Wendy,TN,1315708331000.0,1307837
179391132,Nashville,,1458996593000.0,36.08,-86.72,X,TN,1459008289000.0,1307837
186673449,White House,,1430192774000.0,36.48,-86.69,Zarabeth Anderson Licensed Esthe,TN,1430192774000.0,1307837
159336652,Franklin,,1425069683000.0,35.92,-86.89,????,TN,1425069683000.0,1307837
