id,city,hometown,joined,lat,lon,name,state,visited,group_id
7039124,Nashville,,1467997581000.0,36.15,-86.86,A J,TN,1467997581000.0,1360698
33303272,Nashville,,1508543807000.0,36.18,-86.74,Aaron Johnson,TN,1508543807000.0,1360698
7768516,Springfield,"Urbandale, IA",1265940463000.0,36.52,-86.87,Aaron Webb,TN,1508352678000.0,1360698
41329242,Nashville,,1331594633000.0,36.17,-86.78,Aaron Wierenga,TN,1372304176000.0,1360698
198023758,Lewisburg,,1495026603000.0,35.45,-86.8,Abby Fleming,TN,1502933835000.0,1360698
87682152,Nashville,Nashville,1390812995000.0,36.17,-86.78,Abdullah,TN,1484635292000.0,1360698
18846461,Los Angeles,Los Angeles,1310668917000.0,34.03,-118.4,ActiveAli,CA,1310668917000.0,1360698
11983496,Nashville,,1272389204000.0,36.17,-86.78,Adam Bell,TN,1272720707000.0,1360698
22593281,Nashville,,1313176038000.0,36.17,-86.78,Adam Fuller,TN,1313176038000.0,1360698
197133543,Smyrna,,1450791604000.0,35.97,-86.51,Adam Murray,TN,1459779219000.0,1360698
153674632,Nashville,,1502209959000.0,36.18,-86.74,Adam Reidelbach,TN,1502209959000.0,1360698
231157684,Nashville,,1499274697000.0,36.17,-86.78,Adam White,TN,1499274697000.0,1360698
183216754,Nashville,,1425328268000.0,36.17,-86.78,Al Smith,TN,1433444626000.0,1360698
70605822,Melbourne,,1368961478000.0,-37.81,144.96,Alaa Attya Mohamed,,1368961478000.0,1360698
11180086,Bitburg,Olzheim,1508401945000.0,49.98,6.52,Alain Schlesser,,1508401945000.0,1360698
11872972,Nashville,,1328973364000.0,36.13,-86.8,Alan,TN,1499477917000.0,1360698
50369772,Nashville,"Westover, AL",1339006431000.0,36.17,-86.78,"Alan ""Hatch"" Hatcher",TN,1507762518000.0,1360698
9080776,Nashville,,1236780669000.0,36.17,-86.78,Alan Hall,TN,1236962265000.0,1360698
32005912,Brooklyn,,1345601860000.0,40.7,-73.99,Alan Laidlaw,NY,1502128877000.0,1360698
79288822,Brentwood,,1423105065000.0,35.96,-86.82,Alan Lee,TN,1452714048000.0,1360698
235147772,Alpharetta,,1508267016000.0,34.12,-84.3,Alan Pramuk,GA,1508267016000.0,1360698
38647842,Nashville,,1348291512000.0,36.17,-86.78,Alan S,TN,1476237977000.0,1360698
70870712,Nashville,,1433945913000.0,36.18,-86.74,Alathea,TN,1468352794000.0,1360698
9790575,Nashville,,1272305961000.0,36.11,-86.78,Alathea Thompson,TN,1406142489000.0,1360698
75189942,Nashville,,1357572445000.0,36.17,-86.78,Albert Kiteck,TN,1497623455000.0,1360698
40076532,Nashville,,1330532642000.0,36.17,-86.78,Albert Kiteck,TN,1360620265000.0,1360698
208976164,Nashville,"St. Petersburg, FL",1488904904000.0,36.1,-86.66,Alex Craven,TN,1489698777000.0,1360698
28655732,Nashville,,1378860188000.0,36.13,-86.8,Alex Patin,TN,1444692700000.0,1360698
13606604,Nashville,Nashville,1495218166000.0,36.17,-86.72,Alex Simonian,TN,1495641797000.0,1360698
112034622,Nashville,,1379998539000.0,36.08,-86.72,Ali,TN,1381285187000.0,1360698
203310376,Nashville,,1460597172000.0,36.22,-86.77,Ali Hamsa,TN,1460597172000.0,1360698
190707374,Franklin,,1438391322000.0,35.92,-86.89,Ali Yousef Al-hendas,TN,1438391322000.0,1360698
148793032,Nashville,,1404219909000.0,36.18,-86.74,Altamese Wade,TN,1433795110000.0,1360698
85441582,Nashville,,1363662726000.0,36.17,-86.78,Altin Ukshini,TN,1363662726000.0,1360698
111515662,Nashville,,1379642407000.0,36.17,-86.78,Amanda,TN,1418100251000.0,1360698
217955705,Gilbert,,1481305773000.0,33.26,-111.72,amanda perez,AZ,1481305773000.0,1360698
118705672,Nashville,,1384292691000.0,36.11,-86.86,Amy Culbertson,TN,1402273979000.0,1360698
201149272,Nashville,,1457471508000.0,36.18,-86.74,Amy Irwin,TN,1458235738000.0,1360698
63282212,Nashville,Nashville,1445469556000.0,36.18,-86.74,Amy Lee Bennett,TN,1457373014000.0,1360698
137275442,Århus,,1394825043000.0,56.16,10.21,Anders Thorborg,,1455729139000.0,1360698
196014675,Nashville,,1448384417000.0,36.18,-86.81,Andrew Bergeron,TN,1449024646000.0,1360698
96849272,Nashville,,1376851481000.0,36.21,-86.72,Andrew Brown,TN,1376851481000.0,1360698
8444710,Atlanta,,1275352738000.0,33.74,-84.38,Andrew Brown,GA,1275353641000.0,1360698
42261852,Harvest,,1427995049000.0,34.83,-86.74,Andrew Dollarhide,AL,1464965369000.0,1360698
211212006,Goodlettsville,,1471523527000.0,36.32,-86.72,Andrew Fulton,TN,1471523527000.0,1360698
12889716,Brentwood,,1283530316000.0,36.0,-86.79,Andrew Hawks,TN,1283530812000.0,1360698
99375412,Nashville,,1372109376000.0,36.17,-86.78,Andrew Moore,TN,1507040835000.0,1360698
8162969,Minneapolis,"St. Paul, MN",1337998917000.0,44.98,-93.27,Andrew P. Kandels,MN,1337998917000.0,1360698
190463587,Antioch,Green Cove,1446488741000.0,36.04,-86.64,Andrew S,TN,1454605974000.0,1360698
195437521,Nashville,,1452638464000.0,36.17,-86.72,Andrew Sagraves,TN,1452638464000.0,1360698
13862659,Nashville,,1295985178000.0,36.17,-86.78,Andy Cline,TN,1378828292000.0,1360698
4908483,Nashville,'s-Gravenhage,1480522676000.0,36.18,-86.74,Angela,TN,1480522676000.0,1360698
190868664,Spring Hill,,1438695438000.0,35.76,-86.88,Angela Brennan,TN,1468025769000.0,1360698
73895512,Nashville,,1383020765000.0,36.17,-86.78,Angela Howard,TN,1499362293000.0,1360698
68941502,Nashville,,1352356930000.0,36.17,-86.78,Angelique Brady,TN,1352356930000.0,1360698
183708078,Franklin,,1421653675000.0,35.93,-86.81,Anitha,TN,1421653675000.0,1360698
27756542,Nashville,,1347416808000.0,36.17,-86.78,Anitha,TN,1371749022000.0,1360698
194335623,Smyrna,,1445276849000.0,35.97,-86.51,Ann Lee,TN,1445276849000.0,1360698
183029100,Franklin,,1437104786000.0,35.92,-86.89,Anne,TN,1448028837000.0,1360698
154459222,Nashville,,1404489858000.0,36.17,-86.78,Anthony,TN,1404489858000.0,1360698
190170609,Nashville,,1491408541000.0,36.15,-86.86,Anthony Failla,TN,1498066676000.0,1360698
217749308,Nashville,,1480952329000.0,36.17,-86.78,Anthony Manker,TN,1487280483000.0,1360698
182578265,Montréal,,1416414550000.0,45.5,-73.57,AnthonyMiDA,QC,1416414550000.0,1360698
4282865,Nashville,,1283034933000.0,36.13,-86.8,Anton Visser,TN,1380214770000.0,1360698
80279332,Nashville,,1360628808000.0,36.17,-86.78,April Elliott,TN,1360628808000.0,1360698
192501596,Murfreesboro,,1507873611000.0,35.82,-86.45,April Faircloth Collier,TN,1507873611000.0,1360698
186777303,Madison,,1430425954000.0,36.26,-86.71,Arenas Viscatanius,TN,1483200034000.0,1360698
134016622,West Palm Beach,,1457581071000.0,26.71,-80.1,Ariel Smith,FL,1457628591000.0,1360698
13744285,Memphis,Memphis,1382487464000.0,35.03,-89.81,Arielle Adams,TN,1382487464000.0,1360698
225572070,Singapore,,1494286893000.0,1.3,103.85,ArthurFaGOU,,1494286893000.0,1360698
12190384,Nashville,,1275028857000.0,36.17,-86.78,Arun,TN,1275029420000.0,1360698
110681352,Nashville,,1379657790000.0,36.11,-86.86,Ashley,TN,1380764045000.0,1360698
220614626,Nashville,,1485358860000.0,36.07,-86.78,Ashley Canino,TN,1494364838000.0,1360698
90151552,Nashville,,1379946700000.0,36.06,-86.96,Ashley Goddard,TN,1423153118000.0,1360698
221583358,Nashville,,1486487686000.0,36.17,-86.78,Ashley Hitt,TN,1486496946000.0,1360698
13455003,Linden,,1290475890000.0,35.6,-87.85,Ashley Owen,TN,1290475890000.0,1360698
114306712,Nashville,,1389718203000.0,36.17,-86.78,Ashley Wright,TN,1425999282000.0,1360698
124201972,Nashville,,1460499482000.0,36.17,-86.78,Audrey Jo Arndt,TN,1460561262000.0,1360698
223260232,Nashville,"Northville, MI",1488821518000.0,36.17,-86.78,Austin,TN,1508791433000.0,1360698
45976022,Nashville,,1335469313000.0,36.17,-86.78,Austin Bischoff,TN,1343686375000.0,1360698
65339492,Salt Lake City,Salt Lake City,1349706693000.0,40.67,-111.84,Avinash Srikantan,UT,1503505596000.0,1360698
183749942,Nashville,,1436825847000.0,36.09,-86.82,ayumi fukuda bennett,TN,1450113458000.0,1360698
224121154,Tampa,,1498658920000.0,27.96,-82.43,Barbara,FL,1498658920000.0,1360698
187906383,Nashville,,,36.18,-86.73,,TN,,1360698
233746608,Nashville,,1504225710000.0,36.17,-86.78,Bassam Lamale,TN,1504287786000.0,1360698
225067604,Nashville,,1491360469000.0,36.13,-86.8,Ben,TN,1491854873000.0,1360698
205462951,Nashville,,1463666619000.0,36.22,-86.77,Ben A,TN,1463666619000.0,1360698
44569262,Nashville,,1389552939000.0,36.17,-86.78,Ben Blackburn,TN,1413481278000.0,1360698
216255534,Nashville,,1478471347000.0,36.07,-86.73,Ben blue,TN,1494028928000.0,1360698
45851532,Nashville,,1335377624000.0,36.17,-86.78,Ben Bridges,TN,1484252873000.0,1360698
1813015,Nashville,,1251775969000.0,36.09,-86.82,Ben Ramsey,TN,1507646789000.0,1360698
203162324,Nashville,,1460396919000.0,36.21,-86.72,Ben Rigsby,TN,1461267041000.0,1360698
13818781,Hendersonville,Hendersonville,1311086319000.0,36.32,-86.61,Ben Slayton,TN,1399924407000.0,1360698
116170662,Nashville,,1382110613000.0,36.13,-86.8,Ben Stewart,TN,1392063985000.0,1360698
190599856,Brentwood,,1438184021000.0,36.0,-86.79,Ben Wright,TN,1438777451000.0,1360698
196757024,Murfreesboro,,1449896563000.0,35.78,-86.33,Benjamin Belden,TN,1462219920000.0,1360698
196440238,Nolensville,,1452553666000.0,35.94,-86.67,Benjamin Bledsoe,TN,1507173533000.0,1360698
28357762,Dunlap,,1318959131000.0,40.84,-89.65,Benjamin Bryant,IL,1413989064000.0,1360698
91763872,Nashville,,1367500236000.0,36.08,-86.72,Benjamin Climer,TN,1434720917000.0,1360698
26454332,Nashville,,1317225475000.0,36.08,-86.72,Berenice Mabrey,TN,1317226444000.0,1360698
70270182,Nashville,,1353394647000.0,36.17,-86.78,Beryl Hood,TN,1353394647000.0,1360698
22315611,Nashville,,1357660557000.0,36.13,-86.8,Beth Downey,TN,1508436740000.0,1360698
104249852,Nashville,,1375373370000.0,36.17,-86.78,Bethany Sharow,TN,1375373370000.0,1360698
67838502,Nashville,,1351504852000.0,36.17,-86.78,Beverley Fitzgerald,TN,1351504852000.0,1360698
396454,Sarasota,,1272237644000.0,27.35,-82.49,Bill,FL,1299535851000.0,1360698
212154946,Nashville,,1472836088000.0,36.11,-86.78,Bill Hardin,TN,1472836088000.0,1360698
12140530,Nashville,"Birmingham, AL",1274469237000.0,36.11,-86.86,Bill Israel,TN,1473709239000.0,1360698
204544342,Nolensville,,1492022255000.0,35.94,-86.67,Bill Reeve,TN,1498853821000.0,1360698
12787250,Nashville,"Goshen, Ny",1346790072000.0,36.08,-86.72,Bill Schmidt,TN,1501696520000.0,1360698
182608187,Nashville,,1470777601000.0,36.16,-86.79,Bill Sparkman,TN,1481066194000.0,1360698
4353024,Antioch,Nashville,1397947268000.0,36.04,-86.64,Bill Zack,TN,1483584135000.0,1360698
183982522,Nashville,Nashville,1422479862000.0,36.06,-86.96,Bizzy Buffington,TN,1490118851000.0,1360698
228333614,Chattanooga,,1498890228000.0,35.04,-85.31,Blaise Iradukunda,TN,1503036198000.0,1360698
209281350,Nashville,,1468858693000.0,36.17,-86.78,Blake Storts,TN,1479395772000.0,1360698
3665120,Nashville,Nashville,1456929801000.0,36.08,-86.72,Bo Link,TN,1485293492000.0,1360698
11581354,Nashville,,1320788175000.0,36.16,-86.79,Bob Daly,TN,1496576320000.0,1360698
189068987,Brentwood,Brentwood,1463966835000.0,36.0,-86.79,Bob Loree,TN,1465993211000.0,1360698
4518002,Brentwood,Brentwood,1254791291000.0,36.0,-86.79,Bob Reuter,TN,1254791291000.0,1360698
147597642,Nashville,,1400623639000.0,36.17,-86.78,Bobby Stark,TN,1400623639000.0,1360698
212617858,Nashville,,1473452493000.0,36.16,-86.79,Brad ,TN,1473452493000.0,1360698
217449348,Nashville,,1480434028000.0,36.17,-86.78,Brad Davis,TN,1495547346000.0,1360698
210250646,Madison,,1470146070000.0,36.26,-86.71,Brad Ewing,TN,1472681468000.0,1360698
51689852,Franklin,Franklin,1402327430000.0,35.92,-86.89,Brad Lilley,TN,1457468391000.0,1360698
14575161,Nashville,,1303759353000.0,36.17,-86.78,Brad Pray,TN,1378932087000.0,1360698
67443812,Nashville,,1351181863000.0,36.17,-86.78,Brad Stewart,TN,1423882474000.0,1360698
12657602,Nashville,,1459538686000.0,36.13,-86.8,Bradley Sapp,TN,1495540535000.0,1360698
102324402,Nashville,,1473733770000.0,36.08,-86.72,Brady Keeling,TN,1498579840000.0,1360698
183608847,Nashville,,1438872923000.0,36.17,-86.79,Brandi Leath,TN,1497372821000.0,1360698
14135900,Nashville,Nashville,1399294932000.0,36.11,-86.78,Brandon,TN,1399294932000.0,1360698
186658212,Killen,Killen,1468735266000.0,34.91,-87.5,Brandon Bost,AL,1495906185000.0,1360698
63821422,Dickson,,1356576063000.0,36.08,-87.43,Brandon Bradley,TN,1476372431000.0,1360698
183643531,Nashville,,1421470586000.0,36.06,-86.96,Brandon Evans,TN,1421470586000.0,1360698
75277202,Morrisville,Morrisville,1357614771000.0,35.83,-78.84,Brandon Joseph Lyons,NC,1486441335000.0,1360698
205330458,Nashville,,1463504359000.0,36.07,-86.73,Brandon No. 9,TN,1493919976000.0,1360698
12685997,Nashville,,1338993064000.0,36.18,-86.74,Brandon Valentine,TN,1412632069000.0,1360698
182729976,Denver,,1461078135000.0,39.77,-105.01,Bre,CO,1461078135000.0,1360698
62418442,Nashville,,1472221095000.0,36.16,-86.79,Brenda Dillard,TN,1472221095000.0,1360698
105304262,Nashville,"Irvine, CA",1375660883000.0,36.17,-86.78,Brendan,TN,1399691184000.0,1360698
228805897,Nashville,,1496346551000.0,36.17,-86.78,Brendan Englehart,TN,1502133256000.0,1360698
177283622,Nashville,,1413158309000.0,36.13,-86.8,Brendan Kennedy,TN,1424112017000.0,1360698
156522342,Nashville,Nashville,1420478244000.0,36.18,-86.74,Brennan Willingham,TN,1440793797000.0,1360698
50979842,Nashville,,1339475010000.0,36.17,-86.78,Brent Lathrop,TN,1484768027000.0,1360698
233429583,Murfreesboro,,1502038715000.0,35.87,-86.44,Brett Looney,TN,1502038715000.0,1360698
35543852,Nashville,,1461768661000.0,36.13,-86.8,Brett Shumaker,TN,1508344269000.0,1360698
6515953,Nashville,Nashville,1373150541000.0,36.16,-86.79,brian,TN,1373150541000.0,1360698
3438546,Nashville,New York,1233932965000.0,36.22,-86.86,Brian,TN,1378913303000.0,1360698
101705922,Clarksville,"Clarksville, TN",1373507571000.0,36.53,-87.35,Brian Hampton,TN,1373507571000.0,1360698
7981818,Nashville,Nashville,1392953400000.0,36.15,-86.86,Brian Pitts,TN,1502113780000.0,1360698
13432595,Murfreesboro,Murfreesboro,1292907683000.0,35.82,-86.45,Brian Ponath,TN,1343142026000.0,1360698
39795722,Nashville,,1426017594000.0,36.17,-86.78,Brian Sauls,TN,1488832368000.0,1360698
184019319,Hermitage,Nashville,1452553910000.0,36.19,-86.6,Brian Stumbaugh,TN,1502219908000.0,1360698
115799982,Nashville,,1389297563000.0,36.13,-86.8,Brian Threlkeld,TN,1507772760000.0,1360698
13357397,Fairview,,1380084460000.0,35.97,-87.13,Brian VanderMey,TN,1381424596000.0,1360698
199045731,Brentwood,,1468012575000.0,36.0,-86.79,Brian Welch,TN,1468426020000.0,1360698
164467912,Franklin,Franklin,1464711159000.0,35.92,-86.89,Brian Wells,TN,1493903381000.0,1360698
192170178,Spring Hill,,1441220635000.0,35.76,-86.88,Brian Wilkins,TN,1472672818000.0,1360698
136867332,North Charleston,Charleston,1394760042000.0,32.86,-79.99,Brice Burgess,SC,1484103542000.0,1360698
71933532,Nashville,,1354784729000.0,36.17,-86.78,Bridgett Nichols,TN,1354784729000.0,1360698
70543152,Nashville,,1353669979000.0,36.17,-86.78,Brigitte Buckley,TN,1353669979000.0,1360698
98173762,Bossier City,,1404941778000.0,32.55,-93.7,Brock Tubre,LA,1404941778000.0,1360698
4583759,Nashville,,1373299127000.0,36.06,-86.96,Bruce Lueckenhoff,TN,1472670338000.0,1360698
32172422,Nashville,,1378915783000.0,36.08,-86.72,Bryan Belanger,TN,1495487304000.0,1360698
67045592,Nashville,nashville,1357570591000.0,36.18,-86.81,Bryan Clayton,TN,1468536376000.0,1360698
83292062,Nashville,,1362419770000.0,36.17,-86.78,Bryan Dease,TN,1507766948000.0,1360698
183056813,Nashville,Nashville,1432835292000.0,36.1,-86.66,Bryan Finlayson,TN,1437970299000.0,1360698
14494537,Franklin,"Mission Viejo, CA",1317676565000.0,35.93,-86.81,Bryan Mayes,TN,1424986755000.0,1360698
129122472,Antioch,,1437321268000.0,36.17,-86.88,Bryan Overbey,TN,1437343299000.0,1360698
187130741,Hendersonville,,1431214980000.0,36.32,-86.61,Bryce Embry,TN,1490638497000.0,1360698
75501532,Nashville,,1361764108000.0,36.13,-86.8,Buck Buchanan,TN,1404340850000.0,1360698
27997302,Nashville,,1405034489000.0,36.09,-86.82,Burke Holland,TN,1405034489000.0,1360698
154639982,Nashville,,1453757770000.0,36.11,-86.81,Byron Albert,TN,1471220965000.0,1360698
23402891,Nashville,,1314042791000.0,36.17,-86.78,Byron Fanning,TN,1358426041000.0,1360698
26543,Jupiter,"Mobile, AL",1275942843000.0,26.94,-80.12,Cal Evans,FL,1502759536000.0,1360698
45209272,Nashville,,1334863215000.0,36.17,-86.78,Cal Spears,TN,1395787541000.0,1360698
204419131,Nashville,,1471961279000.0,36.09,-86.82,Calah Brewster,TN,1483650925000.0,1360698
195750926,Nashville,,1448985280000.0,36.17,-86.78,Caleb,TN,1461002149000.0,1360698
230185128,Nashville,,1498075006000.0,36.17,-86.78,Caleb J. Lee,TN,1500153693000.0,1360698
45627992,Nashville,,1336441523000.0,36.17,-86.78,Caleb Pagel,TN,1433475422000.0,1360698
13389361,Chattanooga,chattanooga,1349201867000.0,35.06,-85.25,Calvin ,TN,1349201867000.0,1360698
203244569,Antioch,"Nashville, TN",1475304189000.0,36.04,-86.64,Calvin J.,TN,1508757333000.0,1360698
218500568,Nashville,,1482330838000.0,36.17,-86.78,Camden Dykes,TN,1482330838000.0,1360698
152606552,Brentwood,,1460848097000.0,36.0,-86.79,Cameron,TN,1460848097000.0,1360698
83072372,Nashville,Nashville,1395852836000.0,36.16,-86.79,Cameron MacMillan,TN,1395852836000.0,1360698
219215739,Nashville,,1483504152000.0,36.15,-86.86,Carl C,TN,1483504152000.0,1360698
40523212,Nashville,,1421157787000.0,36.17,-86.78,Carl Hostrander,TN,1424143643000.0,1360698
195136851,Hermitage,,1455040144000.0,36.19,-86.6,Carmen Vazquez-Marin,TN,1456749968000.0,1360698
11656125,Nashville,,1433788214000.0,36.15,-86.86,Carol Buttenham,TN,1433788214000.0,1360698
42684012,Nashville,,1363877085000.0,36.17,-86.78,Carrie Linn,TN,1381180011000.0,1360698
185133253,Nashville,,1426016001000.0,36.17,-86.78,Carrie Redmon,TN,1457372806000.0,1360698
155529942,Bowling Green,,1404923825000.0,37.02,-86.46,Carson White,KY,1467843430000.0,1360698
12921121,Nashville,,1402937303000.0,36.17,-86.78,Carter Harkins,TN,1408647400000.0,1360698
208949319,Nashville,,1475978895000.0,36.17,-86.78,Carter Harris,TN,1477507149000.0,1360698
146437082,Nashville,,1473037481000.0,36.11,-86.78,Carter Nelms,TN,1488412140000.0,1360698
7816806,Marietta,Atlanta,1454366262000.0,33.93,-84.46,Cesar G.,GA,1495304440000.0,1360698
74063382,Nashville,,1356831194000.0,36.17,-86.78,Chad,TN,1374612524000.0,1360698
14207838,Nashville,,1299701314000.0,36.17,-86.78,Chad,TN,1301520081000.0,1360698
16934091,Nashville,"Atlanta, GA",1495487779000.0,36.16,-86.79,Chance Strickland,TN,1508433911000.0,1360698
112938492,Nashville,,1380137547000.0,36.17,-86.78,Chandler,TN,1380137547000.0,1360698
197622356,Nashville,,1451920330000.0,36.13,-86.8,Channing Moreland,TN,1451920330000.0,1360698
189049801,Nashville,,1435135436000.0,36.17,-86.78,Chardonne Dixon,TN,1435135436000.0,1360698
10056744,Nashville,,1248635969000.0,36.17,-86.78,Charles,TN,1297232785000.0,1360698
12125165,Nashville,,1439313071000.0,36.13,-86.8,Charles DeMarkus Keil,TN,1473795303000.0,1360698
81808022,Bothell,,1439767867000.0,47.76,-122.19,Charles Hightower,WA,1507236052000.0,1360698
23512431,Nashville,,1315681889000.0,36.13,-86.8,Charley Campbell,TN,1433871312000.0,1360698
54663362,Nashville,,1376409405000.0,36.13,-86.8,charlie,TN,1448990570000.0,1360698
53034112,Nashville,,1340997823000.0,36.17,-86.78,Chel Ramsey,TN,1340998513000.0,1360698
185934457,Nashville,,1428424497000.0,36.17,-86.78,Chelsea Burns,TN,1428424497000.0,1360698
69652122,Nashville,,1357570601000.0,36.15,-86.86,Chelsey,TN,1357570601000.0,1360698
187171096,Murfreesboro,,1431310088000.0,35.87,-86.44,Chindhu Kamaleshan,TN,1431796230000.0,1360698
56587282,Nashville,,1343596508000.0,36.13,-86.8,Chip Albright,TN,1352337693000.0,1360698
227880986,Nashville,,1496177720000.0,36.17,-86.78,Chip C.,TN,1497382557000.0,1360698
9269788,Nashville,,1238772834000.0,36.17,-86.78,Chip Hayner,TN,1357583066000.0,1360698
198328600,Nashville,,1461774395000.0,36.17,-86.72,Chloe Ledet,TN,1461774395000.0,1360698
7737725,Smyrna,,1415298613000.0,35.97,-86.51,Chris,TN,1415298613000.0,1360698
213189549,La Vergne,,1474286274000.0,36.01,-86.57,Chris,TN,1474286274000.0,1360698
52853042,Nashville,,1370780575000.0,36.11,-86.86,Chris,TN,1370780575000.0,1360698
30486582,Nashville,,1329079041000.0,36.17,-86.79,Chris Douglass,TN,1345567653000.0,1360698
12113180,Nashville,,1274130506000.0,36.17,-86.78,Chris Durbin,TN,1422997490000.0,1360698
187499500,Mount Juliet,,1431999646000.0,36.22,-86.52,Chris Fitzgerald,TN,1459795282000.0,1360698
150213422,Nashville,"Nashville, TN",1414950893000.0,36.15,-86.86,Chris Forte,TN,1444357141000.0,1360698
1975155,Nashville,"Bowling Green, KY",1306450332000.0,36.11,-86.86,Chris Howard,TN,1319469810000.0,1360698
184547023,Nashville,,1445229750000.0,36.16,-86.79,Chris Jarvis,TN,1507696346000.0,1360698
213203760,Nashville,,1498651776000.0,36.17,-86.79,Chris Lindsay,TN,1498651776000.0,1360698
185576092,Nashville,,1427382725000.0,36.16,-86.79,Chris Mabry,TN,1427382725000.0,1360698
173858412,Franklin,"Slidell, LA",1475591267000.0,35.92,-86.89,Chris McKnight,TN,1508775745000.0,1360698
13455022,Linden,Linden,1290475338000.0,35.6,-87.85,Chris McNatt,TN,1304525754000.0,1360698
36484792,Nashville,"Niceville, FL",1329260279000.0,36.17,-86.78,Chris Mihalcik,TN,1425568624000.0,1360698
208732641,Nashville,,1468150655000.0,36.18,-86.74,Chris Miller,TN,1468150655000.0,1360698
184185824,Nashville,Nashville,1423141769000.0,36.08,-86.72,Chris Newman,TN,1506946512000.0,1360698
59774932,Nashville,,1345860806000.0,36.17,-86.78,Chris Pahler,TN,1345861236000.0,1360698
231487378,Mount Juliet,,1508220207000.0,36.21,-86.52,Chris Powell,TN,1508220207000.0,1360698
18202601,Nashville,,1308681423000.0,36.17,-86.78,Chris Purifoy,TN,1357702666000.0,1360698
11983478,Nashville,,1272389187000.0,36.17,-86.78,Chris Renner,TN,1507572221000.0,1360698
170855672,Franklin,Franklin,1431702832000.0,35.92,-86.89,Chris Roberts,TN,1508371232000.0,1360698
47572122,Nashville,Chicago,1336748679000.0,36.17,-86.78,Chris SpinMan Spintzyk,TN,1482246418000.0,1360698
2910385,Kennesaw,"Sharpsburg, GA",1348238163000.0,34.03,-84.58,Chris Spruck,GA,1505669439000.0,1360698
217718410,Hermitage,,1480896189000.0,36.19,-86.6,Chris Thomas,TN,1480896189000.0,1360698
18792601,Nashville,,1309268185000.0,36.17,-86.78,Chris to the topher,TN,1441198363000.0,1360698
227014606,Nashville,,1504289226000.0,36.17,-86.78,Chris Vandenberg,TN,1504715815000.0,1360698
47316062,Nashville,,1336550049000.0,36.17,-86.78,Chris White,TN,1388703483000.0,1360698
186526164,Dickson,,1429880909000.0,36.08,-87.43,Chris Work,TN,1440815694000.0,1360698
183845401,Nashville,,1422042537000.0,36.17,-86.78,Christen Butler,TN,1443109297000.0,1360698
202683107,Nashville,,1459719512000.0,36.17,-86.78,Christian Winters,TN,1459719512000.0,1360698
196976333,Ashland City,Northern Kentucky,1463276798000.0,36.28,-87.07,Christina Blust,TN,1503578110000.0,1360698
17189541,Nashville,,1307629779000.0,36.13,-86.8,Christina G,TN,1343502805000.0,1360698
195285548,Nashville,,1465840190000.0,36.13,-86.8,Christina Wisneski,TN,1465840190000.0,1360698
13630522,Nashville,,1463945925000.0,36.17,-86.78,Christopher,TN,1463945925000.0,1360698
30179402,Nashville,Orlando,1459867156000.0,36.17,-86.78,Christopher Constable,TN,1495155747000.0,1360698
12880123,Nashville,,1455737609000.0,36.14,-86.74,Christopher Igoe,TN,1508372120000.0,1360698
188661696,Nashville,,1434346365000.0,36.22,-86.77,Christopher Wilson,TN,1501637102000.0,1360698
6045513,Nashville,,1320794984000.0,36.13,-86.8,Chuck Bryant,TN,1481296406000.0,1360698
141084612,Nashville,,1398096255000.0,36.15,-86.79,Cindy Cullen,TN,1498088008000.0,1360698
6990430,Gallatin,,1463705972000.0,36.39,-86.45,Cindy Williams,TN,1500343406000.0,1360698
2192006,Tullahoma,,1382744923000.0,35.37,-86.21,Clark Everetts,TN,1499775739000.0,1360698
192854825,Nashville,,1442521968000.0,36.16,-86.79,Clayton Sanders,TN,1442521968000.0,1360698
186287921,Marion,,1429341374000.0,37.29,-88.09,Clément,KY,1429341374000.0,1360698
8386829,Hendersonville,Nashville,1440526733000.0,36.32,-86.61,Clifton Hatfield,TN,1457379769000.0,1360698
82849812,Nashville,Nashville,1441756298000.0,36.17,-86.72,Clint Stephen Jones,TN,1446161535000.0,1360698
189320541,Franklin,,1435696917000.0,35.93,-86.81,Clint Tompkins,TN,1435857930000.0,1360698
231592574,Nashville,,1499787615000.0,36.17,-86.78,Cody Covey,TN,1507656099000.0,1360698
78855812,Nashville,,1359746549000.0,36.17,-86.78,Cody Covey,TN,1386804839000.0,1360698
183430134,Nashville,,1420755759000.0,36.17,-86.78,Cody Mercer,TN,1476297615000.0,1360698
12399961,New York,,1422708846000.0,40.72,-74.0,Colton Mulligan,NY,1422890768000.0,1360698
133658742,Nashville,,1403547545000.0,36.13,-86.8,Conlan Patrek,TN,1452279481000.0,1360698
9044040,Nashville,Nashville,1238896276000.0,36.08,-86.72,Conner,TN,1448477120000.0,1360698
183525905,Nashville,,1421083526000.0,36.17,-86.78,"Connie Tyler, MBA",TN,1421259563000.0,1360698
132968302,Nashville,,1491928674000.0,36.13,-86.8,Corey,TN,1491928674000.0,1360698
129003472,Smyrna,,1495813507000.0,35.95,-86.54,Corey Gross,TN,1506519054000.0,1360698
8766630,Saugerties,"Saugerties, NY",1508360605000.0,42.08,-74.01,Corey H Maass,NY,1508360605000.0,1360698
93256142,Nashville,,1368457313000.0,36.17,-86.78,Corey Jones,TN,1370553415000.0,1360698
10120820,Chicago,"Memphis,TN",1348187779000.0,41.92,-87.65,Corey Moss,IL,1360440657000.0,1360698
202440863,Nashville,,1459362004000.0,36.17,-86.78,Cortney Webb,TN,1460380564000.0,1360698
189388624,Nashville,,1435846034000.0,36.17,-86.78,Cory A.,TN,1435846034000.0,1360698
183631457,Nashville,,1441307905000.0,36.14,-86.74,Cory Martin,TN,1507045970000.0,1360698
51278932,Brentwood,,1421088737000.0,36.0,-86.79,Courtenay Rogers,TN,1507762644000.0,1360698
150711112,Nashville,,1402328683000.0,36.17,-86.78,Coy Sellers,TN,1493595585000.0,1360698
207349199,Thompsons Station,,1466263488000.0,35.8,-86.9,Craig Cooper,TN,1490996844000.0,1360698
222416304,Franklin,,1487627653000.0,35.93,-86.84,Craig Hall,TN,1487627653000.0,1360698
165826392,Nashville,,1409675109000.0,36.17,-86.78,Craig Hall,TN,1448980454000.0,1360698
184807512,Manchester,,1425075118000.0,35.47,-86.11,Craig Jarrell,TN,1425075118000.0,1360698
12571098,Jacksonville,,1279640380000.0,30.33,-81.77,Crystal P.,FL,1466101883000.0,1360698
210392442,Nashville,,1470346958000.0,36.17,-86.78,Curtis Crawford,TN,1470346958000.0,1360698
28626952,Chattanooga,,1319242623000.0,35.13,-85.27,daisychainsaw,TN,1319242939000.0,1360698
7756353,Nashville,,1492580893000.0,36.13,-86.8,Dale Rogers,TN,1492580893000.0,1360698
3126734,Nashville,,1240248467000.0,36.13,-86.8,Dale the Developer,TN,1462762570000.0,1360698
163831022,La Vergne,,1490339987000.0,36.04,-86.56,Dan,TN,1490339987000.0,1360698
12391138,Nashville,,1277356125000.0,36.17,-86.78,Dan King Jr,TN,1277356574000.0,1360698
114893822,Nashville,Nashville,1385404698000.0,36.13,-86.8,Dan Schweihs,TN,1385404698000.0,1360698
199981939,Nashville,,1455819369000.0,36.14,-86.74,Dan Ventura,TN,1502193648000.0,1360698
11673921,Jackson,Jackson,1268838275000.0,35.68,-88.82,Dana Cheshier,TN,1268928518000.0,1360698
69133872,Franklin,,1352504664000.0,35.92,-86.89,Dane Hale,TN,1408910215000.0,1360698
9530114,Brentwood,,1258659203000.0,36.0,-86.79,dani howell,TN,1320429723000.0,1360698
220377003,Nashville,Antioch,1501719323000.0,36.22,-86.77,Daniel Babcock,TN,1507240409000.0,1360698
123240252,Nashville,,1386692300000.0,36.17,-86.78,Daniel Hightower,TN,1432932176000.0,1360698
237103212,Nashville,,1506023905000.0,36.13,-86.8,Daniel Johnson,TN,1506023905000.0,1360698
183125753,Chicago,Chicago,1419577010000.0,41.92,-87.7,Daniel Lawhon,IL,1419577010000.0,1360698
1939496,Antioch,,1506964181000.0,36.04,-86.64,Daniel Newman,TN,1506964181000.0,1360698
98440922,Nashville,,1381151934000.0,36.18,-86.74,Daniel Paul Carbone,TN,1507165314000.0,1360698
12326188,New York,"Louisville, KY",1320776557000.0,40.7,-74.01,Daniel Weigh,NY,1439518001000.0,1360698
20440681,Nashville,,1311030432000.0,36.17,-86.78,Danielle Mercer,TN,1315781921000.0,1360698
7534345,Nashville,"Louisville, KY",1439140948000.0,36.06,-86.96,Dave Harned,TN,1500652812000.0,1360698
196796351,Nashville,,1449986309000.0,36.06,-86.96,Dave Jaworski,TN,1449986309000.0,1360698
93820322,Nashville,,1423940924000.0,36.17,-86.78,David Bailey,TN,1423940924000.0,1360698
227518458,Fort Campbell,,1494697725000.0,36.65,-87.46,David Bullard,KY,1494697725000.0,1360698
223134731,Nashville,,1488638075000.0,36.17,-86.78,David Hamilton,TN,1491866990000.0,1360698
204111883,Hermitage,,1461757431000.0,36.19,-86.6,David Howard,TN,1461763680000.0,1360698
127975822,Nashville,,1389647748000.0,36.17,-86.78,DAVID JANKE,TN,1389647748000.0,1360698
41329812,Nashville,,1331668948000.0,36.17,-86.78,David Kiggins,TN,1332535825000.0,1360698
83393282,Nashville,"Louisville, KY",1362461175000.0,36.17,-86.72,David Krause,TN,1508352606000.0,1360698
95168392,Murfreesboro,,1369625736000.0,35.82,-86.45,David Lee,TN,1501587222000.0,1360698
188395245,Nashville,,1433806725000.0,36.15,-86.79,David Ma,TN,1461713662000.0,1360698
40534432,Nashville,Nashville,1443801433000.0,36.13,-86.8,David P,TN,1507057317000.0,1360698
183551403,Nashville,,1421164702000.0,36.17,-86.78,David Prater,TN,1431464368000.0,1360698
12873972,Nashville,,1283319437000.0,36.17,-86.78,David Savage,TN,1312823965000.0,1360698
4211111,Nashville,,1371583760000.0,36.17,-86.78,David Steele,TN,1394084891000.0,1360698
67070932,Nashville,,1350929254000.0,36.17,-86.78,David Stevenson,TN,1484065632000.0,1360698
96227102,Nashville,,1380890734000.0,36.17,-86.72,David Waldron,TN,1470690542000.0,1360698
213741632,Big Bear Lake,,1475177048000.0,34.24,-116.89,DaviddrUbsTD,CA,1475177048000.0,1360698
189605618,Nashville,Atlanta,1436289408000.0,36.21,-86.72,Davis D,TN,1436289408000.0,1360698
228533008,West Palm Beach,West Palm Beach,1499064807000.0,26.66,-80.26,Davy Yue,FL,1499064807000.0,1360698
121723022,Spring Hill,,1424238848000.0,35.75,-86.88,Dayne Wright,TN,1488863134000.0,1360698
4329327,Nashville,Nashville,1320424370000.0,36.17,-86.72,Dee,TN,1439428333000.0,1360698
53788772,Nashville,,1397570971000.0,36.06,-86.96,Dee Wilcox,TN,1502130487000.0,1360698
186627575,London,,1430098312000.0,51.52,-0.1,Deeessemm,17,1437584374000.0,1360698
208430646,Nashville,,1483506110000.0,36.14,-86.74,Delaine Wendling,TN,1483506110000.0,1360698
90011912,San Francisco,,1400022464000.0,37.77,-122.4,Deniz,CA,1413908779000.0,1360698
14416011,San Francisco,Chapel Hill,1433528967000.0,37.77,-122.44,Deniz Gultekin,CA,1433528967000.0,1360698
191143777,Nashville,,1439236121000.0,36.17,-86.78,Dennis Baker,TN,1442802918000.0,1360698
210614410,Hendersonville,,1471708437000.0,36.32,-86.61,Dennis McGhee,TN,1508774033000.0,1360698
8278875,Sparta,"Columbus, GA",1245091070000.0,43.16,-85.69,dennis monsewicz,MI,1340292806000.0,1360698
140672512,Clarksville,,1424141425000.0,36.56,-87.41,Derek,TN,1424141425000.0,1360698
21605291,London,,1343849247000.0,51.52,-0.1,Derick Rethans,17,1349706010000.0,1360698
11529922,Nashville,Saint Louis,1481516144000.0,36.17,-86.78,Desa,TN,1481516144000.0,1360698
189062978,Nashville,,1435937885000.0,36.17,-86.78,Destiny,TN,1435937885000.0,1360698
12268127,Oakland,Oakland,1275945006000.0,37.81,-122.29,DeVaris Brown,CA,1275945426000.0,1360698
176366962,Nashville,,1415661693000.0,36.17,-86.78,Devon Tuitt,TN,1415741681000.0,1360698
185200,Fairview,Nashville,1322963194000.0,35.97,-87.13,Devon Weller,TN,1378829040000.0,1360698
73042822,Nashville,Billings,1400617811000.0,36.17,-86.79,Devyn Cunningham,TN,1491922311000.0,1360698
200168433,Nashville,,1456081981000.0,36.07,-86.73,DFann,TN,1456081981000.0,1360698
237515782,Nashville,,1506482032000.0,36.07,-86.78,Dhara,TN,1506627663000.0,1360698
49075182,Nashville,,1406117020000.0,36.17,-86.78,Diane Sanders,TN,1408560729000.0,1360698
31322162,Nashville,,1416100693000.0,36.17,-86.78,Dick Pepper,TN,1487704538000.0,1360698
179060742,Cali,,1461774108000.0,3.42,-76.51,diego osorio,,1466519159000.0,1360698
9117987,Nashville,,1237088184000.0,36.17,-86.78,dimond,TN,1237223612000.0,1360698
14380900,Huntsville,,1325694431000.0,34.74,-86.62,Diondra Tuck,AL,1340248998000.0,1360698
215972966,Nolensville,,1478032043000.0,35.94,-86.67,DL74,TN,1484253279000.0,1360698
89513822,Nashville,,1366129482000.0,36.17,-86.78,Dominic Cianciolo,TN,1398094230000.0,1360698
206347820,Nashville,,1464904290000.0,36.11,-86.78,Don Bauer,TN,1501524429000.0,1360698
10077429,Clarksville,Clarksville,1248888776000.0,36.53,-87.35,Donald Page,TN,1258805858000.0,1360698
224970122,Washington,,1491259800000.0,38.91,-77.02,DonnafaumPHF,DC,1491259800000.0,1360698
2201276,Nashville,Indianapolis,1507491993000.0,36.1,-86.66,Doug,TN,1507491993000.0,1360698
39655352,Nashville,Kansas City,1331404900000.0,36.08,-86.72,Doug,TN,1331404900000.0,1360698
222153711,Nashville,,1496185775000.0,36.18,-86.74,Doug Altenbern,TN,1496185775000.0,1360698
7811835,Greenville,Colorado Springs,1508432662000.0,34.83,-82.34,Doug C,SC,1508432662000.0,1360698
191765518,Nashville,,1440445713000.0,36.13,-86.8,Drew,TN,1460412901000.0,1360698
12291036,Smyrna,,1351816640000.0,35.97,-86.51,Drew Butler,TN,1437560956000.0,1360698
22331221,Nashville,New York,1417724910000.0,36.22,-86.77,Drew D'Agostino,TN,1421204798000.0,1360698
89800802,Brentwood,Nashville,1504646191000.0,36.0,-86.79,Dudley Jacobs,TN,1504646191000.0,1360698
95625892,Nashville,,1369879465000.0,36.18,-86.74,Dustin Keith Weld,TN,1471548560000.0,1360698
161903072,Smyrna,,1496008583000.0,35.97,-86.51,Dustin Lee Walker,TN,1496008583000.0,1360698
13712761,Nashville,,1294427983000.0,36.17,-86.78,Dustin Pate,TN,1368115066000.0,1360698
47428112,Nashville,,1463961496000.0,36.17,-86.78,Dustin Potter,TN,1506524520000.0,1360698
214759042,Nashville,,1487016895000.0,36.16,-86.79,Dustin Walker,TN,1508806533000.0,1360698
235410265,Nashville,,1504289383000.0,36.08,-86.72,Dusty Carver,TN,1504289383000.0,1360698
198026946,Columbia,,1452650199000.0,35.61,-87.05,Dv Bull Tn,TN,1452650199000.0,1360698
192069992,Nashville,,1441036793000.0,36.17,-86.78,Dylan Underwood,TN,1441036793000.0,1360698
197612974,Murfreesboro,,1486170138000.0,35.87,-86.34,E. Willlams,TN,1507818312000.0,1360698
184778124,Franklin,,1495562387000.0,35.92,-86.89,Eamon Baghernejad,TN,1498065733000.0,1360698
198763296,Nashville,,1453991016000.0,36.17,-86.78,Earice Roberts,TN,1456845583000.0,1360698
4634755,Nashville,,1416917641000.0,36.13,-86.8,Ed Dodds,TN,1488808963000.0,1360698
7658930,Murfreesboro,,1501201599000.0,35.82,-86.47,Ed Pearson,TN,1505222989000.0,1360698
168261002,Nashville,,1444741293000.0,36.13,-86.8,Ed Schmidt,TN,1493901975000.0,1360698
191358441,Franklin,,1443459665000.0,35.92,-86.89,Eddie Irvin,TN,1453860373000.0,1360698
194642575,Cebu,,1445824090000.0,10.32,123.9,Edward,,1447110679000.0,1360698
211501851,Nashville,,1471928415000.0,36.06,-86.96,Edward,TN,1471928415000.0,1360698
185941640,Nashville,,1452481498000.0,36.17,-86.78,Edwin Acevedo,TN,1458241885000.0,1360698
184456948,Nashville,,1424011232000.0,36.06,-86.96,Ekanem Isong,TN,1424011232000.0,1360698
91550192,Murfreesboro,,1368570433000.0,35.87,-86.34,Eli Tamez,TN,1413840213000.0,1360698
9546629,Spring Hill,Spring Hill,1335885886000.0,35.76,-86.88,Eli Tapolcsanyi,TN,1408647127000.0,1360698
76671,Carthage,Cookeville,1259185536000.0,36.26,-85.99,elijah wright,TN,1449076579000.0,1360698
185612393,Mount Juliet,,1444790245000.0,36.21,-86.52,Elissa C,TN,1444790245000.0,1360698
261218,Cincinnati,,1320722634000.0,39.11,-84.5,Elizabeth Barron,OH,1489525092000.0,1360698
11801055,San Francisco,,1278981183000.0,37.77,-122.4,Emiliano Viada,CA,1492710194000.0,1360698
94498242,Nashville,"Kailua Kona, HI",1499293276000.0,36.16,-86.79,Emily ,TN,1507833533000.0,1360698
106171402,Nashville,,1376176628000.0,36.15,-86.79,Emily Mixon,TN,1376176628000.0,1360698
195329871,Nashville,,1452783479000.0,36.17,-86.78,Emma Beaton,TN,1484253347000.0,1360698
17769001,Nashville,,1495223969000.0,36.21,-86.72,Emma Everett,TN,1495547556000.0,1360698
49353562,Nashville,,1393217346000.0,36.15,-86.86,eric andre,TN,1466101924000.0,1360698
182167672,Nashville,,1419264988000.0,36.09,-86.82,Eric Braley,TN,1433294846000.0,1360698
199665292,Nashville,,1485383227000.0,36.21,-86.72,Eric Denton,TN,1488941278000.0,1360698
73020952,Nashville,,1355770026000.0,36.11,-86.86,Eric King,TN,1476366263000.0,1360698
53681172,Pleasanton,,1410233277000.0,37.66,-121.89,Eric Lipscomb,CA,1410302617000.0,1360698
36024292,Hermitage,San Antonio,1327248760000.0,36.19,-86.6,Eric Ramon,TN,1327268072000.0,1360698
194047958,Nashville,,1444741040000.0,36.17,-86.78,Eric Tarr,TN,1457728310000.0,1360698
28988302,Nashville,,1319575450000.0,36.17,-86.78,Eric Thelin,TN,1450384521000.0,1360698
50457012,Nashville,,1339073045000.0,36.17,-86.78,Erich Wilhelm,TN,1344968801000.0,1360698
210098836,Brentwood,,1469983835000.0,36.0,-86.79,Erik J. Olson,TN,1479137600000.0,1360698
203581099,Franklin,,1460995543000.0,35.92,-86.89,Erin,TN,1461612305000.0,1360698
213440339,Brentwood,,1474509039000.0,36.0,-86.79,erin ,TN,1474509039000.0,1360698
77148762,Nashville,Fort Lauderdale,1453080648000.0,36.17,-86.78,Erin Oxborrow,TN,1486490794000.0,1360698
184895977,Nashville,,1425923297000.0,36.17,-86.78,Ethan,TN,1432653982000.0,1360698
38468032,Nashville,,1329236907000.0,36.17,-86.78,ethan zuhl,TN,1345170101000.0,1360698
12720784,Nashville,,1281461093000.0,36.17,-86.78,Ev,TN,1380766286000.0,1360698
213051665,Lynwood,,1474034946000.0,33.93,-118.2,Eva,CA,1474034946000.0,1360698
75033972,Nashville,,1357487814000.0,36.17,-86.78,Evan,TN,1360201019000.0,1360698
13116777,Nashville,,1286147611000.0,36.13,-86.8,Evan Edwards,TN,1489031064000.0,1360698
21890481,Nashville,,1312478486000.0,36.17,-86.78,Evan Gower,TN,1335554935000.0,1360698
46679722,Nashville,,1339075993000.0,36.15,-86.86,Fernando Muñoz,TN,1358393255000.0,1360698
2351382,Franklin,"Belo Horizonte/MG, Brazil",1440427583000.0,35.92,-86.89,Fernando Paiva,TN,1454959194000.0,1360698
1202956,Evanston,Evanston,1272477246000.0,42.06,-87.7,Firas Wehbe,IL,1439239723000.0,1360698
104171062,Nashville,,1401020242000.0,36.11,-86.86,Francisco,TN,1449114670000.0,1360698
36527312,Nashville,,1327633352000.0,36.13,-86.8,Fred Bergman,TN,1328847704000.0,1360698
204671827,Nashville,Nashville,1503334085000.0,36.13,-86.8,Gabriel Rowe,TN,1505742514000.0,1360698
70216662,Nashville,,1378780654000.0,36.14,-86.74,Gabrielle Epstein,TN,1483112839000.0,1360698
4169858,Nashville,Nashville,1437091107000.0,36.17,-86.72,Gaines Kergosien,TN,1468385844000.0,1360698
184175146,Nashville,,1423100347000.0,36.08,-86.72,Garrett ,TN,1423100347000.0,1360698
208429247,Mount Pleasant,Nashville,1469403213000.0,32.82,-79.85,Garrett Vangilder,SC,1484325167000.0,1360698
93260272,Nashville,,1505322740000.0,36.17,-86.79,Garry Hornbuckle,TN,1505322740000.0,1360698
202927440,Nashville,,1460062634000.0,36.15,-86.86,Gavin Schriver,TN,1470151244000.0,1360698
10487340,Haymarket,,1395698701000.0,38.87,-77.66,Geoff Laycock,VA,1423877735000.0,1360698
1746239,Nashville,,1264736637000.0,36.17,-86.78,George Cooksey,TN,1478221553000.0,1360698
99954342,Memphis,,1470777307000.0,35.14,-90.03,George Spake,TN,1496195450000.0,1360698
144295882,Nashville,,1398781134000.0,36.17,-86.78,Georgia,TN,1398794101000.0,1360698
130734172,Goodlettsville,,1449091916000.0,36.33,-86.74,Gibbscars Gibbscars,TN,1449091916000.0,1360698
203245339,Antioch,,1460506473000.0,36.04,-86.64,Glenn Dixon,TN,1460506473000.0,1360698
11461535,Brentwood,"Nashville, TN",1493651045000.0,36.0,-86.79,Grant Copley,TN,1493737220000.0,1360698
163398972,Nashville,,1415480277000.0,36.08,-86.72,Grant Copley,TN,1493748362000.0,1360698
220723714,Nashville,,1485396807000.0,36.17,-86.78,Greg,TN,1493115689000.0,1360698
109761522,Linden,,1378315097000.0,35.6,-87.85,Greg,TN,1433983087000.0,1360698
3505281,Murfreesboro,,1349888827000.0,35.78,-86.33,Greg Adkins,TN,1349888827000.0,1360698
71587482,Clarksville,,1408081453000.0,36.57,-87.39,Greg Johnson,TN,1408081453000.0,1360698
186434292,Nashville,,1457388812000.0,36.18,-86.74,Greg Overman,TN,1457388812000.0,1360698
3686273,Lebanon,Lebanon,1336404548000.0,36.15,-86.32,gregory,TN,1484254066000.0,1360698
33740662,Franklin,,1325270387000.0,35.93,-86.81,Gregory Nowicki,TN,1325718951000.0,1360698
170557622,Nashville,"New York, NY",1501217448000.0,36.14,-86.83,Guy Griscom,TN,1506986478000.0,1360698
212569310,Nashville,,1476200700000.0,36.21,-86.72,Hannah Hall,TN,1493069753000.0,1360698
11111918,Nashville,,1263033003000.0,36.17,-86.78,harikrishna,TN,1263033003000.0,1360698
189740151,Knoxville,Knoxville,1494956521000.0,35.86,-84.13,Harry McKinney,TN,1496322681000.0,1360698
191344924,Hermitage,,1439632167000.0,36.19,-86.6,Hassan,TN,1444694368000.0,1360698
205462652,Hendersonville,,1463666249000.0,36.32,-86.61,heath taylor,TN,1463666249000.0,1360698
138155742,Brentwood,,1398161933000.0,36.0,-86.79,Heather,TN,1444674435000.0,1360698
52330002,Nashville,,1340495583000.0,36.17,-86.78,Heena,TN,1340495583000.0,1360698
4428573,Franklin,,1369013371000.0,35.93,-86.81,HenryVI,TN,1493931098000.0,1360698
183538986,Nashville,,1421115744000.0,36.17,-86.78,Hillary,TN,1462807193000.0,1360698
94265632,Williamsport,San Francisco Bay Area,1451026594000.0,41.27,-77.04,Holly Ward,PA,1454566051000.0,1360698
191374437,Franklin,,1439695846000.0,35.92,-86.89,Holt,TN,1451868734000.0,1360698
199382699,Lithia Springs,,1454965514000.0,33.77,-84.64,Hugo N,GA,1454965514000.0,1360698
13583140,Nashville,,1372885320000.0,36.16,-86.79,Hung,TN,1373475763000.0,1360698
100316012,Nashville,,1374067887000.0,36.17,-86.78,Hung Le,TN,1406749812000.0,1360698
10887958,Nashville,,1258837758000.0,36.17,-86.78,Hunter Heitzman,TN,1425484609000.0,1360698
226442309,Grand Rapids,,1493225278000.0,43.0,-85.74,Hunter Mitchem,MI,1493225278000.0,1360698
200842069,Nashville,,1457029127000.0,36.17,-86.78,Ian Noyes,TN,1507048842000.0,1360698
168579262,Nashville,,1473875281000.0,36.11,-86.86,Isaac  Van Name,TN,1505230680000.0,1360698
206542079,Nashville,,1487048413000.0,36.17,-86.78,Isaac Weber,TN,1487112259000.0,1360698
227712695,Cairo,,1497400295000.0,30.06,31.25,Islam Bahget,,1497400295000.0,1360698
12479368,Nashville,"Nashville, TN",1329250995000.0,36.15,-86.86,Ivan,TN,1491924950000.0,1360698
1797884,Nashville,,1498598564000.0,36.07,-86.78,J.J.,TN,1507563083000.0,1360698
174572382,Hermitage,"Apple Valley, CA",1431913350000.0,36.19,-86.6,jaake,TN,1431913350000.0,1360698
200991245,Nashville,,1457245822000.0,36.08,-86.72,Jack,TN,1495152304000.0,1360698
198793707,Nashville,,1463415543000.0,36.08,-86.72,Jack Mocherman,TN,1494939215000.0,1360698
3943735,Hendersonville,,1345039452000.0,36.32,-86.61,Jack Williams,TN,1435001863000.0,1360698
184162005,Nashville,,1423067703000.0,36.09,-86.82,Jackson,TN,1471957030000.0,1360698
91833452,Nashville,,1464188929000.0,36.18,-86.74,Jacob Margason,TN,1465254875000.0,1360698
198048244,Nashville,,1455039996000.0,36.17,-86.72,Jacob Paine,TN,1476140886000.0,1360698
103886472,Nashville,,1374802050000.0,36.17,-86.78,Jacob Stroop,TN,1374802050000.0,1360698
21990171,Nashville,,1312566979000.0,36.17,-86.78,Jacques,TN,1501084215000.0,1360698
16487121,Nashville,,1306939092000.0,36.17,-86.78,Jake,TN,1433178024000.0,1360698
188124377,Smyrna,,1433256187000.0,35.97,-86.51,Jake McNabb,TN,1494877809000.0,1360698
69450032,Nashville,,1352786504000.0,36.17,-86.78,James,TN,1403665296000.0,1360698
188684958,Nashville,,1468327621000.0,36.17,-86.78,James Alexander Louk Nieves,TN,1468327621000.0,1360698
10853556,Anaheim,Anaheim,1258178421000.0,33.82,-117.97,James Avakian,CA,1476290672000.0,1360698
202028316,New York,,1459975752000.0,40.75,-73.99,James Briggs,NY,1460943302000.0,1360698
7712083,Nashville,,1470865715000.0,36.17,-86.78,James Fryman,TN,1470865715000.0,1360698
12169060,Memphis,,1314047098000.0,35.13,-90.0,James Kachel,TN,1314047098000.0,1360698
204700330,Nashville,,1464649304000.0,36.17,-86.78,James Lauderdale Jr,TN,1465216239000.0,1360698
145544732,Nashville,,1399478420000.0,36.14,-86.81,James Leslie Miller,TN,1496175544000.0,1360698
31856472,Nashville,,1322699717000.0,36.17,-86.78,James Polite,TN,1322699717000.0,1360698
2606806,Nashville,,1237926650000.0,36.19,-86.8,James Porter,TN,1508377219000.0,1360698
200963976,Murfreesboro,,1457210470000.0,35.78,-86.33,JAMES RAY DAVENPORT JR,TN,1457210470000.0,1360698
48064632,Louisville,Louisville,1347220867000.0,38.26,-85.61,James W. McCord,KY,1373670028000.0,1360698
186470636,Clarksville,,1429748083000.0,36.53,-87.35,Jamie-Nikki Nichols-McIlroy,TN,1430280207000.0,1360698
10417353,Nashville,,1254332658000.0,36.15,-86.86,Jammond,TN,1254619275000.0,1360698
222899804,Nashville,,1488303320000.0,36.17,-86.78,Jaquelin,TN,1488303320000.0,1360698
201500336,Nolensville,,1502124945000.0,35.94,-86.67,Jared Burke,TN,1502124945000.0,1360698
10743353,Nashville,,1425333205000.0,36.11,-86.86,Jared DeValk,TN,1426030177000.0,1360698
217464856,Nashville,,1496176021000.0,36.17,-86.78,Jared Fuller,TN,1502221043000.0,1360698
13809483,Hermitage,Mount Juliet,1336402684000.0,36.19,-86.6,Jared Miller,TN,1452629079000.0,1360698
45569562,Nashville,,1335179186000.0,36.17,-86.78,Jarvis Stubblefield,TN,1506963744000.0,1360698
14116864,Nashville,Nashville,1501796303000.0,36.15,-86.86,Jasmine Quach,TN,1501796303000.0,1360698
13455121,Birmingham,Linden,1290476090000.0,33.46,-86.81,Jason,AL,1495493750000.0,1360698
59879602,Nashville,,1383700770000.0,36.17,-86.78,Jason Christensen,TN,1383840405000.0,1360698
144941952,Nashville,,1402793887000.0,36.13,-86.8,Jason Duncan,TN,1423079841000.0,1360698
207198134,Nashville,,1490892993000.0,36.11,-86.78,Jason Gresalfi,TN,1494886698000.0,1360698
91651862,Nashville,,1367429682000.0,36.17,-86.78,Jason Lankford,TN,1392069287000.0,1360698
7005335,Cookeville,"San Clemente, CA",1282781851000.0,36.2,-85.52,Jason Marble,TN,1312560618000.0,1360698
52195632,Goodlettsville,,1348419871000.0,36.33,-86.74,Jason Orendorff,TN,1462011743000.0,1360698
206340673,Murfreesboro,,1464896096000.0,35.87,-86.44,Jason R. Thompson,TN,1464896096000.0,1360698
9698215,Murfreesboro,"Murfreesboro, TN",1483480662000.0,35.82,-86.45,Jason Stiltner,TN,1487093607000.0,1360698
8952959,Nashville,,1235426235000.0,36.17,-86.78,Jason Tan,TN,1476125138000.0,1360698
4611657,Nashville,Nashville,1444675218000.0,36.11,-86.86,Jason Weakley,TN,1507825720000.0,1360698
118746612,Nashville,,1383685758000.0,36.17,-86.78,Jason West,TN,1484254953000.0,1360698
45637572,Nashville,,1335269104000.0,36.17,-86.78,Jay Cranson,TN,1335450912000.0,1360698
115662482,Nashville,Nashville,1416845265000.0,36.1,-86.66,Jay Maul,TN,1453046246000.0,1360698
193017063,Nashville,,1442801672000.0,36.18,-86.81,Jay Parikh,TN,1442801672000.0,1360698
191592131,Pulaski,,1440120019000.0,35.19,-87.03,Jay Raney,TN,1448383656000.0,1360698
226517962,Cookeville,,1502289031000.0,36.2,-85.52,Jay Watson,TN,1506137463000.0,1360698
186071024,Mount Juliet,,1428779577000.0,36.21,-86.52,JD Wheeler,TN,1428779577000.0,1360698
50331452,Nashville,,1338982713000.0,36.17,-86.78,Jeff Binkley,TN,1341848440000.0,1360698
217424606,Hermitage,,1480388643000.0,36.19,-86.6,Jeff Bjorklund (swedishjeff),TN,1480388643000.0,1360698
10750729,Franklin,Franklin,1405954817000.0,35.99,-86.9,Jeff Black,TN,1507574791000.0,1360698
53191892,Franklin,,1372868266000.0,35.92,-86.89,Jeff Finley,TN,1473715452000.0,1360698
76647672,Gallatin,,1358431061000.0,36.39,-86.45,Jeff Garis,TN,1448310189000.0,1360698
3731320,Murfreesboro,,1408055215000.0,35.87,-86.44,Jeff Gibson,TN,1505154895000.0,1360698
12202811,Goodlettsville,Goodlettsville,1296621981000.0,36.33,-86.74,Jeff Lee,TN,1469813619000.0,1360698
10385355,Nashville,,1452289944000.0,36.09,-86.82,Jeff Lofvers,TN,1505636958000.0,1360698
225107955,Nashville,,1491404630000.0,36.17,-86.78,Jeff Oliver,TN,1492010322000.0,1360698
13527440,Nashville,,1291576228000.0,36.15,-86.86,Jeff Recker,TN,1318339041000.0,1360698
188085355,Nashville,,1433180602000.0,36.13,-86.8,Jeff Siebach,TN,1450888690000.0,1360698
14056683,Franklin,,1298051846000.0,35.93,-86.81,Jeff Wolfe,TN,1501694787000.0,1360698
94108912,Nashville,,1368984636000.0,36.17,-86.78,jemeen shrestha,TN,1368984636000.0,1360698
228197030,Nashville,,1495555686000.0,36.17,-86.78,Jen Foltz,TN,1495555686000.0,1360698
100317162,Austin,Austin,1389369143000.0,30.24,-97.76,Jenna Kay Boucher,TX,1420579788000.0,1360698
8273538,Nashville,Nashville,1336243263000.0,36.11,-86.86,Jennifer ,TN,1491863207000.0,1360698
34833342,Altamonte Springs,"Nashville, TN",1456804509000.0,28.66,-81.37,Jennifer Christian,FL,1468274900000.0,1360698
163380592,Hermitage,Troy,1464186767000.0,36.19,-86.6,Jennifer Lynn,TN,1464186767000.0,1360698
109792982,Brentwood,,1378327578000.0,36.0,-86.79,Jenny Jacobs,TN,1389121151000.0,1360698
57609912,Reading,UK,1508350501000.0,51.45,-0.96,Jenny Wong,03,1508436289000.0,1360698
209114794,Nashville,,1468642492000.0,36.06,-86.96,Jennybutterfly0520,TN,1468642492000.0,1360698
192867227,Nashville,,1442868696000.0,36.17,-86.78,Jerad Clifford,TN,1442868696000.0,1360698
213239717,Columbia,,1474260466000.0,35.61,-87.05,Jeremie Modine,TN,1474260466000.0,1360698
12307860,Nashville,Chicago,1501693953000.0,36.15,-86.79,Jeremy,TN,1507670890000.0,1360698
185632124,Nashville,,1427567686000.0,36.15,-86.86,Jeremy Alexander Claytore,TN,1427567686000.0,1360698
197627926,Nashville,,1451933994000.0,36.11,-86.86,Jeremy C. Swain,TN,1451933994000.0,1360698
215906368,Old Hickory,,1484754386000.0,36.25,-86.63,Jeremy H,TN,1485667792000.0,1360698
7714887,Memphis,Memphis,1274663982000.0,35.12,-89.9,Jeremy Kendall,TN,1417663209000.0,1360698
14486634,Nashville,"San Diego, CA",1467221711000.0,36.17,-86.78,Jeremy Landi,TN,1467921509000.0,1360698
198079256,Murfreesboro,"Huntsville, AL",1452747800000.0,35.87,-86.34,Jeremy R. Wenger,TN,1484258327000.0,1360698
8338368,Saint Louis,,1420571976000.0,38.58,-90.26,Jeremy Seago,MO,1420571976000.0,1360698
53024852,Saint Paul,St. Paul,1508351658000.0,44.96,-93.16,Jeremy Ward,MN,1508809231000.0,1360698
13744260,Indianapolis,Indianapolis,1294767472000.0,39.83,-86.13,Jermaine Fields,IN,1294767472000.0,1360698
80388742,Nashville,,1449070507000.0,36.17,-86.78,Jerry Baker,TN,1495550536000.0,1360698
226749171,Nashville,,1493651873000.0,36.17,-86.78,Jerry Heath,TN,1493651873000.0,1360698
186040094,Nashville,,1455041353000.0,36.19,-86.8,Jessawynne,TN,1458532629000.0,1360698
38030082,Franklin,,1431721098000.0,35.92,-86.89,Jesse,TN,1431721098000.0,1360698
206845121,Nashville,,1465566329000.0,36.17,-86.78,Jessica,TN,1507564135000.0,1360698
204123170,Franklin,,1461774076000.0,35.99,-86.9,Jessica,TN,1466217658000.0,1360698
115752292,Nashville,,1426011465000.0,36.14,-86.74,Jessica H. ,TN,1426080996000.0,1360698
94250692,Spring Hill,"Virginia Beach, VA",1369065895000.0,35.76,-86.88,Jim Ekleberry,TN,1460642204000.0,1360698
32214442,Hendersonville,Hendersonville,1323137242000.0,36.32,-86.61,Jim Fuqua,TN,1501018734000.0,1360698
8703636,Spring Hill,Spring Hill,1232380938000.0,35.76,-86.88,Jim Nimblett,TN,1392238256000.0,1360698
192375231,Nashville,,1441619850000.0,36.08,-86.72,Jimmy,TN,1441619850000.0,1360698
191377006,Franklin,Hometown USA,1439696459000.0,35.92,-86.89,Jimmy Junior,TN,1454554816000.0,1360698
43760222,Nashville,,1333752172000.0,36.17,-86.78,Jiten Dajee,TN,1384283841000.0,1360698
142639732,Lebanon,,1398263364000.0,36.15,-86.32,jj,TN,1409332305000.0,1360698
103022292,Nashville,,1374291289000.0,36.17,-86.78,JJ Rosen,TN,1506629092000.0,1360698
158793082,Madison,,1468359090000.0,36.26,-86.71,JoAnn Brooks,TN,1483585864000.0,1360698
74613552,Nashville,,1357225808000.0,36.17,-86.78,Joe Bowman,TN,1357712279000.0,1360698
85337692,Nashville,,1363620438000.0,36.13,-86.8,Joe Bowman,TN,1369854574000.0,1360698
45107182,Nashville,,1334783586000.0,36.17,-86.78,Joe Cooper Wallace III,TN,1492009865000.0,1360698
142560102,Nashville,,1397772383000.0,36.17,-86.78,Joe Cox,TN,1398371739000.0,1360698
12418677,Memphis,,1470324113000.0,35.13,-90.0,Joe Ferguson,TN,1498592099000.0,1360698
8362127,Nashville,,1397525558000.0,36.13,-86.8,Joe Hills,TN,1507671395000.0,1360698
141329312,Nashville,,1397577616000.0,36.17,-86.78,Joe Kirkpatrick,TN,1399256260000.0,1360698
14241608,Hendersonville,"Cashton, WI",1341252145000.0,36.32,-86.61,Joe Phillips,TN,1362663304000.0,1360698
198006132,Nashville,,1452618129000.0,36.21,-86.72,Joe Stewart,TN,1500571202000.0,1360698
88416822,Nashville,,1383602802000.0,36.18,-86.74,Joel Kronk,TN,1383602802000.0,1360698
2180758,Murfreesboro,Murfreesboro,1278519542000.0,35.87,-86.44,Joey,TN,1425932195000.0,1360698
57991062,Nashville,Nashville,1435269877000.0,36.18,-86.74,Joey LeGrand,TN,1464805535000.0,1360698
193368891,Murfreesboro,"Murfreesboro, TN ",1464227030000.0,35.78,-86.33,Joey Turner,TN,1487816412000.0,1360698
114279782,Nashville,Doylestown,1463531252000.0,36.16,-86.79,John,TN,1484139391000.0,1360698
8142077,Gallatin,,1237593140000.0,36.39,-86.45,John,TN,1237593140000.0,1360698
44321822,Nashville,,1341453385000.0,36.14,-86.74,John Boyle,TN,1377142848000.0,1360698
89971532,Nashville,,1366388935000.0,36.17,-86.78,John Calef,TN,1367287088000.0,1360698
9381884,Nashville,,1427914930000.0,36.07,-86.73,John Clark,TN,1507675372000.0,1360698
76743532,Bangor,,1417664033000.0,44.81,-68.78,John Harris,ME,1417664033000.0,1360698
13378356,Nashville,Nashville,1359327878000.0,36.15,-86.86,John Hieks Paul IV,TN,1499693320000.0,1360698
4983053,Murfreesboro,"Murfreesboro, TN",1402356601000.0,35.87,-86.44,John Ingram,TN,1429207856000.0,1360698
113933872,Madison,,1392397157000.0,43.03,-89.44,John LaBelle,WI,1392397157000.0,1360698
12443700,Murfreesboro,,1293816627000.0,35.87,-86.34,John Patrone,TN,1325996231000.0,1360698
7682037,Franklin,Franklin,1312767751000.0,35.93,-86.81,John Pisciotta,TN,1484256543000.0,1360698
63587632,Hendersonville,"Valley Forge, Pa",1448516398000.0,36.32,-86.61,John Poteat,TN,1448516398000.0,1360698
196079571,Nashville,,1448517763000.0,36.17,-86.78,John Poteat,TN,1448648659000.0,1360698
182578041,Nashville,Oak Ridge,1428415465000.0,36.1,-86.66,John Quarles,TN,1448902043000.0,1360698
9540693,Nashville,,1242127687000.0,36.08,-86.72,John Self,TN,1447113927000.0,1360698
10548453,Nashville,,1254521756000.0,36.17,-86.78,John Wallace,TN,1396485302000.0,1360698
23956502,Nashville,,1331130560000.0,36.17,-86.78,John Wark,TN,1396658500000.0,1360698
224376384,Nashville,,1490375604000.0,36.17,-86.78,Johnie Waddell,TN,1495554473000.0,1360698
12539405,Memphis,,1279285228000.0,35.13,-90.0,Johnnie Fox,TN,1310694769000.0,1360698
99343832,Nashville,,1372097709000.0,36.17,-86.78,Jon Mason,TN,1453465345000.0,1360698
140991202,Nashville,,1396887372000.0,36.17,-86.78,Jon McEwen,TN,1421962189000.0,1360698
79762332,Nashville,,1373503237000.0,36.18,-86.74,Jon Peck,TN,1502278773000.0,1360698
9938431,Brentwood,,1247328920000.0,36.0,-86.79,Jon Walker,TN,1462918147000.0,1360698
223987872,Nashville,,1489846355000.0,36.18,-86.74,Jon Walker,TN,1495553992000.0,1360698
115487312,Nashville,,1381715862000.0,36.08,-86.72,Jonathan,TN,1385074435000.0,1360698
198637939,Smyrna,,1453783520000.0,35.97,-86.51,Jonathan Burton,TN,1506385968000.0,1360698
6633912,Nashville,,1334771995000.0,36.17,-86.78,Jonathan H. Wage,TN,1507656091000.0,1360698
10495326,Nashville,,1253858012000.0,36.17,-86.78,Jonathan Kelly,TN,1363023755000.0,1360698
122635962,Gallatin,,1386255220000.0,36.39,-86.46,Jonathan Paul Harrington,TN,1507775846000.0,1360698
186652002,Nashville,,1435252354000.0,36.16,-86.79,Jonathan Richardson,TN,1449107231000.0,1360698
9411922,Hendersonville,,1240434777000.0,36.32,-86.61,Jonathan Zumbrun,TN,1490881646000.0,1360698
12923201,Nashville,,1283971416000.0,36.17,-86.78,Jonathon Suggs,TN,1506436369000.0,1360698
22523691,Nashville,,1313099196000.0,36.17,-86.78,Jordan,TN,1328734620000.0,1360698
34757732,Nashville,Nashville,1326170087000.0,36.11,-86.78,Jordan Davis,TN,1326413632000.0,1360698
183612925,Hendersonville,,1421362541000.0,36.32,-86.61,Jordan S.,TN,1421362541000.0,1360698
149777972,Franklin,Nashville,1455317976000.0,35.92,-86.89,Jose Octavio,TN,1455317976000.0,1360698
186924291,Nashville,,1430762782000.0,36.06,-86.96,Joseph Jarin,TN,1430762782000.0,1360698
28450072,Clarksville,,1319045120000.0,36.56,-87.41,Joseph McMurry,TN,1472564421000.0,1360698
202792346,Nashville,,1459871903000.0,36.11,-86.78,Joseph Stevens,TN,1459871903000.0,1360698
31336912,Nashville,,1321997457000.0,36.17,-86.78,Joseph W Stevens Jr.,TN,1389496220000.0,1360698
71854632,Franklin,,1421598154000.0,35.92,-86.89,Joseph Wichman,TN,1488395758000.0,1360698
14010600,Nashville,"Palo Alto, CA",1466028284000.0,36.11,-86.78,Josh,TN,1466028284000.0,1360698
99794932,Smyrna,,1413865746000.0,35.97,-86.51,Josh,TN,1484772894000.0,1360698
199098137,Nashville,,1454511127000.0,36.17,-86.72,Josh,TN,1458236695000.0,1360698
83774622,Nashville,,1362671266000.0,36.17,-86.78,Josh Jenkins,TN,1371843609000.0,1360698
197424987,Antioch,Antioch,1455047990000.0,36.04,-86.64,Josh Kilgore,TN,1455047990000.0,1360698
10528028,Nashville,,1360709541000.0,36.08,-86.72,Josh Lloyd,TN,1506466227000.0,1360698
64144442,Nashville,,1380731553000.0,36.17,-86.78,Josh Reeder,TN,1380731553000.0,1360698
13376073,Brentwood,,1289836656000.0,36.0,-86.79,Joshua,TN,1454972382000.0,1360698
4735211,Nashville,Nashville,1265580219000.0,36.15,-86.86,Joshua Aronson,TN,1425514721000.0,1360698
217409782,Brentwood,,1485271481000.0,36.0,-86.79,Joshua Atkins,TN,1485276362000.0,1360698
168700142,Nashville,,1410206184000.0,36.17,-86.78,Joshua Lomelino,TN,1410211733000.0,1360698
185092076,Nashville,,1425905449000.0,36.06,-86.96,Joshua Milford,TN,1467766590000.0,1360698
43759402,Nashville,,1333660534000.0,36.17,-86.72,Joshua Morse,TN,1448982145000.0,1360698
227037777,La Vergne,,1494034900000.0,36.01,-86.57,Joshua Turtle,TN,1494034900000.0,1360698
184992765,Franklin,,1480723860000.0,35.91,-86.84,joshwhatk,TN,1482418225000.0,1360698
7606161,Chattanooga,Bellingham,1414598285000.0,35.04,-85.31,Josiah Goff,TN,1456149205000.0,1360698
121609262,Brentwood,,1407709019000.0,36.0,-86.79,Joumana,TN,1407709019000.0,1360698
210272574,Nashville,,1494534109000.0,36.17,-86.78,Joy Mitchell,TN,1494534109000.0,1360698
127969562,Memphis,,1389644038000.0,35.04,-90.01,Juacall Bernard,TN,1389644038000.0,1360698
23540031,Mount Juliet,,1487007719000.0,36.22,-86.52,Juan Fernando Salazar,TN,1498182605000.0,1360698
157248622,Nashville,,1447187630000.0,36.16,-86.79,Juan Job,TN,1454361161000.0,1360698
217872107,Nashville,"Franklin, TN",1496334040000.0,36.17,-86.78,Julia Allen,TN,1496334040000.0,1360698
196898553,Nashville,,1450214464000.0,36.11,-86.86,Julia Brinkmann,TN,1454686255000.0,1360698
43078992,Nashville,,1333071940000.0,36.18,-86.81,Julian Hinson,TN,1333071940000.0,1360698
11826633,Nashville,,1380604418000.0,36.21,-86.72,Julie L,TN,1477929305000.0,1360698
221934301,Nashville,,1501770570000.0,36.11,-86.86,Juliet Sepulveda,TN,1501770570000.0,1360698
59157082,Nashville,,1345466076000.0,36.17,-86.78,Justin,TN,1367267737000.0,1360698
184528547,Alsip,,1424220574000.0,41.67,-87.74,Justin Cox,IL,1424220574000.0,1360698
185133957,Nashville,,1426017643000.0,36.17,-86.78,Justin Hamlett,TN,1491934182000.0,1360698
135113782,Franklin,,1496953572000.0,35.92,-86.89,Justin Hoover,TN,1507438601000.0,1360698
177418312,Hermitage,,1413215940000.0,36.19,-86.6,Justin M,TN,1506461613000.0,1360698
150950602,Nashville,,1402438578000.0,36.17,-86.78,Justin Stevens,TN,1438811345000.0,1360698
206668369,Nashville,,1465332091000.0,36.17,-86.78,Justin Young,TN,1465332091000.0,1360698
10829115,Nashville,,1277211209000.0,36.17,-86.79,Kailey  Hussey,TN,1368324959000.0,1360698
178783132,Brentwood,brentwood,1414102274000.0,36.0,-86.79,KAMAsutra,TN,1414102274000.0,1360698
197183245,Nashville,"Columbia, TN",1450921911000.0,36.17,-86.78,Kanesha Patterson,TN,1450921911000.0,1360698
184894632,Nashville,,1425326639000.0,36.17,-86.78,Kar Martirosyan,TN,1501043104000.0,1360698
191106824,Nashville,,1486584974000.0,36.17,-86.78,Kara Fulgum,TN,1499264411000.0,1360698
4304748,Bowling Green,,1426780386000.0,37.02,-86.46,Karla,KY,1426780386000.0,1360698
114892552,Nashville,,1405548938000.0,36.17,-86.78,Katie Miller,TN,1438886606000.0,1360698
197628314,Nashville,,1451929764000.0,36.08,-86.72,Kaylee Cummings,TN,1462482255000.0,1360698
185899186,Nashville,,1428338181000.0,36.17,-86.72,Keith Fitzpatrick,TN,1428338181000.0,1360698
13822174,Nashville,,1308773095000.0,36.18,-86.74,keith johnson,TN,1394575268000.0,1360698
197616731,Brentwood,,1457449709000.0,36.0,-86.79,Keith Smith,TN,1457449709000.0,1360698
63644162,Nashville,"Lexington, KY",1352413915000.0,36.17,-86.79,Kelley Boothe,TN,1352830989000.0,1360698
193863309,Nashville,,1444400893000.0,36.17,-86.72,Kelly C,TN,1473430240000.0,1360698
216673978,Brentwood,Franklin,1480551028000.0,36.0,-86.79,Kelly Parsons,TN,1488913887000.0,1360698
153290032,Raleigh,,1413811137000.0,35.9,-78.71,Kelsey Rogers,NC,1413819395000.0,1360698
12167287,Franklin,,1470755637000.0,35.92,-86.89,Ken Ott,TN,1471557590000.0,1360698
218748296,Nashville,,1482851754000.0,36.17,-86.78,Kenneth Jolley,TN,1482851754000.0,1360698
12948868,Tel Aviv-Yafo,,1423883929000.0,32.07,34.77,Kenneth Thomas,,1443210829000.0,1360698
12522497,Nashville,,1279034520000.0,36.17,-86.78,Kenneth White,TN,1508776640000.0,1360698
30227062,Nashville,Nashville,1463230094000.0,36.15,-86.86,Kenny Skaggs,TN,1463858030000.0,1360698
194059590,Nashville,,1444759456000.0,36.17,-86.78,Kerri Gustin,TN,1452551630000.0,1360698
625050,Franklin,Chattanooga,1343653464000.0,35.93,-86.81,Kerry Wilson,TN,1469113469000.0,1360698
82968792,Franklin,Franklin,1362232419000.0,35.92,-86.89,Kevin Crawley,TN,1496068635000.0,1360698
13368161,Franklin,"Kenmare, ND",1419694067000.0,35.92,-86.89,Kevin Gustavson,TN,1478107294000.0,1360698
31974602,Nashville,,1402324858000.0,36.16,-86.79,Kevin Smith,TN,1489434518000.0,1360698
9741597,Nashville,,1249051223000.0,36.13,-86.8,Kevin Webb,TN,1286997165000.0,1360698
11421826,Franklin,Franklin,1443479809000.0,35.93,-86.81,kevin.reiss,TN,1455837141000.0,1360698
39459562,Charlotte,,1352774338000.0,35.19,-80.83,Khristian Gutierrez,NC,1358200748000.0,1360698
7547925,Nashville,,1288224743000.0,36.17,-86.78,Kim,TN,1288224743000.0,1360698
199056574,Nashville,,1454444095000.0,36.17,-86.78,Kim,TN,1454444095000.0,1360698
11622112,Nashville,,1275078076000.0,36.18,-86.74,kim day,TN,1484271918000.0,1360698
199396025,Nashville,Nashville,1467555549000.0,36.08,-86.72,Kinman Covey,TN,1505140208000.0,1360698
49863072,Hermitage,,1490140060000.0,36.19,-86.6,kiran,TN,1490140060000.0,1360698
205535019,Antioch,"Nashville, TN",1463885855000.0,36.17,-86.88,Kirolos Shahat,TN,1465528745000.0,1360698
157627122,Nashville,,1443449836000.0,36.17,-86.78,KJ,TN,1444831499000.0,1360698
225609681,Nashville,,1492106934000.0,36.18,-86.74,Krashnaegoivic Prensky,TN,1492106934000.0,1360698
196924920,Nashville,,1450277649000.0,36.17,-86.78,Kris Graffagnino,TN,1450277649000.0,1360698
182662859,Murfreesboro,,1418773463000.0,35.87,-86.34,Kristen Brown,TN,1418773463000.0,1360698
150259292,Raleigh,,1413811888000.0,35.9,-78.71,Kristen Douglas (Wall),NC,1413811888000.0,1360698
191270769,Nashville,,1439481452000.0,36.18,-86.74,Kristin,TN,1440533726000.0,1360698
11028407,Nashville,,1464805397000.0,36.18,-86.74,Kristin McKinney,TN,1505309915000.0,1360698
183375359,Nashville,,1420579793000.0,36.17,-86.78,Kristyn Edwards,TN,1424455284000.0,1360698
183367514,Nashville,,1420561066000.0,36.17,-86.78,Kristyn Edwards,TN,1420579653000.0,1360698
116172212,Nashville,,1383097213000.0,36.13,-86.8,Kurt Aschliman,TN,1476116120000.0,1360698
105601402,Nashville,Nashville,1382449395000.0,36.11,-86.86,Kyle Mallory,TN,1487614308000.0,1360698
196565838,Bowling Green,,1449518923000.0,36.96,-86.37,Kyle Newton,KY,1449518923000.0,1360698
34223132,Nashville,,1325719606000.0,36.17,-86.72,Kyle White,TN,1410359614000.0,1360698
143696682,Antioch,,1407960087000.0,36.04,-86.64,Laniqua Williams,TN,1436227667000.0,1360698
13995971,Sparta,"Shorewood, IL",1501007244000.0,35.93,-85.47,Larry E. Masters,TN,1506610889000.0,1360698
47195692,Nashville,,1336470072000.0,36.17,-86.78,Larry Mainer,TN,1339066363000.0,1360698
8522499,New Orleans,,1254248973000.0,29.97,-90.07,Laura Alexander,LA,1276091192000.0,1360698
80261822,Nashville,,1360620971000.0,36.17,-86.78,Laura Meyerhoff,TN,1370481184000.0,1360698
3731762,Nashville,,1360118154000.0,36.1,-86.66,Lauren,TN,1507767128000.0,1360698
1185150,New York,nyc,1269964978000.0,40.79,-73.98,Laurie Kalmanson,NY,1456344617000.0,1360698
198829800,Brentwood,,1454096357000.0,36.0,-86.79,Laurie Snively,TN,1454099958000.0,1360698
44899712,Nashville,,1379956224000.0,36.07,-86.73,Leah Stevens,TN,1392142475000.0,1360698
6434457,Nashville,West Coast,1452981186000.0,36.06,-86.96,Leland Warren,TN,1458234986000.0,1360698
136015092,Nashville,"Moundville, Alabama",1394114666000.0,36.16,-86.79,Lena Mills,TN,1497465357000.0,1360698
101443692,Nashville,"Ebenezer, Mississippi",1417190912000.0,36.11,-86.86,Leo Paul,TN,1493138537000.0,1360698
5532807,Nashville,Nashville,1384295233000.0,36.1,-86.66,Levi Self,TN,1384295233000.0,1360698
79532522,Seattle,"Nashville, TN",1361553536000.0,47.76,-122.29,Lewis Lea,WA,1471467579000.0,1360698
199277854,Nashville,,1454798103000.0,36.14,-86.74,Liam Bonnie,TN,1454798103000.0,1360698
197597418,Nashville,,1451870534000.0,36.1,-86.66,Lidiexy Alonso,TN,1476195060000.0,1360698
223690505,Nashville,,1489422776000.0,36.13,-86.8,Lindsay Conlin,TN,1489422776000.0,1360698
201075190,Nashville,,1457370203000.0,36.17,-86.78,LindseypaftNK,TN,1457370203000.0,1360698
5809279,Nashville,,1438791176000.0,36.17,-86.78,Lisa,TN,1465373266000.0,1360698
12394991,Nashville,,1312678040000.0,36.13,-86.8,Liz Fulghum,TN,1433880578000.0,1360698
92841362,Bowling Green,,1398112075000.0,37.02,-86.46,Lizabeth Casada,KY,1408630922000.0,1360698
12667465,Nashville,,1280812975000.0,36.08,-86.72,Lloyd Aur Norman,TN,1358633659000.0,1360698
186501532,Nashville,,1454960265000.0,36.18,-86.64,Logan Dougher,TN,1470070382000.0,1360698
102323422,Nashville,,1381340267000.0,36.13,-86.8,Lori McCurry,TN,1436365626000.0,1360698
188151049,Nashville,,1444198553000.0,36.17,-86.78,Lorne Swain,TN,1487358816000.0,1360698
187700521,Nashville,,1461019262000.0,36.08,-86.72,Lu Xiong,TN,1461019262000.0,1360698
229335733,Bowling Green,,1497337587000.0,37.02,-86.46,Lucas Gray,KY,1497337587000.0,1360698
185930713,Nashville,,1448036651000.0,36.18,-86.64,Lucas McDaniel,TN,1507572289000.0,1360698
182314202,Nashville,,1418068579000.0,36.08,-86.72,Luke Hardwick,TN,1493042158000.0,1360698
183750106,Nashville,,1495549342000.0,36.16,-86.79,Luke Lancaster,TN,1507675664000.0,1360698
13038904,Nashville,"Huntington Beach, CA",1285349414000.0,36.08,-86.72,Luke Stokes,TN,1507180012000.0,1360698
8824806,New York,"Memphis, TN",1370951560000.0,40.78,-73.98,Luke Wilkins,NY,1405618870000.0,1360698
64429432,Brentwood,Nashville,1456935363000.0,36.0,-86.79,Lyle Reed,TN,1457661477000.0,1360698
9979606,Delray Beach,Delray Beach,1247650876000.0,26.46,-80.1,M.M.H.Masud,FL,1442864936000.0,1360698
57877252,Amsterdam,,1364370516000.0,52.37,4.89,Maarten Hemmes,,1375206884000.0,1360698
233894408,Nashville,,1502559347000.0,36.14,-86.74,Maddaux Quandt,TN,1505434006000.0,1360698
174768072,Nashville,,1412215094000.0,36.17,-86.78,Madi Marlatte,TN,1430788612000.0,1360698
230224794,Nashville,,1498110368000.0,36.1,-86.66,madRoosterTony,TN,1501122638000.0,1360698
193367888,Nashville,,1448033891000.0,36.16,-86.79,Maggie Ashworth,TN,1456516958000.0,1360698
142562182,Nashville,,1397772872000.0,36.17,-86.78,Makenzie Briggs,TN,1397772872000.0,1360698
6303396,Lebanon,,1318947489000.0,36.21,-86.31,Malcolm Roberts,TN,1415034335000.0,1360698
194692469,Brentwood,,1445908565000.0,36.0,-86.79,Manoja Muthukumar,TN,1445908565000.0,1360698
184383527,Antioch,,1423759476000.0,36.04,-86.64,Marc,TN,1423759476000.0,1360698
9683438,Nashville,Nashville,1292618735000.0,36.21,-86.72,Marc,TN,1478210008000.0,1360698
196617658,Murfreesboro,,1485995216000.0,35.78,-86.33,Marc Cruz Droz,TN,1490835676000.0,1360698
32419162,Franklin,,1325625035000.0,35.93,-86.81,Marc Sexton,TN,1492703414000.0,1360698
59367492,Nashville,,1360606007000.0,36.13,-86.8,Marcus,TN,1508448098000.0,1360698
236163083,Nashville,,1507667083000.0,36.07,-86.73,Marcus Jones,TN,1507733346000.0,1360698
4111499,Nashville,,1268527100000.0,36.13,-86.8,Marcus Whitney,TN,1430623233000.0,1360698
192819105,Nashville,,1442428644000.0,36.15,-86.86,Marea Chatman,TN,1442516596000.0,1360698
72491422,Nashville,,1355267985000.0,36.18,-86.74,Marilyn Franklin,TN,1355267985000.0,1360698
55791282,Nashville,,1343010800000.0,36.17,-86.78,Marinda,TN,1343010800000.0,1360698
110912252,Nashville,,1383077771000.0,36.17,-86.78,MaRisa Jackson,TN,1484253669000.0,1360698
182626228,Brentwood,,1421363855000.0,36.0,-86.79,Mark,TN,1507645360000.0,1360698
201636697,Brentwood,,1506032163000.0,36.0,-86.79,Mark Biga,TN,1508771307000.0,1360698
12720665,Nashville,,1281460293000.0,36.17,-86.78,Marlon ,TN,1413604059000.0,1360698
88299432,Nashville,,1365446939000.0,36.17,-86.78,Marquoise,TN,1487692012000.0,1360698
221212756,Nashville,,1486739419000.0,36.17,-86.78,Martynas ustavi?ius,TN,1486739419000.0,1360698
192465320,Nashville,,1441766781000.0,36.17,-86.78,Mary Ann Sobczak Chisholm,TN,1441766781000.0,1360698
69568352,Nashville,Oakmont,1356344232000.0,36.1,-86.87,Mary Lou Moewe,TN,1484766901000.0,1360698
193751439,Madison,,1490074618000.0,36.26,-86.71,Mathew Stuart,TN,1490074618000.0,1360698
54154922,Nashville,,1341865719000.0,36.17,-86.78,Matt Campbell,TN,1341865719000.0,1360698
13233276,Franklin,,1450266680000.0,35.92,-86.89,Matt DeLong,TN,1451102034000.0,1360698
132277442,Nashville,,1436315471000.0,36.14,-86.74,Matt Frederick,TN,1436315471000.0,1360698
208430481,Nashville,,1467745080000.0,36.17,-86.78,Matt Hamil,TN,1501706513000.0,1360698
7257797,Nashville,,1232395944000.0,36.17,-86.78,matt Hogg,TN,1232395944000.0,1360698
23262591,Nashville,,1432923204000.0,36.16,-86.79,Matt Jackman,TN,1476134796000.0,1360698
570581,Nashville,,1278515874000.0,36.17,-86.78,Matt Jordan,TN,1468120369000.0,1360698
5900662,Nashville,"Nashville, TN",1269964903000.0,36.07,-86.78,Matt Kenigson,TN,1501702278000.0,1360698
228805649,Nashville,,1496346305000.0,36.17,-86.78,Matt Kluting,TN,1496346305000.0,1360698
193804623,Brentwood,,1444281846000.0,36.0,-86.79,Matt Kluting,TN,1490903522000.0,1360698
7667470,Murfreesboro,"Franklin, TN",1244580026000.0,35.82,-86.45,Matt LeBlanc,TN,1508316648000.0,1360698
204914631,Smyrna,"Smyrna, TN",1493003261000.0,35.97,-86.51,Matt McCord,TN,1498569360000.0,1360698
186389338,Hermitage,,1429573379000.0,36.19,-86.6,Matt R,TN,1467897811000.0,1360698
5428366,Franklin,Franklin,1235143923000.0,35.93,-86.81,Matt Reed,TN,1242653510000.0,1360698
17307731,Nashville,,1307740521000.0,36.17,-86.78,Matt Smith,TN,1318267453000.0,1360698
12049760,Murfreesboro,,1379429383000.0,35.87,-86.44,Matt Smith,TN,1390441363000.0,1360698
50474762,Nashville,,1339084641000.0,36.17,-86.78,matt smith,TN,1452040870000.0,1360698
101608842,Roswell,,1462976108000.0,34.03,-84.31,Matt Trask,GA,1508507563000.0,1360698
182815398,Nashville,,1417560784000.0,36.16,-86.79,Matt Wolford,TN,1428504281000.0,1360698
139451372,Nashville,,1408396277000.0,36.14,-86.74,Matt Zechini,TN,1421089328000.0,1360698
57104412,Nashville,Nashville,1380671064000.0,36.06,-86.96,Mattheu Farmer,TN,1408566650000.0,1360698
97625522,Nashville,Nashville,1444656758000.0,36.1,-86.66,Matthew Gann,TN,1444831800000.0,1360698
199436996,Nashville,,1455044975000.0,36.17,-86.72,Matthew Hays,TN,1455899720000.0,1360698
220421489,Nashville,,1491707862000.0,36.14,-86.74,Matthew McGarvey,TN,1496855632000.0,1360698
62050212,Nashville,,1360676326000.0,36.17,-86.78,Matthew Montgomery,TN,1484258099000.0,1360698
11273162,Murfreesboro,Dickson,1505489985000.0,35.87,-86.34,Matthew P. McFall,TN,1507175066000.0,1360698
56277052,Nashville,Nashville,1360340824000.0,36.17,-86.79,Matthew Vance,TN,1480539094000.0,1360698
7002516,Nashville,,1278703024000.0,36.13,-86.8,Matthew Wallace,TN,1484778198000.0,1360698
109801172,Nashville,Nashville,1390290314000.0,36.06,-86.96,matthewtimothy,TN,1470273964000.0,1360698
214899373,Nashville,,1488891455000.0,36.16,-86.77,Matti Gilmore,TN,1498665066000.0,1360698
9537028,Nashville,,1242077533000.0,36.13,-86.8,Maynard Garrett,TN,1268606473000.0,1360698
132121482,Tyler,tyler,1460170092000.0,32.33,-95.29,Md Mazaharul Huq,TX,1460170092000.0,1360698
74451072,Nashville,,1360602917000.0,36.06,-86.96,Megan Williams,TN,1415749666000.0,1360698
80343982,Nashville,,1360676281000.0,36.17,-86.78,Melanie Hall,TN,1375986564000.0,1360698
229828869,Nashville,,1503516879000.0,36.17,-86.78,Melissa Bledsoe,TN,1504628858000.0,1360698
19759031,Nashville,,1310317854000.0,36.18,-86.81,Mia Wait,TN,1310317854000.0,1360698
4849128,Hermitage,"Chattanooga, TN",1312826001000.0,36.19,-86.6,Micah Breedlove,TN,1499872406000.0,1360698
194062612,Nashville,,1452470264000.0,36.17,-86.72,Micah Wells,TN,1479496089000.0,1360698
185670722,Brentwood,,1444778640000.0,36.0,-86.79,Michael,TN,1447963178000.0,1360698
65373942,Nashville,,1349724320000.0,36.17,-86.78,Michael Anderson,TN,1472834979000.0,1360698
225417090,Nashville,,1493147249000.0,36.17,-86.78,Michael Baker,TN,1493147249000.0,1360698
79677252,Nashville,,1360699112000.0,36.18,-86.74,Michael Barile ,TN,1360699112000.0,1360698
188985950,Spring Hill,,1435656872000.0,35.76,-86.88,Michael Brown,TN,1444319088000.0,1360698
215970349,Nashville,,1478029062000.0,36.11,-86.86,Michael Butler,TN,1478029062000.0,1360698
158254742,Ashland City,Ashland City,1406311431000.0,36.28,-87.07,Michael Byron,TN,1444138975000.0,1360698
71912792,Nashville,Nashville,1455047979000.0,36.17,-86.72,Michael Conrad,TN,1496179720000.0,1360698
208571752,Brentwood,,1467934447000.0,36.0,-86.79,Michael Frost ,TN,1467934447000.0,1360698
189890070,Nashville,,1436840572000.0,36.17,-86.78,Michael J,TN,1473806987000.0,1360698
220663433,Hendersonville,,1485886088000.0,36.3,-86.62,Michael L,TN,1507828303000.0,1360698
188467589,Nashville,,1433953638000.0,36.18,-86.74,Michael Lauren,TN,1473457100000.0,1360698
14469602,Nashville,,1302553484000.0,36.17,-86.78,Michael McCracken,TN,1425266907000.0,1360698
12916961,Nashville,,1283898565000.0,36.17,-86.78,Michael Phillips,TN,1486497722000.0,1360698
30806472,Rockvale,Rockvale,1375136784000.0,35.76,-86.55,Michael Ray,TN,1492634209000.0,1360698
195145042,Franklin,,1446744454000.0,35.92,-86.89,Michael Roberts,TN,1479821877000.0,1360698
198128679,Nashville,,1488992446000.0,36.17,-86.72,michael tambornino,TN,1491935856000.0,1360698
9560051,Nashville,,1242348513000.0,36.17,-86.78,Michael Wilson,TN,1251567555000.0,1360698
75233722,Nashville,,1363025910000.0,36.09,-86.82,Michelle Hey,TN,1450129571000.0,1360698
100565462,Nashville,,1373296900000.0,36.18,-86.74,Michelle Luckes,TN,1413819903000.0,1360698
141155482,Nashville,,1396970744000.0,36.08,-86.72,Mike,TN,1455056997000.0,1360698
186662002,Murfreesboro,,1430170782000.0,35.78,-86.33,Mike,TN,1441737973000.0,1360698
28652082,Brentwood,"Muncie, IN",1369794257000.0,36.0,-86.79,Mike Burrell,TN,1499700600000.0,1360698
2593362,Hermitage,,1340135375000.0,36.19,-86.6,Mike Folsom,TN,1478610819000.0,1360698
113210282,Nashville,,1389625090000.0,36.18,-86.81,Mike Kunkel,TN,1454345528000.0,1360698
194099532,Nashville,,1478630859000.0,36.17,-86.78,Mike Meadows,TN,1507816580000.0,1360698
10383759,Spring Hill,Spring Hill,1435294013000.0,35.76,-86.88,Mike Ross,TN,1441734231000.0,1360698
83786652,Nashville,,1362683795000.0,36.17,-86.78,Mike Rustici,TN,1362683795000.0,1360698
185185088,Nashville,,1426176269000.0,36.15,-86.86,Mike Stabile,TN,1426176269000.0,1360698
188094055,La Vergne,,1433338780000.0,36.01,-86.57,Mike W,TN,1433767219000.0,1360698
155385572,Nashville,,1405094378000.0,36.14,-86.74,Mikie de Graaf,TN,1405619305000.0,1360698
14129264,Nashville,"Memphis, TN",1298849444000.0,36.17,-86.78,Miller,TN,1476126700000.0,1360698
178258442,Franklin,,1498659780000.0,35.93,-86.81,Mitch Canter,TN,1498659780000.0,1360698
211729557,Nashville,,1472246740000.0,36.17,-86.78,Mitch McCrea,TN,1472246740000.0,1360698
184389351,Nashville,,1501704845000.0,36.11,-86.78,Mitchell Blom,TN,1507667661000.0,1360698
161710582,Nashville,,1408115108000.0,36.17,-86.78,Mitchell Killian,TN,1486054775000.0,1360698
8213592,Clarksville,Houston,1325789435000.0,36.53,-87.35,mlsj1,TN,1498591815000.0,1360698
228143686,Nashville,,1495487243000.0,36.17,-86.78,mmohieddin,TN,1495487243000.0,1360698
11968828,Nashville,,1272226985000.0,36.17,-86.78,Mohammad AlKandari,TN,1378831310000.0,1360698
11108006,Nashville,,1399993289000.0,36.17,-86.78,Morris Sasser,TN,1491404412000.0,1360698
224977442,Nolensville,,1491224385000.0,35.94,-86.67,Myron K,TN,1496750331000.0,1360698
235823431,Nashville,,1504728737000.0,36.17,-86.78,Nadia,TN,1507213385000.0,1360698
4389320,Nashville,Charlotte,1484272142000.0,36.17,-86.78,Nat,TN,1484272142000.0,1360698
191059701,Nashville,,1454286118000.0,36.17,-86.78,Nathan Baldwin,TN,1454979549000.0,1360698
128117352,Nashville,Nashville,1495631253000.0,36.18,-86.74,Nathan Butler,TN,1495631253000.0,1360698
141074792,Nashville,,1415284844000.0,36.16,-86.79,Nathan Hood,TN,1444268126000.0,1360698
47239262,Nashville,,1336500113000.0,36.17,-86.78,Nathan Skirvin,TN,1357677787000.0,1360698
185333784,Nashville,"Rector, AR",1426629884000.0,36.17,-86.78,Nathan stallcup,TN,1426629884000.0,1360698
155888802,Nashville,"Nashville, TN",1436303572000.0,36.09,-86.82,Neil Norman,TN,1483482317000.0,1360698
206234001,Austin,,1464744998000.0,30.22,-97.75,Ngenze A,TX,1464744998000.0,1360698
12277073,Nashville,,1276036118000.0,36.17,-86.78,Nic Guest-Jelley,TN,1461175900000.0,1360698
122547562,Nashville,,1386190988000.0,36.17,-86.78,Nicholas ,TN,1418153405000.0,1360698
109588482,Nashville,,1399728473000.0,36.17,-86.78,Nicholas,TN,1421951087000.0,1360698
196618544,Nashville,,1459887888000.0,36.17,-86.78,Nicholas Huffman,TN,1466529028000.0,1360698
184929921,Nashville,,1425421388000.0,36.06,-86.96,Nicholas McCamey,TN,1461621473000.0,1360698
187904554,Nashville,Nashville,1457050724000.0,36.08,-86.72,Nick Glover,TN,1462192799000.0,1360698
222148390,Nashville,,1487255517000.0,36.17,-86.78,nick hayes,TN,1487255517000.0,1360698
195371955,Nashville,,1487094668000.0,36.17,-86.78,Nick Trull,TN,1487117563000.0,1360698
126816022,Columbus,Columbus,1389062783000.0,39.96,-82.93,Nick Williams,OH,1427465902000.0,1360698
112963162,Nashville,,1468410616000.0,36.17,-86.78,Nicole Gladding O'Neal,TN,1468410616000.0,1360698
185734469,Nashville,,1429548982000.0,36.14,-86.74,Nik Shanahan,TN,1429548982000.0,1360698
183727389,Brentwood,,1482507441000.0,36.0,-86.79,Nik Vierkant ,TN,1506519787000.0,1360698
73243812,Nashville,,1442609756000.0,36.17,-86.78,nikhil gaikwad,TN,1442609756000.0,1360698
80386252,Nashville,,1360700515000.0,36.18,-86.81,Noah Maignan,TN,1365553807000.0,1360698
16184101,Tijuana,tapachula,1306566907000.0,32.53,-117.02,noe jonathan,,1444686632000.0,1360698
13968585,Nashville,,1389316301000.0,36.13,-86.8,Noe Lopez,TN,1495546601000.0,1360698
194649525,Mount Juliet,,1445836165000.0,36.22,-86.52,Nurbek Ulmasov,TN,1445836165000.0,1360698
60251672,Nashville,,1473035123000.0,36.17,-86.78,Octavis,TN,1473035123000.0,1360698
210938433,Nashville,,1472147395000.0,36.17,-86.78,Odigene Joseph,TN,1477511433000.0,1360698
7090859,Nashville,Thomasville ,1331322535000.0,36.17,-86.78,ogden rattliff,TN,1452557524000.0,1360698
234168251,Franklin,,1502888104000.0,35.93,-86.81,Olivia Oetjens,TN,1502888104000.0,1360698
184290497,Smyrna,,1423473907000.0,35.97,-86.51,Omar,TN,1423562476000.0,1360698
213285019,Nashville,,1474314999000.0,36.17,-86.78,Optinc12TT,TN,1474314999000.0,1360698
210876362,Nashville,,1471041923000.0,36.17,-86.78,Oscar Koeneke,TN,1472669737000.0,1360698
219950710,Brentwood,,1484436947000.0,36.0,-86.79,Owen Kennedy,TN,1484436947000.0,1360698
231357658,Nashville,,1502943236000.0,36.17,-86.78,Parissa Gharavi,TN,1503460791000.0,1360698
13329710,Nashville,,1288821036000.0,36.17,-86.78,Pat Govan,TN,1480618258000.0,1360698
135052142,Nashville,,1393385854000.0,36.17,-86.78,Pat Mac,TN,1394568667000.0,1360698
21096421,Eagleville,,1454552567000.0,35.75,-86.64,Pat Sharp,TN,1454552567000.0,1360698
192995988,Franklin,,1442788057000.0,35.92,-86.89,Patches Klinefelter,TN,1442880443000.0,1360698
10084026,Nashville,,1248969662000.0,36.17,-86.78,Patrick,TN,1250711343000.0,1360698
183324154,Nashville,,1420424279000.0,36.06,-86.96,Patrick,TN,1421132920000.0,1360698
184602143,Nashville,,1424456133000.0,36.17,-86.78,Patrick M,TN,1464118718000.0,1360698
96560212,Nashville,,1376345237000.0,36.17,-86.72,Patrick McKay,TN,1478290112000.0,1360698
69435912,Nashville,Baltimore,1433175233000.0,36.21,-86.72,Patrick McNicholas,TN,1433175233000.0,1360698
8400359,Nashville,,1345568497000.0,36.08,-86.72,Patrick Sun,TN,1425068702000.0,1360698
12668845,Nashville,"Leslie, MI",1280843281000.0,36.06,-86.96,Paul,TN,1470409966000.0,1360698
183093517,Nashville,,1419312749000.0,36.14,-86.74,Paul,TN,1419312749000.0,1360698
187277518,Nashville,"Huntington, WV",1431535017000.0,36.16,-86.79,Paul L. McNeely,TN,1508369004000.0,1360698
12159452,Memphis,,1310442199000.0,35.13,-90.0,Paul M. Jones,TN,1507769429000.0,1360698
25158852,Chicago,,1411416136000.0,41.88,-87.62,Paul Solans,IL,1424961530000.0,1360698
185123991,Nashville,,1425993510000.0,36.16,-86.79,Paul Sylvester Shanley,TN,1428445348000.0,1360698
151103812,Nashville,,1433890620000.0,36.17,-86.78,Peder Schacht,TN,1433890620000.0,1360698
3661197,Nashville,,1428355028000.0,36.17,-86.78,Pedro,TN,1483644577000.0,1360698
191016009,Madison,,1443488536000.0,36.26,-86.71,Perry Gerenday,TN,1443488536000.0,1360698
116788872,Nashville,"Chattanooga, TN",1435860638000.0,36.17,-86.78,Pete,TN,1435860638000.0,1360698
40794522,Nashville,,1347416799000.0,36.18,-86.74,Pete Brumm,TN,1366982786000.0,1360698
199004255,Mount Juliet,,1458576136000.0,36.22,-86.52,Pete Mills,TN,1464020118000.0,1360698
140085952,Nashville,,1396373461000.0,36.17,-86.78,Peter Fleming,TN,1507575473000.0,1360698
22881021,Nashville,,1495487733000.0,36.06,-86.72,Phil Bennett,TN,1502228565000.0,1360698
46611052,Nashville,,1335990385000.0,36.08,-86.72,Phil Shmerling,TN,1335990385000.0,1360698
198393616,Nashville,,1456191804000.0,36.08,-86.72,Phillip Glidewell,TN,1507092075000.0,1360698
9822767,Nashville,,1377290833000.0,36.17,-86.78,Phillip Maddox,TN,1436364686000.0,1360698
13981132,Nashville,,1320334894000.0,36.1,-86.66,Pomme d'Amour,TN,1320695950000.0,1360698
190862784,Pune,,1473332185000.0,18.53,73.84,Pradnya Dixit,,1491819338000.0,1360698
211970626,Smyrna,,1472577791000.0,35.97,-86.51,Primm,TN,1472577791000.0,1360698
8818487,Nashville,,1233764580000.0,36.17,-86.72,pwelser,TN,1240943157000.0,1360698
200560661,Shelbyville,,1456623721000.0,35.48,-86.47,Rachel Shannon,TN,1484075906000.0,1360698
6246290,Nashville,,1275493497000.0,36.17,-86.78,Rachel Werner,TN,1504735178000.0,1360698
72279392,Nashville,,1355103407000.0,36.17,-86.78,ralph burns,TN,1355103407000.0,1360698
184991548,Nashville,,1425597751000.0,36.17,-86.78,Ram,TN,1447960825000.0,1360698
6646857,Murfreesboro,,1234977838000.0,35.78,-86.33,Randy Crafton,TN,1471028665000.0,1360698
12605746,Nashville,,1313155243000.0,36.18,-86.74,Randy Hicks,TN,1508344346000.0,1360698
13954778,Nashville,,1297003286000.0,36.17,-86.78,Rapheal Dabney,TN,1412926000000.0,1360698
200060107,Antioch,,1455928554000.0,36.17,-86.88,Raven,TN,1455928554000.0,1360698
198332016,Nashville,,1465245589000.0,36.17,-86.78,Ray,TN,1465245589000.0,1360698
22135491,Franklin,,1436363264000.0,35.92,-86.89,Ray Thomas,TN,1436363264000.0,1360698
187318436,Murfreesboro,,1431618811000.0,35.87,-86.34,Rebecca,TN,1436367531000.0,1360698
100367272,Nashville,,1382406903000.0,36.13,-86.8,Rebecca Cronin-Dixon,TN,1450111448000.0,1360698
91981922,Hendersonville,Nashville,1474533843000.0,36.32,-86.61,Rebecca Taylor,TN,1476226304000.0,1360698
509953,Chapel Hill,Nashville,1452566134000.0,35.62,-86.62,Red French,TN,1507777934000.0,1360698
13993792,Nashville,,1297374887000.0,36.17,-86.78,Reinier Pelayo,TN,1503491085000.0,1360698
100310052,Brentwood,,1391701117000.0,36.0,-86.79,Rich Lanam,TN,1486613758000.0,1360698
56829222,Nashville,,1343758765000.0,36.17,-86.78,Rich Satchell,TN,1343759150000.0,1360698
199650470,Nashville,,1455368285000.0,36.17,-86.78,Richard,TN,1455852126000.0,1360698
175194612,Murfreesboro,Murfreesboro,1412361167000.0,35.82,-86.45,Richard Hughes,TN,1412361167000.0,1360698
11999450,Bethpage,,1272588671000.0,36.51,-86.32,Richard Lloyd,TN,1280879615000.0,1360698
141051362,San Francisco,San Francisco,1433428141000.0,37.79,-122.42,Richmond Watkins,CA,1447199171000.0,1360698
71851852,Franklin,,1421688363000.0,35.92,-86.89,Rick Murdock,TN,1506434545000.0,1360698
208613094,Nashville,,1467990316000.0,36.17,-86.78,Rick Ross,TN,1473978023000.0,1360698
64909642,Nashville,,1360857710000.0,36.18,-86.74,Rob Ferguson,TN,1464804907000.0,1360698
9847297,Smyrna,,1246125888000.0,35.97,-86.51,Rob Henley,TN,1505488469000.0,1360698
3525487,Nashville,Nashville,1389216620000.0,36.15,-86.86,Rob M,TN,1389391280000.0,1360698
185975025,Nashville,,1428941078000.0,36.16,-86.79,Rob Taylor,TN,1484258726000.0,1360698
184066993,Nashville,Evansville,1507420039000.0,36.17,-86.78,Rob Wilson,TN,1507420039000.0,1360698
7544054,Nashville,,1347927153000.0,36.21,-86.72,Robbie,TN,1469801177000.0,1360698
207103542,White House,,1467722812000.0,36.48,-86.69,Robert Allman,TN,1467722812000.0,1360698
59894382,Antioch,,1345965534000.0,36.04,-86.64,Robert Dale Johnson III,TN,1448990301000.0,1360698
90191322,Clarksville,,1395840520000.0,36.53,-87.35,Robert David Pope,TN,1400543400000.0,1360698
231081316,Shelbyville,,1499180495000.0,35.48,-86.47,Robert Peters,TN,1499448801000.0,1360698
9317828,Antioch,,1464033380000.0,36.17,-86.88,robertschley,TN,1464033380000.0,1360698
70968002,Riga,,1373407123000.0,56.97,24.13,Roman Ring,,1458496623000.0,1360698
225188047,Nashville,Nashville,1492929576000.0,36.15,-86.86,Ron,TN,1495296204000.0,1360698
13038968,Franklin,,1312560718000.0,35.99,-86.9,Ron Coffman,TN,1381846955000.0,1360698
185552865,Madison,,1427309238000.0,36.26,-86.71,Ron Peaks,TN,1429195934000.0,1360698
76781102,Nashville,Nashville,1486944268000.0,36.13,-86.8,Ronald Boutilier,TN,1486944268000.0,1360698
10119159,Hermitage,,1249426108000.0,36.19,-86.6,Ross Jones,TN,1470331007000.0,1360698
14568344,Nashville,,1309532421000.0,36.1,-86.66,Ross Kimberlin,TN,1413292287000.0,1360698
47928212,Leitchfield,Leitchfield,1346339616000.0,37.48,-86.3,"Roy Ward, Jr.",KY,1485638385000.0,1360698
223738717,Brentwood,,1496013668000.0,36.0,-86.79,Ruby MBA Professional,TN,1496013668000.0,1360698
12230309,Nashville,,1275507909000.0,36.17,-86.78,Rudy Barrett,TN,1508362635000.0,1360698
97038422,Nashville,Nashville,1460030935000.0,36.1,-86.66,Rudy Eggers,TN,1460586431000.0,1360698
183621154,Smyrna,,1421386271000.0,35.97,-86.51,Russell Church,TN,1421386271000.0,1360698
11842208,Fairhope,Fairhope,1270670233000.0,30.5,-87.87,Russell Dennis,AL,1270670233000.0,1360698
201857441,Nashville,,1479498801000.0,36.11,-86.78,Ryan,TN,1483116913000.0,1360698
14466241,Franklin,"Franklin, TN",1485370206000.0,35.92,-86.89,Ryan Goltry,TN,1485370206000.0,1360698
184878207,Nashville,"Louisville, KY",1449812500000.0,36.17,-86.78,Ryan LaMarr Fuqua,TN,1449812500000.0,1360698
211271973,Nashville,,1471611832000.0,36.17,-86.78,Ryan Stubbs,TN,1471611832000.0,1360698
5810588,Vallejo,vallejo,1452253905000.0,38.1,-122.24,Ryan York,CA,1452253905000.0,1360698
9527519,Maimansingh,,1241944301000.0,24.75,90.39,Sadiqur Rahman,,1242025787000.0,1360698
45656662,Cambridge,,1337280802000.0,42.37,-71.1,sallie touchton,MA,1439824123000.0,1360698
191160484,Nashville,,1455540587000.0,36.09,-86.82,Sally Fisher,TN,1460554182000.0,1360698
110820262,Nashville,,1378918303000.0,36.17,-86.78,Salvador Ferro,TN,1413237449000.0,1360698
183021007,Nashville,,1418833189000.0,36.17,-86.78,sam Crenshaw,TN,1448981644000.0,1360698
192858592,Nashville,,1442505776000.0,36.14,-86.74,Sam Lingo,TN,1442505776000.0,1360698
187827080,Nashville,,1432662222000.0,36.17,-86.78,Sam Stringfellow,TN,1432740212000.0,1360698
4193895,Nashville,Nashville,1339079993000.0,36.14,-86.74,sam452,TN,1508428177000.0,1360698
26787912,Smyrna,,1427949609000.0,35.97,-86.51,samahria richie,TN,1427949609000.0,1360698
182727048,Petrer,Petrer,1424154559000.0,38.49,-0.77,Samuel Fernández Amorós,,1424154559000.0,1360698
74562312,Nashville,,1357183461000.0,36.17,-86.78,Sander Blue,TN,1389664610000.0,1360698
13431466,Nashville,Nashville,1312920233000.0,36.13,-86.8,Sarah Edwards,TN,1370884298000.0,1360698
124773822,Nashville,,1387890796000.0,36.17,-86.78,Sareesh kumar,TN,1387890796000.0,1360698
202234843,Panvel,,1459060401000.0,19.0,73.1,Satish Patel,,1459060401000.0,1360698
7247072,Nashville,University City,1434730872000.0,36.17,-86.78,Saul,TN,1455855694000.0,1360698
191769354,Nashville,,1440450716000.0,36.21,-86.72,Savvy Coders,TN,1440450716000.0,1360698
194665246,Gallatin,,1462457415000.0,36.39,-86.45,Scot ,TN,1462457415000.0,1360698
206261402,Mount Juliet,,1464789021000.0,36.22,-86.52,Scot Reutzel,TN,1464789021000.0,1360698
185457876,Hermitage,Hermitage,1427030328000.0,36.19,-86.6,Scot Wittkamp,TN,1427712305000.0,1360698
217907323,Brentwood,,1481217987000.0,36.0,-86.79,Scott Burleson,TN,1507213343000.0,1360698
225225948,Franklin,,1491578554000.0,35.92,-86.89,Scott Dickson,TN,1491879495000.0,1360698
9970730,Mount Juliet,,1247588720000.0,36.22,-86.52,Scott Farr,TN,1489687679000.0,1360698
40432742,Belvidere,,1415209929000.0,35.2,-85.9,Scott Fell,TN,1469564530000.0,1360698
199603769,Ashland City,Muncie,1498906938000.0,36.28,-87.07,Scott G,TN,1507767077000.0,1360698
7460656,Nashville,,1288646547000.0,36.06,-86.96,Scott Gordon,TN,1437660787000.0,1360698
6942319,Dacula,Dacula,1345638435000.0,33.98,-83.87,Scott Lively,GA,1507047868000.0,1360698
177596892,Nashville,,1413235864000.0,36.17,-86.78,Scott M. Howie,TN,1442868065000.0,1360698
10316308,Antioch,,1251819848000.0,36.04,-86.64,Scott Southworth,TN,1497215817000.0,1360698
62088352,Nashville,,1347455037000.0,36.17,-86.78,Scott Wespi,TN,1507059588000.0,1360698
11254617,Nashville,,1264014955000.0,36.11,-86.86,Sean Johnson,TN,1283920808000.0,1360698
59919912,Nashville,,1345994594000.0,36.17,-86.78,Sean Mumford,TN,1462985680000.0,1360698
50605192,Nashville,,1361294849000.0,36.16,-86.79,Sean Shaw,TN,1478645129000.0,1360698
205474484,Nashville,,1463679694000.0,36.16,-86.79,Sebastian Williams,TN,1463679694000.0,1360698
193758164,Nashville,,1455050180000.0,36.15,-86.86,Sefora M. Rodriguez,TN,1455129854000.0,1360698
190978121,Lebanon,,1438905678000.0,36.21,-86.31,Senn Nathan,TN,1441322921000.0,1360698
143192852,Nashville,,1398176309000.0,36.17,-86.78,Seth Steele,TN,1460685325000.0,1360698
145088312,Nashville,,1426441468000.0,36.11,-86.86,sfrapoport,TN,1447033093000.0,1360698
7654052,Franklin,,1330547754000.0,35.93,-86.81,Shane Bailey,TN,1505210125000.0,1360698
221023909,Nashville,,1485789670000.0,36.17,-86.78,Shanin ,TN,1485789670000.0,1360698
174789282,Nashville,,1497465619000.0,36.18,-86.81,Shanin Barnett,TN,1497465619000.0,1360698
200874486,Nashville,,1457075914000.0,36.17,-86.78,SharonBugTG,TN,1457075914000.0,1360698
204412550,Murfreesboro,,1467401047000.0,35.87,-86.44,Shaun Willis,TN,1499447209000.0,1360698
196619227,Nashville,,1449610419000.0,36.09,-86.82,Shawn Chapman,TN,1449610419000.0,1360698
196390199,Nashville,,1452714055000.0,36.16,-86.79,Shawn Cothran,TN,1455725501000.0,1360698
100449852,Spring Hill,,1483968120000.0,35.76,-86.88,Shawn Knight,TN,1493985212000.0,1360698
61863362,Nashville,,1384130706000.0,36.21,-86.72,Shawn Lee,TN,1384130706000.0,1360698
4256599,Atlanta,"Murphy, NC",1396907265000.0,33.79,-84.39,Shawn Stratton,GA,1400563182000.0,1360698
9651812,Dhaka,,1243601309000.0,23.7,90.39,ShaymoL,,1245931928000.0,1360698
196344631,Nashville,,1449079728000.0,36.17,-86.79,Shelton Dickson,TN,1501860735000.0,1360698
7143591,Joelton,"Candor, NY (Upstate near Ithaca & Binghamton)",1248467168000.0,36.33,-86.91,Sherry,TN,1248467168000.0,1360698
414065,Mount Juliet,"Indianapolis, Indiana",1507335246000.0,36.22,-86.52,simplyskeptic,TN,1507335246000.0,1360698
224773931,Nashville,,1490919886000.0,36.13,-86.8,Sisco Garcia,TN,1490919886000.0,1360698
58068572,Nashville,,1344652860000.0,36.17,-86.78,Sonny Dothard,TN,1345054787000.0,1360698
211523160,Nashville,,1471963012000.0,36.17,-86.78,Spencer Smith,TN,1471963012000.0,1360698
185292814,Lebanon,,1426515290000.0,36.21,-86.31,Stacy,TN,1426515290000.0,1360698
203053536,Clarksville,,1483456697000.0,36.56,-87.41,staggosaurus,TN,1483456697000.0,1360698
81236202,Nashville,,1361244585000.0,36.17,-86.78,Stan Robinson,TN,1444751928000.0,1360698
195767229,Nashville,,1455225626000.0,36.22,-86.86,stephanie goldstein,TN,1465316070000.0,1360698
27191232,Nashville,Meridian,1422298808000.0,36.08,-86.72,Stephanie Marie Farrell,TN,1439989501000.0,1360698
184225341,Goodlettsville,,1423262314000.0,36.33,-86.74,Stephen,TN,1471982814000.0,1360698
28904692,Nashville,,1319503171000.0,36.13,-86.8,Stephen Killingsworth,TN,1491873724000.0,1360698
32273862,Antioch,Nashville,1351117640000.0,36.04,-86.64,Stephen Mayer,TN,1431610822000.0,1360698
180545392,Nashville,,1426716302000.0,36.17,-86.78,Stephen Smith,TN,1476194724000.0,1360698
10223251,Nashville,"Nashville, TN",1460475057000.0,36.18,-86.74,Stephen Yeargin,TN,1484252876000.0,1360698
221507563,Franklin,,1486394603000.0,35.92,-86.89,Sterling,TN,1486394603000.0,1360698
88879122,Dacula,Atlanta,1365770855000.0,33.98,-83.87,Sterlyn Reynolds,GA,1396987587000.0,1360698
227009173,Nashville,Nashville,1505602361000.0,36.16,-86.79,steve,TN,1507673649000.0,1360698
17903,Nashville,,1358781533000.0,36.13,-86.8,Steve,TN,1448990310000.0,1360698
12669511,Nashville,,1280849401000.0,36.17,-86.78,Steve Charles,TN,1394120554000.0,1360698
12298545,Nashville,Nashville,1303930108000.0,36.15,-86.86,Steve Cook,TN,1307974412000.0,1360698
37633802,Nashville,,1456429233000.0,36.17,-86.78,Steve MacLaren,TN,1458273288000.0,1360698
14094434,Springfield,,1407802380000.0,36.52,-86.87,Steven Bell,TN,1407806374000.0,1360698
53734552,Appleton,Nashville,1344884370000.0,44.27,-88.44,Stu Heiss,WI,1501726721000.0,1360698
143656952,Hyderabad,,1470631275000.0,17.4,78.48,subrahmanyam vaddi,,1506489139000.0,1360698
149171732,Nashville,,1405618182000.0,36.13,-86.8,Summer,TN,1431718709000.0,1360698
80009722,Nashville,Clinton,1402337876000.0,36.08,-86.72,Summer Perkey,TN,1456899750000.0,1360698
184575893,Nashville,,1424977634000.0,36.18,-86.74,Sundaresh (Sunny) Srinivasa,TN,1424977634000.0,1360698
20718181,Kennesaw,,1439494584000.0,34.03,-84.58,Tammy Kirk,GA,1439494584000.0,1360698
219181828,Nashville,,1483469845000.0,36.17,-86.78,Taylor Perkins,TN,1484069789000.0,1360698
194587989,Thompsons Station,,1445728474000.0,35.8,-86.9,Taylor Swendsen,TN,1508435264000.0,1360698
202663947,Clarksville,,1459697146000.0,36.53,-87.35,Taylor TayloredServices,TN,1459697146000.0,1360698
71393622,Nashville,,1354358297000.0,36.17,-86.78,Terra Trujillo,TN,1354358297000.0,1360698
190363122,Franklin,New York,1437767764000.0,35.92,-86.89,Thad Parker,TN,1488446883000.0,1360698
200889201,Murfreesboro,,1457103221000.0,35.82,-86.45,therealphatmike,TN,1457103221000.0,1360698
199430635,Nashville,,1455037177000.0,36.18,-86.74,Thomas Adair,TN,1484258736000.0,1360698
87422082,Nashville,,1365421697000.0,36.17,-86.72,Thomas Bangs,TN,1406115712000.0,1360698
87420672,Nashville,,1421289632000.0,36.0,-86.69,Thomas Bangs,TN,1444310490000.0,1360698
60040572,Nashville,,1374779824000.0,36.17,-86.79,Thomas Bennett,TN,1420641687000.0,1360698
52448252,Nashville,,1344890650000.0,36.17,-86.78,Thomas Bernstein,TN,1360689341000.0,1360698
159012702,San Antonio,"San Antonio, TX",1446711911000.0,29.54,-98.42,Thomas C. Stowe,TX,1446711911000.0,1360698
13659378,Nashville,,1293826846000.0,36.17,-86.78,Thomas Dubas,TN,1352580319000.0,1360698
178938602,Nashville,,1434640268000.0,36.11,-86.86,Thomas O. Cooper,TN,1461688060000.0,1360698
140457402,Nashville,,1465930184000.0,36.13,-86.8,Tiffany,TN,1502162902000.0,1360698
188219505,Franklin,,1433444984000.0,35.93,-86.81,Tiffany McCarty,TN,1433444984000.0,1360698
4940157,Springfield,,1388731844000.0,36.52,-86.87,Tilghman Lesher,TN,1471910518000.0,1360698
3360648,Nashville,,1234833993000.0,36.11,-86.86,Tim,TN,1254185607000.0,1360698
75509262,Nashville,,1358461113000.0,36.17,-86.78,Tim Ables,TN,1463692423000.0,1360698
85515742,Nashville,,1371161845000.0,36.13,-86.8,Tim Ables,TN,1374607826000.0,1360698
98868072,Nashville,,1393170478000.0,36.13,-86.8,Tim Ambler,TN,1459951065000.0,1360698
13766608,Spring Hill,Gogona,1294978471000.0,35.76,-86.88,Tim Duncklee,TN,1491583859000.0,1360698
152211002,Nashville,,1403126770000.0,36.17,-86.78,Tim Holt,TN,1406228542000.0,1360698
11962573,Nashville,,1296415411000.0,36.13,-86.8,Tim Warren,TN,1475125830000.0,1360698
20781521,Murfreesboro,,1416442709000.0,35.87,-86.34,Tim Wickstrom,TN,1489448735000.0,1360698
8533544,Murfreesboro,,1238179015000.0,35.87,-86.34,"Timmy G. ""Ricardo"" Gibson",TN,1238179015000.0,1360698
227400254,Nashville,,1497317721000.0,36.17,-86.78,timoteo hernandez,TN,1505206787000.0,1360698
187356409,Nashville,,1431702835000.0,36.17,-86.78,TJ,TN,1463875371000.0,1360698
189077805,Franklin,Glendale,1501765841000.0,35.92,-86.89,Tobi Jo Schermuly,TN,1503422607000.0,1360698
1831823,Brentwood,Nashville,1335392832000.0,36.0,-86.79,Todd,TN,1344881838000.0,1360698
196478412,Nashville,,1449350548000.0,36.08,-86.72,Todd McGlamery,TN,1462160916000.0,1360698
52076182,Nashville,,1340382991000.0,36.17,-86.78,Todd Rains,TN,1340382991000.0,1360698
10316298,Nashville,,1251819798000.0,36.17,-86.78,Tom,TN,1508351484000.0,1360698
36826952,Nashville,,1327896934000.0,36.17,-86.78,Tom Brodhead,TN,1339521033000.0,1360698
124825542,Nashville,Nashville,1389543005000.0,36.18,-86.81,Tom Gilkison,TN,1403199930000.0,1360698
75094422,Nashville,"Dunnellon, FL",1361125720000.0,36.1,-86.66,Tony Bailey,TN,1402369165000.0,1360698
78829032,Murfreesboro,,1359738609000.0,35.82,-86.45,Tony Fletcher,TN,1486156665000.0,1360698
185977576,Nashville,,1428528880000.0,36.14,-86.86,Tony Rich,TN,1428528880000.0,1360698
1889955,Murfreesboro,Hong Kong,1396584064000.0,35.82,-86.44,Tony Wan,TN,1420609849000.0,1360698
8228323,Nashville,,1439567308000.0,36.17,-86.78,tracy ,TN,1475945678000.0,1360698
39856372,Nashville,,1330365633000.0,36.17,-86.78,Travis B,TN,1505248387000.0,1360698
185096540,Nashville,Nashville,1425916825000.0,36.17,-86.72,Travis Howell,TN,1465416866000.0,1360698
189321571,Franklin,,1435698645000.0,35.92,-86.89,Travis Sims,TN,1458054616000.0,1360698
44916032,Nashville,,1334640188000.0,36.17,-86.78,Travis Waters,TN,1485525508000.0,1360698
184332334,Nashville,,1442824381000.0,36.17,-86.78,Tremaine James,TN,1457473298000.0,1360698
189698667,Brentwood,,1436468730000.0,36.0,-86.79,trent draughon,TN,1440446185000.0,1360698
138867992,Nashville,,1475177744000.0,36.17,-86.72,Trent Hand,TN,1498599611000.0,1360698
186373394,Murfreesboro,,1431371364000.0,35.87,-86.34,Tristan Gordon,TN,1438353767000.0,1360698
10201008,Nashville,,1314368490000.0,36.17,-86.78,Troy,TN,1455726888000.0,1360698
30428162,Nashville,,1320996963000.0,36.17,-86.78,Troy VashtheStampede Sikes,TN,1320997782000.0,1360698
48561832,Nashville,,1337619429000.0,36.17,-86.78,Tuan Le,TN,1351377468000.0,1360698
54716792,Nashville,,1342277954000.0,36.13,-86.8,Tucker,TN,1344533550000.0,1360698
4282853,Nashville,,1282116757000.0,36.13,-86.8,Tyler Hall,TN,1453403916000.0,1360698
65514922,Franklin,,1357589854000.0,35.92,-86.89,Tyler Ward,TN,1357589854000.0,1360698
182514833,Nashville,"Memphis, TN",1418957112000.0,36.17,-86.78,Tyrone Denny Stanley,TN,1418957112000.0,1360698
230781277,San Francisco,,1499490524000.0,37.78,-122.42,VaRiZXRqZUC,CA,1499490524000.0,1360698
207061281,Nashville,,1495209350000.0,36.17,-86.78,Vaughn Walters,TN,1501815524000.0,1360698
213204354,Nashville,,1474220391000.0,36.17,-86.78,vedderman,TN,1474220391000.0,1360698
48801152,Nashville,,1389710176000.0,36.13,-86.8,Vered Bauer,TN,1413164247000.0,1360698
93330612,Nashville,,1368487892000.0,36.18,-86.81,Vered Bauer,TN,1375132523000.0,1360698
214729620,Nashville,,1495202323000.0,36.17,-86.78,Vickie Woods,TN,1497398754000.0,1360698
194672735,Nashville,,1445880352000.0,36.17,-86.72,Vincent Z. Whaley,TN,1472838205000.0,1360698
215050917,Nashville,,1476641962000.0,36.11,-86.78,Vincenzeno,TN,1476641962000.0,1360698
68374012,Nashville,,1351922626000.0,36.17,-86.78,Vonda Dixon,TN,1351922626000.0,1360698
189802788,Nashville,,1436678861000.0,36.17,-86.78,w. matt,TN,1436915732000.0,1360698
219206714,Birmingham,,1483492116000.0,33.52,-86.81,w. matthews,AL,1507771587000.0,1360698
16499341,Nashville,"Greenville, SC",1376414544000.0,36.08,-86.72,Walt Yates,TN,1376414544000.0,1360698
194584181,Nashville,,1445721942000.0,36.17,-86.78,Wes Holman,TN,1504031715000.0,1360698
141055762,Nashville,,1405453768000.0,36.16,-86.79,Wes Mangum,TN,1484318707000.0,1360698
207118547,Nashville,,1500740198000.0,36.08,-86.72,Wesley Lewis,TN,1500740198000.0,1360698
9852711,Nashville,Nashville,1388790522000.0,36.11,-86.86,Weston Hunter,TN,1450135802000.0,1360698
105865382,Nashville,,1494859033000.0,36.18,-86.81,Wil Cantrell,TN,1494859033000.0,1360698
38721982,Nashville,,1334095693000.0,36.17,-86.72,Will Hare,TN,1334095693000.0,1360698
222558274,Nashville,,1489030585000.0,36.14,-86.74,Will Kotheimer,TN,1493901089000.0,1360698
26695382,Franklin,Franklin,1482426971000.0,35.92,-86.89,william edmondson,TN,1482426971000.0,1360698
195150281,Mount Juliet,Mount Juliet,1447691264000.0,36.21,-86.52,William Etcetera,TN,1456797104000.0,1360698
8111102,Nashville,,1296678065000.0,36.13,-86.8,William Golden,TN,1484259323000.0,1360698
91839162,Murray,,1378314863000.0,36.62,-88.25,William Holt,KY,1403678676000.0,1360698
184996090,Nashville,,1425609539000.0,36.22,-86.77,William Moroney,TN,1425609539000.0,1360698
201525485,Nashville,,1458001685000.0,36.17,-86.78,WilliamTaxKJ,TN,1458001685000.0,1360698
150950742,Nashville,,1402438620000.0,36.17,-86.78,willkotheimer,TN,1508773954000.0,1360698
219275333,Nashville,,1483575370000.0,36.15,-86.86,Yusuf Gürbüz,TN,1486335829000.0,1360698
198657470,Nashville,,1453823776000.0,36.17,-86.72,Zach Casebolt,TN,1453823776000.0,1360698
45780702,Nashville,,1357687361000.0,36.17,-86.78,Zach Hendrix,TN,1389390339000.0,1360698
208987635,Nashville,,1496412026000.0,36.11,-86.86,Zach Parris,TN,1497387646000.0,1360698
219502636,Nashville,,1507579571000.0,36.16,-86.79,Zachary Spence,TN,1508707090000.0,1360698
193792565,Madisonville,,1444259279000.0,37.34,-87.5,Zack B,KY,1494071380000.0,1360698
17686511,Nashville,,1470239456000.0,36.14,-86.74,Zack Register,TN,1470329123000.0,1360698
84566482,Nashville,,1363149473000.0,36.08,-86.72,zaw dan,TN,1363149473000.0,1360698
228760326,Nashville,,1496288084000.0,36.13,-86.8,Zubeir Osman,TN,1502140909000.0,1360698
225772308,Kyiv,,1492731337000.0,50.44,30.52,???????????,,1492731337000.0,1360698
