id,city,hometown,joined,lat,lon,name,state,visited,group_id
188402052,Columbia,,1433818609000,35.61,-87.05, Chelle,TN,1433818609000,13728662
198919304,Charlotte,,1454238555000,36.24,-87.26,Aaron Hiler,TN,1454238555000,13728662
188274104,Thompsons Station,,1433599001000,35.8,-86.9,Abby,TN,1456001413000,13728662
193234204,Nashville,,1443210820000,36.08,-86.72,Ada Mercy ,TN,1443210820000,13728662
208249877,Murfreesboro,,1467501648000,35.78,-86.33,AH,TN,1467501648000,13728662
184231858,Nashville,,1423281743000,36.07,-86.72,Aimee Hedges,TN,1428893425000,13728662
186119584,Nashville,,1428901865000,36.07,-86.73,Al Brianne,TN,1428901865000,13728662
229978435,Franklin,,1498781371000,35.93,-86.81,Al Justice,TN,1498781371000,13728662
115794742,Nashville,,1438912407000,36.14,-86.74,Alicia Dawson,TN,1441587943000,13728662
184324537,Smyrna,,1423577847000,35.97,-86.51,Alishia Marshall,TN,1423577847000,13728662
184153309,Nashville,,1423034070000,36.17,-86.78,Alison Coe,TN,1480392929000,13728662
183987998,Nashville,,1422494358000,36.15,-86.86,Alyese,TN,1422494358000,13728662
200443028,Franklin,,1456451332000,35.93,-86.81,Alyson,TN,1456451332000,13728662
130456542,Brentwood,,1442521455000,36.0,-86.79,Alyssa,TN,1442613984000,13728662
183542485,Arrington,,1421127383000,35.86,-86.66,Amanda,TN,1421127383000,13728662
196063006,Brentwood,,1448482127000,36.0,-86.79,Amanda,TN,1459125531000,13728662
192693423,Spring Hill,,1445103473000,35.76,-86.88,Amanda Clark,TN,1445212406000,13728662
170931612,Nashville,,1438555811000,36.17,-86.78,Amanda Lemoine,TN,1447294632000,13728662
10637616,Nolensville,Nolensville,1496721060000,35.94,-86.67,Amber,TN,1497924877000,13728662
207051594,Nashville,,1465846439000,36.17,-86.78,Amber,TN,1465846439000,13728662
182030842,Franklin,,1458164547000,35.92,-86.89,Amy,TN,1458164547000,13728662
12914861,Franklin,,1496025356000,35.92,-86.89,Amy Brinson,TN,1496025356000,13728662
235910104,Hendersonville,,1504856380000,36.32,-86.61,Amy Page,TN,1504856380000,13728662
194804763,Fosterville,,1446113477000,35.75,-86.39,Andrea Bond,TN,1446113477000,13728662
215963771,Nashville,,1478204277000,36.06,-86.96,Andrea Petre,TN,1478204277000,13728662
5913518,Nashville,Nashville,1427677844000,36.06,-86.96,Andy McQuiston,TN,1483687857000,13728662
188724658,Smyrna,,1434477033000,35.97,-86.51,angel,TN,1436537116000,13728662
183029100,Franklin,,1420134155000,35.92,-86.89,Anne,TN,1425335978000,13728662
198188049,Franklin,,1452965030000,35.93,-86.81,Annette,TN,1463018860000,13728662
223884203,Nashville,,1490655859000,36.07,-86.73,Anthony Easterwood,TN,1490655859000,13728662
174719942,Nashville,,1413431690000,36.08,-86.72,Ariell Luna,TN,1414445681000,13728662
185055574,Nashville,,1427210580000,36.08,-86.72,Ashish,TN,1476403439000,13728662
198079215,Joelton,,1452748352000,36.33,-86.91,Ashley,TN,1453600285000,13728662
116107552,Hermitage,,1475291125000,36.19,-86.6,Ashley,TN,1480645767000,13728662
171232782,Nashville,,1454355410000,36.17,-86.78,Ashley Coltharp,TN,1479895013000,13728662
205235974,Nashville,,1463365885000,36.08,-86.72,Ashlie Jeter,TN,1463365885000,13728662
209052701,Nashville,,1468554343000,36.06,-86.96,Bailey,TN,1475452831000,13728662
48137262,Acworth,"Acworth, Georgia ",1443220711000,34.1,-84.61,Barbara DiPrima,GA,1443220711000,13728662
187299999,Mount Juliet,,1447548958000,36.22,-86.52,baya dewald,TN,1468951360000,13728662
16988641,Franklin,Franklin,1432777032000,35.92,-86.89,Ben,TN,1442010157000,13728662
185394570,Spring Hill,,1426815460000,35.76,-86.88,Beth Braly Martin,TN,1426815460000,13728662
87712142,Brentwood,,1427500003000,36.0,-86.79,Bethanny,TN,1457653124000,13728662
191040284,Antioch,Ohio,1444628123000,36.04,-86.64,Bethany,TN,1455709995000,13728662
198451006,Brentwood,,1474218934000,36.0,-86.79,Bethany Smith,TN,1474218934000,13728662
81012252,Nashville,,1458427667000,36.17,-86.78,Beverly,TN,1458427667000,13728662
170970822,Nashville,"Goodlettsville, TN",1418572672000,36.1,-86.66,Big K,TN,1418572672000,13728662
222289339,Nashville,,1487455926000,36.17,-86.72,Birtha Street,TN,1487455926000,13728662
187986890,Antioch,,1432989401000,36.04,-86.64,Blasome,TN,1432989401000,13728662
199313581,Brentwood,,1454884939000,36.0,-86.79,Brad W,TN,1503748625000,13728662
206989248,Murfreesboro,,1465763020000,35.82,-86.45,Brandi,TN,1465763020000,13728662
20336971,Pleasant View,,1465176918000,36.38,-87.04,brandon spun,TN,1492279089000,13728662
67706102,Nashville,,1442928369000,36.17,-86.78,Brenda,TN,1479253341000,13728662
88028962,Franklin,,1438041989000,35.99,-86.9,Brenda Rish,TN,1438041989000,13728662
189813772,Nashville,,1436708319000,36.13,-86.8,Britni,TN,1467064250000,13728662
198136861,Nashville,,1452867498000,36.17,-86.78,Brittany,TN,1452867498000,13728662
191962732,Fairview,,1440818157000,35.97,-87.13,Brittany Bush,TN,1440818157000,13728662
215875831,Nashville,,1477879436000,36.17,-86.78,Brooke,TN,1480445433000,13728662
208794493,Nashville,,1468227022000,36.17,-86.78,Brooke Eve Hawkins,TN,1468227022000,13728662
195991657,Readyville,,1448336706000,35.82,-86.22,Brooke Ranea DeFosse,TN,1448336706000,13728662
146965162,Spring Hill,,1454538173000,35.76,-86.88,Brooke Willis,TN,1454538173000,13728662
193784305,Franklin,,1444672194000,35.99,-86.9,Bryanna Ndc Najera,TN,1444672194000,13728662
196795706,Nashville,,1449985313000,36.13,-86.8,Caleb Bridges,TN,1449985313000,13728662
152606552,Brentwood,,1437190274000,36.0,-86.79,Cameron,TN,1460897787000,13728662
188746599,Antioch,,1434513223000,36.04,-86.64,Candice,TN,1435450798000,13728662
203201181,Hermitage,,1460447867000,36.19,-86.6,Carlton Jenkins,TN,1460447867000,13728662
38506582,Brentwood,,1434916924000,35.97,-86.82,Carol,TN,1483963147000,13728662
160911642,Nashville,Nashville,1448205466000,36.08,-86.72,Carol,TN,1448205466000,13728662
185078646,Murfreesboro,,1425862239000,35.87,-86.34,Cassie Judkins,TN,1425862239000,13728662
191966482,Nashville,Nashville,1461166519000,36.22,-86.77,cayala,TN,1461166519000,13728662
213309641,Nashville,,1474356837000,36.17,-86.78,Celeste,TN,1474356837000,13728662
193362268,Nashville,,1443458062000,36.17,-86.78,Chandra,TN,1463140129000,13728662
226263582,Franklin,,1492993139000,35.92,-86.89,Charity B,TN,1492993139000,13728662
9520491,Nashville,,1423590635000,36.16,-86.79,Cheryl,TN,1447468141000,13728662
178482032,Williamsport,,1418528736000,36.0,-86.79,Chevis Shannon,TN,1442873159000,13728662
197179091,Nashville,,1450911121000,36.17,-86.78,Chris Attaway,TN,1450911121000,13728662
186379477,Nashville,,1429718464000,36.17,-86.78,Chris Greene,TN,1453246499000,13728662
57789062,Nashville,nashville ,1481772941000,36.16,-86.79,Christi,TN,1489712156000,13728662
232121093,Nashville,Nashville,1501393870000,36.13,-86.8,Christine Joy,TN,1501393870000,13728662
1726285,Petersburg,PETERSBURG,1422732864000,40.0,-89.85,Cindy,IL,1496633907000,13728662
209412979,Columbia,,1469026761000,35.61,-87.05,Cindy Clayton Barbosa,TN,1469026761000,13728662
224394927,Brentwood,,1490398298000,36.0,-86.79,Cindy Penley,TN,1490932626000,13728662
11462026,Murfreesboro,murfreesboro,1491239958000,35.87,-86.34,Cindy Sue Whitaker,TN,1492200505000,13728662
224919839,Brentwood,,1491143009000,36.0,-86.79,CJ Six,TN,1491157485000,13728662
182763054,Arrington,,1475533786000,35.86,-86.66,Connie Rhinehart,TN,1484015189000,13728662
213200089,Nolensville,Brentwood,1474216084000,35.94,-86.67,Connie Rhinehart,TN,1474216084000,13728662
1921355,Franklin,,1435339487000,35.92,-86.89,cor,TN,1498169318000,13728662
183046668,Brentwood,,1425243100000,36.0,-86.79,Cortney Smith,TN,1425243100000,13728662
185129139,Antioch,,1426007534000,36.17,-86.88,Courey,TN,1426007534000,13728662
183413741,Hermitage,,1420698097000,36.19,-86.6,Courtney Osborne,TN,1420698097000,13728662
232877964,Antioch,,1501365664000,36.04,-86.64,creshia Hunt,TN,1501365664000,13728662
209615870,Brentwood,,1469387559000,36.0,-86.79,Cryssa,TN,1484537037000,13728662
183406484,Chicago,,1420676416000,41.87,-87.65,Crystal Churchwell,IL,1420676416000,13728662
135049322,Franklin,,1443057837000,35.92,-86.89,cwhite,TN,1443057837000,13728662
205174256,Antioch,,1463286237000,36.17,-86.88,D,TN,1506855499000,13728662
212969358,Franklin,,1473906184000,35.92,-86.89,Daniel Hofmeister,TN,1473906184000,13728662
183152231,Murfreesboro,,1419736753000,35.78,-86.33,Daniel Robert Browning,TN,1429140780000,13728662
199685371,Murfreesboro,,1455410896000,35.78,-86.33,Daniel Wimberley,TN,1455410896000,13728662
188463185,Nashville,,1433952089000,36.08,-86.72,Danielle Turnquest,TN,1439214791000,13728662
192492027,Franklin,,1441821490000,35.99,-86.9,Darin ,TN,1441821490000,13728662
195582640,Franklin,,1447559827000,35.92,-86.89,Darren,TN,1447559827000,13728662
196840066,Nashville,,1450083564000,36.17,-86.78,Darren,TN,1450345223000,13728662
230601021,Antioch,,1498584320000,36.04,-86.64,David Maher Gergis,TN,1498584320000,13728662
227658046,Antioch,,1494955100000,36.04,-86.64,Dawn Woodard,TN,1499091683000,13728662
233107874,Spring Hill,,1501653078000,35.76,-86.88,Deana,TN,1501653078000,13728662
113269402,Nolensville,,1401751294000,35.94,-86.67,Debbie,TN,1425325911000,13728662
200315779,Nashville,,1456272646000,36.06,-86.96,Debbie Cavender,TN,1456272646000,13728662
197764053,Franklin,,1452180727000,35.92,-86.89,DebM,TN,1452180727000,13728662
49647392,Franklin,Franklin,1501203914000,35.92,-86.89,Deborah Harris,TN,1501203914000,13728662
185535083,Franklin,,1427248533000,35.92,-86.89,Dee Ann ,TN,1475549632000,13728662
186699579,Spring Hill,,1444953710000,35.76,-86.88,Delayna,TN,1452227207000,13728662
187843791,Smyrna,"Smyrna, TN",1432688897000,35.97,-86.51,Delayna Michelle Sans,TN,1432688897000,13728662
202053242,Columbia,,1458772080000,35.61,-87.05,Dese,TN,1459747994000,13728662
9745115,Nashville,,1417807255000,36.08,-86.72,Diane T,TN,1449100800000,13728662
197805313,Nashville,,1452253971000,36.08,-86.72,Dianna,TN,1454601848000,13728662
193159859,Hendersonville,,1467434026000,36.32,-86.61,Don Thrower,TN,1467434026000,13728662
214003611,Franklin,,1475206925000,35.93,-86.81,donna ava marie,TN,1475206925000,13728662
5422351,Nashville,,1436323900000,36.19,-86.8,Dove,TN,1462487934000,13728662
200218374,Clarksville,,1456148208000,36.53,-87.35,Drew  College,TN,1456148208000,13728662
183811100,Nashville,,1421938438000,36.15,-86.78,DuWayne Sterling,TN,1421938438000,13728662
198285326,Nolensville,,1453141779000,35.94,-86.67,E Kellermann,TN,1453769729000,13728662
198763296,Nashville,,1454599823000,36.17,-86.78,Earice Roberts,TN,1454599823000,13728662
188616045,Nashville,,1434260983000,36.09,-86.82,Eddie Dallou,TN,1439158043000,13728662
21287551,Brentwood,BRENTWOOD,1441717196000,36.0,-86.79,Edgard Arenas,TN,1479254605000,13728662
160861302,Franklin,,1421684157000,35.93,-86.87,efb2b,TN,1421684157000,13728662
10099597,Mount Juliet,,1490050745000,36.16,-86.51,Elizabeth E.,TN,1490050745000,13728662
149077962,Nashville,"Lambertville, MI",1421185446000,36.1,-86.66,Elizabeth P.,TN,1447274265000,13728662
206108469,Franklin,,1464577934000,35.92,-86.89,Elizabeth Styron,TN,1464577934000,13728662
192417339,Nashville,,1441736006000,36.06,-86.96,Elizabeth Worsham,TN,1455569927000,13728662
64638412,Nashville,,1440462159000,36.17,-86.78,Em,TN,1441058224000,13728662
187734517,Nashville,,1432489108000,36.17,-86.78,Emeka Akoma,TN,1456088532000,13728662
194256498,Franklin,"Plano, TX",1457809660000,35.92,-86.89,Emily,TN,1482599176000,13728662
198376588,Brentwood,,1453304806000,36.0,-86.79,English Elliott,TN,1453304806000,13728662
188481272,Antioch,,1433976064000,36.04,-86.64,Enzo Enias Jonga,TN,1454084250000,13728662
191326329,Hampshire,,1439591435000,35.59,-87.36,Eric Smith,TN,1439591435000,13728662
222725223,Spring Hill,,1488057474000,35.76,-86.88,Erica Grooms,TN,1488057474000,13728662
184178617,Franklin,,1435283290000,35.92,-86.89,Erin Blackwell,TN,1438186637000,13728662
34871142,Nashville,Missouri,1418701751000,36.11,-86.86,Essa-Serenne January Sparrow,TN,1423252171000,13728662
130869932,Brentwood,,1497746880000,36.0,-86.79,Estoria Powell,TN,1497746880000,13728662
207011048,Nashville,,1465788823000,36.07,-86.73,Eva Watson Graves,TN,1465788823000,13728662
225094084,Nashville,,1491384033000,36.17,-86.78,Evelyn Adams,TN,1491384033000,13728662
190377271,Nashville,,1437790542000,36.17,-86.78,Faysal Khalid,TN,1437790542000,13728662
194252569,Brentwood,,1445121979000,36.0,-86.79,Flip Maguire,TN,1451502670000,13728662
185244720,Nashville,,1426364467000,36.08,-86.72,Forrest White,TN,1441762942000,13728662
206101347,Nashville,,1464568356000,36.07,-86.73,Francoise White,TN,1464568356000,13728662
187253542,Nashville,,1431479665000,36.08,-86.72,Gene B,TN,1462369490000,13728662
232371778,Arrington,,1500739462000,35.86,-86.66,george c,TN,1507818026000,13728662
182951865,Nashville,"West Monroe, LA",1443216153000,36.14,-86.86,Gi Gi Mooney,TN,1443722524000,13728662
219391941,Hermitage,,1483729704000,36.19,-86.6,Gina Manskar,TN,1483729704000,13728662
200485124,Flint,,1456536993000,42.97,-83.78,Greg Starr,MI,1456883867000,13728662
195445805,Spring Hill,,1447294639000,35.76,-86.88,Harley,TN,1447324137000,13728662
12829595,Murfreesboro,,1465605895000,35.82,-86.45,Heather ,TN,1472343188000,13728662
208190662,Franklin,,1467417624000,35.93,-86.81,heather,TN,1473812572000,13728662
208522341,Nashville,,1467857608000,36.08,-86.72,Heather West,TN,1467857608000,13728662
183062835,Franklin,,1419120578000,35.92,-86.89,Holly,TN,1419277198000,13728662
209903674,Nashville,,1469665572000,36.08,-86.72,Holly Holmes,TN,1469665572000,13728662
187151908,Brentwood,,1431269877000,36.0,-86.79,Ida aka,TN,1436482029000,13728662
186715316,Huntsville,,1430282504000,34.74,-86.63,Ivy Howard,AL,1430282504000,13728662
10870480,Nashville,"Jacksonville, FL",1442577652000,36.08,-86.72,J.G,TN,1442577652000,13728662
239286406,Franklin,,1508461842000,35.93,-86.84,Jake Hearnsberger,TN,1508461842000,13728662
209582216,Murfreesboro,,1469250494000,35.78,-86.33,Jamie,TN,1473820170000,13728662
183922137,Brentwood,Alabama,1422296497000,36.0,-86.79,Jamie Lynn Brown,TN,1422296497000,13728662
186297580,Bowling Green,,1448364400000,37.02,-86.46,Jamie powell,KY,1449443447000,13728662
208312190,Franklin,,1467636819000,35.92,-86.89,Jan H,TN,1478507447000,13728662
57041582,Nashville,,1403728573000,36.08,-86.72,Janet,TN,1471549984000,13728662
183111628,Chattanooga,,1419454942000,35.0,-85.23,jason,TN,1419454942000,13728662
200870428,Franklin,,1457068090000,35.99,-86.9,Jason Scott,TN,1457548484000,13728662
199496814,Antioch,,1455134004000,36.04,-86.64,Jason Watts,TN,1455699318000,13728662
59243932,Brentwood,,1481032222000,36.0,-86.79,Jeff Lowe,TN,1481032222000,13728662
206758553,Brentwood,,1465439011000,36.0,-86.79,Jen,TN,1465439011000,13728662
211246741,Nashville,"Boston, MA",1495046115000,36.17,-86.78,Jenna,TN,1495046115000,13728662
198848009,Nashville,,1454120016000,36.18,-86.81,Jenna,TN,1454120016000,13728662
199025560,Smyrna,,1454391376000,35.97,-86.51,Jenni,TN,1454391376000,13728662
70759602,Franklin,,1402535744000,35.93,-86.81,Jennifer,TN,1420246749000,13728662
208810246,Spring Hill,,1468249433000,35.76,-86.88,Jennifer,TN,1468249433000,13728662
191687177,Spring Hill,,1440296852000,35.76,-86.88,Jennifer Broadrick,TN,1440296852000,13728662
193748559,Nashville,,1444176449000,36.14,-86.74,Jennifer Buckelew,TN,1444176449000,13728662
184705290,Nashville,,1424758144000,36.17,-86.72,Jennifer Hartman,TN,1424758144000,13728662
208678123,Springfield,"San Angelo, TX",1468078286000,36.52,-86.87,Jennifer JT,TN,1468078286000,13728662
54742272,Nolensville,,1434317342000,35.94,-86.67,Jenny Lynn,TN,1439964467000,13728662
188010474,Murfreesboro,,1433032927000,35.82,-86.45,Jeremy Malcolm,TN,1467068879000,13728662
62740152,Nashville,"Manhattan Beach, CA",1409097914000,36.16,-86.79,Jeremy Spille,TN,1413938442000,13728662
190484639,Eagleville,,1437982149000,35.75,-86.64,Jess,TN,1444354937000,13728662
201695590,Hendersonville,,1458247402000,36.32,-86.61,Jesse Williams,TN,1458247402000,13728662
13203057,Stamford,Stamford,1427818711000,41.05,-73.54,Jessica,CT,1427818711000,13728662
3380276,Nashville,Nashville/Shelbyville,1400796318000,36.11,-86.78,Jim H,TN,1416555830000,13728662
13965211,Nashville,Nashville,1500146755000,36.13,-86.8,Jim McAnally,TN,1500146755000,13728662
191377006,Franklin,Hometown USA,1439733374000,35.92,-86.89,Jimmy Junior,TN,1439733374000,13728662
198283613,Murfreesboro,,1453139378000,35.87,-86.44,Jina Van,TN,1453233433000,13728662
197627919,Nashville,,1451930091000,36.17,-86.78,Jo Thorogood,TN,1452058463000,13728662
190069337,Hermitage,,1437207504000,36.19,-86.6,Joan Warner,TN,1437207504000,13728662
218054797,Nashville,,1481486120000,36.16,-86.79,Joann Young,TN,1481486120000,13728662
207380774,Brentwood,Nashville,1466301719000,36.0,-86.79,John,TN,1466472053000,13728662
184699409,Hermitage,,1424741899000,36.19,-86.6,John Lanahan,TN,1424741899000,13728662
11172141,Franklin,New England & Texas,1451800287000,35.93,-86.81,John Schmidt III,TN,1452226617000,13728662
203108212,Nashville,,1460475277000,36.1,-86.66,John Zakharey,TN,1463157796000,13728662
199996954,Columbia,,1455837388000,35.61,-87.05,John Ziegler,TN,1455837388000,13728662
196627770,Spring Hill,,1449622840000,35.71,-86.9,Jonathan Anderson,TN,1459733504000,13728662
141802482,Madison,,1419831084000,36.26,-86.71,Jonathan Bolding,TN,1419831084000,13728662
196261898,Nashville,,1448908376000,36.06,-86.96,Josh Marshall,TN,1449584590000,13728662
199590364,Lafayette,,1455278756000,36.52,-86.02,Joshua McElyea,TN,1455278756000,13728662
184570624,Nashville,,1456898543000,36.16,-86.79,Josue Tapia,TN,1456898543000,13728662
198898900,Nashville,,1454201884000,36.17,-86.78,Judy,TN,1500769576000,13728662
235969453,Montchanin,,1504883502000,39.79,-75.59,Judy,DE,1504883502000,13728662
234022232,Fremont,,1502720182000,37.56,-122.0,Judy,CA,1502720182000,13728662
191864434,Franklin,,1440629122000,35.99,-86.9,Judy,TN,1455478996000,13728662
227058551,New York,,1494073327000,40.75,-73.99,Julia Welch-Riddle,NY,1494073327000,13728662
185047433,Murfreesboro,,1425768963000,35.87,-86.34,Julie,TN,1425768963000,13728662
218467675,Franklin,,1482879314000,35.92,-86.89,K.C.,TN,1500981169000,13728662
103114902,Antioch,,1448777607000,36.17,-86.88,Kade Graves,TN,1448777607000,13728662
221294024,Nashville,,1486117599000,36.17,-86.78,Kaden White,TN,1486117599000,13728662
199008828,Nashville,,1454367404000,36.07,-86.73,Kaitlyn,TN,1456683501000,13728662
61807952,Franklin,Franklin,1477835878000,35.99,-86.9,Karen,TN,1479649857000,13728662
154358092,Brentwood,,1418536032000,36.0,-86.79,Karen Arlene Smith,TN,1418536032000,13728662
11868115,Brentwood,,1487069475000,36.0,-86.79,karen bailey,TN,1500975329000,13728662
225126935,College Grove,,1491427166000,35.77,-86.71,Karen Collier,TN,1491427166000,13728662
199241063,Nashville,,1455928660000,36.17,-86.78,Karen Kreul,TN,1455928660000,13728662
218675666,Brentwood,,1482717417000,36.0,-86.79,Karleen Justice,TN,1483437527000,13728662
209783653,Murfreesboro,,1469508060000,35.78,-86.33,Kasey Claussen,TN,1472949139000,13728662
206351586,Nashville,,1464908626000,36.11,-86.78,Katherine Marena Munoz,TN,1464908626000,13728662
196936256,Nashville,,1450302097000,36.17,-86.78,Katie Heinemann,TN,1450302097000,13728662
190468949,Murfreesboro,,1437956577000,35.82,-86.45,Katie Jordan,TN,1500052155000,13728662
35771532,Nashville,Nashville,1419174240000,36.1,-86.66,Katie M,TN,1442593477000,13728662
14247202,Nashville,"Great Falls, MT",1403128161000,36.09,-86.82,Katy,TN,1473798648000,13728662
193840901,Columbia,,1492913247000,35.61,-87.05,KatySue Pillsbury,TN,1506395679000,13728662
53532612,Brentwood,,1419708956000,36.0,-86.79,Kay,TN,1425652279000,13728662
187931135,Thompsons Station,,1432863887000,35.8,-86.9,Kaylee Leydens,TN,1442977060000,13728662
209052465,Nashville,,1468553350000,36.06,-86.96,Kelly Jo Boshers,TN,1468553350000,13728662
3591386,Madison,Madison,1448734553000,36.26,-86.71,Ken White,TN,1459882892000,13728662
155694352,Franklin,Franklin,1423361834000,35.93,-86.84,Kevin Stefano,TN,1423361834000,13728662
196155311,Brentwood,,1448691546000,36.0,-86.79,Kevin Wilhite,TN,1448691546000,13728662
182618390,White House,,1444718592000,36.48,-86.69,Kia Walls,TN,1444718592000,13728662
204428654,Nashville,,1462224645000,36.11,-86.78,Kiera Payne,TN,1462224645000,13728662
199051092,Nashville,,1454437192000,36.17,-86.72,Kim Carter,TN,1455887109000,13728662
158303302,Antioch,,1407700837000,36.04,-86.64,Kimberly,TN,1415684083000,13728662
205426169,Smyrna,,1463611188000,35.97,-86.51,Kimberly Gore,TN,1465046533000,13728662
206303155,Mount Juliet,,1464840355000,36.21,-86.52,Kris!,TN,1464840355000,13728662
213626839,Nashville,,1474758111000,36.17,-86.78,Kristi Wherry,TN,1474758111000,13728662
200154109,Nashville,,1456064533000,36.1,-86.66,Kristie Holder,TN,1456064533000,13728662
205879023,Nashville,,1464234170000,36.11,-86.86,Kristin Duff,TN,1464234170000,13728662
183047170,Franklin,,1419015400000,35.92,-86.89,LaCarrie,TN,1441314777000,13728662
187246364,Woodlawn,,1431464842000,36.5,-87.54,Lana Sutton,TN,1431464842000,13728662
166101402,Walnut,,1411457601000,34.01,-117.86,landy,CA,1411457601000,13728662
183164739,Spring Hill,,1419813732000,35.75,-86.9,Laura,TN,1432810427000,13728662
199261692,Franklin,,1506787957000,35.92,-86.89,Laura Caron Erby,TN,1506787957000,13728662
190347535,Franklin,,1437743006000,35.92,-86.89,Laura Leuty,TN,1437743006000,13728662
206169596,Murfreesboro,,1464658214000,35.78,-86.33,Lauren Goley,TN,1464658214000,13728662
185055819,Mills River,,1425792287000,35.39,-82.57,Lauren Sprouse,NC,1425792287000,13728662
13389422,Franklin,,1436663534000,35.92,-86.89,Lauren Whitworth,TN,1436663534000,13728662
192460383,Hermitage,,1441761319000,36.19,-86.6,Lavetta Cotton,TN,1441761319000,13728662
182770563,Nashville,,1457577177000,36.15,-86.86,LaVon Bowen,TN,1458451131000,13728662
186633614,Brentwood,,1430109757000,36.0,-86.79,Lea Nelson,TN,1430109757000,13728662
65821152,Brentwood,,1397149054000,36.0,-86.79,Leann,TN,1441715405000,13728662
11384020,Nashville,"Fort Payne, AL",1434301862000,36.17,-86.78,Leia Brown,TN,1466512825000,13728662
129549742,Nolensville,,1438442062000,35.94,-86.67,leo,TN,1438442062000,13728662
205974424,Franklin,,1464381906000,35.92,-86.89,Leo,TN,1464381906000,13728662
140808322,Nashville,,1456359614000,36.17,-86.78,Lincoln Cain Tramel,TN,1456359614000,13728662
205978120,Nashville,,1464387069000,36.15,-86.86,Lincoln Parish,TN,1464387069000,13728662
201518976,Nashville,,1457994216000,36.15,-86.86,Linda,TN,1487207334000,13728662
190109140,Murfreesboro,,1437289353000,35.87,-86.34,Lindsey R.,TN,1437295384000,13728662
200105240,Nashville,,1455995714000,36.17,-86.79,Lisa,TN,1455995714000,13728662
22246961,Nolensville,Nolensville,1452473874000,35.94,-86.67,Lisa A,TN,1452473874000,13728662
109625682,Brentwood,,1425271404000,36.0,-86.79,Lisa R ,TN,1427837967000,13728662
13135928,Franklin,"Franklin, TN",1429751144000,35.92,-86.89,LisaAnn,TN,1444433928000,13728662
208512168,Nashville,,1491187651000,36.17,-86.78,Lori,TN,1491187651000,13728662
199878158,Nashville,,1455674924000,36.06,-86.96,lorna sanders,TN,1476760306000,13728662
142638762,Nashville,,1447387409000,36.17,-86.78,Lorraine Silva,TN,1474089844000,13728662
208988064,Shelbyville,,1468467749000,35.48,-86.47,Lucian,TN,1468467749000,13728662
13369916,Brentwood,Brentwood,1401329714000,36.0,-86.79,Lucinda Hall,TN,1475531829000,13728662
204266054,Nashville,,1461986530000,36.18,-86.74,LV,TN,1461986530000,13728662
195215113,Nashville,"Chattanooga, TN",1449973611000,36.06,-86.96,Lyn,TN,1460003314000,13728662
210552298,Nashville,,1470583136000,36.08,-86.72,Lyn A Kyrc,TN,1470583136000,13728662
187630866,Nashville,,1432256223000,36.07,-86.73,Lyndsay Smith,TN,1432256223000,13728662
33638822,New Market,,1448144147000,34.9,-86.45,Lynette Dimick,AL,1449679072000,13728662
197386173,Nashville,,1451423161000,36.17,-86.78,Lynn,TN,1480433266000,13728662
197263431,Franklin,,1451164736000,35.93,-86.81,Lynn Bernard,TN,1473782322000,13728662
183395345,Hendersonville,,1420647631000,36.32,-86.61,Lynn Varner,TN,1420647631000,13728662
208908686,Franklin,,1468365094000,35.92,-86.89,Mackenzie ,TN,1468365094000,13728662
229410435,Los Angeles,,1497097950000,33.97,-118.24,Mandy,CA,1497097950000,13728662
17876981,Nashville,"Westland, MI",1446696077000,36.17,-86.78,Mandy Long,TN,1465402482000,13728662
201797298,Nashville,,1458402106000,36.15,-86.86,Margaret Hietanen,TN,1458402106000,13728662
94718632,Nashville,,1464006466000,36.08,-86.72,Margaret Miles,TN,1464006466000,13728662
237516745,Nashville,,1506484224000,36.17,-86.78,Marianne LaBarre,TN,1506484224000,13728662
188552289,Mount Juliet,,1434268157000,36.21,-86.52,Marie,TN,1447354760000,13728662
84918072,Nashville,,1489889628000,36.22,-86.77,Marie,TN,1489889628000,13728662
184653085,Nashville,,1424616623000,36.17,-86.78,Marita Buckles,TN,1424616623000,13728662
211467960,Franklin,,1484013876000,35.93,-86.84,Mark Beam,TN,1484013876000,13728662
216999681,Nashville,,1479655089000,36.15,-86.86,Mark Patterson,TN,1480797415000,13728662
143393462,Brentwood,,1451928261000,36.0,-86.79,Marla Patterson,TN,1451928261000,13728662
197112949,Clarksville,Chicago,1450736927000,36.56,-87.41,Marquita,TN,1450736927000,13728662
190713969,Brentwood,,1438399160000,36.0,-86.79,Marta,TN,1503178197000,13728662
198856414,Madison,,1454133695000,36.26,-86.71,Marteka Lee,TN,1477627678000,13728662
191829967,Lewisburg,,1440559516000,35.45,-86.8,Mary Hill,TN,1440559516000,13728662
203171938,Spring Hill,,1460407535000,35.76,-86.88,Matt Combs,TN,1461216050000,13728662
208254483,Nashville,,1467506664000,36.09,-86.82,Matt Hojsik,TN,1467506664000,13728662
185579238,Brentwood,,1427391066000,36.0,-86.79,Matt Sargent ,TN,1427398883000,13728662
5008768,Nashville,,1420734586000,36.09,-86.82,Matthew,TN,1491935194000,13728662
196159889,Brentwood,,1450279491000,36.0,-86.79,Matthew,TN,1455425141000,13728662
191607517,Brentwood,,1440139668000,36.0,-86.79,Matthew Brajkovich,TN,1442983913000,13728662
194345655,Nashville,,1445293867000,36.14,-86.81,Maureen,TN,1445293867000,13728662
185416084,Nashville,,1426888883000,36.16,-86.79,Maurice King,TN,1426888883000,13728662
184412311,Clarksville,,1423852053000,36.49,-87.23,Meesch,TN,1423852053000,13728662
202750537,Lascassas,,1459810815000,35.94,-86.27,Megan S,TN,1459810815000,13728662
206442044,Nashville,,1465039866000,36.17,-86.78,Melanee Williams,TN,1465039866000,13728662
83032962,Franklin,,1467662861000,35.92,-86.89,melanie,TN,1475539297000,13728662
92563762,Nolensville,Brentwood ,1452025756000,35.94,-86.67,Melanie Chadwick,TN,1452990974000,13728662
191962922,Cornersville,,1440820441000,35.36,-86.84,Melanie Corle,TN,1440820441000,13728662
193283714,Murfreesboro,,1443304949000,35.87,-86.34,Melinda Adams Froehlich,TN,1443304949000,13728662
45632882,Antioch,Brentwood,1467073692000,36.04,-86.64,Melissa,TN,1467073692000,13728662
183706864,Columbia,,1421650272000,35.61,-87.05,Melissa A Glenn,TN,1422163156000,13728662
201226713,Nolensville,,1457582257000,35.94,-86.67,Meredith Powell,TN,1501805304000,13728662
4529377,Nashville,,1483914621000,36.17,-86.78,Michael,TN,1483914621000,13728662
205700985,Nolensville,,1464014151000,35.94,-86.67,Michelle Dozier,TN,1464014151000,13728662
194015936,Hendersonville,,1444681443000,36.32,-86.61,Mike Hughes,TN,1463059078000,13728662
221659969,Spring Hill,,1486581849000,35.76,-86.88,Mike N,TN,1486581849000,13728662
182794310,Spring Hill,Spring Hill,1469163820000,35.76,-86.88,Miranda Knott,TN,1469163820000,13728662
129783432,Nashville,,1469219229000,36.17,-86.78,Missy Barnett,TN,1469219229000,13728662
184500729,Murfreesboro,,1424137373000,35.87,-86.44,Missy Grazer-May,TN,1487376786000,13728662
12208135,Nashville,,1413302752000,36.08,-86.72,mj,TN,1476821851000,13728662
203095669,Madison,,1460308189000,36.26,-86.71,Monica,TN,1460308189000,13728662
66885242,Brentwood,,1418477891000,36.0,-86.79,Monta b,TN,1418727320000,13728662
192311236,Nashville,,1441494746000,36.08,-86.72,Mutaz Shahin,TN,1441498671000,13728662
192223710,Nashville,,1473472503000,36.15,-86.79,Nadyne,TN,1473472503000,13728662
206290873,Brooksville,,1464824081000,28.57,-82.38,Natalie,FL,1464824081000,13728662
206040566,Franklin,nashville,1484508653000,35.93,-86.81,Nate,TN,1484508653000,13728662
84397362,Nashville,,1475068650000,36.17,-86.78,Nate Phillips,TN,1477848664000,13728662
196879824,Nashville,,1450167204000,36.07,-86.73,Nichole,TN,1450167204000,13728662
185338172,Nashville,,1426641198000,36.08,-86.72,Nicole Dovolis,TN,1426641198000,13728662
225476129,Franklin,,1491956818000,35.92,-86.89,Nicole Grayson,TN,1491956818000,13728662
209666213,Nashville,,1469369217000,36.09,-86.82,Nkechi ,TN,1469369217000,13728662
197471575,Franklin,,1451616847000,35.93,-86.81,Norma Freeman Head,TN,1451616847000,13728662
189363130,Hendersonville,,1453431775000,36.32,-86.61,Olga Thompson,TN,1479859501000,13728662
183896554,New York,,1422213607000,40.75,-73.99,Olivia Long,NY,1422394111000,13728662
234168251,Franklin,,1502888399000,35.93,-86.81,Olivia Oetjens,TN,1502888399000,13728662
128458382,Calgary,,1498501233000,51.06,-114.01,Oscar Duran,AB,1498501233000,13728662
78460882,Nashville,,1426702607000,36.11,-86.86,Paige,TN,1426702607000,13728662
190180942,Brentwood,,1439588821000,36.0,-86.79,Pam,TN,1444211949000,13728662
182697438,Nashville,,1437530698000,36.1,-86.66,Patricia Waters,TN,1502698396000,13728662
206747130,Nashville,,1465426825000,36.17,-86.78,Patrick,TN,1465426825000,13728662
195903795,Nashville,,1487612839000,36.07,-86.73,Paul Hubbuch,TN,1487612839000,13728662
193804901,Goodlettsville,"Nashville, TN ",1458448731000,36.33,-86.74,Peyton Campbell,TN,1458448731000,13728662
190797881,Fort Campbell,"Hatfield, AR",1438560965000,36.65,-87.46,Phillip Schuller,KY,1447211147000,13728662
9845063,Franklin,,1494258684000,35.92,-86.89,phyl l harper,TN,1494258684000,13728662
182114102,San Francisco,San Francisco,1416366224000,37.77,-122.4,possible,CA,1416366224000,13728662
190628499,Hendersonville,,1438228692000,36.32,-86.61,Purpose Driven,TN,1438228692000,13728662
205735599,Nashville,,1464040822000,36.08,-86.72,Queen Amidala,TN,1464040822000,13728662
190733236,Smyrna,,1438444987000,35.97,-86.51,Rachael Phillips,TN,1438444987000,13728662
11428300,Nashville,,1434776458000,36.17,-86.78,Rachel Browning,TN,1464261857000,13728662
207545249,Cleveland,,1466527579000,35.16,-84.88,Rachel Frey,TN,1500332060000,13728662
183385020,New York,,1420605714000,40.75,-73.99,Rachel Morrison,NY,1420605714000,13728662
198950646,Savannah,,1454281788000,32.07,-81.11,Radhi,GA,1456118759000,13728662
202999113,Nashville,,1460166015000,36.17,-86.78,Rebecca Cargill,TN,1463169240000,13728662
233136900,Nashville,,1503942482000,36.17,-86.78,Reed,TN,1503942482000,13728662
79156492,Nashville,,1445053358000,36.08,-86.72,Renee,TN,1445053358000,13728662
129944172,Murfreesboro,Edmonds,1488298346000,35.78,-86.33,Renee Walker,TN,1488298346000,13728662
30992572,Shelbyville,,1439033669000,35.48,-86.47,Rhonda,TN,1478909227000,13728662
197254420,Clarksville,,1451145883000,36.53,-87.35,rhonda howard,TN,1451145883000,13728662
164319,Nashville,,1480591242000,36.17,-86.78,Ric,TN,1480591242000,13728662
209420067,Nashville,,1470422654000,36.17,-86.78,Rick,TN,1470422654000,13728662
219210654,Thompsons Station,,1487692416000,35.8,-86.9,Rob Atkinson,TN,1487692416000,13728662
222890080,Franklin,,1488291419000,35.92,-86.89,Robert English,TN,1488291419000,13728662
184221951,Brentwood,,1423253813000,36.0,-86.79,Robert Kelly McCammon,TN,1423253813000,13728662
77442152,Brentwood,,1443492555000,36.0,-86.79,Roberto Orellana,TN,1445642944000,13728662
58998812,Franklin,Knoxville,1397660305000,35.92,-86.89,robin,TN,1463009514000,13728662
149735662,Brentwood,,1401803495000,36.0,-86.79,Roger Abramson,TN,1419274258000,13728662
155278822,Murfreesboro,Memphis,1504403626000,35.82,-86.45,Romney Dickinson,TN,1504403626000,13728662
185900743,Antioch,,1428341961000,36.04,-86.64,Ronisha ,TN,1428341961000,13728662
18352371,Murfreesboro,Shelbyville,1416374764000,35.78,-86.33,Rosemary,TN,1420976034000,13728662
183621154,Smyrna,,1421386271000,35.97,-86.51,Russell Church,TN,1437509299000,13728662
225312368,Brentwood,,1491700464000,36.0,-86.79,Ryan Mudd,TN,1491700464000,13728662
166082312,Nashville,Franklin,1450966638000,36.13,-86.86,Sagar,TN,1463056851000,13728662
189351062,Nashville,,1435765173000,36.11,-86.86,Sally Walston,TN,1441312149000,13728662
186529443,Antioch,,1429889931000,36.04,-86.64,Samarra,TN,1476288540000,13728662
190863597,Antioch,Brentwood,1438684583000,36.04,-86.64,Sandra,TN,1438684583000,13728662
126182322,Goodlettsville,,1447972937000,36.33,-86.74,Sandra,TN,1508178190000,13728662
223867991,Nashville,,1504466076000,36.08,-86.72,Sara,TN,1504618190000,13728662
26245452,Nashville,,1461619729000,36.1,-86.72,Sara B,TN,1483568839000,13728662
184593669,Spring Hill,,1424425248000,35.76,-86.88,Sarah Wingate,TN,1424425248000,13728662
189708008,Antioch,,1436487041000,36.04,-86.64,Sashira Sanguillen,TN,1447179160000,13728662
137921192,Nashville,,1435183278000,36.17,-86.78,Satam Iraqe,TN,1435183278000,13728662
10511524,Unionville,Unionville,1396918551000,35.62,-86.57,Scott Armstrong,TN,1447174934000,13728662
199747255,Antioch,"Cicero, IN",1455500622000,36.17,-86.88,Scott Hensler,TN,1455500622000,13728662
199871156,Antioch,,1455664419000,36.04,-86.64,Scott Selke,TN,1455664419000,13728662
13816156,Mount Juliet,,1424571462000,36.22,-86.52,Shanda McReynolds,TN,1424571462000,13728662
54173602,Nashville,,1437433706000,36.16,-86.79,Sharon,TN,1464381792000,13728662
85547152,Antioch,"Clifton, New Jersey",1474616000000,36.04,-86.64,Sharon,TN,1475132074000,13728662
182982903,Franklin,,1418595257000,35.92,-86.89,Sharonda Hall,TN,1418595257000,13728662
208084368,Fort Campbell,,1467260557000,36.65,-87.46,Shauna Wedderburn,KY,1467260557000,13728662
197866275,Cordova,,1452365322000,35.14,-89.76,Shavonda,TN,1452365322000,13728662
219195111,Tullahoma,,1483618393000,35.37,-86.21,shawn,TN,1483618393000,13728662
203822539,Smyrna,,1461342691000,35.97,-86.51,Sheila Smith,TN,1461342691000,13728662
188222061,Mount Juliet,,1433451182000,36.21,-86.52,Shelley Stewart,TN,1463419394000,13728662
13211221,Nashville,,1461708803000,36.07,-86.78,Sherry,TN,1461708803000,13728662
201518599,Woodbury,,1457993458000,35.81,-86.07,Sherry Todd,TN,1460081344000,13728662
186622423,Huntsville,,1430088697000,34.76,-86.68,Shonda Scott,AL,1430088697000,13728662
140571002,Brentwood,,1396634019000,36.0,-86.79,Single Adult Ministry at BUMC,TN,1496938881000,13728662
230243964,Berwyn,,1498142035000,41.84,-87.79,Spencer,IL,1498142035000,13728662
123283912,Nashville,,1455728251000,36.22,-86.77,Stephanie ,TN,1455728251000,13728662
194573109,Nashville,,1445705936000,36.17,-86.78,Stephanie Kendrick,TN,1445705936000,13728662
55026182,Nashville,Winchester,1397501891000,36.1,-86.66,Stephanie Shirley,TN,1412361310000,13728662
79268462,Franklin,"Union City, TN",1439674638000,35.99,-86.9,Steve Howell,TN,1439674638000,13728662
221437801,Nashville,,1486302534000,36.16,-86.79,Sue Ellen Upchurch-Hall,TN,1499508036000,13728662
13918555,Franklin,Franklin,1432383014000,35.93,-86.81,Susan Ingraham,TN,1432383014000,13728662
201030436,Nashville,,1457305506000,36.07,-86.73,Susan Larson,TN,1494643799000,13728662
102251202,Nashville,Nashville,1461618093000,36.08,-86.72,Susan Saums,TN,1461618093000,13728662
12134295,Nashville,,1493494490000,36.15,-86.86,Suzanne,TN,1506752777000,13728662
148018622,Nolensville,,1452222165000,35.94,-86.67,Suzanne Conway,TN,1459129580000,13728662
204360367,Nashville,,1480116053000,36.22,-86.77,Takisha A.,TN,1480116053000,13728662
173033872,Nashville,,1433642438000,36.17,-86.78,Tammi,TN,1500167202000,13728662
14495492,Nashville,,1424018889000,36.17,-86.72,Tammy Frost,TN,1446950480000,13728662
185007770,La Vergne,,1425652374000,36.01,-86.57,Tammy Sharp,TN,1495948548000,13728662
234154899,Franklin,,1508400132000,35.92,-86.89,Tanya Parsley,TN,1508400132000,13728662
197004293,Nashville,,1450473106000,36.17,-86.78,Tara,TN,1457589601000,13728662
206239411,Nashville,,1464750466000,36.17,-86.72,Tara H,TN,1464750466000,13728662
181383222,Spring Hill,,1414981617000,35.76,-86.88,Tara Stouder,TN,1485172762000,13728662
185422955,Thompsons Station,,1426972765000,35.8,-86.9,Ted Schempp,TN,1442610318000,13728662
185564877,Nashville,,1427338383000,36.06,-86.96,Tee,TN,1427338383000,13728662
76694952,Nashville,,1456622483000,36.17,-86.78,TeeGymRatt,TN,1456622483000,13728662
13702065,Goodlettsville,"Goodlettsville, TN",1487792563000,36.33,-86.74,Teresa,TN,1493954268000,13728662
183209955,Brentwood,,1423562914000,36.0,-86.79,Terry M,TN,1423705712000,13728662
209128086,Franklin,,1468665574000,35.92,-86.89,Thibisay Ruiz ,TN,1468665574000,13728662
193708987,Mount Juliet,,1444105904000,36.22,-86.52,Thomas,TN,1444136318000,13728662
74219702,Nashville,Barberton,1451860233000,36.17,-86.78,Thomas Cowman,TN,1451860233000,13728662
189534577,Nashville,,1436153389000,36.1,-86.66,Tiesha Blair,TN,1456091023000,13728662
5271647,New York,"New Paltz, NY",1429672270000,40.75,-73.99,Tiffany Grand,NY,1473791193000,13728662
197181071,Spring Hill,,1450968985000,35.76,-86.88,Tim Reed,TN,1457708927000,13728662
188586373,Brentwood,,1458160244000,36.0,-86.79,Tim Steed,TN,1458271330000,13728662
191315119,Nashville,,1439586838000,36.13,-86.8,Tina ,TN,1484085483000,13728662
195021752,Auburn,,1446516035000,36.89,-86.72,Tina Taylor Ausbrooks,KY,1455085110000,13728662
196687395,Brentwood,,1449749454000,36.0,-86.79,Todd Buchanan,TN,1454011094000,13728662
190630142,Clarksville,,1438232217000,36.49,-87.23,Tootie,TN,1438317139000,13728662
218840310,Normandy,,1483000771000,35.41,-86.24,Tori Knier,TN,1483000771000,13728662
207294139,Nashville,,1466183469000,36.1,-86.66,Tracey Miree,TN,1466183469000,13728662
194011293,Clarksville,,1444674312000,36.53,-87.35,Traci Stills,TN,1447165117000,13728662
149024262,Nashville,,1401453884000,36.17,-86.78,Tracy,TN,1402822765000,13728662
184760458,Nashville,,1424921291000,36.08,-86.72,Tracy,TN,1424921291000,13728662
237541670,Culleoka,,1506894949000,35.46,-86.99,Tracy B,TN,1506894949000,13728662
187633139,Brentwood,,1432260060000,36.0,-86.79,tracy b,TN,1434083141000,13728662
5173635,Nashville,,1404371395000,36.16,-86.79,Tracy Jennette,TN,1483982852000,13728662
197729605,Cleveland,,1489527463000,35.16,-84.87,Trav McGee,TN,1489527463000,13728662
190237974,New York,,1447197487000,40.75,-73.99,Trevor Bryant,NY,1447197487000,13728662
216530200,La Vergne,,1478916116000,36.0,-86.57,Trish Allen,TN,1479223252000,13728662
48400472,Nashville,,1396911264000,36.16,-86.79,Troy M,TN,1442158206000,13728662
125261312,Nashville,,1484619180000,36.22,-86.77,Trudie,TN,1488862063000,13728662
187447053,Nashville,,1431897913000,36.1,-86.66,True Royal,TN,1432180908000,13728662
187282112,Nashville,,1431543933000,36.16,-86.79,Tyler,TN,1431543933000,13728662
205806968,Nashville,,1464135980000,36.17,-86.78,Tyler,TN,1464794725000,13728662
195569476,Madison,,1447536283000,34.77,-86.75,Valerie Mukai,AL,1447536283000,13728662
75565802,Nashville,,1446655695000,36.17,-86.78,Valerie See,TN,1463002918000,13728662
190065566,Nashville,,1437218580000,36.1,-86.66,Vanessa ,TN,1439862933000,13728662
212988199,Franklin,,1473938709000,35.93,-86.81,Velvet Buinicky Bechard,TN,1473938709000,13728662
188399381,Nashville,,1433820585000,36.13,-86.8,Veronica Uribe,TN,1433820585000,13728662
185207862,Fairview,,1446978560000,35.97,-87.13,Vincent,TN,1479082047000,13728662
10743245,Brentwood,BRENTWOOD,1402153658000,36.0,-86.79,WANDA B PIPPIN,TN,1502043186000,13728662
224551729,Franklin,,1490625143000,35.92,-86.89,Whitney Waddell,TN,1490625143000,13728662
231424241,Murfreesboro,,1499596237000,35.82,-86.45,Will Packer,TN,1499596237000,13728662
184755847,Murfreesboro,,1424908910000,35.87,-86.44,Wilson Barnes,TN,1424908910000,13728662
91626512,Nashville,Nashville,1396922276000,36.1,-86.66,Woodrow Lucas,TN,1461326456000,13728662
195243206,Antioch,,1457398262000,36.04,-86.64,Zac,TN,1457398262000,13728662
146678962,Brentwood,,1400115368000,36.0,-86.79,Zoe Yim,TN,1400604463000,13728662
