id,city,hometown,joined,lat,lon,name,state,visited,group_id
9006333,Columbia,,1236036917000,35.61,-87.05,Aggie,TN,1263823773000,1394182
10382247,Brentwood,,1252601628000,36.0,-86.79,Alex Pazdan,TN,1347849566000,1394182
9030394,Brentwood,,1236277606000,36.0,-86.79,Alisa,TN,1253039476000,1394182
8818042,Franklin,Smithville,1238216516000,35.92,-86.89,Amanda Smith,TN,1254948571000,1394182
204871578,Clarksville,,1462874578000,36.49,-87.23,AnaKatarina Lalonde,TN,1462874578000,1394182
14538881,Murfreesboro,,1338323221000,35.87,-86.34,andrea Morton,TN,1350266249000,1394182
9359965,Brentwood,,1239829724000,36.0,-86.79,Andrew Douglas,TN,1380573653000,1394182
191140515,Franklin,,1439265180000,35.92,-86.89,Andrew Toothman,TN,1439412077000,1394182
8911351,Columbia,"Santa Fe, TN",1239852685000,35.61,-87.05,Angie Mcclanahan,TN,1421029970000,1394182
10098350,Brentwood,Lebanon TN,1249182409000,36.0,-86.79,Ann Calabria,TN,1407161172000,1394182
10274124,Brentwood,,1251336992000,36.0,-86.79,Anthony,TN,1373504917000,1394182
9359725,Brentwood,,1239827995000,36.0,-86.79,ava parker,TN,1240702219000,1394182
13001215,Brentwood,Brentwood,1287787636000,36.0,-86.79,B J Zeagler,TN,1343158385000,1394182
33155302,Brentwood,,1324439762000,36.0,-86.79,Barbara F,TN,1354202702000,1394182
8897234,Murfreesboro,,1236869206000,35.87,-86.44,Barbara Haley,TN,1311714913000,1394182
5833892,Nashville,,1235967668000,36.17,-86.78,Barbara Jo,TN,1236985097000,1394182
4833665,Nashville,,1238372869000,36.08,-86.72,barrydonegan,TN,1274642586000,1394182
5564773,Nashville,,1339806286000,36.17,-86.79,Ben Cunningham,TN,1339806286000,1394182
9359969,Brentwood,,1239829805000,36.0,-86.79,Ben Dillion,TN,1266971463000,1394182
10051784,Brentwood,,1248556210000,36.0,-86.79,Bernadette Ash,TN,1253988848000,1394182
9674180,Brentwood,,1243897955000,36.0,-86.79,Bill French,TN,1243897955000,1394182
8856601,Nashville,,1239757430000,36.17,-86.78,Billy Brown,TN,1247141528000,1394182
9060743,Brentwood,,1236614942000,36.0,-86.79,Billy Godwin,TN,1237036789000,1394182
9196336,Brentwood,,1237942414000,36.0,-86.79,Bob Garrett,TN,1383144797000,1394182
10357014,Brentwood,,1252331831000,36.0,-86.79,Bonnie Gloth,TN,1288655490000,1394182
9717156,Bon Aqua,Fairview,1244468291000,35.93,-87.25,Brad Cathey,TN,1245966121000,1394182
6996576,White House,White House,1303340991000,36.48,-86.69,Brenda C,TN,1354209893000,1394182
44129362,Kingsport,,1334149135000,36.55,-82.55,Brenda Lenard,TN,1334149135000,1394182
41553712,Brentwood,,1338425039000,36.0,-86.79,Brett Walker,TN,1452459027000,1394182
9071039,Bon Aqua,Bon Aqua,1247445808000,35.93,-87.25,Brian Williams,TN,1457359184000,1394182
10224472,Hendersonville,,1251817780000,36.32,-86.61,Bruce Bellott,TN,1371487966000,1394182
4785033,Murfreesboro,,1338343748000,35.78,-86.33,Bruce Cavender,TN,1413294585000,1394182
14529957,Brentwood,,1303221719000,36.0,-86.79,Bryan Pennington,TN,1349056486000,1394182
15569251,Brentwood,,1305852505000,36.0,-86.79,C. Peterson,TN,1327365664000,1394182
10011122,Mc Minnville,McMinnville,1248092269000,35.68,-85.78,Carol Hobbs,TN,1289853006000,1394182
33182692,Brentwood,,1324405135000,36.0,-86.79,Carolyn Steiger,TN,1396800217000,1394182
10292094,Nashville,,1267238254000,36.17,-86.78,Casey Preston,TN,1300995966000,1394182
29130212,Fort Walton Beach,Ft walton beach,1319717888000,30.41,-86.61,Cassie lambert,FL,1319717888000,1394182
5129031,Nashville,Nashville,1477279389000,36.11,-86.86,Charles,TN,1477279389000,1394182
10925127,Brentwood,,1259198445000,36.0,-86.79,Charles Faulkner,TN,1329698480000,1394182
11146991,Brentwood,,1263425542000,36.0,-86.79,Charles Hendricks,TN,1263921039000,1394182
39541302,Brentwood,,1330099261000,36.0,-86.79,Charles Nicholson,TN,1330103610000,1394182
186379477,Nashville,,1429718868000,36.17,-86.78,Chris Greene,TN,1429718868000,1394182
9323030,Brentwood,,1239392037000,36.0,-86.79,Chris Z,TN,1346086109000,1394182
9086039,Brentwood,Brentwood,1239497280000,36.0,-86.79,Conservative Lady,TN,1344625968000,1394182
234419823,Nashville,,1503164371000,36.17,-86.78,Cristina Landry,TN,1504562537000,1394182
9103537,Brentwood,,1236960219000,36.0,-86.79,Cyndi Miller,TN,1445000499000,1394182
182493904,Nashville,,1468067841000,36.07,-86.73,Dali,TN,1468067841000,1394182
5837314,Nashville,Nashville,1236158889000,36.08,-86.72,Damon Boswell,TN,1251338643000,1394182
41855402,Nashville,"Elizabethtown, KY",1332105362000,36.13,-86.7,Dan Meredith,TN,1452434713000,1394182
9086172,Brentwood,,1236822557000,36.0,-86.79,Dana West,TN,1263569100000,1394182
69327432,Brentwood,,1352677480000,36.0,-86.79,Dana West,TN,1493740202000,1394182
18866861,Madison,"Altus, OK",1310419928000,36.26,-86.71,Daniel Turklay,TN,1394225214000,1394182
10374295,Brentwood,,1252515444000,36.0,-86.79,Danielle Ibsen,TN,1252641588000,1394182
9191448,Brentwood,,1237906904000,36.0,-86.79,Danielle Pazdan,TN,1298054512000,1394182
64968382,Nashville,,1349406918000,36.17,-86.78,David Harris,TN,1351970641000,1394182
9067227,Spring Hill,Spring Hill,1236680127000,35.76,-86.88,deb johnson,TN,1246191694000,1394182
9060668,Brentwood,,1444566821000,36.0,-86.79,Debbie Shipp,TN,1444566821000,1394182
9387294,Brentwood,Brentwood,1240325370000,36.0,-86.79,Delores Johnson,TN,1299627974000,1394182
118640692,Nashville,,1402799404000,36.06,-86.96,Dina Richter,TN,1402922588000,1394182
9213381,Nashville,Brentwood,1238119329000,36.08,-86.72,Donna & Gary Armstrong,TN,1335533169000,1394182
888010,Nashville,,1343146534000,36.11,-86.86,dr. daniel gremillion,TN,1388419893000,1394182
112557022,Nashville,,1382456979000,36.17,-86.78,Eileen DeStefano,TN,1418063224000,1394182
8328389,Houston,,1383165039000,29.76,-95.36,Elizabeth,TX,1478914691000,1394182
18618851,Ringgold,ringgold,1373914963000,34.93,-85.15,Elizabeth hensley,GA,1379969625000,1394182
9405878,Brentwood,,1240365769000,36.0,-86.79,Evelyn G.,TN,1353116552000,1394182
5847633,Brentwood,Holly woood.......,1240284364000,36.0,-86.79,Eviean Drueaux,TN,1245678595000,1394182
12006857,Brentwood,,1272724437000,36.0,-86.79,Garey Wheatley,TN,1272724760000,1394182
9235429,Brentwood,,1238400474000,36.0,-86.79,Gary Armstrong,TN,1253518847000,1394182
10190451,Brentwood,,1250507622000,36.0,-86.79,GARY KEELE,TN,1358855893000,1394182
10230712,Antioch,,1250799900000,36.04,-86.64,Heidi Moseley,TN,1250859460000,1394182
10776257,Liberty,Liberty,1257703242000,36.01,-85.97,Henry (Buddy) Retter,TN,1265942076000,1394182
65278612,Brentwood,,1349833467000,36.0,-86.79,Holly Perry,TN,1349833467000,1394182
9014929,Brentwood,,1236125156000,36.0,-86.79,Howard Lemmon,TN,1487057903000,1394182
1099042,Brentwood,,1235701800000,36.0,-86.79,J Lee Douglas,TN,1503256915000,1394182
9222990,Brentwood,,1238249395000,36.0,-86.79,J.J. Holloway,TN,1350010985000,1394182
188091538,Brentwood,,1433190472000,36.0,-86.79,Jack,TN,1433190472000,1394182
9117061,Brentwood,,1242092863000,36.0,-86.79,JACK DAVIS,TN,1252633225000,1394182
9028362,Hermitage,Hermitage,1236268433000,36.19,-86.6,Jackie,TN,1258133306000,1394182
2134853,Nashville,,1236009516000,36.11,-86.78,jacobwiley,TN,1311826960000,1394182
5861048,Murfreesboro,,1240451277000,35.87,-86.44,Jake Robinson,TN,1381277340000,1394182
8905837,Nashville,Nashville,1237503875000,36.14,-86.74,James Bowman,TN,1444608595000,1394182
9089317,Murfreesboro,,1240112450000,35.87,-86.44,Jamie,TN,1266592363000,1394182
10546751,Brentwood,,1254505905000,36.0,-86.79,Jane Spain,TN,1379122241000,1394182
9860206,Brentwood,,1246305018000,36.0,-86.79,Jay Galbreath,TN,1361510840000,1394182
9373100,Brentwood,,1239981594000,36.0,-86.79,Jean Mangrum,TN,1250884087000,1394182
9034429,Hopkinsville,,1236399062000,36.87,-87.48,jeff schramm,KY,1320202906000,1394182
12451004,Spring Hill,Spring Hill,1280540357000,35.76,-86.88,Jeff Willhelm,TN,1344663158000,1394182
12600344,Nashville,,1279997353000,36.13,-86.8,Jeffrey L Williams,TN,1279997353000,1394182
208678123,Springfield,"San Angelo, TX",1468078287000,36.52,-86.87,Jennifer JT,TN,1468078287000,1394182
9363428,Franklin,"Franklin, TN",1239905127000,35.99,-86.9,Jennifer McRae,TN,1492881126000,1394182
9095403,Ashland City,"Fort Lauderdale, FL",1236974060000,36.28,-87.07,Jim Miller,TN,1266632762000,1394182
1771408,Lascassas,Lascassas,1241796227000,35.94,-86.27,Jim Sandman,TN,1390832588000,1394182
9391077,Brentwood,,1240209223000,36.0,-86.79,Jim Sleeth,TN,1352711396000,1394182
191049120,Clarksville,Clarksville,1443052091000,36.49,-87.23,Jim Turrisi,TN,1443052091000,1394182
9396135,Madison,Madison,1240266354000,36.26,-86.71,Joann Scala,TN,1388651955000,1394182
11311763,Nashville,,1265255807000,36.09,-86.82,Joanna Saliba,TN,1265256458000,1394182
29186922,Brentwood,,1319760213000,36.0,-86.79,Joe Garvey,TN,1335128643000,1394182
50686612,Brentwood,,1339258726000,36.0,-86.79,john,TN,1359504693000,1394182
4782213,Columbia,Columbia,1303650306000,34.08,-81.19,John Perna,SC,1407165642000,1394182
8987119,Hendersonville,HENDERSONVILLE,1235882766000,36.32,-86.61,Johnny Johnson,TN,1337187609000,1394182
9161198,Nashville,South Harpeth,1237557390000,36.06,-86.96,Jon,TN,1258918492000,1394182
38878122,Nashville,,1329579622000,36.07,-86.78,Jon Ross,TN,1331004455000,1394182
12430169,Brentwood,,1277844043000,36.0,-86.79,Jowanna,TN,1447422708000,1394182
45246682,Brentwood,,1334937129000,36.0,-86.79,Karen,TN,1357746906000,1394182
10497505,Brentwood,,1291243417000,36.0,-86.79,Karen Boswell,TN,1428450176000,1394182
7362464,Murfreesboro,,1254353652000,35.82,-86.45,Karen Cavender,TN,1338301969000,1394182
55467872,Franklin,Franklin,1342748553000,35.99,-86.9,Karl & Claudia Locke,TN,1342923184000,1394182
11453510,Brentwood,,1360286956000,36.0,-86.79,Karyn,TN,1376138263000,1394182
73119472,Clarksville,"Clarksville,TN",1355862131000,36.49,-87.23,Kathy,TN,1355862131000,1394182
28650322,Spring Hill,Spring Hill,1319307647000,35.76,-86.88,Kelly Knox,TN,1406254626000,1394182
5891067,Brentwood,"Brentwood, TN",1437839146000,36.0,-86.79,Kevin ,TN,1437839146000,1394182
9244618,Brentwood,,1238535418000,36.0,-86.79,Kristin Garris,TN,1238680682000,1394182
9969773,Murfreesboro,,1247597320000,35.82,-86.45,Kurt Potter,TN,1306679875000,1394182
10536332,Brentwood,,1314327212000,36.0,-86.79,LANA,TN,1314327212000,1394182
9024858,Brentwood,,1236218234000,36.0,-86.79,Lance,TN,1343308269000,1394182
10302539,Fayetteville,,1253110033000,35.15,-86.57,Larry & Susan Lunsford,TN,1279131751000,1394182
41391052,Potwin,,1331640724000,37.94,-97.02,Larry Woodlee,KS,1332526238000,1394182
14334918,Nashville,,1330831073000,36.15,-86.8,Laura Taylor,TN,1446733405000,1394182
30771742,Brentwood,,1321369300000,36.0,-86.79,Laurie Undis,TN,1321369300000,1394182
9920052,Brentwood,Brentwood,1248307278000,36.0,-86.79,LaVerne Adekunle,TN,1287265836000,1394182
9067630,Murfreesboro,Murfreesboro,1236652581000,35.82,-86.45,Le Tate,TN,1337943917000,1394182
6335247,Nashville,,1251811057000,36.17,-86.78,Linda Z,TN,1351705309000,1394182
11095820,Brentwood,,1262186065000,36.0,-86.79,Lonnie Patterson,TN,1264162796000,1394182
55664622,Brentwood,,1342909754000,36.0,-86.79,Marci Blattenberger,TN,1344638747000,1394182
10403388,Brentwood,,1252865452000,36.0,-86.79,Marie Pearl,TN,1275330283000,1394182
133674092,Mount Juliet,,1410212005000,36.22,-86.52,marissa wolf,TN,1435594962000,1394182
11140697,Brentwood,,1383086014000,36.0,-86.79,Mark Charest,TN,1383086014000,1394182
8346884,Nashville,,1308238951000,36.17,-86.78,Mary Buckner,TN,1379893978000,1394182
9367747,Franklin,,1239915167000,35.92,-86.89,Mary Engberg,TN,1269115478000,1394182
10544130,Brentwood,,1257309348000,36.0,-86.79,Mary Hildenbrand,TN,1379990371000,1394182
30046332,Brentwood,,1320779847000,36.0,-86.79,Mary Patton,TN,1432654648000,1394182
32070902,Brentwood,,1322967361000,36.0,-86.79,Matt Wood ,TN,1323171868000,1394182
189586771,Nashville,,1436254884000,36.14,-86.74,Melinda Patrice Pinder ,TN,1438385699000,1394182
10942683,Brentwood,Franklin,1259546884000,36.0,-86.79,Melissa Archer,TN,1259546884000,1394182
9138994,Mount Juliet,Mt Juliet,1237413079000,36.22,-86.52,micah johnson,TN,1247756711000,1394182
9142290,Brentwood,Murfreesboro,1237344539000,36.0,-86.79,Micah P. Forrest,TN,1268878952000,1394182
9438228,Brentwood,,1240791969000,36.0,-86.79,michael,TN,1240791969000,1394182
10321826,Ashland City,,1252976534000,36.28,-87.07,michael mainstruck,TN,1295326239000,1394182
10177904,Hendersonville,Hendersonville,1250142259000,36.32,-86.61,Michele Tobitt,TN,1345569272000,1394182
185007590,Murfreesboro,,1445383104000,35.82,-86.45,Michelle Garcia,TN,1445383104000,1394182
9365167,Franklin,Franklin,1239892215000,35.93,-86.81,Mike & Mariana Smiley,TN,1331557800000,1394182
12572786,Smyrna,,1283638266000,35.97,-86.51,Misty,TN,1375799590000,1394182
10922194,Brentwood,,1259362024000,36.0,-86.79,Nancy Dearth,TN,1341840190000,1394182
9299411,Brentwood,,1239128286000,36.0,-86.79,Nathan Lugert,TN,1249330085000,1394182
10522090,Franklin,,1339608720000,35.92,-86.89,Nina,TN,1339608720000,1394182
197471575,Franklin,,1451617814000,35.93,-86.81,Norma Freeman Head,TN,1451793593000,1394182
234168251,Franklin,,1502888271000,35.93,-86.81,Olivia Oetjens,TN,1502888271000,1394182
9918706,Columbia,"Columbia, TN",1320026388000,35.61,-87.05,Patricia McWilliams,TN,1339557775000,1394182
9015053,Franklin,"Dallas, TX",1236126174000,35.99,-86.9,Patrick,TN,1389187159000,1394182
9068567,Kingston Springs,Kingston Springs,1236659849000,36.09,-87.12,Patrick Breedlove,TN,1236659849000,1394182
9180595,La Vergne,La Vergne,1237779251000,36.01,-86.57,Paul,TN,1391138906000,1394182
9454697,Franklin,Franklin,1240985202000,35.92,-86.89,Rachel,TN,1275607707000,1394182
13578367,Richmond,Richmond,1307287019000,29.62,-95.65,Ralph,TX,1394213324000,1394182
5935034,Nashville,,1237060311000,36.17,-86.79,Ray,TN,1394331934000,1394182
136126542,Brentwood,,1394166142000,36.0,-86.79,Rebecca Chesser,TN,1394166142000,1394182
7322637,Nashville,Nashviile,1292005207000,36.08,-86.72,Renee,TN,1368135973000,1394182
30992572,Shelbyville,,1439036247000,35.48,-86.47,Rhonda,TN,1439157945000,1394182
10298100,Spring Hill,Spring Hill,1251597835000,35.76,-86.88,Robert Johnston,TN,1353121420000,1394182
10097853,Mount Juliet,,1249158775000,36.21,-86.52,Robert Wilson,TN,1254364134000,1394182
9342007,Brentwood,,1239652568000,36.0,-86.79,Roberta Swank,TN,1347827286000,1394182
14272440,Millington,,1331218683000,35.33,-89.89,Robin ,TN,1354491163000,1394182
9365583,Nolensville,"Minneapolis, MN",1239896742000,35.94,-86.67,Robin Dahl,TN,1252002419000,1394182
10061396,Brentwood,,1248703278000,36.0,-86.79,Robin Howerton,TN,1258903529000,1394182
10775895,Nashville,,1301365735000,36.18,-86.81,Ron Ledford Jr,TN,1347712228000,1394182
10141315,Greenbrier,Greenbrier,1249742327000,36.43,-86.8,Ron/Diane Thompson,TN,1258898572000,1394182
1532157,Franklin,,1255231508000,35.93,-86.81,Roy Thompson,TN,1352735803000,1394182
155549402,Nashville,,1405080409000,36.15,-86.86,RSELMS,TN,1426260677000,1394182
9065160,Brentwood,,1236648835000,36.0,-86.79,Russ Roberts,TN,1395959399000,1394182
10442552,Brentwood,,1253248126000,36.0,-86.79,RuthE Winget,TN,1379770730000,1394182
11707985,Brentwood,,1278467848000,36.0,-86.79,Sally Anderson,TN,1278468149000,1394182
10781132,Maryville,,1278082746000,35.78,-83.94,Samuel Duck,TN,1317393680000,1394182
14185136,Brentwood,,1299466656000,36.0,-86.79,Sara,TN,1307250891000,1394182
9447569,Brentwood,,1240900308000,36.0,-86.79,shelly Walker,TN,1240900308000,1394182
10286710,Brentwood,,1251599060000,36.0,-86.79,Sherry Atwood,TN,1327211283000,1394182
9365182,Nashville,,1239892703000,36.07,-86.78,Sheryl Kippenberger,TN,1239892703000,1394182
192100615,Brentwood,,1441085385000,36.0,-86.79,SJ,TN,1485477536000,1394182
9028623,Brentwood,Franklin  TN,1236269372000,36.0,-86.79,Stacie Burke,TN,1267888424000,1394182
28152262,Brentwood,"Brentwood, TN",1319986563000,36.0,-86.79,Stacy Jones Butterworth,TN,1337954238000,1394182
9087735,Brentwood,,1236823412000,36.0,-86.79,Stephanie Holaday,TN,1411166119000,1394182
9654814,Brentwood,,1243630601000,36.0,-86.79,Steven D. Graham,TN,1284044681000,1394182
9015281,Ashland City,,1236443547000,36.28,-87.07,Sue Dishongh,TN,1421081877000,1394182
194490762,Franklin,,1455939582000,35.99,-86.9,T. Allen Steele,TN,1467127815000,1394182
9317095,Brentwood,,1239315385000,36.0,-86.79,Tammy Regan,TN,1326985115000,1394182
231747688,Nashville,,1499962614000,36.17,-86.78,Tennessee Republican Assembly,TN,1499962614000,1394182
20996981,Franklin,,1337431676000,35.93,-86.81,Teressa Elliott,TN,1339418711000,1394182
10071964,Brentwood,,1248813221000,36.0,-86.79,Thomas Varden,TN,1248813221000,1394182
200862670,Nashville,,1459111148000,36.16,-86.79,Tiffany,TN,1459111148000,1394182
21143301,Citra,,1319742267000,29.39,-82.12,Tiffany Kilgore Brady,FL,1319743016000,1394182
8974036,Antioch,,1237212242000,36.04,-86.64,Tim Brown ,TN,1366085955000,1394182
194429893,Spring Hill,,1445913757000,35.76,-86.88,Tim Kelly,TN,1446741257000,1394182
9002593,Brentwood,,1236008975000,36.0,-86.79,Tom Kippenberger,TN,1444801138000,1394182
9084046,Brentwood,,1236807160000,36.0,-86.79,Toni Albani,TN,1367882906000,1394182
13247810,Brentwood,,1288021969000,36.0,-86.79,Tonie Osborne,TN,1301929290000,1394182
14139661,Nashville,,1320938737000,36.09,-86.82,Tori,TN,1320938737000,1394182
1379343,Nashville,Middle TN,1237325930000,36.06,-86.96,Tracy,TN,1479209012000,1394182
100503102,Lebanon,,1372788918000,36.21,-86.31,Tracy C. Tarum,TN,1425966490000,1394182
9098221,Brentwood,,1236905053000,36.0,-86.79,Travis Robeson,TN,1300998101000,1394182
9355463,Brentwood,,1239783383000,36.0,-86.79,trdavis,TN,1321716514000,1394182
11610378,Spring Hill,,1337010590000,35.76,-86.88,Tricia Stickel,TN,1366082267000,1394182
11013348,Brentwood,,1261349391000,36.0,-86.79,Trinity Persful,TN,1286805443000,1394182
8984930,Nashville,,1362539336000,36.13,-86.8,Troy Putney,TN,1364161538000,1394182
196827082,Nashville,,1451177480000,36.17,-86.78,Valerie,TN,1451177480000,1394182
11535041,Brentwood,,1267143853000,36.0,-86.79,warren mcnulty,TN,1281111228000,1394182
11118080,Lebanon,,1264297736000,36.21,-86.31,Wayne Leeper,TN,1314955646000,1394182
280159,Franklin,Huntington,1443801595000,35.92,-86.89,whiteyheld,TN,1447340240000,1394182
10308121,Brentwood,,1251736634000,36.0,-86.79,William (Bill) Hewitt,TN,1273779508000,1394182
