id,city,hometown,joined,lat,lon,name,state,visited,group_id
161182282,Franklin,,1407852793000,35.92,-86.89,Abby,TN,1407852793000,14380872
195181615,Murfreesboro,,1446815686000,35.87,-86.44,Adrienne Richardson Lyons,TN,1446815686000,14380872
195337524,Smyrna,"Pompano Beach, FL",1447103277000,35.94,-86.53,Adrienne Scott,TN,1457451576000,14380872
8360116,Nashville,Nashville ,1414598038000,36.16,-86.79,Adrienne Simmons,TN,1461106119000,14380872
70963702,Nashville,,1436886012000,36.17,-86.72,Aja Batey,TN,1436886012000,14380872
180195342,Nashville,"Chattanooga, TN",1433746579000,36.17,-86.78,Aliah,TN,1433746579000,14380872
183952306,Smyrna,Smyrna TN,1422388777000,35.97,-86.51,Alicia Dara,TN,1422388777000,14380872
115794742,Nashville,,1462903939000,36.14,-86.74,Alicia Dawson,TN,1462903939000,14380872
47629012,Nashville,,1489233718000,36.06,-86.96,Alicia Keller,TN,1489233718000,14380872
82028462,Nashville,Chincoteague,1430852687000,36.17,-86.78,Alicia Thompson,TN,1506615532000,14380872
39686712,Nashville,,1408502409000,36.16,-86.79,Alisha Jenkins Lampley,TN,1425921226000,14380872
156629612,Indianapolis,,1430294516000,39.77,-86.11,Alyssa Bowen,IN,1430294516000,14380872
183006526,Hermitage,,1452556698000,36.19,-86.6,Amanda,TN,1452556698000,14380872
85390722,Nashville,Nashville,1442605665000,36.15,-86.86,Amanda Jay,TN,1460654504000,14380872
188823406,Monahans,,1446135782000,31.58,-102.9,Amani Murph,TX,1446135782000,14380872
189995255,Nashville,,1437057450000,36.11,-86.78,Ambre Dromgoole ,TN,1437106573000,14380872
86928332,Nashville,,1412788654000,36.08,-86.72,Ana H. Morales / Amorcenter,TN,1416403989000,14380872
185098956,Nashville,Nashville,1428004430000,36.22,-86.77,Andrea R Campbell,TN,1460392447000,14380872
33001522,Nashville,Nashville,1439935812000,36.22,-86.77,Andrea Thompson,TN,1457981851000,14380872
184362849,Nashville,,1423692021000,36.17,-86.72,Andrea Thompson,TN,1424377266000,14380872
185580543,Mount Juliet,,1427395865000,36.22,-86.52,Angel S.,TN,1467071590000,14380872
187664332,Smyrna,"Hendersonville, TN",1437259649000,35.97,-86.51,Angel Thomas,TN,1437259649000,14380872
183905649,Nashville,,1422244830000,36.11,-86.78,Angela Greff Vogeli,TN,1443012766000,14380872
156237512,Nashville,,1457410898000,36.06,-86.96,Angela Lynn,TN,1480826637000,14380872
186963152,Nashville,"Columbia, TN",1448308903000,36.07,-86.72,Angela McCuiston,TN,1457371866000,14380872
192119948,Madison,,1443898833000,36.26,-86.71,Angelea Smith-Woods,TN,1443898833000,14380872
201653812,Murfreesboro,,1458181505000,35.87,-86.44,Angelica Coleman,TN,1461630607000,14380872
198738999,Nashville,,1458227719000,36.15,-86.86,Angie Simmons,TN,1458748715000,14380872
88583272,Hendersonville,Hendersonville ,1501127341000,36.32,-86.61,Angie Werner,TN,1501127341000,14380872
69528962,Nashville,Philadelphia,1404270008000,36.21,-86.72,Anita-Lorraine,TN,1449076936000,14380872
80198432,Nashville,,1410523604000,36.17,-86.72,ann haney,TN,1457726488000,14380872
130669792,Nashville,,1405269496000,36.17,-86.72,Ann Haney,TN,1417624169000,14380872
192190147,Nashville,,1458225709000,36.09,-86.82,Ann Marie Graham,TN,1458225709000,14380872
128955992,Spring Hill,,1423324588000,35.76,-86.88,April,TN,1458267443000,14380872
199883699,Nashville,,1455679775000,36.17,-86.72,ariel evans,TN,1455679775000,14380872
192733804,Franklin,,1442427172000,35.93,-86.81,Arlena Clausi,TN,1484018767000,14380872
192738733,Franklin,,1454232057000,35.93,-86.81,Ashley Marcum,TN,1454232057000,14380872
182467711,Franklin,,1442278287000,35.93,-86.81,Ashley Marcum,TN,1454961079000,14380872
193361475,Antioch,"Lexington, KY",1444961342000,36.04,-86.64,Ashley Oldham,TN,1455847223000,14380872
203702526,Nashville,,1461163414000,36.17,-86.72,Ashley Pittman,TN,1461163414000,14380872
77649082,Nashville,,1432672775000,36.26,-86.73,ashley w,TN,1475027146000,14380872
155911172,Nashville,,1480907949000,36.17,-86.78,Ayesha Mayes,TN,1500302737000,14380872
127911762,Mount Juliet,,1414571416000,36.22,-86.52,Billi Myers,TN,1425889284000,14380872
195445540,Elysburg,,1447336554000,40.86,-76.55,BLyon,PA,1447336554000,14380872
13814459,Nashville,"Paris, TN",1428420592000,36.09,-86.82,Bobo,TN,1461178268000,14380872
217308710,Nashville,,1487885853000,36.16,-86.77,Brandi N. Williams,TN,1499968537000,14380872
182475937,Nashville,,1415652353000,36.17,-86.72,Brandy Dyer,TN,1462844670000,14380872
133355872,Nashville,,1473977295000,36.17,-86.78,Bree,TN,1473977295000,14380872
191134110,Nashville,"Nashville, TN",1456097030000,36.18,-86.74,Bria Lafayette,TN,1456097030000,14380872
192432856,Nashville,,1443154526000,36.22,-86.77,Brianna Swanberg,TN,1449277793000,14380872
200223624,Nashville,,1456154917000,36.16,-86.79,Brigitte Tubbs-Jones ,TN,1456154917000,14380872
184037139,Nashville,,1422663697000,36.17,-86.72,Britni,TN,1422663697000,14380872
30936082,Antioch,,1431270561000,36.04,-86.64,Britt Thomas,TN,1456116320000,14380872
116794102,Nashville,,1400086883000,36.14,-86.74,Brittany Clements,TN,1456419763000,14380872
182507305,Burns,,1415802587000,36.04,-87.26,Brittany Davidson,TN,1415802587000,14380872
188059130,Gladeville,,1450145885000,36.19,-86.28,Brittany Hentz,TN,1450145885000,14380872
115507322,Nashville,,1460772279000,36.17,-86.78,Brittany Thatcher,TN,1461182464000,14380872
187980021,Nashville,,1433108309000,36.17,-86.78,Brittney,TN,1486591128000,14380872
62051382,Murfreesboro,Murfreesboro,1426865611000,35.82,-86.45,Brooke W,TN,1427076298000,14380872
203713924,Nashville,,1461177357000,36.17,-86.72,Brynn Maisel,TN,1461256724000,14380872
200841167,Antioch,,1457030005000,36.04,-86.64,Cammy Morgan-Bohannon,TN,1457030005000,14380872
190604833,Brentwood,,1439948152000,36.0,-86.79,Candace,TN,1461111345000,14380872
21489751,Honolulu,,1446418144000,21.29,-157.85,candice graham,HI,1446753441000,14380872
107349302,Nashville,,1428426037000,36.18,-86.81,Caprisha Hudson,TN,1455385373000,14380872
37797782,Nashville,,1424439424000,36.17,-86.78,Cara,TN,1436402216000,14380872
4566030,Murfreesboro,Nashville,1421802442000,35.87,-86.34,Careasa Greer,TN,1460446415000,14380872
52190822,Nashville,,1400084363000,36.11,-86.78,Carla Williams,TN,1455393049000,14380872
141390042,Nashville,Nashville,1429831577000,36.17,-86.72,Carol Bryant,TN,1430260858000,14380872
189999132,Nashville,,1437577456000,36.15,-86.86,Caroline,TN,1437577456000,14380872
4128698,Saint Louis,St Louis,1428372129000,38.66,-90.46,Carrie Jeffries,MO,1484441721000,14380872
154287672,Arrington,"Nashville, TN",1470091201000,35.86,-86.66,Carrie Stokes,TN,1470091201000,14380872
187924765,Nashville,,1434561950000,36.17,-86.78,Cassandra Holdsclaw,TN,1436204488000,14380872
145122952,Nashville,,1413760558000,36.06,-86.96,Catherine Suzanne,TN,1413920381000,14380872
102785832,Thompsons Station,,1403189925000,35.8,-86.9,Cathy,TN,1453576698000,14380872
145524752,Nashville,"Nashville, TN",1419353401000,36.22,-86.86,Cathy Jobe,TN,1501638756000,14380872
186378767,Franklin,,1432570705000,35.91,-86.78,catina carney,TN,1451522831000,14380872
98586592,Nashville,"Nashville, TN",1414633073000,36.11,-86.73,catina carney,TN,1414633073000,14380872
106198682,Murfreesboro,,1473733953000,35.87,-86.44,Cayla,TN,1473733953000,14380872
5660496,Nashville,"Omaha, NE",1422887166000,36.08,-86.72,Cha,TN,1455038779000,14380872
190896444,Antioch,,1480557062000,36.04,-86.64,Chandra Holloman,TN,1504024175000,14380872
186357640,Nashville,,1429498606000,36.17,-86.78,Chanel Patterson,TN,1442428681000,14380872
141140432,Mount Juliet,,1427807001000,36.22,-86.52,Charlie trotter,TN,1443109829000,14380872
190002853,Hartsville,,1437070120000,36.39,-86.16,Charmaine Carraway,TN,1447043409000,14380872
206201980,Old Hickory,,1465142987000,36.25,-86.63,Cheryl Pryor,TN,1468099650000,14380872
199213911,Goodlettsville,,1454694911000,36.33,-86.74,Cheryl Whitt,TN,1454694911000,14380872
196976333,Ashland City,Northern Kentucky,1450400240000,36.28,-87.07,Christina Blust,TN,1451950811000,14380872
182613138,Clarksville,Clarksville,1416362001000,36.53,-87.35,Christina Clark,TN,1416362001000,14380872
10055195,Murfreesboro,,1462502368000,35.87,-86.44,Christine,TN,1462502368000,14380872
155172922,Lebanon,,1404754445000,36.21,-86.31,Christine Buckley,TN,1404754445000,14380872
14295814,Hendersonville,Nashville,1429188889000,36.3,-86.62,Christine Kolek,TN,1429204546000,14380872
198588520,Clarksville,,1459293843000,36.56,-87.41,Christine Roth,TN,1461029296000,14380872
130645752,Antioch,Antioch,1410915816000,36.04,-86.64,Christine Tolliverc,TN,1445957019000,14380872
226207184,Nashville,,1494275699000,36.17,-86.78,Christine Wilcox,TN,1506133772000,14380872
13917237,Nashville,,1456918387000,36.16,-86.79,Cindy Clark,TN,1469890080000,14380872
158069392,Nashville,,1449509167000,36.2,-86.78,CoachK,TN,1449509167000,14380872
118907452,Nashville,,1405224696000,36.18,-86.81,Courtney Star Murphy,TN,1411512086000,14380872
147552452,Nashville,,1400607111000,36.17,-86.72,Crystal C Harris,TN,1440620966000,14380872
124646872,Franklin,,1400173046000,35.92,-86.89,Crysti Caro,TN,1400185556000,14380872
13273531,Smyrna,,1408129558000,35.97,-86.51,Dana,TN,1502077965000,14380872
62177382,Nashville,Nashville,1450279390000,36.11,-86.78,Dana Marie,TN,1454952611000,14380872
149104712,Smyrna,"Campbellsville, KY",1425963148000,35.97,-86.51,Dana Milby,TN,1461105972000,14380872
208816343,Nashville,,1468355049000,36.08,-86.72,Danielle Cevallos,TN,1468711031000,14380872
87163362,Nashville,,1458836956000,36.17,-86.78,Danielle Revelette,TN,1458836956000,14380872
9529468,Los Angeles,,1432163240000,33.97,-118.24,DaNietra,CA,1456443241000,14380872
159898102,Nashville,,1407767355000,36.18,-86.74,Darla,TN,1407767355000,14380872
191506413,La Vergne,,1439941174000,36.01,-86.57,Darsheena Haircreatedlavishly Fe,TN,1442266115000,14380872
160896812,La Vergne,,1407709856000,36.05,-86.54,Dawn,TN,1412649410000,14380872
13196931,Franklin,Franklin,1400087291000,35.93,-86.81,Dawn Keglor,TN,1400087291000,14380872
126860232,Nashville,Nashville,1460688633000,36.22,-86.77,De'Angela Alexander,TN,1460688633000,14380872
137252472,Hermitage,,1400514931000,36.19,-86.6,Debbie Graf,TN,1404417242000,14380872
63169492,Nashville,,1400156595000,36.17,-86.72,Debbie Hill,TN,1457723232000,14380872
196898085,La Vergne,,1455024699000,36.01,-86.57,Debbie Jessee,TN,1455594209000,14380872
146808812,Nashville,Nashville,1400188690000,36.22,-86.86,Debbie Jones,TN,1404087988000,14380872
105594682,Nashville,,1400174296000,36.17,-86.72,Debbie Trombley,TN,1488389749000,14380872
12766895,Nashville,"Toronto, Ontario, Canada",1437596793000,36.11,-86.86,Debby Hill,TN,1483623874000,14380872
135029402,Knoxville,,1428866895000,35.86,-84.13,Deborah McGaugh,TN,1437995735000,14380872
8183441,Franklin,"Prospect Park, PA",1405977527000,35.92,-86.89,deborah Schertz,TN,1408976033000,14380872
179364462,Antioch,,1418098929000,36.17,-86.88,Debra Barfield,TN,1467760182000,14380872
127168452,Nashville,,1445590968000,36.22,-86.77,Dee,TN,1484570139000,14380872
62174162,Nashville,,1400643881000,36.13,-86.8,Dee Doochin,TN,1413483254000,14380872
183788693,Antioch,,1421870755000,36.04,-86.64,Dee Hammonds,TN,1421870755000,14380872
9068902,Nashville,Nashville,1492639572000,36.22,-86.77,denikka harris,TN,1492639572000,14380872
213158521,Nashville,,1474159749000,36.17,-86.72,Denise Admire,TN,1474159749000,14380872
61238712,Nashville,Columbus,1425434865000,36.14,-86.74,Denise Godwin,TN,1486578365000,14380872
196352197,Nashville,,1449086020000,36.17,-86.72,Denise Marcia,TN,1460389574000,14380872
206199305,Antioch,,1464703798000,36.04,-86.64,derrian springs,TN,1464703798000,14380872
150039922,Mesa,,1471232221000,33.4,-111.73,Destiney,AZ,1471232221000,14380872
234283796,Antioch,,1503012536000,36.04,-86.64,Diaminique Goodwin,TN,1507935666000,14380872
183811463,Antioch,"Nashville, TN",1429180164000,36.04,-86.64,Dionne Harris,TN,1487444309000,14380872
108678782,Nashville,,1434478763000,36.17,-86.78,Domonique Townsend,TN,1436327337000,14380872
37412312,Nashville,,1447505805000,36.16,-86.79,Donna Dampier,TN,1447505805000,14380872
13427947,Nashville,Memphis and Chicago,1400088471000,36.16,-86.79,Donna Unconventional Spencer,TN,1402412534000,14380872
77263282,Clarksville,"Pioneer, LA",1445899506000,36.53,-87.35,Dorothy Sparrow-Stuart,TN,1483646474000,14380872
198716655,Hendersonville,"Jackson, TN",1455144467000,36.32,-86.61,Dr. Brittany McMillen,TN,1456947495000,14380872
183908945,Nolensville,,1422248572000,35.94,-86.67,Dr. Heidi Petak,TN,1429108950000,14380872
12192350,Nashville,,1422195897000,36.18,-86.74,Dr. Leslie G Shew,TN,1449769943000,14380872
81951732,Nashville,,1501994091000,36.17,-86.78,Elisa Beagle,TN,1501994091000,14380872
7133630,Nashville,Poland ,1428856398000,36.15,-86.86,Elizabeth Gregal,TN,1453899722000,14380872
86520362,North Charleston,,1426016950000,32.89,-80.06,Elizabeth Pagano McGuire,SC,1451694403000,14380872
10460196,Franklin,,1425396283000,35.92,-86.89,Ellen Krizman,TN,1501945537000,14380872
198109219,Nashville,"Nashville, TN",1454900055000,36.08,-86.72,Emily Elizabeth Goodin,TN,1456411761000,14380872
93060442,Nashville,,1449813063000,36.17,-86.78,Emily Muro,TN,1449813063000,14380872
17545251,Nashville,Nashville,1414424159000,36.06,-86.96,Emma Cribb,TN,1429105298000,14380872
136264352,Mount Juliet,Mt Juliet ,1434742244000,36.22,-86.52,Enas Shihab,TN,1434742244000,14380872
184955842,Murfreesboro,,1425498522000,35.87,-86.34,Erica,TN,1425498522000,14380872
211479025,Nashville,,1483308054000,36.17,-86.72,Erica Battle,TN,1483308054000,14380872
199507852,Nashville,,1455147641000,36.08,-86.72,Erika HersheyKisses Johnson,TN,1455147641000,14380872
201217278,Smyrna,,1457570834000,35.97,-86.51,Erika Johnson,TN,1462588691000,14380872
113909902,Nashville,,1444514356000,36.17,-86.72,Erin,TN,1444592695000,14380872
182559006,Whites Creek,,1437086557000,36.27,-86.83,Erin Battaglia-Owenby,TN,1441201938000,14380872
156787922,Nashville,,1405561433000,36.17,-86.78,Erin OConnor ,TN,1405561433000,14380872
156336952,Nashville,,1405352968000,36.17,-86.72,Esther Bailey-Bass,TN,1406047498000,14380872
194955358,Smyrna,,1446492913000,35.97,-86.51,Felicia Dortch,TN,1449365385000,14380872
129804582,Nashville,,1492609944000,36.17,-86.78,Francesca,TN,1492609944000,14380872
185134915,Franklin,,1429124559000,35.92,-86.89,Genevieve Duenas,TN,1440607520000,14380872
183567382,Hendersonville,,1421210001000,36.32,-86.61,Gina Orner,TN,1487450149000,14380872
14531661,Nashville,"Eugene, OR",1424537203000,36.17,-86.72,GINGER W,TN,1424537203000,14380872
1124238,Nashville,,1400089548000,36.18,-86.74,Gloria,TN,1446813987000,14380872
184414122,Nashville,,1423969744000,36.13,-86.8,Grace McCaw,TN,1455826090000,14380872
126339752,Nashville,,1400173552000,36.1,-86.66,Gusty Paffrath,TN,1400173552000,14380872
186744563,Nashville,Nashville,1459201881000,36.17,-86.72,Heather ,TN,1471049436000,14380872
182827125,Nashville,,1417640881000,36.17,-86.72,Heather Bourkney,TN,1419358966000,14380872
237253558,Antioch,,1506198187000,36.04,-86.64,Heather Briggs,TN,1506198187000,14380872
225185697,Nashville,,1491514514000,36.06,-86.96,Heather McAlister,TN,1491514514000,14380872
203479009,Mount Juliet,,1460848652000,36.22,-86.52,Heather Smith,TN,1465361345000,14380872
206184516,London,,1499961157000,51.45,-0.22,Helen Buffy,17,1499961157000,14380872
57562612,Hendersonville,Goodlettsville,1454862270000,36.32,-86.61,helen powers,TN,1454862270000,14380872
184979761,Mc Minnville,"Mc Minnville, TN",1425568781000,35.68,-85.78,Holly Newby Sizemore,TN,1427984910000,14380872
8914384,Hermitage,Hermitage,1457382550000,36.19,-86.6,hollyjoy44,TN,1458233726000,14380872
8747007,Nashville,Nashville,1495980961000,36.17,-86.78,IAmMarschelle ?,TN,1505799113000,14380872
13587871,Nashville,,1420670149000,36.08,-86.72,Ila Foster,TN,1472824230000,14380872
159441602,Murfreesboro,,1408322662000,35.78,-86.33,Ivy Blackmon,TN,1408322662000,14380872
186204458,Nashville,,1429115471000,36.17,-86.72,Jacquelyn Fisher,TN,1429278688000,14380872
176273422,Nashville,,1425933264000,36.09,-86.82,Jamie Herron,TN,1425933264000,14380872
130952122,Nashville,,1418069396000,36.16,-86.79,Jamie Winn Harris,TN,1456361130000,14380872
155052242,Nashville,,1411058436000,36.17,-86.72,Jan Onstott,TN,1414616138000,14380872
184408084,Nashville,,1423839533000,36.17,-86.72,Jane Lee,TN,1428634315000,14380872
190534702,Nashville,"Melbourne, AU",1444166490000,36.17,-86.78,Jane McGrath,TN,1455292577000,14380872
66358532,Nashville,,1447251855000,36.08,-86.72,Janell Webb,TN,1456330895000,14380872
187963864,Antioch,,1434067302000,36.04,-86.64,Janelle Douglas,TN,1461268984000,14380872
204554449,Antioch,,1463148100000,36.04,-86.64,Janelle Roberts,TN,1463148100000,14380872
62132632,Nashville,,1437005279000,36.17,-86.78,Janice,TN,1437005279000,14380872
13687747,Clarksville,Clarksville,1475632470000,36.49,-87.23,Janice Elliott,TN,1475632470000,14380872
203912599,Nashville,"Pulaski, TN",1461723798000,36.1,-86.66,Janice Martin,TN,1462972438000,14380872
212663110,Nashville,Nashville,1499798060000,36.08,-86.72,Janna Eddy,TN,1504107298000,14380872
200640608,Nashville,,1456735438000,36.17,-86.72,JaRae Brown,TN,1456735438000,14380872
92755402,Nashville,"Memphis, TN",1437968962000,36.17,-86.72,Jasmine Garner,TN,1476062363000,14380872
197087035,Nashville,,1453339312000,36.17,-86.78,Jasmine W,TN,1455677288000,14380872
182510202,Chattanooga,,1415816086000,35.01,-85.27,Jasmine Ware,TN,1432320904000,14380872
193287273,Nashville,,1457641008000,36.09,-86.82,Jazzmyne Sims,TN,1478445790000,14380872
185775376,Nashville,,1427986895000,36.07,-86.72,Jazzy Sdlihc,TN,1427986895000,14380872
58232232,Nashville,nashville tn,1443634368000,36.16,-86.66,jennelle,TN,1460410667000,14380872
184303880,Nashville,,1423512564000,36.11,-86.78,Jennie Smythe,TN,1423754523000,14380872
4250146,Nashville,,1415760835000,36.04,-86.73,Jennifer,TN,1421458806000,14380872
182786883,Nashville,,1417411793000,36.17,-86.78,Jennifer,TN,1417411793000,14380872
91343492,Franklin,,1425859071000,35.99,-86.9,Jennifer erdman,TN,1432831481000,14380872
163380592,Hermitage,Troy,1435700442000,36.19,-86.6,Jennifer Lynn,TN,1436388061000,14380872
161074042,Clarksville,,1407902439000,36.49,-87.23,Jennifer N,TN,1408497025000,14380872
145267652,Murfreesboro,,1412288366000,35.87,-86.44,Jennifer Wilburn,TN,1412288366000,14380872
74917532,Nashville,Nashville,1435428892000,36.11,-86.86,Jerilyn Morgan,TN,1435428892000,14380872
68245632,Portland,,1406351827000,36.57,-86.49,Jessica Bailey,TN,1409708946000,14380872
175943962,Nashville,,1412559659000,36.17,-86.72,Jessica Beasley,TN,1449626937000,14380872
59475472,Nashville,,1457993032000,36.08,-86.72,Jessica Jernigan,TN,1458707196000,14380872
200283783,Hendersonville,,1461271916000,36.32,-86.61,Jessica Katz,TN,1461770071000,14380872
188534952,Nashville,,1434136575000,36.08,-86.72,Jessica R. Hardy,TN,1493093466000,14380872
191583927,Nashville,,1440094984000,36.17,-86.72,Jessie,TN,1440693605000,14380872
198200271,Nashville,,1463888825000,36.13,-86.8,Jill Furlong,TN,1463888825000,14380872
11125819,Antioch,Knoxville,1431353048000,36.04,-86.64,Jocelyn Michel,TN,1506441023000,14380872
99921692,Nashville,,1400090066000,36.17,-86.72,Judy Quarles,TN,1426395267000,14380872
182746562,Nashville,,1417141316000,36.17,-86.72,Julie Berry,TN,1417556365000,14380872
137821062,Mount Juliet,Mount Juliet,1423480400000,36.22,-86.52,Julie N' James Tucker,TN,1505467550000,14380872
189310979,Old Hickory,,1453764083000,36.25,-86.63,Julie Ruesewald,TN,1453764083000,14380872
59778252,Nashville,,1452727925000,36.17,-86.78,Julie S,TN,1452727925000,14380872
158765232,Clarksville,,1453332088000,36.53,-87.35,KacieJo,TN,1472223321000,14380872
116914432,Nashville,,1444672720000,36.16,-86.79,Kaitlyn Smous,TN,1445867821000,14380872
14319952,Nashville,,1406068370000,36.08,-86.72,Kaneesha D. Martin,TN,1406078213000,14380872
112666282,Nashville,,1408411654000,36.22,-86.77,Kara,TN,1408411654000,14380872
197177390,Nashville,,1451441000000,36.1,-86.66,Karen Matthews,TN,1451441000000,14380872
195432998,Nashville,,1447274791000,36.19,-86.8,Karla,TN,1457366202000,14380872
177736782,Nashville,,1414429822000,36.14,-86.74,Kayla Wieck,TN,1414611149000,14380872
127643572,Nashville,Nashville,1420818206000,36.16,-86.79,Kee,TN,1506708833000,14380872
195156557,Nashville,,1449540077000,36.1,-86.66,keisha,TN,1450189113000,14380872
11151756,Brentwood,Brentwood,1400611956000,36.0,-86.79,Kelli Gabriel,TN,1400611956000,14380872
106245022,Franklin,,1400178561000,35.93,-86.81,Kelli Zane,TN,1436204380000,14380872
192114135,Nashville,,1455559077000,36.1,-86.66,Kellie Morgan,TN,1455559077000,14380872
182523838,Nashville,,1416326121000,36.17,-86.72,Kellie Patton,TN,1446684631000,14380872
117083472,Nashville,,1417613249000,36.18,-86.74,Kendall,TN,1456460954000,14380872
200227453,Nashville,,1456162082000,36.06,-86.96,Keniece Burks,TN,1456893669000,14380872
184362653,Nashville,,1423692563000,36.11,-86.78,Kennedy,TN,1423692563000,14380872
146507332,Franklin,Franklin,1406159036000,35.92,-86.89,Keri Jordan,TN,1406159036000,14380872
186475263,Nashville,,1429756606000,36.17,-86.72,Keturah Barnett,TN,1432758963000,14380872
13293891,Salt Lake City,,1452111322000,40.77,-111.84,Kim,UT,1458148082000,14380872
186593319,Nashville,,1468178857000,36.17,-86.78,Kim,TN,1474957736000,14380872
188074433,Antioch,,1433163097000,36.04,-86.64,Kim Dale,TN,1436881582000,14380872
3016909,Nashville,Nashville,1446608155000,36.15,-86.86,Kim L.,TN,1447861301000,14380872
184589457,Nashville,,1426115896000,36.17,-86.72,Kim Martin,TN,1428425370000,14380872
128742362,Nashville,,1432146271000,36.15,-86.79,Kim Martin,TN,1432146271000,14380872
185302342,Hendersonville,,1428372074000,36.32,-86.61,Kim Musgrove,TN,1457366487000,14380872
184578816,Nashville,,1424377790000,36.17,-86.72,Kimberly Clark,TN,1424377790000,14380872
163021932,Nashville,,1450112653000,36.17,-86.78,Kimberly Golladay,TN,1456350215000,14380872
194991443,Nashville,,1446471049000,36.16,-86.79,Kishia Harris,TN,1456409826000,14380872
189876576,Nashville,,1436819558000,36.17,-86.72,Kizzy Calloway,TN,1436819558000,14380872
99480812,Nashville,,1405607578000,36.08,-86.72,Kristal Hall Boone,TN,1405607578000,14380872
20531501,Nashville,,1463166431000,36.17,-86.78,Kristen Anderson,TN,1463590208000,14380872
190101566,Madison,,1437270945000,36.26,-86.71,Kristi Alderson,TN,1456265141000,14380872
49813472,Nashville,,1412634370000,36.08,-86.72,Kristie Martin,TN,1420922176000,14380872
91685282,Brentwood,Denver,1442862488000,36.0,-86.79,kristin brogaard,TN,1500946279000,14380872
210273983,Murfreesboro,,1495911800000,35.87,-86.34,Kristin Sarno,TN,1495911800000,14380872
14177771,Hendersonville,,1438094020000,36.32,-86.61,Kristin Westerman,TN,1453750094000,14380872
182745655,Nashville,,1417135353000,36.17,-86.72,"Kristle ""Kookie""",TN,1455056905000,14380872
187357652,Nashville,,1431742014000,36.17,-86.78,Kristy B and Rachel S,TN,1470489195000,14380872
14081696,Nashville,Nashville,1436567136000,36.22,-86.77,Kristy Wynn Ripmaster,TN,1437056152000,14380872
3438412,Nashville,"San Francisco, Ca",1436798642000,36.15,-86.86,Kyrie Lynn,TN,1478787769000,14380872
178011382,Madison,,1413422532000,36.26,-86.71,L'Oreal Cherry,TN,1461105626000,14380872
5489286,Clarksville,"Clarksville, TN",1400099769000,36.6,-87.34,LaCita,TN,1457640263000,14380872
196945761,Nashville,,1450322409000,36.18,-86.74,Lacrecia Dangerfield,TN,1458129959000,14380872
115765052,Madison,,1467628082000,36.25,-86.71,LaLa ,TN,1467628082000,14380872
200232804,Nashville,,1456165785000,36.17,-86.72,Lanesia,TN,1456165785000,14380872
190040055,Hermitage,,1453342964000,36.19,-86.6,LaTishia,TN,1453342964000,14380872
12567737,Antioch,,1435482508000,36.17,-86.88,Latonya King (Fit for a Queen),TN,1435482508000,14380872
173743022,Nashville,,1411678360000,36.17,-86.72,LaTonya Martin,TN,1457412117000,14380872
204373098,Fosterville,,1462148910000,35.75,-86.39,Latoya,TN,1462148910000,14380872
197085995,Smyrna,,1450668703000,35.97,-86.51,LaToya NaShae,TN,1478045792000,14380872
7895045,Antioch,"Evansville, IN",1429062381000,36.04,-86.64,LaToya Tramill,TN,1477557356000,14380872
170531162,Mount Juliet,,1464701429000,36.22,-86.52,Laura Blevins,TN,1464701429000,14380872
190364148,Nashville,,1437769112000,36.13,-86.8,Laura Frances Goodwin Zuhl,TN,1437769112000,14380872
158884172,Nashville,,1413575481000,36.17,-86.72,Laura Pinell,TN,1429194681000,14380872
78791602,Murfreesboro,,1417896270000,35.82,-86.45,Lauren,TN,1439578680000,14380872
202383180,Nashville,,1460080568000,36.11,-86.86,Lauren Kiproff,TN,1461186395000,14380872
186063541,Nashville,,1428764315000,36.17,-86.78,Lavesha,TN,1439161273000,14380872
12752316,Washington,Franklin,1474322218000,38.9,-77.04,LB,DC,1474322218000,14380872
46472652,Belton,Austin,1433781221000,31.1,-97.47,Leah Edwrds,TX,1433781221000,14380872
114180132,Nashville,Nashville,1444933411000,36.18,-86.74,Leah Glover Hayes,TN,1454086652000,14380872
14474268,Nashville,,1403680901000,36.22,-86.86,Leah McGraw,TN,1403680901000,14380872
191560634,Nashville,,1440638179000,36.17,-86.72,Leigh Ann,TN,1456256659000,14380872
151111692,Nashville,,1403039470000,36.17,-86.78,Leigh Jackson,TN,1403207980000,14380872
14631019,Brentwood,Brentwood,1449706879000,36.0,-86.79,Leisa Payne,TN,1458137986000,14380872
165650982,Baltimore,"Los Angeles, CA",1420169301000,39.29,-76.62,Leona,MD,1422487258000,14380872
147588062,Nashville,,1400619912000,36.17,-86.72,Lesley Ann Pritchard,TN,1400786174000,14380872
183460035,Madison,,1455854929000,36.26,-86.71,Letisha Green,TN,1455854929000,14380872
141658442,Nashville,Nashville,1456446242000,36.17,-86.78,Lezlie Oliver,TN,1458077887000,14380872
198346242,Brentwood,"Miami, FL",1453244604000,36.0,-86.79,Linda Hope,TN,1454552558000,14380872
189349121,Springfield,,1435808977000,36.52,-86.87,Lindsay Robertson ,TN,1435808977000,14380872
184798454,Nashville,,1425049613000,36.17,-86.72,Lindsey Ann Cox,TN,1425049613000,14380872
191098462,Nashville,Nashville,1490147322000,36.17,-86.79,Lindsey Miller,TN,1490412238000,14380872
166640612,Nashville,"New York, NY",1429054248000,36.07,-86.74,Lis,TN,1441396742000,14380872
10892033,Nashville,Nashville,1421613606000,36.08,-86.72,Lisa,TN,1421613606000,14380872
146787152,Nashville,,1400179334000,36.17,-86.78,Lisa Hoy-Realtor,TN,1400179334000,14380872
50764602,Nashville,Philadelphia,1420495759000,36.17,-86.78,Lisa Marie  / Realtor,TN,1420495759000,14380872
109625682,Brentwood,,1400088188000,36.0,-86.79,Lisa R ,TN,1400088188000,14380872
200305854,Lookout Mountain,,1456260733000,35.0,-85.35,Liv Marie,TN,1456260733000,14380872
183783884,Nashville,,1426464118000,36.17,-86.78,Liza D,TN,1447937398000,14380872
1892740,Nashville,,1405548047000,36.15,-86.86,Loretta Peters-Martin,TN,1452725060000,14380872
55517692,Brentwood,Richland WA,1485619985000,36.0,-86.79,Lori,TN,1485619985000,14380872
170531402,Nashville,,1426019877000,36.16,-86.79,lori underwood,TN,1426019877000,14380872
189698984,Lewisburg,,1436469190000,35.44,-86.79,Lorie Novelly,TN,1460975569000,14380872
10484841,Nashville,,1435117673000,36.17,-86.78,Louisa Clary,TN,1441303539000,14380872
185842398,Brentwood,,1430326172000,36.0,-86.79,Lucy S. Price,TN,1430330651000,14380872
13020262,Brentwood,Brentwood,1409079127000,36.0,-86.79,Maggie Strong,TN,1461625643000,14380872
131905482,Nashville,,1411427206000,36.17,-86.78,Mais,TN,1411427206000,14380872
194976174,Nashville,,1446436491000,36.08,-86.72,Makeda Watson,TN,1455049191000,14380872
157746232,Brentwood,,1435842373000,36.0,-86.79,Marcy Pruett,TN,1435842373000,14380872
14098425,Nashville,"Nashville, TN",1414171805000,36.16,-86.79,Maria Grasso,TN,1420756204000,14380872
198757651,Nashville,,1453984325000,36.17,-86.78,Mariah Jones,TN,1454478113000,14380872
170933172,Morrison,,1415372128000,35.59,-85.94,Marie,TN,1415380389000,14380872
6021130,Gallatin,,1400111139000,36.39,-86.45,marirae,TN,1400111139000,14380872
155294112,Nashville,,1405048587000,36.17,-86.78,Markeisha Wardell,TN,1410940754000,14380872
186222730,Nashville,,1430772028000,36.06,-86.96,Martha Lupai,TN,1457743991000,14380872
69568352,Nashville,Oakmont,1440635962000,36.1,-86.87,Mary Lou Moewe,TN,1442762213000,14380872
171070582,Antioch,,1411693509000,36.04,-86.64,Maud Edmondson,TN,1437009231000,14380872
204338523,Murfreesboro,,1499952439000,35.82,-86.45,Mbombo Kazadi,TN,1499952439000,14380872
9271405,Nashville,Nashville,1424737792000,36.11,-86.78,McRae Patterson,TN,1501566979000,14380872
117889212,Nashville,,1437163125000,36.09,-86.82,Megan Menke,TN,1437163125000,14380872
11378002,Nashville,Illinois ,1410792286000,36.17,-86.79,Melinda Plummer,TN,1474997030000,14380872
181584742,Lebanon,,1421267679000,36.4,-86.22,Michele Reed,TN,1426682713000,14380872
10031920,Nashville,Nasvhille,1465253462000,36.18,-86.81,Michelle B.,TN,1470895864000,14380872
111622142,Brentwood,Brentwood,1482273031000,36.0,-86.79,Michelle Culver,TN,1482273031000,14380872
186255970,Nashville,,1429239087000,36.18,-86.64,Michelle Harris (Scentsible Oils,TN,1449756499000,14380872
184530249,Tallahassee,,1452022297000,30.46,-84.24,Mindy Johnson,FL,1460751811000,14380872
173228792,Nashville,,1412035551000,36.18,-86.74,Misty W Petak,TN,1462772945000,14380872
183381715,Nashville,Memphis,1424579779000,36.08,-86.72,Miyana,TN,1485301737000,14380872
146060432,Nashville,,1399777913000,36.17,-86.72,MOJO Marketing + PR,TN,1428765647000,14380872
99925102,Nashville,,1408231569000,36.08,-86.72,Monchiere' Jones,TN,1460481056000,14380872
3695527,Nashville,Poplar Bluff,1447971007000,36.09,-86.82,Monica,TN,1447971007000,14380872
16025871,Nashville,,1400353913000,36.22,-86.77,Monica samuel,TN,1467601621000,14380872
201133194,Nashville,,1457450585000,36.09,-86.82,Mridu Parikh,TN,1488302505000,14380872
217113701,Nashville,,1479830993000,36.17,-86.72,Mrz Kennetha Patterson,TN,1479830993000,14380872
184976810,Brentwood,"Chattanooga, TN",1425998685000,36.0,-86.79,mtillman,TN,1428054543000,14380872
201927569,Nashville,,1461357749000,36.17,-86.78,Myesha Thomas,TN,1475708120000,14380872
146020302,Nashville,,1411822835000,36.17,-86.78,Nacona Person,TN,1411911915000,14380872
224551901,Nashville,,1490625195000,36.17,-86.72,Nahil Andujar,TN,1490625195000,14380872
2309521,Antioch,Memphis,1414217615000,36.04,-86.64,Naja,TN,1414217615000,14380872
13510088,Brentwood,Brentwood,1413815276000,36.0,-86.79,Nakita Click,TN,1421439165000,14380872
170306142,Nashville,"Seattle, WA",1413519822000,36.11,-86.86,Nakita Springsted-Knudson,TN,1413538755000,14380872
204660330,Lebanon,,1462584731000,36.21,-86.31,Nancy Cottrell,TN,1462584731000,14380872
182822294,Nashville,,1420903284000,36.17,-86.72,Narkieta D. Neal,TN,1420903284000,14380872
146610642,Nashville,,1400085715000,36.17,-86.72,Natasha Young,TN,1410969213000,14380872
7460542,Nashville,,1424814740000,36.17,-86.78,Nekasha Pratt,TN,1449805055000,14380872
41747642,Spring Hill,Spring Hill,1400086922000,35.76,-86.88,Nery Duarte,TN,1486394736000,14380872
186921100,Nashville,,1438621990000,36.15,-86.86,Netra,TN,1508435374000,14380872
108036582,Nashville,,1467069910000,36.17,-86.78,Nicole Beyondbeauty Davis,TN,1467069910000,14380872
147102022,Nashville,,1402578580000,36.17,-86.79,Nicole Hoglund,TN,1406124913000,14380872
183423583,Old Hickory,,1420760700000,36.25,-86.63,Nicole Kingsley,TN,1451763118000,14380872
182648662,Nashville,,1419878857000,36.08,-86.72,Nidhi,TN,1498228070000,14380872
212573565,Nashville,,1473389542000,36.21,-86.72,Nikki B.,TN,1473389542000,14380872
173361522,Tampa,Tampa ,1421955116000,28.11,-82.36,Olivia Chapman,FL,1449071513000,14380872
147138092,Hephzibah,"Detroit, MI",1405803415000,33.34,-82.07,Oracle Bey a.k.a Dawn,GA,1457919281000,14380872
85392582,Murfreesboro,,1439930125000,35.78,-86.33,pamela,TN,1460762834000,14380872
11883968,Franklin,Franklin,1442492552000,35.92,-86.89,Pat Thurmond,TN,1442492552000,14380872
183880971,Atlanta,,1422203267000,33.86,-84.4,Patrice,GA,1498850063000,14380872
194964144,Nashville,,1455426343000,36.1,-86.66,Patricia Malone,TN,1470009869000,14380872
115459212,Nashville,,1412197428000,36.16,-86.79,Paulina,TN,1420745763000,14380872
13838358,Franklin,hermitage,1400195656000,35.92,-86.89,Peggy Johnson,TN,1401383656000,14380872
146978152,Mountain Pine,,1400286550000,34.58,-93.16,Priscilla Romans,AR,1400286550000,14380872
158511432,Murfreesboro,,1423256542000,35.87,-86.34,Quan Cooper,TN,1490320620000,14380872
162888712,Brentwood,,1408713757000,36.0,-86.79,Queen Campbell ,TN,1455236642000,14380872
13322354,Nashville,,1421900498000,36.16,-86.79,R. Joyce Heard,TN,1421900498000,14380872
183454690,Decatur,,1421452740000,33.77,-84.3,Rachel Barnett,GA,1421452740000,14380872
159550702,Nashville,,1421932470000,36.08,-86.72,Rachel Bockenstedt,TN,1436282317000,14380872
185881770,Hendersonville,,1428376811000,35.32,-82.49,Raeshal Solomon,NC,1495339976000,14380872
196348087,Nashville,,1449078445000,36.15,-86.86,Rayvin Ashlee Mosley Hall,TN,1449078445000,14380872
14570291,Nashville,,1432682379000,36.22,-86.86,Rebecca Whitney,TN,1493818095000,14380872
10578919,Portland,Portland,1425925954000,36.57,-86.49,Regina Hoover,TN,1425925954000,14380872
10108476,Nashville,,1401394031000,36.17,-86.72,Renata ,TN,1406064718000,14380872
13533889,Smyrna,,1401483745000,35.97,-86.51,Rene,TN,1451340738000,14380872
17658781,Nashville,,1410533146000,36.17,-86.78,Renee Burwell,TN,1410639615000,14380872
74011552,Nashville,,1463795410000,36.13,-86.8,Rho,TN,1464399956000,14380872
103431042,Pace,,1455763160000,33.79,-90.86,Rhonda Hart Currier,MS,1455763160000,14380872
185407708,Nashville,,1426867233000,36.17,-86.78,Rhonda Lamb,TN,1455940438000,14380872
114849462,Nashville,,1421307335000,36.17,-86.78,Robin,TN,1436903786000,14380872
202903838,Nashville,,1460034255000,36.16,-86.79,Robin Channell,TN,1460034255000,14380872
3453866,Antioch,,1429842670000,36.04,-86.64,Ruth Gomez,TN,1432674053000,14380872
183993178,Atlanta,Atlanta,1443131993000,33.61,-84.5,Sabrina ,GA,1457381964000,14380872
65513192,Nolensville,"Nolensville, TN",1445919900000,35.94,-86.67,Sally,TN,1445919900000,14380872
190016485,Nashville,,1468030466000,36.11,-86.86,Samantha,TN,1470340488000,14380872
91927932,Nashville,"Nashville, TN",1440174771000,36.17,-86.78,Samantha Pointer,TN,1461256286000,14380872
81334362,Murfreesboro,Murfreesboro ,1416749296000,35.82,-86.45,Sandria,TN,1426847143000,14380872
155745912,Nashville,Chicago,1436402531000,36.13,-86.8,Sarah,TN,1458143536000,14380872
198837476,Spring Hill,,1456245560000,35.76,-86.88,Sarah Garringer,TN,1456245560000,14380872
182906708,Nashville,,1418102803000,36.17,-86.72,Sarah Kate,TN,1418102803000,14380872
159163382,Franklin,,1407070821000,35.93,-86.81,Sarah Maxey,TN,1407070821000,14380872
191600203,Gallatin,,1461022021000,36.39,-86.45,Sarah Rohrer Alexander,TN,1461022021000,14380872
182480014,Nashville,,1415665014000,36.17,-86.72,Savannah Gordon,TN,1415665014000,14380872
195123934,Nashville,,1446697965000,36.08,-86.72,Shante Telfer,TN,1457366449000,14380872
127998902,Nashville,,1457220835000,36.08,-86.72,Sharelle,TN,1457220835000,14380872
227265962,Nashville,Nashville,1499436005000,36.22,-86.77,Sharika,TN,1499436005000,14380872
8024895,Nashville,Franklin,1429619570000,36.06,-86.96,Sharon Rowley,TN,1429619570000,14380872
146616642,Madison,,1400089818000,36.26,-86.71,SharonQueen Campbell,TN,1417563341000,14380872
199385993,Nashville,,1454968834000,36.17,-86.72,Shasmond Burnett,TN,1455368048000,14380872
95524802,Atlanta,,1469715855000,33.86,-84.4,Shatava,GA,1469715855000,14380872
200470862,Nashville,,1471989475000,36.17,-86.78,Shawntaz Crawford,TN,1472225784000,14380872
203734749,Nashville,,1461204309000,36.17,-86.72,Sheila Dunnells,TN,1461204309000,14380872
200863941,Nashville,Nashville ,1457066424000,36.16,-86.79,Shekinah Faith ,TN,1457066424000,14380872
160414092,Nashville,,1408916890000,36.17,-86.78,Shelley Haynes Heile,TN,1428800352000,14380872
49377972,Nashville,,1446295572000,36.17,-86.78,Sheri Lynn DiGiovanna,TN,1446295572000,14380872
72948292,Franklin,Nebraska,1506799528000,35.92,-86.89,Sheri Spell Stage Hypnotist,TN,1506799528000,14380872
127530522,Franklin,Franklin,1411729414000,35.99,-86.9,Shonda Alexander,TN,1436982608000,14380872
183455547,Nashville,"Philadelphia, PA",1421092920000,36.17,-86.72,Shyryllya Bradley Pickett,TN,1421451834000,14380872
139478132,Nashville,,1421349086000,36.18,-86.74,Sophie Gault,TN,1421349086000,14380872
413321,Nashville,,1425584521000,36.17,-86.78,Stacey Lanier,TN,1500066559000,14380872
186232564,Nashville,,1429187637000,36.17,-86.72,Staci Coleman,TN,1460387727000,14380872
191291695,Nashville,,1440287782000,36.17,-86.78,Stacie Milligan,TN,1454202057000,14380872
13379218,Nashville,Nashville,1454049490000,36.21,-86.72,Stacy,TN,1501243411000,14380872
78543002,Smyrna,,1502030173000,35.97,-86.51,Star M. Holmes-Word,TN,1502030173000,14380872
123283912,Nashville,,1467832848000,36.22,-86.77,Stephanie ,TN,1467832848000,14380872
8208583,Nashville,,1461371138000,36.1,-86.66,Stephanie,TN,1461371138000,14380872
195203706,Nashville,,1452023766000,36.08,-86.72,Stephanie,TN,1453253776000,14380872
23720991,Clarksville,Clarksville,1458821528000,36.53,-87.35,Stepheny Wilson,TN,1458929781000,14380872
106513552,Nashville,"Los Angeles, CA",1455597163000,36.22,-86.83,Stephie G.,TN,1467532469000,14380872
188986907,Nashville,"Nashville, TN",1445457885000,36.22,-86.77,suggaNspice.net & ShoeFetish.biz,TN,1453493524000,14380872
3834957,Nashville,Nashville,1500860729000,36.09,-86.82,Susan,TN,1500860729000,14380872
6779322,Nashville,Nashville,1452044471000,36.08,-86.72,Susan,TN,1461108383000,14380872
183203202,Brentwood,,1419983100000,36.0,-86.79,Susannah Devereux,TN,1419983100000,14380872
152734902,Chattanooga,"Nashville, TN",1419295959000,35.04,-85.31,Symone Redmond,TN,1428359132000,14380872
107729492,Clarksville,"Philadelphia, PA",1426490082000,36.53,-87.35,T'marie Hilson,TN,1428963178000,14380872
191737445,Murfreesboro,,1440391575000,35.82,-86.45,Taffiney,TN,1446510288000,14380872
10759046,Murfreesboro,Atlanta,1411225402000,35.82,-86.45,Takisha Smith,TN,1456289498000,14380872
120693352,Nashville,,1400176925000,36.14,-86.74,Tami Kilmarx,TN,1461119337000,14380872
89079592,Clarksville,,1431555046000,36.53,-87.35,Tangi Smith,TN,1460909167000,14380872
199524610,Nashville,,1455172419000,36.17,-86.72,"Taquita Hooten ""Woo""",TN,1455172419000,14380872
156189122,Nashville,,1497554508000,36.18,-86.74,Taylor Schomp,TN,1497554508000,14380872
91969972,Hopewell,Hopewell,1429329910000,37.29,-77.29,Teena,VA,1429329910000,14380872
30404282,Nashville,,1426035800000,36.19,-86.75,Teresa L.,TN,1437967879000,14380872
33152582,Goodlettsville,Houston,1399773892000,36.33,-86.74,Teri Harrison,TN,1461453122000,14380872
83381502,Nashville,Nashville,1407465949000,36.17,-86.78,Tess Hugoboom,TN,1485878392000,14380872
151905112,Franklin,Franklin,1407818747000,35.93,-86.81,Theresa Davis,TN,1410490655000,14380872
185777402,Madison,,1427991883000,36.26,-86.71,Thierrie Patterson Davis,TN,1427991883000,14380872
232549607,Murfreesboro,,1501301482000,35.82,-86.45,Tia Glave,TN,1503979342000,14380872
126301732,Nashville,,1457612729000,36.17,-86.78,Tiffaney Williams,TN,1457612729000,14380872
186041075,Nashville,Detroit ,1428699754000,36.14,-86.74,Tiffaney Williams ,TN,1428954319000,14380872
6957608,Nashville,nashville,1423015715000,36.18,-86.74,Tina Gionis,TN,1473855767000,14380872
62564532,Old Hickory,"New York, NY",1427363365000,36.2,-86.62,Tina Perry,TN,1474741880000,14380872
42941512,Smyrna,,1440272661000,35.97,-86.51,Titishawa seb,TN,1459018796000,14380872
172412412,Smyrna,,1411244635000,35.97,-86.51,Tiya Lettsome,TN,1411244635000,14380872
163524332,Nashville,,1408995262000,36.17,-86.72,Tomia,TN,1410913348000,14380872
166091192,Covington,,1411069138000,33.59,-83.83,Tonette Delk,GA,1424918648000,14380872
217403071,Nashville,,1508290940000,36.17,-86.78,Toni,TN,1508290940000,14380872
194923584,Nashville,"Nashville, TN",1456332482000,36.17,-86.78,Toni,TN,1497196378000,14380872
92649912,Nashville,,1438113821000,36.17,-86.78,Tonya,TN,1453242065000,14380872
170853742,Nashville,,1410832925000,36.17,-86.72,Tonya Jackson,TN,1456536500000,14380872
153846452,Hendersonville,,1476577585000,35.32,-82.49,Tonya Wilson,NC,1476577585000,14380872
184471223,Brentwood,,1425342108000,36.0,-86.79,Toya,TN,1426514561000,14380872
195648553,Murfreesboro,,1447694360000,35.87,-86.34,Transformazing Fitness,TN,1447694360000,14380872
195495598,Franklin,,1447385928000,35.93,-86.81,Trillion Small,TN,1454950064000,14380872
152949242,Nashville,,1423698235000,36.17,-86.78,Tunisia Johnson-Scott,TN,1423698235000,14380872
191503286,Smyrna,,1439935789000,35.97,-86.51,Tyra March-Taylor,TN,1439935789000,14380872
7984807,Antioch,Nashville,1421945066000,36.04,-86.64,Valerie Priester,TN,1460391508000,14380872
193933296,Murfreesboro,,1444527486000,35.82,-86.45,Valerie Stewart,TN,1444527486000,14380872
196619550,Nashville,,1449611121000,36.18,-86.74,Vanessa Helene,TN,1461785017000,14380872
156931602,Nashville,Nashville,1405647262000,36.1,-86.66,Veronica,TN,1418142329000,14380872
184947330,Clarksville,"Joliet, IL",1425654034000,36.53,-87.35,Veronica Conley,TN,1426078712000,14380872
6768499,La Vergne,Nashville,1400252954000,36.01,-86.57,Wanda,TN,1400800846000,14380872
141517582,Nashville,,1411397444000,36.15,-86.79,Wendy,TN,1421611088000,14380872
149516542,Nashville,,1402001456000,36.16,-86.66,Wheeler10@gmail.com,TN,1456268023000,14380872
191558145,Murfreesboro,,1440042803000,35.87,-86.44,Winter Marshall,TN,1440594460000,14380872
200251470,Nashville,,1456187411000,36.17,-86.72,Yolanda Crutcher,TN,1456576290000,14380872
11113426,West Palm Beach,West Palm Beach  ,1436877761000,26.71,-80.06,Yolanda Ogle,FL,1436877761000,14380872
183526331,Nashville,,1421084387000,36.17,-86.72,Yolanda Shields ,TN,1421084387000,14380872
89650582,Nashville,Sydney Australia,1453772762000,36.21,-86.72,Zelda Sheldon,TN,1487216329000,14380872
