id,city,hometown,joined,lat,lon,name,state,visited,group_id
185195324,Columbia,,1426203220000.0,35.61,-87.05,A. Miller,TN,1426203220000.0,15552112
183364222,Springfield,,1420552391000.0,36.52,-86.87,A. Zero,TN,1422679790000.0,15552112
226998086,Brentwood,,1493985758000.0,36.0,-86.79,Abbey D.,TN,1504996659000.0,15552112
223904371,Nashville,,1489713720000.0,36.17,-86.78,Abby Fletcher,TN,1493952063000.0,15552112
233305642,Nashville,,1501891330000.0,36.11,-86.78,Adam,TN,1504391343000.0,15552112
222625283,Lebanon,,1487910015000.0,36.21,-86.31,Adam Hinds,TN,1493462450000.0,15552112
231084443,Nashville,,1499183748000.0,36.15,-86.86,Adam Intihar,TN,1499183748000.0,15552112
183702940,Nashville,,1421638982000.0,36.11,-86.78,Adam Simmons,TN,1475541396000.0,15552112
216743295,Laguna Niguel,,1495080140000.0,33.53,-117.71,Adam Spencer Peithman,CA,1495080140000.0,15552112
212855960,Brentwood,,1473766654000.0,36.0,-86.79,Addison,TN,1475021851000.0,15552112
66609162,Nashville,Nashville,1487952415000.0,36.06,-86.96,Ahmet,TN,1508793318000.0,15552112
220691193,Nashville,,1485361738000.0,36.11,-86.86,Aidan Lawson,TN,1485361738000.0,15552112
9452569,Nashville,,1465258554000.0,36.17,-86.72,AJ Eilers,TN,1465258554000.0,15552112
9280797,Nashville,,1405146430000.0,36.15,-86.86,ajay sharma,TN,1496445828000.0,15552112
227152667,Nashville,,1494198672000.0,36.18,-86.64,Akash Vardhan,TN,1494198672000.0,15552112
190370753,Pegram,Nashville ,1437780883000.0,36.12,-87.03,AL AN,TN,1438674090000.0,15552112
126178842,Nashville,,1421640931000.0,36.17,-86.78,AL Chandler,TN,1433723322000.0,15552112
118234452,Nashville,,1501609943000.0,36.17,-86.78,Alana R. Smith,TN,1505986566000.0,15552112
210800745,Nashville,,1470931887000.0,36.17,-86.78,Alec Carro,TN,1470970752000.0,15552112
137947492,Nashville,,1413148364000.0,36.17,-86.78,Alex Llama,TN,1460830911000.0,15552112
227526210,Nashville,,1501526360000.0,36.09,-86.82,Alex Rizzutto,TN,1501526360000.0,15552112
235742118,Nashville,,1504650400000.0,36.17,-86.78,Alex S,TN,1504650400000.0,15552112
216627823,Nashville,,1479073749000.0,36.09,-86.82,Alex Thompson,TN,1479073749000.0,15552112
206939860,Antioch,,1465693350000.0,36.04,-86.64,Alexis Christine DeBardeleben,TN,1467057453000.0,15552112
74712332,Nashville,Nashville,1462735090000.0,36.1,-86.66,Ali C,TN,1462735090000.0,15552112
230483658,Nashville,,1498690809000.0,36.14,-86.74,Ali Rabeh,TN,1498690809000.0,15552112
207069934,Nashville,nolensville,1470009224000.0,36.08,-86.72,Alpa B Patel,TN,1470833152000.0,15552112
130456542,Brentwood,,1442521456000.0,36.0,-86.79,Alyssa,TN,1501697964000.0,15552112
214874000,Goodlettsville,,1476378255000.0,36.32,-86.72,Amanda,TN,1476378255000.0,15552112
224642249,Nashville,,1490736906000.0,36.17,-86.78,Amanda Hopkins,TN,1490736906000.0,15552112
190026711,Nashville,,1491689105000.0,36.08,-86.72,Amberlee' Brooks,TN,1493504959000.0,15552112
227001609,Nashville,,1493990910000.0,36.07,-86.78,Amir Odom,TN,1493990910000.0,15552112
28342812,Nashville,"Harrisonburg, VA",1454781794000.0,36.1,-86.66,Amy Shifflett,TN,1454781794000.0,15552112
204871578,Clarksville,,1462873758000.0,36.49,-87.23,AnaKatarina Lalonde,TN,1462873758000.0,15552112
187614627,Nashville,,1432226798000.0,36.08,-86.72,ANAND SATCHIT JAMMALAMADAKA,TN,1432597197000.0,15552112
13249301,Nashville,,1420219753000.0,36.13,-86.8,Andrea Netterville,TN,1507315192000.0,15552112
230257985,Gallatin,,1504607153000.0,36.39,-86.45,Andrew Burns,TN,1504607153000.0,15552112
10400291,Nashville,,1477161849000.0,36.16,-86.79,Andrew Gerber,TN,1477161849000.0,15552112
197770244,Lebanon,,1452190554000.0,36.21,-86.31,Andy,TN,1474663612000.0,15552112
229817031,Nashville,,1497615935000.0,36.17,-86.72,Anemona Niculescu,TN,1497615935000.0,15552112
37405142,Franklin,"Charleston, MO",1441892324000.0,35.99,-86.9,Angela,TN,1441892324000.0,15552112
224569029,Nashville,,1490643559000.0,36.08,-86.72,Angela D,TN,1490643559000.0,15552112
9943371,Nashville,NASHVILLE,1507091125000.0,36.13,-86.8,Angela Lawrence,TN,1508119158000.0,15552112
236314344,Murfreesboro,,1505234600000.0,35.85,-86.36,ankit patel,TN,1507515646000.0,15552112
158002952,Franklin,Franklin,1467258707000.0,35.92,-86.89,Anna,TN,1505260617000.0,15552112
10129166,Nashville,,1499294440000.0,36.06,-86.96,Anna R.,TN,1508643064000.0,15552112
146326152,Nashville,,1404751257000.0,36.11,-86.78,Anthony A. Lohr,TN,1508794307000.0,15552112
219091354,Murfreesboro,,1483378810000.0,35.82,-86.45,April and Bryan Langan,TN,1483378810000.0,15552112
192501596,Murfreesboro,,1507873610000.0,35.82,-86.45,April Faircloth Collier,TN,1507873610000.0,15552112
227496236,Nashville,,1494668457000.0,36.08,-86.72,ARi Lyon,TN,1494668457000.0,15552112
223262283,Nashville,,1488823872000.0,36.17,-86.78,Arminda,TN,1488823872000.0,15552112
7898365,Nashville,,1409280629000.0,36.11,-86.86,Arnold Joseph White,TN,1485006525000.0,15552112
239498305,Brentwood,,1508707620000.0,36.0,-86.79,Arrettia Winters Bourne,TN,1508707620000.0,15552112
209786452,Nashville,,1469515212000.0,36.08,-86.72,Artin Harut Kazanchyan,TN,1496434570000.0,15552112
237427415,Federal Way,,1506389045000.0,47.31,-122.31,Ash Marché,WA,1507420323000.0,15552112
216892447,Nashville,,1479481072000.0,36.13,-86.8,Ausra,TN,1508620721000.0,15552112
196161128,Nashville,,1448708365000.0,36.08,-86.72,Austin,TN,1448708365000.0,15552112
228532014,Nashville,,1499173686000.0,36.17,-86.78,Austin Adams,TN,1499702460000.0,15552112
232108489,Nashville,,1500409189000.0,36.17,-86.78,Austin Hutchinson,TN,1505232463000.0,15552112
198074430,Brentwood,,1452739138000.0,36.0,-86.79,Barbara,TN,1452739138000.0,15552112
206759382,Franklin,,1465439982000.0,35.92,-86.89,Barbara Sue Brooks Blann,TN,1465439982000.0,15552112
182123182,Franklin,,1415335377000.0,35.92,-86.89,Bassem Maurice,TN,1503385679000.0,15552112
213410424,Nashville,,1474474136000.0,36.17,-86.78,Bbob,TN,1474474136000.0,15552112
220624758,Nashville,,1492454813000.0,36.14,-86.74,BCaldwell,TN,1502033640000.0,15552112
191008886,Nashville,,1480866341000.0,36.16,-86.79,Becky,TN,1485257836000.0,15552112
146285912,Nashville,,1487436683000.0,36.08,-86.72,ben rasmussen,TN,1487436683000.0,15552112
235513277,Murfreesboro,,1504407879000.0,35.78,-86.33,BERNADETTE BOLDEN,TN,1504407879000.0,15552112
222171588,Nashville,,1487283109000.0,36.08,-86.72,Beth Pinkerton,TN,1487829920000.0,15552112
125456582,Hendersonville,Nashville,1405771365000.0,36.32,-86.61,Bex Nicoles,TN,1405771365000.0,15552112
207093714,Nashville,,1466942882000.0,36.17,-86.78,Bill,TN,1496699573000.0,15552112
222289339,Nashville,,1487453755000.0,36.17,-86.72,Birtha Street,TN,1487453755000.0,15552112
233890336,Nashville,,1503148467000.0,36.17,-86.78,BJ,TN,1507087531000.0,15552112
236454262,Hendersonville,,1505357269000.0,36.32,-86.61,BlackWings1994,TN,1505357269000.0,15552112
208760886,Nashville,,1475371111000.0,36.17,-86.78,Blaine M,TN,1475371111000.0,15552112
10993940,Nashville,,1409279101000.0,36.08,-86.72,Blake McBride,TN,1467488597000.0,15552112
221165913,Brentwood,,1486308650000.0,36.0,-86.79,Bob Dimick,TN,1486487418000.0,15552112
216191325,Nashville,,1485056580000.0,36.15,-86.85,Bobby,TN,1488132418000.0,15552112
204408421,Nashville,,1462204499000.0,36.06,-86.96,Borislav L Ivanov,TN,1462204499000.0,15552112
156443612,Nashville,,1405392488000.0,36.15,-86.86,Brad,TN,1505795950000.0,15552112
219100679,Mount Juliet,,1483387149000.0,36.21,-86.52,Brad Blankenship,TN,1483387149000.0,15552112
186915401,Nashville,,1496869187000.0,36.14,-86.81,Brad Eldridge-Smith,TN,1496869187000.0,15552112
224717377,Nashville,,1490838841000.0,36.13,-86.8,Brad Guidry,TN,1490838841000.0,15552112
224551178,Nashville,,1490624820000.0,36.06,-86.96,Brandi A,TN,1490624820000.0,15552112
234459307,Nashville,,1503205463000.0,36.1,-86.66,Brandon Hurst,TN,1503368959000.0,15552112
219277661,Murfreesboro,,1483576960000.0,35.85,-86.4,Brandon Short,TN,1483576960000.0,15552112
229909102,Russellville,,1497733386000.0,36.83,-86.92,Brayden Yates,KY,1497733386000.0,15552112
202553310,Nashville,Nashville,1489810674000.0,36.14,-86.74,Brennan Pollock,TN,1489810674000.0,15552112
233727418,Franklin,,1502375478000.0,35.93,-86.81,Brent Hall,TN,1502375478000.0,15552112
6515953,Nashville,Nashville,1467574422000.0,36.16,-86.79,brian,TN,1493925756000.0,15552112
10708256,Mount Juliet,Mount Juliet,1493379140000.0,36.22,-86.52,Bridget,TN,1493379140000.0,15552112
32827052,Brentwood,"Morristown, NJ",1405988172000.0,36.0,-86.79,Bridget,TN,1454031819000.0,15552112
223858171,Nashville,,1489655451000.0,36.16,-86.79,Brijesh Patel,TN,1489655451000.0,15552112
184277123,Mount Juliet,,1423433201000.0,36.22,-86.52,Brittany Stewart ,TN,1423433201000.0,15552112
237134152,Madison,,1506057534000.0,36.26,-86.71,Bro Den,TN,1506057534000.0,15552112
221810003,Nashville,Nashville,1503010917000.0,36.18,-86.81,Bruce,TN,1503010917000.0,15552112
29042672,Nashville,,1456305918000.0,36.11,-86.86,Byron Van Buren,TN,1508263699000.0,15552112
121130692,Franklin,,1488858175000.0,35.92,-86.89,Cackie Roberts,TN,1488858175000.0,15552112
222682584,Nashville,,1487993950000.0,36.16,-86.79,Caitlin Mitchell,TN,1489774201000.0,15552112
174245272,Columbia,,1465403584000.0,35.61,-87.05,Caleb,TN,1465403584000.0,15552112
230493587,Nashville,,1502252682000.0,36.22,-86.77,Caleb F,TN,1502252682000.0,15552112
215653152,Goodlettsville,,1477523090000.0,36.32,-86.72,CameronHussey,TN,1477523090000.0,15552112
227924568,Nashville,,1495226686000.0,36.06,-86.96,Candace M Winters ,TN,1495226686000.0,15552112
220479883,Antioch,,1485106872000.0,36.17,-86.88,Candice Carey,TN,1485113613000.0,15552112
217178406,Clarksville,,1479938439000.0,36.53,-87.35,Captain RipTide,TN,1484594669000.0,15552112
224217878,Nashville,,1490147950000.0,36.07,-86.73,Carli Osika,TN,1490147950000.0,15552112
225874796,Nashville,,1492479329000.0,36.1,-86.66,Carlos Ruiz Olaya,TN,1494549589000.0,15552112
203201181,Hermitage,,1460448518000.0,36.19,-86.6,Carlton Jenkins,TN,1460448518000.0,15552112
1913887,Phoenix,,1493939036000.0,33.39,-112.1,Carol,AZ,1508794872000.0,15552112
233318819,Nashville,,1501907757000.0,36.11,-86.78,Caroline Mayhew,TN,1501907757000.0,15552112
5914717,Franklin,San Jose,1479262117000.0,35.92,-86.89,Carolyn,TN,1489980828000.0,15552112
12128207,Franklin,"Columbia, SC",1505791452000.0,35.93,-86.81,Catherine,TN,1508600244000.0,15552112
118663152,Nashville,,1476320363000.0,36.17,-86.78,Catherine,TN,1476320363000.0,15552112
209918649,Nashville,,1469686537000.0,36.17,-86.78,Catherine Johnson,TN,1469686537000.0,15552112
197364291,Nashville,,1451375415000.0,36.06,-86.96,Cesar Rojano,TN,1451375415000.0,15552112
185029664,Franklin,,1467897096000.0,35.92,-86.89,Chad Beadles,TN,1467926043000.0,15552112
199398584,Hendersonville,,1454985948000.0,36.32,-86.61,Charles Spradley,TN,1471223583000.0,15552112
53318232,Nashville,"Nashville, TN",1473503994000.0,36.18,-86.74,Charlotte,TN,1480769508000.0,15552112
210093392,Hermitage,,1469930548000.0,36.19,-86.6,Cherith,TN,1469930548000.0,15552112
238166851,Nashville,,1507221566000.0,36.16,-86.78,Cheryl Polk,TN,1507221566000.0,15552112
193850454,Antioch,,1444679111000.0,36.04,-86.64,Chike Oramah,TN,1467343597000.0,15552112
233818402,Manchester,,1503862695000.0,35.47,-86.08,Chris,TN,1504919258000.0,15552112
184735550,Antioch,,1486523265000.0,36.17,-86.88,Chris,TN,1493492500000.0,15552112
109929712,Saint Petersburg,"St. Petersburg, FL",1494596498000.0,27.81,-82.8,Chris,FL,1494722706000.0,15552112
125442542,Nashville,Nashville,1499662957000.0,36.17,-86.78,Chris Bell,TN,1503159308000.0,15552112
186379477,Nashville,,1429708821000.0,36.17,-86.78,Chris Greene,TN,1429708821000.0,15552112
232191396,Nashville,,1500508652000.0,36.22,-86.86,Chris Michaels,TN,1507318364000.0,15552112
186237672,Nashville,,1477539758000.0,36.17,-86.78,Chris O'DeNeal,TN,1479155294000.0,15552112
10758349,Nashville,Nashville,1407326658000.0,36.08,-86.72,Chris Saunders,TN,1508360575000.0,15552112
191331106,Hermitage,,1503597334000.0,36.19,-86.6,Chris Watkins,TN,1504410733000.0,15552112
237425965,Franklin,,1506387477000.0,35.93,-86.84,Chris Zimmer,TN,1506387477000.0,15552112
208757225,Denver,,1468178929000.0,39.7,-105.08,Chrishna Cool,CO,1468178929000.0,15552112
170800792,Nashville,,1507760153000.0,36.17,-86.78,Christin,TN,1507760153000.0,15552112
62469112,Madison,,1436000493000.0,36.26,-86.71,Christina,TN,1451253420000.0,15552112
211809467,Bronx,,1472357684000.0,40.81,-73.89,Christopher Allen Petersen,NY,1475373941000.0,15552112
229086331,Nashville,,1497185643000.0,36.08,-86.72,Christopher Ansem Hayzel,TN,1497185643000.0,15552112
134837522,Nashville,,1406235338000.0,36.08,-86.72,Christopher Scott Huffman,TN,1507813191000.0,15552112
189610548,Trenton,,1504999031000.0,36.64,-87.28,Chrystal Camacho,KY,1505516465000.0,15552112
222215242,Nashville,,1487348774000.0,36.17,-86.78,chuck wofford,TN,1487348774000.0,15552112
214830130,Nashville,,1476313905000.0,36.08,-86.72,Chukwuka Ahamefula,TN,1477166723000.0,15552112
4579315,Nashville,"Nashville, Tennessee",1490919003000.0,36.21,-86.72,Cindy,TN,1503318562000.0,15552112
11462026,Murfreesboro,murfreesboro,1498199473000.0,35.87,-86.34,Cindy Sue Whitaker,TN,1502950905000.0,15552112
217327077,Murfreesboro,,1480225812000.0,35.87,-86.44,Cindy Webb Cook,TN,1480225812000.0,15552112
220783149,Nashville,,1485475088000.0,36.16,-86.66,Clayton Crysel,TN,1485475088000.0,15552112
10270601,Nashville,Hermitage,1499980165000.0,36.16,-86.79,Cleo Bond,TN,1507407922000.0,15552112
106178752,Indianapolis,Indianapolis,1493382039000.0,39.77,-86.11,Clint Mahoney,IN,1505587842000.0,15552112
187645280,Nashville,,1475629599000.0,36.08,-86.72,Cody Junier,TN,1475629599000.0,15552112
227652032,Nashville,,1494881788000.0,36.14,-86.81,Cody Travis,TN,1494881788000.0,15552112
210570887,Nashville,,1470607487000.0,36.15,-86.81,Cole McKenna,TN,1480867909000.0,15552112
69223682,Nashville,,1442586918000.0,36.16,-86.79,Colleen,TN,1442586918000.0,15552112
206457912,Nashville,,1465061901000.0,36.08,-86.72,Collin Honeycutt,TN,1465061901000.0,15552112
211357368,Nashville,,1471732828000.0,36.09,-86.82,Collin J Reynolds,TN,1472242948000.0,15552112
222404731,Bel Air,,1492934742000.0,39.54,-76.36,Connor C,MD,1492934742000.0,15552112
201699067,New York,,1458251757000.0,40.75,-73.99,Constance McKee,NY,1458251757000.0,15552112
200676580,Pleasant View,,1456785264000.0,36.38,-87.04,Courtney,TN,1456785264000.0,15552112
233676471,Nashville,,1502309919000.0,36.1,-86.78,Curtis porter,TN,1502309919000.0,15552112
185883325,Murfreesboro,,1471797989000.0,35.78,-86.33,Cynthia ,TN,1477849830000.0,15552112
211050959,Nashville,,1471292710000.0,36.17,-86.78,Cyrus Graham Peterson,TN,1471292710000.0,15552112
236066631,Nashville,,1504985419000.0,36.06,-86.96,Dana Bomgardner,TN,1504985419000.0,15552112
214288417,Toronto,,1504386171000.0,43.74,-79.36,Daniel Bishara,ON,1507496344000.0,15552112
233718561,Nashville,,1502359299000.0,36.07,-86.73,Daniel Red McClendon,TN,1502359299000.0,15552112
224887560,Nashville,?,1503407463000.0,36.16,-86.79,Darek,TN,1503407463000.0,15552112
207641732,Nashville,,1466650476000.0,36.17,-86.78,Darlene Bamz Shields,TN,1466650476000.0,15552112
233078642,Nashville,,1501616941000.0,36.08,-86.72,Darnell Billups,TN,1501894199000.0,15552112
13522330,Murfreesboro,"Murfreesboro, Tn.",1405348870000.0,35.87,-86.34,Darrell Kitterman,TN,1481323881000.0,15552112
195714467,Antioch,,1447806862000.0,36.17,-86.88,darryl cox,TN,1447826060000.0,15552112
239324409,Nashville,,1508784448000.0,36.18,-86.74,Daton Hall,TN,1508784448000.0,15552112
236348958,Nashville,,1505259904000.0,36.13,-86.8,Dave Wright,TN,1505259904000.0,15552112
231192788,Nashville,,1499312231000.0,36.14,-86.81,David Allan Edwards,TN,1500313393000.0,15552112
209338328,Franklin,,1468931630000.0,35.92,-86.89,David Allen,TN,1499367341000.0,15552112
93820322,Nashville,,1423940924000.0,36.17,-86.78,David Bailey,TN,1423940924000.0,15552112
171029112,Nashville,Nashville,1470367392000.0,36.18,-86.74,David Cowart,TN,1470367392000.0,15552112
191319483,Brentwood,,1480620158000.0,36.0,-86.79,David Goldberg,TN,1493377342000.0,15552112
229102995,Madison,,1496705565000.0,36.26,-86.71,David Jay,TN,1496705565000.0,15552112
236807706,Fort Campbell,,1505725373000.0,36.65,-87.46,David Overman,KY,1505725373000.0,15552112
228477394,Nashville,,1495923489000.0,36.17,-86.79,David Williams,TN,1495923489000.0,15552112
89861182,Nashville,,1493563982000.0,36.11,-86.86,David Woolbright,TN,1493563982000.0,15552112
239129976,Nashville,,1508280092000.0,36.14,-86.81,Deanna Smith,TN,1508280092000.0,15552112
220157863,Nashville,,1484690781000.0,36.11,-86.78,Denise Robinson ,TN,1484690781000.0,15552112
212337400,Goodlettsville,,1473087020000.0,36.32,-86.72,dennis,TN,1487453938000.0,15552112
217216697,Nashville,,1480015667000.0,36.17,-86.78,Dennis Stallings,TN,1480015667000.0,15552112
231970248,Hermitage,,1500243841000.0,36.19,-86.6,Dereje Getu,TN,1500243841000.0,15552112
186202775,Murfreesboro,,1429111998000.0,35.87,-86.34,Derrick Collins,TN,1429111998000.0,15552112
85576322,Nashville,,1485799930000.0,36.17,-86.72,Deshae Caldwell,TN,1497104972000.0,15552112
234283796,Antioch,,1503010785000.0,36.04,-86.64,Diaminique Goodwin,TN,1503010785000.0,15552112
233434024,Nashville,,1502049290000.0,36.14,-86.81,Dianne Hotvedt,TN,1508790217000.0,15552112
127601602,Nashville,,1507414017000.0,36.08,-86.72,DL,TN,1507414017000.0,15552112
186578373,Murfreesboro,,1491946988000.0,35.78,-86.33,Don,TN,1491946988000.0,15552112
194323190,Madison,,1445257229000.0,36.26,-86.71,Don Pease,TN,1445257229000.0,15552112
212294808,Murfreesboro,,1473025592000.0,35.87,-86.44,Don Sledge,TN,1473025592000.0,15552112
207263492,La Vergne,,1466212101000.0,36.01,-86.57,Donald Jones,TN,1466393413000.0,15552112
225901215,Nashville,,1492608828000.0,36.17,-86.78,Donelson ,TN,1492608828000.0,15552112
213346624,Nashville,,1474391989000.0,36.17,-86.78,Donna Ava Marie,TN,1474391989000.0,15552112
232201571,Hendersonville,,1500517666000.0,36.3,-86.62,Donna Jackson,TN,1500682801000.0,15552112
216959689,Augusta,,1479586586000.0,33.47,-82.06,dotun fakile,GA,1489034400000.0,15552112
230638397,La Vergne,,1498622318000.0,36.01,-86.57,Drake Knight,TN,1498622318000.0,15552112
233753345,Nashville,,1502986916000.0,36.09,-86.82,Drew Sevel,TN,1502986916000.0,15552112
215195507,Nashville,,1476835441000.0,36.1,-86.66,Dvonte Wallace,TN,1476835441000.0,15552112
238160510,Hendersonville,,1507211590000.0,36.3,-86.62,Eboni Grant ,TN,1507400126000.0,15552112
235418261,Brentwood,,1504297633000.0,36.0,-86.79,Edward B,TN,1505588838000.0,15552112
220595441,Nashville,,1485243268000.0,36.17,-86.78,ELHILALY  EHIMIR,TN,1485243268000.0,15552112
81951732,Nashville,,1500057875000.0,36.17,-86.78,Elisa Beagle,TN,1501993884000.0,15552112
85547942,Nashville,,1506734832000.0,36.17,-86.78,Elise,TN,1506734832000.0,15552112
207578533,La Vergne,,1466566669000.0,36.01,-86.57,Elvira Vasquez,TN,1467990292000.0,15552112
185424897,Franklin,,1483317053000.0,35.92,-86.89,Em,TN,1491526355000.0,15552112
219359431,Murfreesboro,,1483682986000.0,35.85,-86.36,Emily Darcy,TN,1483715680000.0,15552112
128673432,Brentwood,,1407615060000.0,36.0,-86.79,Eric,TN,1407615060000.0,15552112
154445832,Nashville,"Nashville, tn",1447020812000.0,36.08,-86.72,Eric Johnson,TN,1485464899000.0,15552112
212184694,Nashville,,1472873070000.0,36.17,-86.72,Eric Lee Sirignano,TN,1472873070000.0,15552112
215366898,Nashville,,1477095264000.0,36.15,-86.79,Erica Smikes,TN,1477095264000.0,15552112
198254718,Murfreesboro,,,35.86,-86.44,,TN,,15552112
8489225,Nashville,,1405779394000.0,36.17,-86.78,Erinne R,TN,1502650130000.0,15552112
4004171,Franklin,"Franklin, TN",1436732011000.0,35.92,-86.89,Ethan,TN,1503554870000.0,15552112
211777421,Nashville,,1472316974000.0,36.17,-86.72,Evan Ludin,TN,1472316974000.0,15552112
217853193,Smyrna,,1481122493000.0,35.97,-86.51,Farah,TN,1505590761000.0,15552112
217357747,Nashville,,1480282038000.0,36.17,-86.78,FiFi,TN,1480282038000.0,15552112
208426796,Nashville,,1467739889000.0,36.17,-86.78,Fletcher,TN,1467739889000.0,15552112
211727254,Detroit,,1499799581000.0,42.35,-83.06,gabe clemons,MI,1499799581000.0,15552112
213104966,Nashville,,1474092336000.0,36.18,-86.74,Garrett Carr,TN,1474433584000.0,15552112
212108339,Spring Hill,,1472766264000.0,35.76,-86.88,George,TN,1472766264000.0,15552112
199275808,Pegram,,1454794816000.0,36.12,-87.03,George,TN,1482428447000.0,15552112
120303082,Brentwood,,1503948503000.0,36.0,-86.79,Gerald A. Wakefield,TN,1504988308000.0,15552112
209681408,Smyrna,,1469386243000.0,35.97,-86.51,Ghost,TN,1469386243000.0,15552112
220056540,Nashville,,1506607577000.0,36.17,-86.78,Gloria Jaycox,TN,1507227882000.0,15552112
216082734,Madison,,1478200460000.0,36.19,-86.74,Glory C,TN,1478974341000.0,15552112
194338521,Nashville,,1448675128000.0,36.17,-86.78,Grace,TN,1449442684000.0,15552112
232313099,Nashville,,1500661417000.0,36.11,-86.78,Grace Cummings,TN,1500661417000.0,15552112
211594974,New York,,1472059335000.0,40.75,-73.99,Grace E. Chase,NY,1472059335000.0,15552112
218658723,Nashville,,1482681196000.0,36.17,-86.72,Grant Medeiros,TN,1482681196000.0,15552112
220581376,Nashville,,1505532418000.0,36.06,-86.96,Greg,TN,1508595080000.0,15552112
10635706,Folsom,,1468391996000.0,38.68,-121.16,Greg Rankin,CA,1468391996000.0,15552112
106814302,Nashville,,1448038696000.0,36.17,-86.78,Guy,TN,1486512549000.0,15552112
214283308,Nashville,,1475547675000.0,36.08,-86.72,Haluk Alk??,TN,1475547675000.0,15552112
152577662,Nashville,,1425254908000.0,36.17,-86.72,Haneen Baker,TN,1497117857000.0,15552112
214894874,Nashville,,1476404700000.0,36.11,-86.78,Hannah ,TN,1476740103000.0,15552112
210058571,Nashville,,1472253940000.0,36.17,-86.78,Hannah Potts,TN,1492632337000.0,15552112
140800142,Nashville,Nashville,1469047145000.0,36.13,-86.8,Harold Griffin,TN,1469047145000.0,15552112
193825984,Nashville,,1486592903000.0,36.17,-86.78,Harrison P,TN,1502725000000.0,15552112
12635934,Nashville,,1500402204000.0,36.16,-86.79,Heather,TN,1500402204000.0,15552112
191933935,Nashville,"Richmond, VA",1465849062000.0,36.13,-86.8,Heather,TN,1465849062000.0,15552112
205600454,La Vergne,,1463859289000.0,36.01,-86.57,Heather Adams,TN,1463859289000.0,15552112
205431116,Placentia,,1480135401000.0,33.87,-117.85,Heeyoung Leem,CA,1480135401000.0,15552112
234214118,Nashville,,1502935062000.0,36.15,-86.81,Henry Downes,TN,1503683129000.0,15552112
189437196,Nashville,,1440910642000.0,36.08,-86.72,Holly ,TN,1442643188000.0,15552112
12665790,Nashville,,1491157703000.0,36.17,-86.79,Holly Miles,TN,1500924918000.0,15552112
235088735,Nashville,Y.S.,1508603664000.0,36.16,-86.78,hopesdreams,TN,1508603664000.0,15552112
222108546,Nashville,,1487196157000.0,36.07,-86.73,Hunter Wesson,TN,1487196157000.0,15552112
236579881,Quito,,1507161453000.0,-0.19,-78.5,Ibeth Núñez,,1507161453000.0,15552112
236343325,Nashville,,1505254747000.0,36.17,-86.78,Isabel Barnett,TN,1505254747000.0,15552112
220887460,Franklin,,1485620454000.0,35.92,-86.89,J Brinker,TN,1500126125000.0,15552112
230873941,Nashville,,1498928547000.0,36.15,-86.8,Jabari,TN,1498928547000.0,15552112
201890857,Nashville,,1458529588000.0,36.13,-86.8,Jack Simon,TN,1458529588000.0,15552112
197405466,Nashville,,1470633461000.0,36.17,-86.72,Jacob,TN,1505006365000.0,15552112
13912713,Nashville,Nashville,1469461649000.0,36.17,-86.78,Jacqueline Scully,TN,1494823393000.0,15552112
219578866,Nashville,,1483964945000.0,36.17,-86.78,Jade,TN,1483964945000.0,15552112
206910892,Johnstown,,1465658721000.0,40.34,-104.96,Jake Tomlinson,CO,1465658721000.0,15552112
220994094,Nashville,,1486492792000.0,36.17,-86.78,James,TN,1487134902000.0,15552112
214135056,Brentwood,,1476273123000.0,36.0,-86.79,James L.,TN,1499303346000.0,15552112
208081360,Mount Juliet,,1467262942000.0,36.22,-86.52,James Moore,TN,1467262942000.0,15552112
222705038,Nashville,,1488032675000.0,36.17,-86.78,James Paul Lee,TN,1488032675000.0,15552112
216620710,Hendersonville,,1479064776000.0,36.32,-86.61,James Snyder,TN,1485111184000.0,15552112
200486654,Nashville,,1456519022000.0,36.18,-86.74,Jane Turner-Denner,TN,1456519022000.0,15552112
3111451,Nashville,nashville,1435666768000.0,36.11,-86.78,jane weinberg,TN,1473048686000.0,15552112
185458689,Nashville,,1427032994000.0,36.14,-86.74,Janelle Williams,TN,1485731968000.0,15552112
181531312,Nashville,Nashville,1451065070000.0,36.08,-86.72,Janet Wyatt,TN,1486175095000.0,15552112
6234166,Nashville,,1496721171000.0,36.09,-86.82,Janette,TN,1500754403000.0,15552112
208700564,Nashville,,1468103451000.0,36.07,-86.73,Jasmine,TN,1468551615000.0,15552112
211606019,Franklin,,1472073276000.0,35.92,-86.89,Jason,TN,1472073276000.0,15552112
208440190,Nashville,Nashville,1467754568000.0,36.09,-86.82,Jason Bates,TN,1467930152000.0,15552112
197465191,Nashville,,1451602472000.0,36.17,-86.78,Jay,TN,1451602472000.0,15552112
239515413,La Vergne,,1508725193000.0,36.0,-86.57,Jay Hatchett,TN,1508725193000.0,15552112
237427710,Nashville,,1506390024000.0,36.11,-86.86,Jay Johnson,TN,1506390024000.0,15552112
14307382,Atlanta,,1442099283000.0,33.75,-84.55,jayaram raja,GA,1447586865000.0,15552112
190939748,Mount Juliet,,1438827521000.0,36.22,-86.52,jeff,TN,1439254051000.0,15552112
236505873,Nashville,,1505410140000.0,36.16,-86.77,Jeff Smith,TN,1505410140000.0,15552112
232532737,Nashville,,1500934575000.0,36.15,-86.86,Jenifer Dodd,TN,1500934575000.0,15552112
211246741,Nashville,"Boston, MA",1474863074000.0,36.17,-86.78,Jenna,TN,1498420755000.0,15552112
3575885,Nashville,Great Neck NY,1407358671000.0,36.11,-86.86,Jenna R,TN,1500504927000.0,15552112
208489590,Hendersonville,,1471655081000.0,36.32,-86.61,Jennifer,TN,1471655081000.0,15552112
8516762,Brentwood,"Holland, Michigan",1404946114000.0,36.0,-86.79,Jennifer,TN,1503458375000.0,15552112
192967150,Thompsons Station,,1442710438000.0,35.8,-86.9,Jennifer Bass,TN,1442710438000.0,15552112
76722082,Nashville,Murfreesboro,1466135158000.0,36.22,-86.86,Jennifer K,TN,1473517808000.0,15552112
217622533,Nashville,,1480725870000.0,36.18,-86.74,Jennifer Shaw,TN,1480725870000.0,15552112
29101822,Nashville,Raleigh,1506457835000.0,36.09,-86.82,Jeremy Locklear,TN,1506457835000.0,15552112
215521985,Nashville,,1479656713000.0,36.17,-86.78,Jesse Cunningham,TN,1508602241000.0,15552112
182605086,Nashville,,1416320735000.0,36.17,-86.78,Jesse Margale Petresky,TN,1416371646000.0,15552112
210072704,Nashville,,1470271903000.0,36.17,-86.78,Jessica Elyse,TN,1491159299000.0,15552112
222768144,Nashville,,1488122676000.0,36.17,-86.78,Jeuneybear20,TN,1488122676000.0,15552112
7089652,Franklin,Franklin,1508466178000.0,35.93,-86.81,Jie,TN,1508594944000.0,15552112
239440826,Nashville,,1508639838000.0,36.07,-86.73,Jill Burns,TN,1508639838000.0,15552112
185250479,Hermitage,,1491047849000.0,36.19,-86.6,Jim Palmer,TN,1507324844000.0,15552112
196267339,Nashville,,1478530293000.0,36.08,-86.72,Jim Sippo Cipollini,TN,1479396205000.0,15552112
218054797,Nashville,,1481485041000.0,36.16,-86.79,Joann Young,TN,1499044839000.0,15552112
221675713,Nashville,,1486599508000.0,36.15,-86.86,Joanna Collins,TN,1495998447000.0,15552112
223348295,Nashville,,1490068038000.0,36.17,-86.78,Jodie,TN,1499117387000.0,15552112
8610830,Nashville,,1493138120000.0,36.17,-86.78,Joey,TN,1504207579000.0,15552112
147788802,Hendersonville,,1435105732000.0,36.32,-86.66,joeyo77,TN,1460201994000.0,15552112
208785611,Charleston,,1468211483000.0,38.35,-81.63,John Bird,WV,1468211483000.0,15552112
228745615,Nashville,,1496268624000.0,36.13,-86.67,John Cottrell,TN,1496268624000.0,15552112
183690679,Huntsville,,1500773649000.0,34.62,-86.55,John Fishman,AL,1508623406000.0,15552112
216365137,Nashville,Nashville,1486485393000.0,36.18,-86.81,John Herron,TN,1490819735000.0,15552112
196079571,Nashville,,1448517763000.0,36.17,-86.78,John Poteat,TN,1448517763000.0,15552112
208568915,New York,,1467923833000.0,40.75,-73.99,John Rivenbark,NY,1467923833000.0,15552112
186670948,Nashville,,1430188545000.0,36.07,-86.73,John Smith,TN,1430188545000.0,15552112
14367073,Nashville,,1483823121000.0,36.17,-86.78,John STEVEN Thomas,TN,1502577299000.0,15552112
224842788,Nashville,,1491023679000.0,36.07,-86.78,John Whittaker,TN,1491023679000.0,15552112
222099947,Nashville,,1487189837000.0,36.16,-86.78,John-David Morgan,TN,1487189837000.0,15552112
207635397,Clarksville,,1466644747000.0,36.53,-87.35,Jojo,TN,1466644747000.0,15552112
127935172,Nashville,,1427522153000.0,36.09,-86.82,Joli Hitchcock,TN,1441163755000.0,15552112
218855958,Nashville,,1483030889000.0,36.17,-86.72,Jon,TN,1483030889000.0,15552112
155705432,Nashville,,1498011784000.0,36.08,-86.72,Jon Scott Smith,TN,1508691482000.0,15552112
219698471,Nashville,,1484105296000.0,36.18,-86.81,Jon-luke Donnangelo,TN,1485018159000.0,15552112
125963332,Pikeville,Pikeville,1442530321000.0,35.61,-85.19,Jonathan Mintz,TN,1447444498000.0,15552112
184844188,Nashville,,1453090510000.0,36.1,-86.66,Jonathan Opp,TN,1508676434000.0,15552112
89446912,Franklin,"Franklin, TN",1440242325000.0,35.92,-86.89,Jonathan Oppenheimer,TN,1508529340000.0,15552112
217552327,Nashville,,1480606378000.0,36.08,-86.72,Joseph Fulcher,TN,1480606378000.0,15552112
193788063,Franklin,,1444251970000.0,36.73,-86.57,Joseph Milliken,KY,1461078205000.0,15552112
115355102,Nashville,,1405018191000.0,36.11,-86.78,Josh,TN,1405457311000.0,15552112
230555088,Nashville,,1498524812000.0,36.17,-86.78,Josh,TN,1498524812000.0,15552112
207358044,Murfreesboro,,1466273916000.0,35.87,-86.34,Josh,TN,1466273916000.0,15552112
238323270,Nashville,,1507380561000.0,36.11,-86.86,Josh Epstein,TN,1507380561000.0,15552112
233867396,Murfreesboro,,1502526880000.0,35.85,-86.36,Josh Ivey,TN,1502526880000.0,15552112
111792152,Linden,,1489063687000.0,38.02,-121.09,josh luck,CA,1489063687000.0,15552112
227276001,Nashville,,1494363249000.0,36.17,-86.78,Josh S,TN,1494363249000.0,15552112
212900361,Nashville,,1473816551000.0,36.17,-86.78,Josh Sallo,TN,1473816551000.0,15552112
94703512,Nashville,,1468271632000.0,36.17,-86.79,Joshua Brunstad,TN,1489373759000.0,15552112
218671330,Clarksville,,1482709085000.0,36.53,-87.35,Joshua Swiderski,TN,1482709085000.0,15552112
227037777,La Vergne,,1494034900000.0,36.01,-86.57,Joshua Turtle,TN,1494034900000.0,15552112
237266818,Nashville,,1506212260000.0,36.07,-86.73,Juan Carrillo,TN,1506212260000.0,15552112
215313984,New York,,1502831630000.0,40.75,-73.99,Julian Kohann,NY,1504046261000.0,15552112
9415032,Nashville,,1503157785000.0,36.13,-86.8,Justin,TN,1504371012000.0,15552112
76808422,Hendersonville,,1456630494000.0,36.32,-86.61,Justin Clark,TN,1456630494000.0,15552112
177000932,Hermitage,,1496159970000.0,36.2,-86.61,JW,TN,1505790803000.0,15552112
214482662,Nashville,,1475790578000.0,36.11,-86.86,K. Brown,TN,1475790578000.0,15552112
220085321,Murfreesboro,,1484604683000.0,35.84,-86.39,Kaitlyn T,TN,1484604683000.0,15552112
206268788,Nashville,"Wantagh, NY",1464798470000.0,36.17,-86.78,Karenmarie washenko,TN,1464798470000.0,15552112
188896282,Nashville,,1448328471000.0,36.16,-86.79,Karisa B,TN,1454798089000.0,15552112
206747330,Nashville,,1465426585000.0,36.06,-86.96,Karmendi Martin,TN,1465426585000.0,15552112
185874155,Bristol,,1455631531000.0,36.57,-82.18,Kath WILLIAMS,TN,1467412358000.0,15552112
157616812,Franklin,,1410041470000.0,35.93,-86.81,Kathe Kruse,TN,1411731365000.0,15552112
238084563,Franklin,,1507126581000.0,35.92,-86.87,Katherine Bloomfield,TN,1508509458000.0,15552112
8859638,Brentwood,,1480813414000.0,36.0,-86.79,Kathleen,TN,1503370558000.0,15552112
238219630,Nashville,,1507263275000.0,36.22,-86.86,Kathryn Wallace,TN,1507263275000.0,15552112
96438392,Nashville,,1498260335000.0,36.06,-86.96,Kathryne,TN,1499999579000.0,15552112
223013880,Brentwood,,1488468226000.0,36.0,-86.79,Kathy,TN,1488468226000.0,15552112
213265381,Nashville,,1474295544000.0,36.17,-86.78,Katie Connolly,TN,1474295544000.0,15552112
92851612,Nashville,,1448525675000.0,36.17,-86.78,Katie Mitchell,TN,1452310809000.0,15552112
14247202,Nashville,"Great Falls, MT",1405052090000.0,36.09,-86.82,Katy,TN,1500769814000.0,15552112
239256345,Nashville,,1508431128000.0,36.15,-86.8,Katy Williams-Wyant,TN,1508431128000.0,15552112
198679988,Nashville,,1453854945000.0,36.17,-86.78,Katy Wonder,TN,1453854945000.0,15552112
208884915,Hendersonville,"Salem, IN",1468339235000.0,36.32,-86.61,Kay IAm,TN,1468339235000.0,15552112
59892862,Nashville,,1488772880000.0,36.13,-86.8,Kayla Bruyn,TN,1505190757000.0,15552112
217108964,Nashville,,1479824206000.0,36.11,-86.78,Kaylee Urban,TN,1479824206000.0,15552112
65510262,Nashville,,1476681660000.0,36.1,-86.66,Keana Nwaneri,TN,1477189954000.0,15552112
208189715,Pflugerville,,1487639437000.0,30.44,-97.63,Keirra Ewah,TX,1487639437000.0,15552112
149484552,Antioch,,1405104027000.0,36.04,-86.64,keisha,TN,1436412930000.0,15552112
9442150,Hendersonville,,1416570486000.0,36.32,-86.61,Kelly,TN,1454463099000.0,15552112
230764231,Nashville,,1498779247000.0,36.17,-86.78,Kelsey Joan,TN,1504551478000.0,15552112
218805678,Murfreesboro,,1482949036000.0,35.87,-86.34,Kelsey McLaughlin,TN,1482949036000.0,15552112
182847263,Franklin,,1424732830000.0,35.99,-86.9,Ken Alpren,TN,1484638717000.0,15552112
216748395,Nashville,,1479248966000.0,36.13,-86.8,Ken Moini,TN,1479248966000.0,15552112
219626753,Nashville,,1484016230000.0,36.14,-86.8,Kenna Jing,TN,1484016230000.0,15552112
188451359,Antioch,,1433915075000.0,36.04,-86.64,Kennedy King,TN,1433915075000.0,15552112
210561881,Nashville,,1470594431000.0,36.17,-86.78,Kenneth,TN,1470594431000.0,15552112
227406989,Nolensville,,1494546584000.0,35.94,-86.67,Kevin,TN,1508688525000.0,15552112
214644389,Antioch,,1476038779000.0,36.04,-86.64,Kevin Bergsmith,TN,1476038779000.0,15552112
231089525,Nashville,,1499189240000.0,36.11,-86.78,Kevin Slattery,TN,1499265591000.0,15552112
222913862,Nashville,,1488319631000.0,36.15,-86.81,Kevin Stokes,TN,1488319631000.0,15552112
216627343,Nashville,,1506952062000.0,36.22,-86.77,Khalia Taylor,TN,1506952062000.0,15552112
183669787,Murfreesboro,,1421548796000.0,35.78,-86.33,Khalid,TN,1421557238000.0,15552112
200812402,Ashland City,,1456979779000.0,36.28,-87.07,Khiara ,TN,1456979779000.0,15552112
237197636,Nashville,,1506131105000.0,36.17,-86.78,Killian Prue,TN,1506131105000.0,15552112
33182622,Muscle Shoals,,1438472538000.0,34.75,-87.64,Kim ,AL,1438472538000.0,15552112
196728634,Nashville,,1450371660000.0,36.15,-86.86,Kim Estes,TN,1451436409000.0,15552112
217594704,Nashville,,1485860022000.0,36.17,-86.78,Kim Gregory,TN,1488984320000.0,15552112
183167589,Nashville,,1419815652000.0,36.09,-86.82,KimHR,TN,1434056603000.0,15552112
58539562,Nashville,"Nashville, TN",1459886850000.0,36.08,-86.72,Kimi  Urrutia,TN,1459886850000.0,15552112
182687753,Nashville,,1424288151000.0,36.09,-86.82,Konstantin Gregg-Saad,TN,1478642644000.0,15552112
34251832,Gallatin,,1436949373000.0,36.39,-86.45,kris,TN,1439573580000.0,15552112
155958632,Nashville,,1506651707000.0,36.17,-86.78,Kristen Beal,TN,1506651707000.0,15552112
182662859,Murfreesboro,,1418773596000.0,35.87,-86.34,Kristen Brown,TN,1418773596000.0,15552112
200378754,Lebanon,,1456359646000.0,36.21,-86.31,Kristi,TN,1456359646000.0,15552112
191151549,Gallatin,,1439374816000.0,36.39,-86.45,Kristi Biggs-Walker,TN,1439374816000.0,15552112
226135246,Nashville,,1492821539000.0,36.17,-86.78,Kristian,TN,1492821539000.0,15552112
221617309,Nashville,,1486521470000.0,36.22,-86.74,Kristin Montenegro,TN,1486521470000.0,15552112
207088273,Nashville,,1473389474000.0,36.17,-86.78,Kristy Barnes,TN,1473389474000.0,15552112
230552555,Antioch,,1503169728000.0,36.17,-86.88,Kyle Robinson,TN,1504261096000.0,15552112
229292442,Nashville,,1496944051000.0,36.15,-86.79,Latha,TN,1496944051000.0,15552112
222288505,Franklin,,1507268481000.0,35.93,-86.83,Latish Khubnani,TN,1507268481000.0,15552112
218422159,Nashville,,1482180228000.0,36.14,-86.74,Laton Key,TN,1482180228000.0,15552112
13300139,Lewisburg,"Lewisburg, TN",1486148210000.0,35.45,-86.8,Laura Morgan,TN,1488943325000.0,15552112
200807248,Nashville,,1489802163000.0,36.1,-86.66,Lauren E. May,TN,1499053115000.0,15552112
218802736,Nashville,,1483787521000.0,36.17,-86.78,Lauren Sharpe,TN,1486159112000.0,15552112
214164320,Nashville,,1475404778000.0,36.17,-86.78,Laurie Reeves,TN,1475404778000.0,15552112
172493102,Nashville,,1490572776000.0,36.15,-86.81,Leah Aiken,TN,1491455431000.0,15552112
231144933,Nashville,,1499260879000.0,36.17,-86.78,Leanne Cassell Malone,TN,1499260879000.0,15552112
220992450,Nashville,,1485745667000.0,36.11,-86.78,LeAundra Coyle,TN,1503373978000.0,15552112
212668087,Nashville,,1473524333000.0,36.17,-86.78,Leigh2001,TN,1474559945000.0,15552112
229802380,Nashville,,1497585073000.0,36.16,-86.77,Leshad Wilson,TN,1497585073000.0,15552112
232753450,Nashville,,1501202537000.0,36.08,-86.72,Leticia Rojano,TN,1501202537000.0,15552112
235533853,Murfreesboro,,1504436176000.0,35.85,-86.36,Lewanyé,TN,1504436176000.0,15552112
225231768,Nashville,,1491585403000.0,36.13,-86.8,Lily Norton,TN,1491585403000.0,15552112
226811920,Nashville,,1493735598000.0,36.11,-86.78,Lindsey Weiner,TN,1493735598000.0,15552112
219631521,Lebanon,,1484023077000.0,36.21,-86.31,Lisa Hardy,TN,1484023077000.0,15552112
222905581,Nashville,,1488310810000.0,36.17,-86.78,LMc,TN,1488992740000.0,15552112
230246847,Nashville,,1502478434000.0,36.17,-86.78,Loren Ware,TN,1503936900000.0,15552112
210232269,Nashville,,1470114644000.0,36.17,-86.78,Lynn Jackson Conklin,TN,1470114644000.0,15552112
223678307,Nashville,,1489407375000.0,36.19,-86.8,Macie Smith,TN,1508519649000.0,15552112
198713566,Nashville,,1469465668000.0,36.17,-86.78,Madeline,TN,1497276567000.0,15552112
213709919,Nashville,,1474863109000.0,36.11,-86.78,Maged Mikhail,TN,1475953568000.0,15552112
184469149,Nashville,,1483385870000.0,36.09,-86.82,Mai,TN,1490719756000.0,15552112
220441809,Nashville,,1486182117000.0,36.08,-86.72,MAL,TN,1486522462000.0,15552112
199274025,Nashville,,1454791354000.0,36.18,-86.74,Malek Damiri,TN,1454791354000.0,15552112
210822534,Nashville,,1470958271000.0,36.17,-86.78,Mandy Lopez,TN,1470958271000.0,15552112
216371152,Nashville,,1478647003000.0,36.16,-86.79,Mandy Robinson Walley,TN,1478647003000.0,15552112
113218182,Nashville,,1474065573000.0,36.1,-86.72,Manoja ,TN,1474065573000.0,15552112
124311612,Nashville,,1473002737000.0,36.17,-86.78,Maricruz Flores ,TN,1473002737000.0,15552112
12082840,Brentwood,Brentwood,1506850392000.0,36.0,-86.79,Marie,TN,1507503739000.0,15552112
186546270,Murfreesboro,,1429919834000.0,35.82,-86.45,Marie Szabo,TN,1434404652000.0,15552112
210096250,Fosterville,,1469933876000.0,35.75,-86.39,Mario Allen,TN,1494950248000.0,15552112
220636613,Nashville,,1485291745000.0,36.14,-86.8,Mario Chmw,TN,1485291745000.0,15552112
230280950,Nashville,,1498184453000.0,36.16,-86.77,Maritza,TN,1506642486000.0,15552112
235695658,Franklin,,1504605181000.0,35.93,-86.84,Marjorie Morris,TN,1504605181000.0,15552112
187710981,Nashville,,1432431198000.0,36.08,-86.72,Mark,TN,1451273286000.0,15552112
216504380,Smyrna,,1478888921000.0,35.97,-86.51,Mark Bledsoe,TN,1478888921000.0,15552112
230888833,Antioch,,1498940401000.0,36.04,-86.64,Mark Fuqua,TN,1503977427000.0,15552112
209355111,Antioch,,1507946592000.0,36.05,-86.59,Mark Fuqua,TN,1507946592000.0,15552112
235585159,Tempe,,1504488471000.0,33.41,-111.93,Mark Hovland,AZ,1504488471000.0,15552112
227089335,Nashville,,1494110342000.0,36.17,-86.78,Markus Lich,TN,1494110342000.0,15552112
227734948,Nashville,,1497736237000.0,36.09,-86.82,Marsha,TN,1506563837000.0,15552112
208912302,Nashville,,1468368940000.0,36.08,-86.72,Marty Baughman,TN,1468368940000.0,15552112
221212756,Nashville,,1486023294000.0,36.17,-86.78,Martynas ustavi?ius,TN,1486023294000.0,15552112
218687832,Nashville,,1482743462000.0,36.07,-86.73,Marwen Ben Jeddou,TN,1482743462000.0,15552112
10123863,Nashville,,1417145087000.0,36.11,-86.86,Mary,TN,1490297603000.0,15552112
219744699,Nashville,,1484171465000.0,36.14,-86.81,Mary Elizabeth Pellett,TN,1484171465000.0,15552112
233626249,Nashville,,1502252915000.0,36.11,-86.78,Mary Flores,TN,1502252915000.0,15552112
194574655,Hendersonville,,1445707333000.0,36.32,-86.61,Mary Leslie Pitt,TN,1448934426000.0,15552112
193736363,Nashville,,1444158387000.0,36.15,-86.86,Marybeth,TN,1444158387000.0,15552112
193751439,Madison,,1444181190000.0,36.26,-86.71,Mathew Stuart,TN,1445535659000.0,15552112
227472857,Hendersonville,,1494631446000.0,36.32,-86.61,Matt,TN,1494631446000.0,15552112
188719106,Clarksville,,1434468127000.0,36.53,-87.35,matt,TN,1434468127000.0,15552112
191365783,Clarksville,,1439926085000.0,36.53,-87.35,Matt Gochenauer,TN,1439926085000.0,15552112
5900662,Nashville,"Nashville, TN",1451548116000.0,36.07,-86.78,Matt Kenigson,TN,1463363332000.0,15552112
228614899,Manchester,,1496105817000.0,35.47,-86.11,Matthew B Powers,TN,1496105817000.0,15552112
191607517,Brentwood,,1440139668000.0,36.0,-86.79,Matthew Brajkovich,TN,1440139668000.0,15552112
195807370,Springfield,,1478306799000.0,36.52,-86.87,Matthew Harder,TN,1485805600000.0,15552112
204241915,Nashville,St. Louis,1501776061000.0,36.18,-86.74,Matthew Modesitt,TN,1507039350000.0,15552112
229380306,Nashville,,1497052054000.0,36.17,-86.78,Maurice Rivers,TN,1497052054000.0,15552112
229744057,Brentwood,,1497507071000.0,36.0,-86.79,Max Behling,TN,1497507071000.0,15552112
229740492,Nashville,,1497502779000.0,36.09,-86.82,Max Garceau,TN,1497857467000.0,15552112
99979372,Paris,,1452386929000.0,48.86,2.34,Maxime Riahi,,1454200398000.0,15552112
220252348,Nashville,,1484799632000.0,36.11,-86.86,Mayuko  Matsuda,TN,1484799632000.0,15552112
204338523,Murfreesboro,,1500668858000.0,35.82,-86.45,Mbombo Kazadi,TN,1500668858000.0,15552112
239513213,Nashville,,1508722497000.0,36.22,-86.74,McKinna Anderson,TN,1508722497000.0,15552112
222531934,Florence,,1487785316000.0,34.82,-87.66,Meggin Major,AL,1487785316000.0,15552112
11532203,Franklin,"Hartland, WI",1501471774000.0,35.93,-86.81,Meghan,TN,1501471774000.0,15552112
221469278,Nashville,,1486336906000.0,36.17,-86.72,Meghan Marvinny,TN,1486336906000.0,15552112
230783464,Nashville,,1498806465000.0,36.14,-86.74,Meghann Bumbalough Shipman,TN,1498806465000.0,15552112
203794696,Nashville,"Los Angeles, CA",1472340172000.0,36.17,-86.78,MéKyle,TN,1504386016000.0,15552112
220901670,Nashville,,1485647284000.0,36.17,-86.78,Mel,TN,1499529419000.0,15552112
106022732,Hermitage,"Hermitage, TN",1432567710000.0,36.19,-86.6,Melinda Judy,TN,1478275922000.0,15552112
219124624,Old Hickory,,1493167499000.0,36.25,-86.63,Melissa,TN,1493167499000.0,15552112
62106992,Nashville,,1492053399000.0,36.14,-86.74,Melissa Harris,TN,1503602639000.0,15552112
201819133,Nashville,,1502165731000.0,36.15,-86.86,Melissa Rafalko,TN,1502165731000.0,15552112
2256087,Nashville,Seattle,1503518875000.0,36.17,-86.78,Micah Redding,TN,1505446205000.0,15552112
187258917,Nashville,,1431488193000.0,36.17,-86.78,michael,TN,1433733743000.0,15552112
187895984,Gallatin,,1432794900000.0,36.39,-86.45,michael fricke,TN,1432794900000.0,15552112
208571752,Brentwood,,1467930237000.0,36.0,-86.79,Michael Frost ,TN,1467990188000.0,15552112
226028895,Hermitage,,1492678223000.0,36.19,-86.6,Michael kat,TN,1492678223000.0,15552112
19158561,Nashville,,1485318350000.0,36.17,-86.78,Michael Monette,TN,1487385215000.0,15552112
228888053,Nashville,,1496446557000.0,36.08,-86.72,Michael Rawetzki,TN,1496446557000.0,15552112
219921759,Nashville,,1484405687000.0,36.08,-86.72,Michael Roger,TN,1484405687000.0,15552112
12552527,Nashville,NYC,1405105493000.0,36.13,-86.8,Michael Rolli,TN,1503946519000.0,15552112
227780445,Nashville,,1495040894000.0,36.11,-86.78,Michaun Olliver,TN,1495040894000.0,15552112
230009351,La Vergne,,1497878294000.0,36.0,-86.57,Michelle Powell,TN,1497878294000.0,15552112
230237578,Nashville,,1498133517000.0,36.16,-86.66,Mike Donahue,TN,1498181805000.0,15552112
238895898,Nashville,,1508016630000.0,36.17,-86.72,Milly Balcheva,TN,1508343031000.0,15552112
210490948,Goodlettsville,,1470496460000.0,36.32,-86.72,Mindy Esposito Hergert,TN,1470712017000.0,15552112
217332807,Nashville,,1480240468000.0,36.08,-86.72,Minnie Murphy,TN,1480240468000.0,15552112
204673877,Nashville,,1462584278000.0,36.17,-86.78,Misty W.,TN,1462584278000.0,15552112
215296011,Nashville,,1477874987000.0,36.14,-86.74,Molly Slothower,TN,1477881764000.0,15552112
224381711,Nashville,,1490382558000.0,36.17,-86.78,Monica,TN,1498013120000.0,15552112
202140417,Nashville,Nashville,1485484167000.0,36.14,-86.74,Morgan Hoover,TN,1485484167000.0,15552112
233911212,Nashville,,1502578384000.0,36.17,-86.78,Mr. Mack,TN,1502578384000.0,15552112
184590511,Fairview,,1424410950000.0,35.97,-87.13,Nashe Edit,TN,1449562304000.0,15552112
4389320,Nashville,Charlotte,1473573215000.0,36.17,-86.78,Nat,TN,1507337925000.0,15552112
22062221,Nashville,"Annapolis, MD",1493140691000.0,36.17,-86.72,Natalie,TN,1493506709000.0,15552112
9828339,Nashville,Los Angeles,1508446165000.0,36.15,-86.86,Natalie Castillo,TN,1508446165000.0,15552112
128117352,Nashville,Nashville,1503175527000.0,36.18,-86.74,Nathan Butler,TN,1507517560000.0,15552112
213917296,Nashville,,1475119855000.0,36.11,-86.78,Nathan Childers,TN,1475119855000.0,15552112
229634985,Nashville,,1497370570000.0,36.17,-86.78,Neal C,TN,1498511641000.0,15552112
185236215,New York,,1426342394000.0,40.75,-73.99,Nelson,NY,1502105927000.0,15552112
194634196,Nashville,Los Angeles,1445879127000.0,36.09,-86.82,Neville W. (Bill) Reay,TN,1449865647000.0,15552112
41908262,Franklin,,1493939367000.0,35.92,-86.89,Nick Doyle,TN,1493939367000.0,15552112
218042027,Nashville,,1483521842000.0,36.17,-86.78,Nick Sherron,TN,1483521842000.0,15552112
223884983,Nashville,,1489693090000.0,36.16,-86.66,Nickie Denning,TN,1489693090000.0,15552112
197455409,Lebanon,,1468901017000.0,36.21,-86.31,Nicole Barton,TN,1468901017000.0,15552112
218559512,Franklin,,1482444688000.0,35.92,-86.89,Nicole Cygielman,TN,1482856820000.0,15552112
205867701,Madison,,1464220263000.0,36.26,-86.71,NikkiB,TN,1464220263000.0,15552112
220827338,Nashville,,1485538664000.0,36.09,-86.82,Nina Jones Morel,TN,1486610679000.0,15552112
183677379,Chapel Hill,,1421565518000.0,35.93,-79.04,Noah Ryan Simmons,NC,1508793526000.0,15552112
1738473,Nashville,"Nashville, Tennessee",1484607324000.0,36.11,-86.78,oh_me,TN,1484607324000.0,15552112
214161944,Antioch,,1475398310000.0,36.04,-86.64,Olamide Olajide Oladinni,TN,1475398310000.0,15552112
234168251,Franklin,,1502888008000.0,35.93,-86.81,Olivia Oetjens,TN,1502888008000.0,15552112
125212422,Nashville,Hot Springs,1471491725000.0,36.18,-86.74,Olympia Pakis,TN,1471491725000.0,15552112
221191725,Nashville,,1486423385000.0,36.08,-86.72,Omar Ali,TN,1508599600000.0,15552112
19929901,Nashville,,1467388790000.0,36.13,-86.8,P,TN,1467388790000.0,15552112
211885518,Antioch,,1472468486000.0,36.04,-86.64,Pa'Shua Mayo,TN,1472468486000.0,15552112
3949436,Nashville,Santiago,1500754429000.0,36.15,-86.86,Pablo,TN,1500754429000.0,15552112
231317976,Nashville,,1499464010000.0,36.11,-86.78,Pam Earnest,TN,1503516995000.0,15552112
228869429,Lebanon,,1496426546000.0,36.21,-86.31,Pam Earnest,TN,1505406003000.0,15552112
196914629,Houston,,1450247101000.0,29.72,-95.22,Paris Westbrook,TX,1451239119000.0,15552112
231357658,Nashville,,1500734702000.0,36.17,-86.78,Parissa Gharavi,TN,1506553080000.0,15552112
183880971,Atlanta,,1493414605000.0,33.86,-84.4,Patrice,GA,1493490753000.0,15552112
232031295,Nashville,Cincinnati,1502146951000.0,36.18,-86.74,Payson Briggs,TN,1505509875000.0,15552112
209563120,Hendersonville,,1469225891000.0,36.32,-86.61,PR Harbin,TN,1469233458000.0,15552112
208548524,Mount Juliet,,1467899861000.0,36.21,-86.52,Preston Manuel,TN,1508619859000.0,15552112
191349605,Nashville,,1439644370000.0,36.11,-86.78,Q Oaktree,TN,1439644370000.0,15552112
185660591,Nashville,,1442422001000.0,36.17,-86.78,Rachel Jackson,TN,1442450242000.0,15552112
231983954,Nashville,,1500256966000.0,36.08,-86.72,Rafael Jimenez,TN,1500256966000.0,15552112
207222888,Madison,,1466081648000.0,36.26,-86.71,Randol Ridley,TN,1466081648000.0,15552112
210082852,Franklin,,1479595292000.0,35.92,-86.89,Ray Blair,TN,1485035006000.0,15552112
187492198,Charleston,,1450823901000.0,35.26,-84.87,Ray Keller,TN,1450823901000.0,15552112
213960125,Nashville,,1475169302000.0,36.11,-86.78,rdb6667,TN,1478620333000.0,15552112
221161925,Clarksville,,1485961193000.0,36.56,-87.41,Renee Palicia,TN,1486240740000.0,15552112
218782366,Nashville,,1482901535000.0,36.15,-86.81,Ro Whi,TN,1482901535000.0,15552112
217350178,Nashville,,1483763998000.0,36.15,-86.81,Rob Brantley,TN,1501961120000.0,15552112
232195588,Nashville,,1500509583000.0,36.11,-86.78,Robert James Abatteng,TN,1500509583000.0,15552112
57744742,Nashville,,1486813097000.0,36.17,-86.79,Robert Jarrell,TN,1486813097000.0,15552112
21052731,Pegram,,1483430460000.0,36.12,-87.03,Robin Ray,TN,1483624763000.0,15552112
48317042,Nashville,"Skokie, Illinois",1492576056000.0,36.06,-86.96,Robyn,TN,1497926049000.0,15552112
198388420,Franklin,"Augusta, WV",1497983078000.0,35.92,-86.89,roger,TN,1498345930000.0,15552112
155278822,Murfreesboro,Memphis,1483555731000.0,35.82,-86.45,Romney Dickinson,TN,1503882706000.0,15552112
205437540,Franklin,,1463625591000.0,35.92,-86.89,Rosemary,TN,1463625591000.0,15552112
183013618,Murfreesboro,,1483281244000.0,35.87,-86.44,rosi,TN,1483281244000.0,15552112
214224356,Nashville,,1485843189000.0,36.14,-86.74,Ross Olinger,TN,1498253483000.0,15552112
220373827,Nashville,,1485042807000.0,36.17,-86.78,Russell Dunn,TN,1497053128000.0,15552112
188660063,Nashville,,1482841090000.0,36.17,-86.78,S K,TN,1482841090000.0,15552112
233511550,Smyrna,,1505919897000.0,35.97,-86.51,S Koehler,TN,1505919897000.0,15552112
226241618,Clarksville,,1492966917000.0,36.53,-87.35,S.O'Donnell,TN,1492966917000.0,15552112
192823524,Rockvale,Murfreesboro,1461899012000.0,35.76,-86.55,Sabine Joseph,TN,1489003850000.0,15552112
217027080,Franklin,,1486330903000.0,35.93,-86.84,Saleem Kothia,TN,1486330903000.0,15552112
228213759,Brentwood,,1495573601000.0,36.0,-86.79,Sam Bowers,TN,1496176613000.0,15552112
64807922,Murfreesboro,Murfreesboro,1452312782000.0,35.87,-86.34,Sam Maurice Bowman,TN,1452312782000.0,15552112
184920661,Nashville,"Boston, Massachusetts USA",1461719396000.0,36.16,-86.79,Samantha Sprole,TN,1495144089000.0,15552112
216271633,Westmoreland,,1478492445000.0,36.57,-86.22,Samantha Thompson,TN,1478492445000.0,15552112
238815972,Nashville,,1507922571000.0,36.16,-86.77,Sammy D,TN,1507922571000.0,15552112
209351807,Readyville,,1468946644000.0,35.82,-86.22,Samuel Nokovich,TN,1491162422000.0,15552112
178585042,Nashville,,1490751801000.0,36.17,-86.78,Sarah Chilton,TN,1493471169000.0,15552112
198412968,Nashville,,1453369000000.0,36.06,-86.96,Sarah Martinez,TN,1453542398000.0,15552112
157845072,Hermitage,,1424938397000.0,36.19,-86.6,Sarah Plumb,TN,1424938397000.0,15552112
216482562,Nashville,,1480804755000.0,36.07,-86.73,Sarah Robinson,TN,1488131174000.0,15552112
223721709,Lebanon,,1489460157000.0,36.21,-86.31,Savannah H,TN,1489460157000.0,15552112
232037404,Nashville,,1500323937000.0,36.16,-86.79,Saydi Miller,TN,1500515402000.0,15552112
3710232,Nashville,,1507316904000.0,36.17,-86.78,Scott,TN,1507316904000.0,15552112
109094062,Brentwood,,1504368616000.0,36.0,-86.79,Scott,TN,1504368616000.0,15552112
202508236,Shelbyville,,1461099654000.0,35.48,-86.47,Scott Gaines,TN,1461099654000.0,15552112
219148445,Nashville,,1483442645000.0,36.08,-86.72,Sean Williams,TN,1483442645000.0,15552112
193286122,Madison,,1503963739000.0,36.26,-86.71,Sean Willis,TN,1503963739000.0,15552112
9003361,Franklin,,1455669400000.0,35.93,-86.81,seppy NYANG'ORO,TN,1508682216000.0,15552112
210431008,Mount Juliet,,1470408001000.0,36.21,-86.52,Seth Walker,TN,1473725235000.0,15552112
228881242,Nashville,,1496717422000.0,36.16,-86.77,Shabahang Alavi-Behbahani,TN,1496717422000.0,15552112
8539046,Nashville,,1504384307000.0,36.13,-86.8,Shalini,TN,1505268765000.0,15552112
221384190,Nashville,,1486230575000.0,36.21,-86.72,Shane Stephens,TN,1486230575000.0,15552112
64648962,Spring,,1471463067000.0,30.03,-95.53,shannon grave,TX,1471463067000.0,15552112
229728317,Gallatin,,1497485986000.0,36.39,-86.45,Shantel King,TN,1497485986000.0,15552112
192424600,Arrington,,1441696735000.0,35.86,-86.66,Shantell Johnson,TN,1441696735000.0,15552112
221917324,Nashville,,1486937127000.0,36.1,-86.66,Sharah Dass,TN,1505177082000.0,15552112
230271829,Murfreesboro,,1498173670000.0,35.85,-86.36,Shawn Daniels,TN,1498173670000.0,15552112
209579590,Nashville,,1469246688000.0,36.17,-86.78,ShayneWessley,TN,1469246688000.0,15552112
217488488,Nashville,,1480494139000.0,36.17,-86.78,Shemeka Turner,TN,1480494139000.0,15552112
222740881,Nashville,,1488078615000.0,36.08,-86.72,Sherman Megibben,TN,1504215045000.0,15552112
214952576,Nashville,,1476490084000.0,36.1,-86.66,Sherrie Williams,TN,1476490084000.0,15552112
226812534,Antioch,,1493735418000.0,36.04,-86.64,So Hollywood,TN,1493735418000.0,15552112
208173959,Madison,"Collierville, TN",1467394760000.0,36.26,-86.71,Sonya Anthony McGhee,TN,1467394760000.0,15552112
194029239,Nashville,,1444701453000.0,36.1,-86.66,Sophia Xu,TN,1476667072000.0,15552112
223653322,Nashville,,1489369656000.0,36.17,-86.78,Southerns Seven,TN,1489369656000.0,15552112
170733682,Nashville,nashville,1459828630000.0,36.16,-86.79,stacy king,TN,1460354869000.0,15552112
220731917,Nashville,,1485407676000.0,36.21,-86.72,Stalios Cantose,TN,1485407676000.0,15552112
215634002,Nashville,,1477499275000.0,36.18,-86.81,Stefano Scotti,TN,1477499275000.0,15552112
208990656,Nashville,,1468471430000.0,36.09,-86.82,Steph M,TN,1468471430000.0,15552112
208371858,Mount Juliet,,1467667736000.0,36.21,-86.52,Stephanie,TN,1467667736000.0,15552112
194573109,Nashville,,1445705937000.0,36.17,-86.78,Stephanie Kendrick,TN,1445705937000.0,15552112
224449342,Nashville,Nashville,1499473124000.0,36.13,-86.8,Steven Culver,TN,1502189875000.0,15552112
184338837,Nashville,,1488059269000.0,36.17,-86.78,Steven Serra,TN,1491070844000.0,15552112
215201305,Brentwood,Mid-West,1503973766000.0,36.0,-86.79,Summer,TN,1508274406000.0,15552112
197715623,Brentwood,,1458678851000.0,36.0,-86.79,Susan Doughty,TN,1487460850000.0,15552112
210131587,Nashville,,1469987008000.0,36.17,-86.78,Susan Duckett,TN,1472414983000.0,15552112
12305734,Nashville,,1406485459000.0,36.1,-86.66,Susan H.Dalton,TN,1406590199000.0,15552112
12134295,Nashville,,1489022943000.0,36.15,-86.86,Suzanne,TN,1489022943000.0,15552112
74710592,Brentwood,,1492998656000.0,36.0,-86.79,Suzie Hockett DeYoung,TN,1492998656000.0,15552112
210520916,Antioch,,1470534487000.0,36.04,-86.64,Taku Kataura,TN,1470534487000.0,15552112
232851741,Nashville,,1501336204000.0,36.17,-86.78,Tammy,TN,1508676022000.0,15552112
160884532,Gallatin,"Chicago, IL",1414746247000.0,36.39,-86.45,Tammy H.,TN,1418149240000.0,15552112
194262645,Nashville,,1450047232000.0,36.13,-86.8,Tammy Thomas,TN,1450047232000.0,15552112
49377352,Nashville,,1468991308000.0,36.18,-86.74,Tasia Brooks,TN,1468991308000.0,15552112
11436326,Nashville,,1498321766000.0,36.17,-86.78,Taylor Stewart,TN,1507818194000.0,15552112
182734414,Murfreesboro,,1504560048000.0,35.78,-86.33,Tevin,TN,1504560048000.0,15552112
219512075,Nashville,,1483884944000.0,36.17,-86.78,The  Beehive,TN,1483884944000.0,15552112
193874989,Nashville,,1465323479000.0,36.08,-86.72,Thomas Brown,TN,1465323479000.0,15552112
236310654,Nashville,,1505230497000.0,36.16,-86.78,Thomas Townsley,TN,1505230497000.0,15552112
207136288,Nolensville,,1465954150000.0,35.94,-86.67,Tim Chew,TN,1465954150000.0,15552112
201567747,Madison,,1458063611000.0,36.26,-86.71,Tima Imari Smith,TN,1458063611000.0,15552112
205864890,Nashville,"Nashville, TN",1464216722000.0,36.08,-86.72,Timothy Loayza,TN,1485998883000.0,15552112
185331050,Hermitage,,1426623425000.0,36.19,-86.6,Timothy Woods,TN,1438113607000.0,15552112
228727740,Murfreesboro,,1496249506000.0,35.87,-86.44,Tito Espinoza,TN,1496249506000.0,15552112
223781591,Nashville,,1490736524000.0,36.11,-86.86,Todd,TN,1508088674000.0,15552112
57398582,Franklin,,1489723043000.0,35.92,-86.89,Tom,TN,1489723043000.0,15552112
186201445,Nashville,,1429110408000.0,36.11,-86.86,Tom Johnson,TN,1500863590000.0,15552112
194553290,Woodbury,,1445666654000.0,35.81,-86.07,Tomer ,TN,1445666654000.0,15552112
75285632,Nashville,,1441517389000.0,36.11,-86.86,Tonya Glasgow,TN,1445035885000.0,15552112
207294139,Nashville,,1466183447000.0,36.1,-86.66,Tracey Miree,TN,1466183447000.0,15552112
227304840,Hendersonville,,1494404925000.0,36.32,-86.61,Traci Gochett,TN,1494404925000.0,15552112
228244950,La Vergne,,1495614844000.0,36.01,-86.57,Travis Waters,TN,1495614844000.0,15552112
184332334,Nashville,,1499177939000.0,36.17,-86.78,Tremaine James,TN,1499177939000.0,15552112
225923443,Nashville,,1492539899000.0,36.15,-86.81,Triunn Maeginbiarnarson,TN,1492685424000.0,15552112
210030950,Crossville,,1469844328000.0,35.95,-85.02,Ty Conner McConnell,TN,1469844328000.0,15552112
201445156,Nashville,"Nashville, TN",1457899681000.0,36.17,-86.78,Ty Gilliam,TN,1459434945000.0,15552112
231006319,Nashville,,1499091570000.0,36.15,-86.86,Tyler D'andre Rucker,TN,1499091570000.0,15552112
239561920,Nashville,,1508778071000.0,36.11,-86.78,Vanessa S.,TN,1508778071000.0,15552112
50580082,Denville,Nashville,1463873688000.0,40.89,-74.48,Venu,NJ,1471122175000.0,15552112
213404911,Mount Juliet,,1474467845000.0,36.21,-86.52,Veronica,TN,1474467845000.0,15552112
189740000,Nashville,,1499045386000.0,36.18,-86.81,Vickie Belcher,TN,1499045386000.0,15552112
9370815,Tampa,,1508611526000.0,27.98,-82.34,Victor,FL,1508696621000.0,15552112
221755997,Nashville,,1486704953000.0,36.11,-86.78,Victor Bradley,TN,1508049819000.0,15552112
71038612,Bowling Green,,1479700864000.0,37.02,-86.46,victoria,KY,1507282169000.0,15552112
200946236,Franklin,,1457191062000.0,35.92,-86.89,Vincentzenno Cappelli,TN,1457191062000.0,15552112
215050917,Nashville,,1476643076000.0,36.11,-86.78,Vincenzeno,TN,1476643076000.0,15552112
194180707,Franklin,,1490473482000.0,35.94,-86.83,Vinny,TN,1500635697000.0,15552112
184847215,Franklin,,1503281068000.0,35.93,-86.84,Vinny,TN,1508553912000.0,15552112
183752404,Murfreesboro,Murfreesboro,1507764365000.0,35.82,-86.45,Vivian Hughbanks,TN,1507764365000.0,15552112
215089638,Clarksville,,1476693124000.0,36.53,-87.34,Waa Day Forrester III,TN,1476693124000.0,15552112
233280736,Nashville,,1501865465000.0,36.17,-86.78,Walt Bell,TN,1501865465000.0,15552112
2839285,Clarksville,,1479521811000.0,36.53,-87.35,warren,TN,1480695697000.0,15552112
171064762,Franklin,,1461867093000.0,35.93,-86.81,Wendy Hibbard,TN,1472837638000.0,15552112
8925798,Nashville,,1483463962000.0,36.17,-86.78,Wendy Williams,TN,1483463962000.0,15552112
233292764,Nashville,,1501878079000.0,36.17,-86.72,Weston Lazenby,TN,1501878079000.0,15552112
223983684,Nashville,,1489840320000.0,36.18,-86.74,Whitney Burrel Davis,TN,1489980536000.0,15552112
184587587,Nashville,,1424402139000.0,36.17,-86.78,Will,TN,1424402139000.0,15552112
205389919,Nashville,,1505178518000.0,36.13,-86.67,Will Davis,TN,1505178518000.0,15552112
216406817,Nashville,,1478718642000.0,36.17,-86.78,Will Smith,TN,1478718642000.0,15552112
232689353,Nashville,,1501119764000.0,36.07,-86.78,William Blank,TN,1502022586000.0,15552112
11579085,Nashville,,1405028368000.0,36.08,-86.72,William H. Bowen,TN,1504202945000.0,15552112
223212102,Nashville,,1489370475000.0,36.17,-86.78,WJ O'Reilly,TN,1494250002000.0,15552112
214906540,Nashville,,1476421231000.0,36.17,-86.78,Yani Johnson,TN,1476421231000.0,15552112
231103049,Nashville,,1499202723000.0,36.17,-86.78,Yeraldy Marcano,TN,1499202723000.0,15552112
139406912,Huntsville,,1405027001000.0,34.78,-86.52,Yon Kromis,AL,1475874069000.0,15552112
210921083,Nashville,,1491084543000.0,36.16,-86.79,You Zhou,TN,1491084543000.0,15552112
211428140,Brentwood,,1471832123000.0,36.0,-86.79,Yuliana,TN,1494680029000.0,15552112
10444739,Nashville,Cincinnati,1469073071000.0,36.17,-86.72,Zac ,TN,1471701195000.0,15552112
212079646,Nashville,,1472729914000.0,36.17,-86.78,Zack Tripp,TN,1472729914000.0,15552112
159119602,Nashville,,1501473988000.0,36.11,-86.86,ZaEn (Scott Floodstrom),TN,1502168203000.0,15552112
185165830,Nashville,,1437620181000.0,36.15,-86.86,zarin Buckingham,TN,1462147285000.0,15552112
208735126,Nashville,,1468154695000.0,36.17,-86.78,zee,TN,1468154695000.0,15552112
208902421,Nashville,,1488010406000.0,36.17,-86.78,Zoltan A,TN,1508565798000.0,15552112
