id,city,hometown,joined,lat,lon,name,state,visited,group_id
41795222,Murfreesboro,,1452038868000,35.78,-86.33,Aaron Carlton,TN,1468256142000,16607822
76927242,Aberdeen,,1472704211000,35.15,-79.42,Aaron Fairman,NC,1472704211000,16607822
193234204,Nashville,,1443210783000,36.08,-86.72,Ada Mercy ,TN,1443210783000,16607822
203282727,Nashville,,1460563037000,36.08,-86.72,Adam Czech,TN,1463684183000,16607822
183587518,Nashville,,1421278750000,36.14,-86.74,Adam Hickey,TN,1421278750000,16607822
197133543,Smyrna,,1450791568000,35.97,-86.51,Adam Murray,TN,1456291029000,16607822
206481851,Nashville,,1468698807000,36.17,-86.78,Adia Tigney,TN,1469940949000,16607822
201442679,Nashville,,1457896771000,36.17,-86.78,Ajani Bakari,TN,1457896771000,16607822
2502912,Nashville,,1415049663000,36.17,-86.78,alan huffman,TN,1424977287000,16607822
185049424,Huntsville,,1425774265000,34.76,-86.68,Alanzo,AL,1425774265000,16607822
191897155,Murfreesboro,"San Antonio, TX",1464481566000,35.82,-86.45,Albert,TN,1476537226000,16607822
179185972,Boston,"Bexley, Ohio",1414015175000,42.35,-71.07,Alec Robins,MA,1414015175000,16607822
187846287,Nashville,,1432701180000,36.17,-86.78,Alex,TN,1432701180000,16607822
186765751,Brentwood,,1430419962000,36.0,-86.79,Alex,TN,1430521806000,16607822
171267772,Clarksville,,1410870609000,36.56,-87.41,Alex Lee,TN,1411175057000,16607822
178772272,Mount Juliet,,1413826670000,36.22,-86.52,Alex Mullins,TN,1453943212000,16607822
229841008,Nashville,,1497641545000,36.08,-86.72,Alex Nackenoff,TN,1497641545000,16607822
197864753,Nashville,,1452372364000,36.18,-86.74,Alexa Denner,TN,1452372364000,16607822
184719444,Nashville,,1424804136000,36.14,-86.74,Alexander,TN,1470332891000,16607822
206939860,Antioch,,1465693350000,36.04,-86.64,Alexis Christine DeBardeleben,TN,1465693350000,16607822
208819937,Nashville,,1468259747000,36.17,-86.78,Alexisinthere,TN,1468259747000,16607822
219051525,Nashville,,1483324092000,36.11,-86.86,Alexuis Weems,TN,1483324092000,16607822
209457033,Nashville,,1469077823000,36.17,-86.78,Ali Marie,TN,1469077823000,16607822
190707374,Franklin,,1438391322000,35.92,-86.89,Ali Yousef Al-hendas,TN,1438391322000,16607822
215795752,Nashville,,1483557346000,36.08,-86.72,Alli,TN,1489581117000,16607822
210671599,San Francisco,San Francisco,1494698833000,37.77,-122.41,Allison Crady,CA,1502832019000,16607822
222905651,Cleveland,,1488309632000,41.49,-81.67,Allison Hunter Kultaeva,OH,1488309632000,16607822
130456542,Brentwood,,1442521457000,36.0,-86.79,Alyssa,TN,1442521457000,16607822
183542485,Arrington,,1421127383000,35.86,-86.66,Amanda,TN,1421127383000,16607822
193223161,Hermitage,,1443192179000,36.19,-86.6,Amanda DeFelice,TN,1443192179000,16607822
210436933,Franklin,,1481741875000,35.92,-86.89,Amanda Waller,TN,1481741875000,16607822
203056540,New York,,1460247318000,40.75,-73.99,Amber Lamb,NY,1460247318000,16607822
212874528,Fort Campbell,,1473902078000,36.65,-87.46,Amber M. Trendowicz,KY,1473902078000,16607822
13370440,Philadelphia,,1487608278000,39.94,-75.23,Ameer Carter,PA,1487608278000,16607822
192964619,Lebanon,,1442705544000,36.21,-86.31,Amy collins,TN,1442705544000,16607822
63282212,Nashville,Nashville,1453230112000,36.18,-86.74,Amy Lee Bennett,TN,1457632028000,16607822
204871578,Clarksville,,1462873686000,36.49,-87.23,AnaKatarina Lalonde,TN,1462873686000,16607822
59707612,Paris,Svendborg,1455548691000,48.86,2.34,Anders Riise Koch,,1455548691000,16607822
138330362,Knoxville,,1464814047000,35.92,-83.88,Andre Hayter,TN,1464814047000,16607822
224118278,Madison,,1490026282000,36.26,-86.71,Andrea Callender,TN,1490026282000,16607822
120171732,Nashville,,1501186478000,36.16,-86.79,Andréa Randaci,TN,1501186478000,16607822
188279675,Murray,,1433572914000,36.62,-88.25,Andres Ricardo Pena Morena,KY,1461648668000,16607822
207019922,Brentwood,,1469676290000,36.0,-86.79,Andrew Becker,TN,1503765779000,16607822
196014675,Nashville,,1448384480000,36.18,-86.81,Andrew Bergeron,TN,1448384480000,16607822
188649123,Hendersonville,,1434322313000,36.32,-86.61,Andrew Crutcher,TN,1434322313000,16607822
209960345,Nashville,,1469745297000,36.17,-86.78,Andrew Gower,TN,1470533449000,16607822
83732652,Nashville,,1424976572000,36.17,-86.78,Andrew Hutchinson,TN,1441936113000,16607822
191140515,Franklin,,1439231258000,35.92,-86.89,Andrew Toothman,TN,1439339927000,16607822
132188112,Nashville,,1413840812000,36.07,-86.73,Andrijana Bilbija,TN,1413840812000,16607822
217864354,Gallatin,,1481138595000,36.39,-86.45,Andy Nicole,TN,1481138595000,16607822
179113082,Nashville,,1413987664000,36.14,-86.74,Andy Riggs,TN,1455144984000,16607822
214790765,Guthrie,,1476254520000,36.7,-87.18,Angel LaVeya,KY,1476254520000,16607822
191866681,Hendersonville,,1440631898000,36.32,-86.61,Angel Rivera,TN,1460422737000,16607822
187280838,Nashville,,1431538620000,36.08,-86.72,Angel-Ghashikta,TN,1431538620000,16607822
184392258,Nashville,,1423796931000,36.14,-86.74,Angela,TN,1423796931000,16607822
206907592,Nashville,,1465666643000,36.17,-86.78,Angela Everett,TN,1465666643000,16607822
183966526,Old Hickory,,1422425325000,36.25,-86.63,Anthoiny Aneyboy Elam,TN,1422425325000,16607822
178113422,Antioch,,1469142492000,36.17,-86.88,Anthony Burkeen,TN,1477183555000,16607822
207947876,Nashville,"Portland, OR",1467078828000,36.17,-86.78,Anthony DeGeorge,TN,1501221202000,16607822
193175438,Nashville,,1443098662000,36.17,-86.78,Anthony Juarez,TN,1447682481000,16607822
206798063,Hermitage,Hermitage,1465497628000,36.19,-86.6,Antonio Carter,TN,1480632099000,16607822
14593999,Nashville,,1436480161000,36.07,-86.73,antonio Sanford,TN,1436480161000,16607822
184801730,Morgantown,,1425058896000,37.2,-86.69,April and Jacob,KY,1425058896000,16607822
217429206,Lebanon,,1480395164000,36.21,-86.31,Aprilia Hestya Alam,TN,1504641429000,16607822
226712782,Franklin,,1493598427000,35.92,-86.89,Apurv ,TN,1493598427000,16607822
184383914,Nashville,,1423760406000,36.22,-86.73,Ari Anna,TN,1445032659000,16607822
168713522,Nashville,,1410209860000,36.14,-86.74,Armando,TN,1413845899000,16607822
201323168,Murfreesboro,,1457728373000,35.87,-86.34,Ash Vasile,TN,1457744122000,16607822
211770956,Nashville,,1472311372000,36.17,-86.78,Ashley Rose,TN,1472311372000,16607822
124201972,Nashville,,1424724994000,36.17,-86.78,Audrey Jo Arndt,TN,1434470815000,16607822
197174877,Murfreesboro,,1450900178000,35.78,-86.33,Austin Abdo,TN,1450900178000,16607822
223403714,Nashville,,1489014127000,36.06,-86.96,Austin Dunlap,TN,1489014127000,16607822
192764151,Hermitage,,1442329170000,36.19,-86.6,Babu Krishnasamy,TN,1442329170000,16607822
214246469,Washington,,1483505239000,38.91,-77.02,Bailey,DC,1483505239000,16607822
163960542,Nashville,,1409171686000,36.14,-86.74,Balvarez,TN,1480602679000,16607822
202494032,Murfreesboro,,1459442919000,35.87,-86.34,Barbara,TN,1459442919000,16607822
184523306,Nashville,,1424206468000,36.14,-86.74,Barrett Gay,TN,1461092096000,16607822
3995171,Nashville,,1490628249000,36.11,-86.86,Bayard,TN,1491313635000,16607822
75873682,Nashville,,1457212856000,36.17,-86.78,Bayron,TN,1490457030000,16607822
183702690,Nashville,,1421638624000,36.11,-86.78,Becca Moore,TN,1432838756000,16607822
202294768,White House,,1459155906000,36.48,-86.69,Belle,TN,1459155906000,16607822
207185905,Nashville,,1466351104000,36.09,-86.82,Ben,TN,1487280424000,16607822
205798116,Nashville,Nashville,1466034857000,36.08,-86.72,Ben,TN,1487376185000,16607822
184251699,Hendersonville,,1468103882000,36.32,-86.61,ben,TN,1470453871000,16607822
44569262,Nashville,,1410305230000,36.17,-86.78,Ben Blackburn,TN,1414016805000,16607822
17612361,Nashville,"Chesterland, OH",1463778895000,36.17,-86.78,Ben Blackford,TN,1477638024000,16607822
188790900,Nashville,,1434597285000,36.17,-86.78,Ben Moody,TN,1434597285000,16607822
201348650,Nashville,,1457762966000,36.18,-86.74,Ben Turner,TN,1457762966000,16607822
203650096,Cambridge,,1505929902000,42.37,-71.09,Benjamin,MA,1507138995000,16607822
186654507,Nolensville,Atlanta,1491229839000,35.94,-86.67,Beth,TN,1491229839000,16607822
188954412,Franklin,,1434946597000,35.92,-86.87,Beverly Nickoles,TN,1434946597000,16607822
204079230,Nashville,,1461705392000,36.14,-86.74,Bill Kimberlin,TN,1461705392000,16607822
227339977,Nashville,,1496558694000,36.17,-86.78,Billy Lou,TN,1496558694000,16607822
94238282,Hermitage,Nashville,1415734664000,36.19,-86.6,Binoy Ayyagari,TN,1415734664000,16607822
220757955,Nashville,,1485448303000,36.19,-86.8,Blake Denzel,TN,1485448303000,16607822
191783128,London,,1442359945000,43.02,-81.28,Blake Stone,ON,1442359945000,16607822
201536274,Smyrna,,1458014386000,35.97,-86.51,Blake Turner,TN,1458014386000,16607822
32747702,Nashville,Nashville,1461849407000,36.15,-86.86,bob henderson,TN,1491355181000,16607822
220821801,Spring Hill,,1485532438000,35.76,-86.88,Bobbie James-Borener,TN,1486982096000,16607822
186494705,Nashville,"Carrollton, GA",1429805956000,36.17,-86.78,Bobby Goodwin,TN,1433022409000,16607822
229357858,Nashville,,1497027014000,36.06,-86.96,Bobby Yeager,TN,1497027014000,16607822
229249933,Nolensville,,1496883594000,35.94,-86.67,Brad O,TN,1496883594000,16607822
182825842,Nashville,,1419792762000,36.17,-86.78,Brady Bolf,TN,1419792762000,16607822
185735731,Nashville,,1427864048000,36.17,-86.78,Brandi Etheridge,TN,1427864048000,16607822
204101174,Nashville,,1461742872000,36.16,-86.66,Brandon,TN,1461742872000,16607822
7679879,Murfreesboro,,1493732154000,35.87,-86.44,Brandon Clanton,TN,1493732154000,16607822
183643531,Nashville,,1421470294000,36.06,-86.96,Brandon Evans,TN,1421470294000,16607822
117434212,Murfreesboro,,1432671334000,35.78,-86.33,Brandon Howard,TN,1461101251000,16607822
183756146,Murfreesboro,,1421782772000,35.78,-86.33,Brandon Morris,TN,1421782772000,16607822
205330458,Nashville,,1463492377000,36.07,-86.73,Brandon No. 9,TN,1469113909000,16607822
219277661,Murfreesboro,,1483576960000,35.85,-86.4,Brandon Short,TN,1483576960000,16607822
182729976,Denver,,1461078166000,39.77,-105.01,Bre,CO,1461078166000,16607822
191672217,Nashville,,1442536314000,36.1,-86.66,Brent,TN,1495693126000,16607822
202424309,Nashville,,1459341124000,36.11,-86.78,Brent ,TN,1460342696000,16607822
192686698,Nashville,,1442185418000,36.04,-86.77,Brent Grodek,TN,1494639386000,16607822
174424022,Nashville,,1417640221000,36.16,-86.79,Brent Jackson,TN,1491257959000,16607822
184288137,Nashville,Shreveport,1423554199000,36.08,-86.72,brian ,TN,1423822354000,16607822
184670332,Nolensville,,1424661158000,35.94,-86.67,Brian,TN,1426774470000,16607822
135767172,Nashville,Nashville,1413942686000,36.16,-86.79,Brian,TN,1414005363000,16607822
184135445,Nashville,Nashville,1429153625000,36.08,-86.72,Brian Broll,TN,1429153625000,16607822
209839421,Fort Campbell,,1469580380000,36.65,-87.46,Brian Butorac,KY,1469580380000,16607822
201563176,Mount Juliet,Mt. Juliet,1458057960000,36.22,-86.52,Brian Humphreys,TN,1481918060000,16607822
229642052,Nashville,,1497377278000,36.14,-86.74,Brian Moyer,TN,1497377278000,16607822
185876874,Brooklyn,Nashville,1428274233000,40.68,-74.0,Brian Muller,NY,1484014358000,16607822
7981818,Nashville,Nashville,1470591781000,36.15,-86.86,Brian Pitts,TN,1484581750000,16607822
223858171,Nashville,,1489655312000,36.16,-86.79,Brijesh Patel,TN,1489655312000,16607822
205017965,Nashville,,1463078071000,36.16,-86.79,Britt Woodall,TN,1470000730000,16607822
185084426,Mount Juliet,,1425876772000,36.17,-86.49,Brittany,TN,1425876772000,16607822
210089152,Antioch,,1469924897000,36.06,-86.64,Brittany Ann Leffew,TN,1469924897000,16607822
191962732,Fairview,,1440818157000,35.97,-87.13,Brittany Bush,TN,1440818157000,16607822
193633315,Murfreesboro,,1443975432000,35.84,-86.39,Brittany Deanna LeBeau,TN,1443975432000,16607822
229440761,Nashville,,1497131952000,36.16,-86.79,Brittany Molnar,TN,1497131952000,16607822
229557533,Nashville,,1497278083000,36.15,-86.86,Brittney Greene,TN,1497278083000,16607822
198206168,Arrington,,1452994719000,35.86,-86.66,Brock Noe,TN,1452994719000,16607822
202137941,Nashville,,1458911049000,36.17,-86.78,Brooke Jackson,TN,1458911049000,16607822
183721048,Mount Juliet,,1421691253000,36.17,-86.49,Brooklyn D'Olympio,TN,1421691253000,16607822
183056813,Nashville,Nashville,1432835316000,36.1,-86.66,Bryan Finlayson,TN,1445690293000,16607822
129122472,Antioch,,1498962652000,36.17,-86.88,Bryan Overbey,TN,1499603007000,16607822
190987915,Hermitage,,1438921721000,36.19,-86.6,Bryant Montes,TN,1438921721000,16607822
75501532,Nashville,,1463767162000,36.13,-86.8,Buck Buchanan,TN,1467222497000,16607822
194679713,Nashville,,1445889844000,36.17,-86.78,Calvin Griffin,TN,1445889844000,16607822
197407727,Nashville,,1451469213000,36.14,-86.74,Cameron,TN,1461728711000,16607822
152606552,Brentwood,,1460847547000,36.0,-86.79,Cameron,TN,1460847547000,16607822
158790562,Nashville,,1436573153000,36.17,-86.78,Cameron Lea,TN,1436573153000,16607822
188746599,Antioch,,1434513362000,36.04,-86.64,Candice,TN,1436657615000,16607822
215124798,Smyrna,,1493275093000,35.97,-86.51,Cari Javius,TN,1493275093000,16607822
185214546,Franklin,,1426267311000,35.92,-86.89,Carl,TN,1432908134000,16607822
198665212,Goodlettsville,,1453834766000,36.33,-86.74,Carlos,TN,1453834766000,16607822
190165051,Nashville,,1456263662000,36.09,-86.82,Carol Hudler,TN,1496758512000,16607822
201673560,Burlington,,1466024798000,36.03,-79.49,Carolyn Crenshaw,NC,1466024798000,16607822
207540315,Nashville,,1466522033000,36.16,-86.79,Carson Carr,TN,1466522033000,16607822
146437082,Nashville,,1410466294000,36.11,-86.78,Carter Nelms,TN,1410793272000,16607822
215910105,Nashville,,1477937542000,36.17,-86.78,Casey Reed,TN,1477937542000,16607822
187033187,Nashville,,1430996175000,36.11,-86.86,Cassie Jacobs,TN,1430996175000,16607822
11388939,Nashville,Nashville,1464812844000,36.14,-86.74,Cassie Kebler,TN,1466797681000,16607822
201006510,Nashville,,1481310890000,36.17,-86.78,Cassie W.,TN,1487524703000,16607822
197597146,Montclair,New York City,1459966195000,40.81,-74.22,Catherine Cordova,NJ,1481086711000,16607822
190566256,Chapel Hill,,1438120446000,35.62,-86.62,Cathy Paliotta,TN,1438120446000,16607822
68034342,Clarksville,,1438540729000,36.53,-87.35,Cavan,TN,1438540729000,16607822
200419938,Mount Juliet,,1456422877000,36.22,-86.52,Cerridwen,TN,1456422877000,16607822
183601803,Nashville,,1421333754000,36.14,-86.74,CFR,TN,1446081351000,16607822
194156791,Spring Hill,,1444938740000,35.76,-86.88,Chad Cordell,TN,1444938740000,16607822
209912731,Bellevue,,1469678035000,47.56,-122.15,Chad Prescott,WA,1469678035000,16607822
218668159,Franklin,,1482701406000,35.93,-86.81,Chaitanya Pawar,TN,1482701406000,16607822
4324273,São Paulo,Sherman Oaks,1427074731000,-23.53,-46.63,Chance Glasco,,1461707242000,16607822
182550263,Nashville,,1416019381000,36.14,-86.74,Chandler Barnes,TN,1416019381000,16607822
211626236,Davidson,,1472138904000,35.48,-80.82,Chang,NC,1490638824000,16607822
219910245,Pegram,,1484387115000,36.12,-87.03,Charlie,TN,1484387115000,16607822
178129952,Nashville,,1413486083000,36.14,-86.74,Charlie Wetherington,TN,1416863478000,16607822
184162096,Fayetteville,,1423068194000,35.06,-78.86,Charmaine Corbett,NC,1423152121000,16607822
6748620,Nashville,,1478242969000,36.16,-86.79,Charmaine Lowe,TN,1478242969000,16607822
40187702,Nashville,Memphis,1474658376000,36.17,-86.78,Chelsea Steinaway,TN,1474658376000,16607822
222741145,Antioch,,1488077333000,36.17,-86.88,Chelsey W.,TN,1488083006000,16607822
184252536,Nashville,"Guilford, CT",1424136837000,36.17,-86.78,Chris,TN,1507084125000,16607822
170478942,Nashville,,1432854052000,36.17,-86.78,Chris,TN,1432935391000,16607822
184735550,Antioch,,1486520650000,36.17,-86.88,Chris,TN,1486520650000,16607822
196449555,Antioch,,1449282070000,36.17,-86.88,Chris,TN,1449282070000,16607822
10315636,Nashville,,1480516176000,36.17,-86.78,"Chris ""Van"" Deventer",TN,1480516176000,16607822
197179091,Nashville,,1450911122000,36.17,-86.78,Chris Attaway,TN,1450911122000,16607822
215227361,Nashville,,1476887919000,36.08,-86.72,Chris Collins,TN,1476887919000,16607822
50264132,Nashville,,1461971267000,36.17,-86.78,Chris Gardner,TN,1465776651000,16607822
186379477,Nashville,,1429708770000,36.17,-86.78,Chris Greene,TN,1429708770000,16607822
13040902,Nashville,,1421381625000,36.13,-86.8,Chris H.,TN,1421459386000,16607822
12748125,Nashville,"Waverly, TN",1419121584000,36.08,-86.72,Chris Hamby,TN,1468880777000,16607822
195374193,Bowling Green,,1447455236000,37.02,-86.46,Chris Herrera,KY,1447455236000,16607822
234029306,Franklin,,1502727694000,35.92,-86.89,Chris Holmes,TN,1502727694000,16607822
204112184,Nashville,,1461757886000,36.14,-86.74,Chris Kelley,TN,1468775511000,16607822
184013294,Salt Lake City,Orem,1432358145000,40.76,-111.9,Chris Madsen,UT,1457714764000,16607822
231162545,Nashville,,1499279832000,36.14,-86.8,Chris Maniscalco,TN,1499279832000,16607822
36484792,Nashville,"Niceville, FL",1424288154000,36.17,-86.78,Chris Mihalcik,TN,1445221257000,16607822
184185824,Nashville,Nashville,1423141769000,36.08,-86.72,Chris Newman,TN,1476844793000,16607822
216043455,Hermitage,,1478135655000,36.19,-86.6,Chris Nicholais,TN,1478135655000,16607822
186237672,Nashville,,1429206781000,36.17,-86.78,Chris O'DeNeal,TN,1429206781000,16607822
226260361,Nashville,,1492988170000,36.16,-86.66,Chris Romero,TN,1492988170000,16607822
218342799,Hermitage,,1482025247000,36.19,-86.6,Chris Runyon,TN,1482025247000,16607822
185421260,Smyrna,,1426903061000,35.97,-86.51,Chris Shuler,TN,1475163830000,16607822
209643345,Nashville,,1477496390000,36.17,-86.78,Chris Smalley,TN,1487178711000,16607822
47572122,Nashville,Chicago,1442596350000,36.17,-86.78,Chris SpinMan Spintzyk,TN,1442596350000,16607822
218361516,Nashville,,1482066914000,36.14,-86.74,Chris W,TN,1482066914000,16607822
215849394,Franklin,,1483208285000,35.92,-86.89,Christian Guerrero,TN,1483508932000,16607822
189076986,Mount Juliet,Mount Juliet,1481327420000,36.22,-86.52,Christian Mueller,TN,1486155532000,16607822
206142566,Nashville,,1464641961000,36.15,-86.86,Christine,TN,1483538886000,16607822
53500132,Nashville,Nashville,1429287974000,36.16,-86.79,Christine,TN,1491519024000,16607822
174575772,Nashville,Nashville,1412120925000,36.17,-86.72,Christopher Hitchcock,TN,1414589586000,16607822
233636437,Nashville,,1502266460000,36.14,-86.74,Christopher McDonald,TN,1502266460000,16607822
219052475,Nashville,,1483324982000,36.21,-86.72,Christopher Neal,TN,1483324982000,16607822
195467795,Murfreesboro,,1447340472000,35.85,-86.36,Christopher Warren,TN,1447340472000,16607822
6045513,Nashville,,1491837546000,36.13,-86.8,Chuck Bryant,TN,1505759360000,16607822
222215242,Nashville,,1487348774000,36.17,-86.78,chuck wofford,TN,1487348774000,16607822
206825638,Portland,,1465531375000,36.57,-86.49,Cierramist studios,TN,1465531375000,16607822
113304,Nashville,,1466124076000,36.17,-86.78,Cindy,TN,1472307904000,16607822
183606398,Nashville,,1421346364000,36.14,-86.74,Claudric Belmont III,TN,1421346364000,16607822
218244552,Nashville,,1481829997000,36.14,-86.74,Clayton Coffman,TN,1481829997000,16607822
191365263,Knoxville,,1439671377000,35.96,-83.92,Cody,TN,1439671377000,16607822
176462262,Albany,,1412735724000,42.65,-73.75,Cody Waugh,NY,1503864480000,16607822
164433582,Kingsport,,1409516439000,36.49,-82.53,Collin Meade,TN,1409516439000,16607822
184534611,Murfreesboro,,1424237723000,35.87,-86.44,Colton Avery Clark,TN,1424237723000,16607822
193633239,Readyville,,1443975068000,35.82,-86.22,Connor Lewis,TN,1443975068000,16607822
205544146,Nashville,,1463778698000,36.14,-86.74,Corey ,TN,1491425792000,16607822
96855912,Nashville,,1460997878000,36.17,-86.79,Corey Bonnette,TN,1463684631000,16607822
67122632,Nashville,,1491454231000,36.17,-86.78,Cory,TN,1501806917000,16607822
201196193,Nashville,,1457542085000,36.1,-86.66,Court Of Comics,TN,1457542085000,16607822
225105806,Murfreesboro,,1491401995000,35.78,-86.33,Courtney Larry,TN,1491401995000,16607822
5344910,Nashville,,1471722104000,36.17,-86.78,Craig Pope,TN,1471743378000,16607822
184906819,La Vergne,,1425353681000,36.01,-86.57,Criss Butterz Shelton,TN,1425353681000,16607822
210392442,Nashville,,1470346976000,36.17,-86.78,Curtis Crawford,TN,1470346976000,16607822
189655493,Knoxville,,1465013517000,36.05,-83.92,Cyndi Davis Buchanan,TN,1475170701000,16607822
207933888,Nashville,,1467062984000,36.16,-86.79,Cynthia F,TN,1467062984000,16607822
211050959,Nashville,,1471292710000,36.17,-86.78,Cyrus Graham Peterson,TN,1471292710000,16607822
202757450,Franklin,,1459819420000,35.93,-86.81,D,TN,1459819420000,16607822
7669265,Chattanooga,Atlanta,1422918013000,35.05,-85.31,Daevid Allen,TN,1462016948000,16607822
223986615,Nashville,,1489844655000,36.13,-86.67,Dagoberto Trigueros,TN,1489844655000,16607822
190381005,Nashville,,1437800934000,36.17,-86.78,Daimion Pollard,TN,1437800934000,16607822
179185812,Nashville,,1414015157000,36.14,-86.74,Dan Copeland,TN,1414015157000,16607822
176270382,Atlanta,Atlanta,1412644179000,33.79,-84.35,Daniel,GA,1412794931000,16607822
12550390,Knoxville,,1437943772000,36.03,-83.89,Daniel buchanan,TN,1461872109000,16607822
214816045,Kingston Springs,,1490286341000,36.09,-87.12,Daniel Fischer,TN,1490286341000,16607822
212969358,Franklin,,1473906185000,35.92,-86.89,Daniel Hofmeister,TN,1473906185000,16607822
108929642,Nashville,,1412859983000,36.13,-86.8,Daniel Johnson,TN,1414126034000,16607822
183125753,Chicago,Chicago,1419577066000,41.92,-87.7,Daniel Lawhon,IL,1419577066000,16607822
192955879,Indianapolis,,1501640282000,39.86,-85.97,Daniel Mills,IN,1501640282000,16607822
201196302,Nashville,,1457542058000,36.17,-86.78,Daniel Nathan Cramer,TN,1457542058000,16607822
213290928,Nashville,,1474320860000,36.17,-86.78,Daniel Tew,TN,1474320860000,16607822
188852824,Franklin,,1434731995000,35.92,-86.89,daniel wieder,TN,1434731995000,16607822
2220997,Fairview,"Fairview, TN",1470706945000,35.97,-87.13,Danny,TN,1470706945000,16607822
190880660,Atlanta,,1438716489000,33.86,-84.4,Danny,GA,1438716489000,16607822
8354386,Antioch,"Hamilton, OH",1491102762000,36.04,-86.64,Darin,TN,1491325593000,16607822
207641732,Nashville,,1466650476000,36.17,-86.78,Darlene Bamz Shields,TN,1478067490000,16607822
185476192,Nashville,,1493512427000,36.13,-86.8,Darrell Hampton,TN,1493512427000,16607822
216515194,Nashville,,1478896944000,36.14,-86.74,Dave Gilbert,TN,1478896944000,16607822
183021901,Nashville,,1481302470000,36.18,-86.74,Dave R,TN,1483649801000,16607822
156041712,Shanghai,,1464839346000,31.23,121.47,David,,1464839346000,16607822
11828228,Nashville,,1461249453000,36.07,-86.73,David,TN,1461249453000,16607822
231192788,Nashville,,1499312232000,36.14,-86.81,David Allan Edwards,TN,1499312232000,16607822
209338328,Franklin,,1487956424000,35.92,-86.89,David Allen,TN,1487956424000,16607822
93820322,Nashville,,1423940924000,36.17,-86.78,David Bailey,TN,1423940924000,16607822
185559410,Nashville,Nashville,1427323803000,36.14,-86.74,David Carney,TN,1427323803000,16607822
12925095,Nashville,Knoxville,1469753253000,36.21,-86.72,David Drake,TN,1469753253000,16607822
166884982,Nashville,,1409904091000,36.14,-86.74,David Head,TN,1450652709000,16607822
187501130,Toney,,1432002279000,34.9,-86.69,David Lowery,AL,1432002279000,16607822
230601021,Antioch,,1498583318000,36.04,-86.64,David Maher Gergis,TN,1498583318000,16607822
216092618,Murfreesboro,,1481694918000,35.85,-86.36,David Palomeque,TN,1491529019000,16607822
188900860,Franklin,"Nashville, TN",1434832796000,35.93,-86.81,David Potter,TN,1434832796000,16607822
179185882,Nashville,,1414015104000,36.14,-86.74,David Rudman,TN,1414015104000,16607822
12094133,Nashville,Nashville,1423437651000,36.16,-86.79,David Thek,TN,1461966468000,16607822
144256692,Nashville,,1409424748000,36.15,-86.86,David VanWie,TN,1491424569000,16607822
228533008,West Palm Beach,West Palm Beach,1496002638000,26.66,-80.26,Davy Yue,FL,1496002638000,16607822
158848622,Nashville,,1496166343000,36.11,-86.78,Daynise,TN,1498843059000,16607822
160864182,Clarksville,,1466348468000,36.53,-87.35,Dayquan Julienne,TN,1489380658000,16607822
194545662,Franklin,,1445652293000,35.92,-86.89,Dean,TN,1490465920000,16607822
82209622,Nashville,,1468728791000,36.17,-86.78,DeAndre Courtney,TN,1468728791000,16607822
200947632,Nashville,,1457189957000,36.11,-86.86,Deanna Loveland,TN,1457189957000,16607822
186627575,London,,1430098312000,51.52,-0.1,Deeessemm,17,1430098312000,16607822
187843791,Smyrna,"Smyrna, TN",1432688851000,35.97,-86.51,Delayna Michelle Sans,TN,1432688851000,16607822
190122744,Columbia,,1437321310000,35.61,-87.05,Demario,TN,1437321310000,16607822
219656985,Manchester,,1484060028000,35.47,-86.08,Dena K,TN,1484060028000,16607822
206265729,Nashville,,1464796014000,36.17,-86.78,deonsha,TN,1464796014000,16607822
80529152,Nashville,"Philadelphia, PA",1439836872000,36.17,-86.78,Derek Bartron,TN,1439836872000,16607822
211216826,Opa Locka,"Opa Locka, FL",1471530105000,25.91,-80.26,DeRon Washington,FL,1471530105000,16607822
184601991,Dickson,,1424454341000,36.08,-87.43,derpysir,TN,1424454341000,16607822
93431562,Whites Creek,,1424120616000,36.27,-86.83,Derrick Vaughns,TN,1424120616000,16607822
209701945,Kendall,,1469407697000,42.36,-85.8,Devan Christopher,MI,1469407697000,16607822
229028653,Nashville,,1496619096000,36.08,-86.72,Diedra Polston Walker,TN,1496619096000,16607822
192268978,Nashville,,1446910226000,36.17,-86.78,Diego Castellon,TN,1481630786000,16607822
184970530,Franklin,,1481762363000,35.92,-86.88,Diego G Bodart,TN,1481762363000,16607822
204041879,Franklin,,1461650415000,35.92,-86.89,Dino,TN,1491254509000,16607822
216854186,Nashville,,1479415052000,36.18,-86.81,Dion Ruben,TN,1479415052000,16607822
208351693,Murfreesboro,,1467642047000,35.87,-86.34,DJ Beasley,TN,1481851311000,16607822
204535975,Murfreesboro,,1462380081000,35.78,-86.33,Don Spirlock,TN,1462380081000,16607822
226140563,Spring Hill,,1492828300000,35.76,-86.88,Donald Brown,TN,1492828300000,16607822
207263492,La Vergne,,1466212101000,36.01,-86.57,Donald Jones,TN,1466212101000,16607822
227375757,Nashville,,1494500354000,36.19,-86.8,Dong Hong Long,TN,1494500354000,16607822
216959689,Augusta,,1479586274000,33.47,-82.06,dotun fakile,GA,1481693221000,16607822
190096553,Columbia,,1437261689000,35.61,-87.05,Doug Johns,TN,1437261689000,16607822
182570117,Antioch,,1491182782000,36.17,-86.88,doyi,TN,1491182782000,16607822
205822921,Nashville,Nashville,1495122849000,36.17,-86.72,Dr Tank,TN,1495122849000,16607822
1005755,Nashville,Nashville,1411949410000,36.11,-86.78,Drew Gilmore,TN,1414117007000,16607822
225415933,Murfreesboro,,1504724725000,35.82,-86.45,Drew Martin,TN,1504724725000,16607822
210689060,Smyrna,,1470773180000,35.97,-86.51,Drew Meadows,TN,1470773180000,16607822
117972752,Amsterdam,New York ,1423547456000,52.37,4.89,dsroden,,1460928972000,16607822
194269404,Nashville,,1445156190000,36.11,-86.78,Duc Tran,TN,1445566123000,16607822
187770873,Mount Juliet,,1432557547000,36.21,-86.52,Dustin Bain,TN,1433119938000,16607822
189928858,Nashville,,1436915873000,36.17,-86.78,Dusty,TN,1436915873000,16607822
238642986,Nashville,,1507726186000,36.17,-86.78,DWHJR,TN,1508174540000,16607822
203222490,Antioch,,1460562508000,36.04,-86.64,Dylan Buc,TN,1460562508000,16607822
170570502,Clarksville,,1410509878000,36.56,-87.41,Dylan Engle,TN,1441642543000,16607822
224699903,Nashville,,1490817663000,36.14,-86.74,Ecos Prez,TN,1490817663000,16607822
80430062,La Vergne,,1412254532000,36.01,-86.57,Ed Gar Massey,TN,1473875930000,16607822
218065664,Nashville,,1481500536000,36.14,-86.74,Eddie Liggitt,TN,1481500536000,16607822
184456948,Nashville,,1424011232000,36.06,-86.96,Ekanem Isong,TN,1424011232000,16607822
185461233,Nashville,,1427039932000,36.17,-86.78,El Graves,TN,1428716368000,16607822
57428702,Nashville,,1418174708000,36.07,-86.73,Eliot,TN,1436375931000,16607822
8356796,Nashville,,1470193498000,36.18,-86.74,Ellisa Henley,TN,1480560836000,16607822
191017024,New Albany,,1438984131000,38.29,-85.83,elowe09,IN,1438984131000,16607822
226265098,Murfreesboro,,1492993894000,35.82,-86.45,Elysa Woodhead,TN,1492993894000,16607822
147562542,Springfield,"Southaven, MS",1461289914000,36.52,-86.87,Emilee,TN,1462034818000,16607822
94498242,Nashville,"Kailua Kona, HI",1498074993000,36.16,-86.79,Emily ,TN,1498074993000,16607822
193073194,Brooklyn,,1442898068000,40.7,-73.99,Emily B,NY,1446090726000,16607822
190821245,Murfreesboro,"Cincinnati, OH",1438609475000,35.78,-86.33,Emily Broh,TN,1438609475000,16607822
219359431,Murfreesboro,,1483682986000,35.85,-86.36,Emily Darcy,TN,1483715617000,16607822
188481272,Antioch,,1433976186000,36.04,-86.64,Enzo Enias Jonga,TN,1433976186000,16607822
112326762,Smyrna,"Birmingham, AL",1439010564000,35.97,-86.5,Eric,TN,1462942522000,16607822
199665292,Nashville,,1480589963000,36.21,-86.72,Eric Denton,TN,1481825391000,16607822
219952884,Clarksville,,1484439431000,36.49,-87.23,eric dimon,TN,1484439431000,16607822
209637148,Nashville,,1469324511000,36.17,-86.78,Erick Kigen,TN,1469324511000,16607822
156657812,Chicago,,1466499480000,41.88,-87.62,Erik,IL,1466499480000,16607822
185563365,Brentwood,,1427419517000,36.0,-86.79,Erikascrimp,TN,1427419517000,16607822
183645987,Nashville,,1421465349000,36.17,-86.78,Erin Sharber,TN,1421465349000,16607822
209624517,Nashville,,1469310125000,36.06,-86.96,Ethan,TN,1469310125000,16607822
217503247,Franklin,,1480522725000,35.93,-86.81,Ethan Stroupe,TN,1480614154000,16607822
185364646,Murfreesboro,,1426723155000,35.78,-86.33,Ethan Wade Mastin,TN,1426723155000,16607822
221625355,Nashville,,1486532280000,36.17,-86.72,Eva Smith,TN,1486532280000,16607822
211787403,Nashville,,1472329593000,36.17,-86.78,Evan King,TN,1472329593000,16607822
226243590,Clarksville,,1492973382000,36.49,-87.23,Fatal Foxtrot,TN,1492973382000,16607822
190750035,Thompsons Station,,1438474233000,35.8,-86.9,Federico Campisano,TN,1438474233000,16607822
213913856,Nashville,,1475116225000,36.11,-86.86,FeistyPhoenix,TN,1475116225000,16607822
226728028,Murfreesboro,,1493620955000,35.87,-86.44,Felipe C,TN,1493620955000,16607822
229376349,Murfreesboro,,1497047383000,35.82,-86.45,Felisha Johnson,TN,1497047383000,16607822
198586815,Nashville,,1453693535000,36.17,-86.78,Fletcher Pickering,TN,1453693535000,16607822
164547682,Nashville,,1409353201000,36.09,-86.82,Fo Knox,TN,1420548684000,16607822
200570818,Nashville,,1492370782000,36.1,-86.66,Franchesa Kirkpatrick,TN,1492370782000,16607822
205104317,Madison,,1463193305000,36.26,-86.71,Funguy84,TN,1463193305000,16607822
185256257,Nashville,,1426399292000,36.17,-86.78,Fuzzy,TN,1426399292000,16607822
200927751,Brentwood,,1472242377000,36.0,-86.79,G W Rudy,TN,1488271407000,16607822
202509299,Mount Juliet,,1459462897000,36.22,-86.52,Gabriel Matos,TN,1460332368000,16607822
229384678,Nashville,,1497057510000,36.17,-86.78,Gage Carlsen,TN,1497057510000,16607822
41505052,Farmington,Las Vegas,1410403780000,42.51,-83.41,Ganapathy,MI,1410403780000,16607822
207880143,Franklin,,1466989592000,35.92,-86.89,Ganesamoorthy,TN,1466989592000,16607822
178745532,Nashville,,1413817388000,36.14,-86.74,Gar,TN,1420783320000,16607822
218395158,Clarksville,,1482124759000,36.53,-87.34,Garland Cain,TN,1482124759000,16607822
189545800,Readyville,,1436180946000,35.82,-86.22,Garreth Gish,TN,1436180946000,16607822
184175146,Nashville,,1423100445000,36.08,-86.72,Garrett ,TN,1423100445000,16607822
202803812,Huntsville,,1459908716000,34.73,-86.57,Gary H,AL,1470337152000,16607822
191540536,Franklin,,1491926012000,35.92,-86.89,Geoff Alday,TN,1491926012000,16607822
120303082,Brentwood,,1424116499000,36.0,-86.79,Gerald A. Wakefield,TN,1461169337000,16607822
163320792,Nashville,,1413823454000,36.15,-86.63,Gib,TN,1461471739000,16607822
223615271,Pegram,,1489326409000,36.12,-87.03,Ginger Ohlman,TN,1489355031000,16607822
199789219,Nashville,,1459973605000,36.13,-86.8,GL,TN,1468789123000,16607822
101298192,Nashville,,1448996602000,36.13,-86.8,Glenn P,TN,1448996602000,16607822
228068237,Mount Juliet,Albuquerque ,1495424569000,36.21,-86.52,Grace Brown,TN,1495424569000,16607822
205897543,Benton,,1464275912000,36.88,-88.33,Grant Park,KY,1467743563000,16607822
6919141,Nashville,,1458150966000,36.06,-86.96,Gray,TN,1500086433000,16607822
162835662,Cupertino,Metaverse,1422295241000,37.31,-122.04,Gunter S. Thompson,CA,1437586686000,16607822
208689759,Nashville,,1468090454000,36.17,-86.78,Gus Macdonald,TN,1468090454000,16607822
212181097,Mount Juliet,,1472869918000,36.21,-86.52,Hae,TN,1472869918000,16607822
189625440,Goodlettsville,Goodlettsville,1463188200000,36.33,-86.74,Hailey Overstreet,TN,1463188200000,16607822
211612988,Mount Juliet,,1472080584000,36.21,-86.52,Hal Jones,TN,1472080584000,16607822
101544402,Rancho Palos Verdes,,1412620079000,33.77,-118.37,Haley Murray,CA,1412620079000,16607822
198028986,Dickson,,1452653782000,36.08,-87.43,Hanna,TN,1452653782000,16607822
212571015,Nashville,,1473384897000,36.17,-86.78,Hannah Kai Page,TN,1473384897000,16607822
230477507,Nashville,,1498432251000,36.07,-86.73,Hannah Price,TN,1498432251000,16607822
194656053,Nashville,,1445852347000,36.17,-86.78,Harrison,TN,1445852347000,16607822
217829798,Nashville,,1481075119000,36.14,-86.74,Harrison Q McClain,TN,1481075119000,16607822
186268704,New York,,1429279081000,40.72,-74.0,Harry Allen,NY,1429279081000,16607822
53245432,Chattanooga,,1480706261000,35.05,-85.31,Harry Epstein,TN,1484916972000,16607822
188141522,Nashville,,1491256220000,36.16,-86.79,Havic Johnson,TN,1493862503000,16607822
67743602,Bellevue,"Melbourne, AUS",1409084181000,47.62,-122.21,Hayden Lee,WA,1433041173000,16607822
211435150,Nashville,,1471840677000,36.09,-86.82,Hayley Clifford,TN,1471840677000,16607822
194584661,Antioch,,1445723375000,36.04,-86.64,Heff,TN,1445723375000,16607822
210281168,Nashville,,1470181291000,36.17,-86.78,Henry,TN,1484512555000,16607822
102411552,Hermitage,,1467563523000,36.19,-86.6,Henry Irvin,TN,1467563523000,16607822
199371759,Nashville,,1472573412000,36.16,-86.79,Herdi Rahman,TN,1472911182000,16607822
202967027,Nashville,,1460126110000,36.18,-86.74,Hi There,TN,1460126110000,16607822
210760139,Franklin,,1484953902000,35.93,-86.81,HIROYA KAWGUCHI,TN,1490668743000,16607822
217138981,Woodlawn,,1479867491000,36.5,-87.54,Holly Anne Fuson,TN,1480178235000,16607822
212043415,Nashville,,1488504574000,36.07,-86.73,Holly molly,TN,1488504574000,16607822
190656122,Madison,,1438285140000,36.26,-86.71,Hope,TN,1438285140000,16607822
178826282,Nashville,,1413845546000,36.14,-86.74,Hunter Gildin,TN,1414028998000,16607822
196613078,Nashville,,1449600721000,36.17,-86.78,Ian Mendoza,TN,1449600721000,16607822
195974932,Nashville,,1448310490000,36.13,-86.8,Ian Szarafinski,TN,1448310490000,16607822
187920090,Nashville,,1432844389000,36.16,-86.79,Ibrahim,TN,1469846921000,16607822
199120736,Murfreesboro,,1454540349000,35.87,-86.34,Igmdigm,TN,1493020378000,16607822
13139313,Nashville,,1480615409000,36.13,-86.8,Igo Nashville,TN,1480958617000,16607822
156456222,Nashville,,1443328367000,36.17,-86.78,imaninotsalami,TN,1443328367000,16607822
187621006,Alexandria,,1432236943000,38.82,-77.06,Ingrid Pienk,VA,1432236943000,16607822
187327974,Baltimore,,1431636255000,39.37,-76.69,Isaac,MD,1431636255000,16607822
159441602,Murfreesboro,,1464105082000,35.78,-86.33,Ivy Blackmon,TN,1464105082000,16607822
201635372,Brentwood,"Franklin, TN",1487090773000,36.0,-86.79,Jack Hamilton Johnson,TN,1496850433000,16607822
206685765,Antioch,,1468619092000,36.04,-86.64,Jack Wiese,TN,1468619092000,16607822
188892170,Nashville,,1469325907000,36.17,-86.78,Jackie Hayes,TN,1488415993000,16607822
203230805,Nashville,,1460488386000,36.13,-86.8,Jacob Huffman,TN,1460488386000,16607822
238041808,Nashville,,1507072702000,36.16,-86.66,jacob robinson,TN,1507072702000,16607822
205292405,Clarksville,,1463438606000,36.56,-87.41,Jacob Schnaithman,TN,1463438606000,16607822
7915902,Nashville,Nashville,1501233457000,36.22,-86.77,Jacque Lewis,TN,1501233457000,16607822
229025056,Goodlettsville,,1496615342000,36.32,-86.72,Jacquline C,TN,1496615342000,16607822
188124377,Smyrna,,1433256181000,35.97,-86.51,Jake McNabb,TN,1433256181000,16607822
129085262,La Vergne,Alpharetta,1451573870000,36.01,-86.57,Jake Richards,TN,1451573870000,16607822
207524818,Camborne,,1466499691000,50.22,-5.3,Jake Stevens,C6,1466499691000,16607822
16597521,Mount Juliet,,1445028611000,36.21,-86.52,James,TN,1494535882000,16607822
188684958,Nashville,,1468327621000,36.17,-86.78,James Alexander Louk Nieves,TN,1468327621000,16607822
208989415,Westmoreland,,1468469183000,36.57,-86.22,James Biggs,TN,1468469183000,16607822
202028316,New York,,1459975807000,40.75,-73.99,James Briggs,NY,1460943261000,16607822
164011742,Bowling Green,,1409190345000,36.96,-86.37,James Christopher Murley,KY,1409190345000,16607822
188561154,Nashville,,1434162572000,36.17,-86.78,James G Watkins ,TN,1434162572000,16607822
191188434,Alexandria,,1439320613000,36.08,-86.04,James Harris,TN,1440045316000,16607822
185554567,Nashville,,1427479580000,36.15,-86.86,James lane,TN,1427479580000,16607822
2606806,Nashville,,1484849278000,36.19,-86.8,James Porter,TN,1484849278000,16607822
200963976,Murfreesboro,,1457210470000,35.78,-86.33,JAMES RAY DAVENPORT JR,TN,1457210470000,16607822
214954905,Nashville,,1476493376000,36.11,-86.86,James Rich,TN,1476493376000,16607822
210671430,Nashville,,1470745528000,36.17,-86.78,Janine,TN,1470745528000,16607822
215821418,Nashville,,1477794127000,36.14,-86.74,Jarvis B. Puckett,TN,1477794127000,16607822
195172185,Nashville,,1463095959000,36.17,-86.72,Jarvis Sheffield,TN,1463095959000,16607822
16163811,Bowling Green,,1428430934000,37.02,-86.46,Jason,KY,1428430934000,16607822
61128582,Antioch,,1409105319000,36.04,-86.64,Jason,TN,1497036938000,16607822
219280094,White Bluff,,1483579952000,36.12,-87.23,Jason ,TN,1483899992000,16607822
183569789,Nashville,,1421217967000,36.14,-86.74,Jason Banzai Kubit,TN,1480560576000,16607822
144941952,Nashville,,1415412524000,36.13,-86.8,Jason Duncan,TN,1415412524000,16607822
52195632,Goodlettsville,,1424960294000,36.33,-86.74,Jason Orendorff,TN,1428952187000,16607822
206577016,Ashland City,,1465220042000,36.28,-87.07,Jason Quinlan,TN,1466257667000,16607822
37647892,Nashville,"Nashville, TN",1422513315000,36.16,-86.79,Jason Scott Ptacek,TN,1428948618000,16607822
4646532,Knoxville,knoxville,1467348359000,35.97,-83.99,Jay,TN,1503843902000,16607822
184785489,Murfreesboro,,1425001346000,35.78,-86.33,Jay Giacona,TN,1425001346000,16607822
184612717,Franklin,,1424482925000,35.92,-86.89,Jayme,TN,1424482925000,16607822
185838534,Nashville,,1428165601000,36.08,-86.72,Jayson Wall,TN,1441984543000,16607822
221181978,Chapmansboro,,1485983095000,36.37,-87.14,Jc Martinez,TN,1485983095000,16607822
52765212,Bonita Springs,,1441647564000,26.39,-81.74,JD Burleson,FL,1441647564000,16607822
184559950,Nashville,,1424314442000,36.14,-86.74,JD Cundiff,TN,1424314442000,16607822
204456425,Spring Hill,,1462265904000,35.76,-86.88,Jean Alfonso,TN,1462265904000,16607822
192533780,Lebanon,Lebanon,1441899727000,36.15,-86.32,Jeanine York,TN,1441930055000,16607822
183431374,Ashland City,,1487950768000,36.28,-87.07,Jeff,TN,1487950768000,16607822
180669382,Cookeville,Cookeville,1414586648000,36.2,-85.52,Jeff Brown,TN,1479762060000,16607822
10385355,Nashville,,1449871577000,36.09,-86.82,Jeff Lofvers,TN,1460763941000,16607822
221124160,Colorado Springs,,1507001642000,38.83,-104.82,Jeff Miller,CO,1507001642000,16607822
203609769,Murfreesboro,,1461029819000,35.86,-86.37,Jeff Schmidt,TN,1461120767000,16607822
186516857,Palo Alto,SF Bay Area,1434250088000,37.44,-122.15,Jeff Wasson,CA,1434250088000,16607822
13724820,Nashville,"New York, NY",1472528669000,36.16,-86.79,Jenn,TN,1490552403000,16607822
223346467,Murfreesboro,,1488932148000,35.82,-86.45,Jennifer L. Geiger,TN,1488932148000,16607822
205234414,Nashville,,1463363669000,36.17,-86.78,Jeremy Brading,TN,1463363669000,16607822
136871542,Nashville,,1490809170000,36.08,-86.72,Jeremy Davis,TN,1490809170000,16607822
196659236,Nashville,,1449690263000,36.17,-86.78,Jeremy Jeffries,TN,1475558062000,16607822
222619342,Mount Juliet,,1487900760000,36.22,-86.52,Jeremy Rollefson,TN,1487900760000,16607822
224861283,Murfreesboro,,1491060648000,35.82,-86.45,Jess,TN,1491060648000,16607822
38030082,Franklin,,1431721098000,35.92,-86.89,Jesse,TN,1431721098000,16607822
221248805,Chattanooga,,1486063561000,35.03,-85.27,Jesse CreateThis,TN,1486063561000,16607822
204759133,Murfreesboro,,1462715813000,35.78,-86.33,Jesse Edwards,TN,1490411663000,16607822
183381778,Castalian Springs,Nashville,1420596477000,36.38,-86.32,Jesse Everett Humphries,TN,1442002243000,16607822
218472693,Nashville,,1482273060000,36.16,-86.79,Jesse Keogh,TN,1483551251000,16607822
67881352,Chicago,,1436819692000,41.9,-87.64,Jesse Langille,IL,1436819692000,16607822
226346847,Nashville,,1493100547000,36.13,-86.67,Jesse Neville,TN,1493100547000,16607822
188783211,Nashville,,1465508248000,36.17,-86.78,Jesse Van de Veer,TN,1465508248000,16607822
217782432,Bethpage,,1480997173000,36.51,-86.32,Jessica Joy Jones,TN,1480997173000,16607822
222517314,Nashville,Nashville,1488050204000,36.09,-86.82,Jessie,TN,1490383747000,16607822
201432493,Smyrna,,1457885009000,35.97,-86.51,Jessie McMillin,TN,1457885009000,16607822
185825314,Waynesboro,,1428122129000,35.32,-87.76,Jeter Steele,TN,1429031945000,16607822
10857565,Nashville,,1490817705000,36.08,-86.72,Jim and Tina Callahan,TN,1490817705000,16607822
212287293,Nashville,,1473020264000,36.17,-86.78,Jingyi Yan,TN,1473020264000,16607822
96228902,Franklin,,1490824288000,35.92,-86.89,Joan Dyer,TN,1491189817000,16607822
218054797,Nashville,,1481485268000,36.16,-86.79,Joann Young,TN,1484579834000,16607822
210884081,Smyrna,,1471050417000,35.97,-86.51,Jodie Stovall,TN,1471050417000,16607822
202995456,Nashville,,1460161581000,36.15,-86.86,Joe Costello,TN,1461467247000,16607822
209577341,Candler,,1469243744000,35.54,-82.68,Joe Guist,NC,1469243744000,16607822
200391814,Nashville,,1498754742000,36.16,-86.79,Joe Huang,TN,1498754742000,16607822
217962890,Nashville,,1481316709000,36.14,-86.74,Joe McLaughlin,TN,1481316709000,16607822
150938772,Nashville,"Kennett, MO",1465781540000,36.13,-86.8,Joe Mobley,TN,1465781540000,16607822
19815431,Los Angeles,Nashville,1470145838000,34.12,-118.29,Joe Spradley,CA,1507509870000,16607822
230682473,Nashville,,1498678939000,36.08,-86.72,Joel,TN,1498678939000,16607822
217160398,Nashville,,1485649047000,36.17,-86.78,Joel Legg,TN,1491134644000,16607822
193463912,Nashville,,1443637531000,36.15,-86.86,Joey Convertino,TN,1443637531000,16607822
159752512,Franklin,Franklin,1463698103000,35.92,-86.89,John,TN,1483487298000,16607822
170534232,Nashville,,1410487391000,36.14,-86.74,John,TN,1453171295000,16607822
187862876,Mount Juliet,"Nashville, TN",1432733892000,36.21,-86.52,John Adcock,TN,1432738730000,16607822
131816832,Clarksville,,1470887528000,36.53,-87.35,John Bautista,TN,1470954786000,16607822
225736515,Nashville,,1492277646000,36.07,-86.73,John Blackwell,TN,1492277646000,16607822
207261089,Lebanon,,1466129538000,36.21,-86.31,John Block,TN,1477974473000,16607822
86361582,Tempe,Tempe,1418156402000,33.37,-111.93,John Gould,AZ,1418156402000,16607822
194063356,La Vergne,,1444766029000,36.01,-86.57,John Green,TN,1444766029000,16607822
212901249,Nashville,,1480649442000,36.17,-86.78,John Hamm,TN,1494964676000,16607822
76743532,Bangor,,1417665036000,44.81,-68.78,John Harris,ME,1490482985000,16607822
184699409,Hermitage,,1424741900000,36.19,-86.6,John Lanahan,TN,1424741900000,16607822
187838233,Nashville,,1432678825000,36.14,-86.74,John Lewis,TN,1432735572000,16607822
31758582,Nashville,,1441285903000,36.18,-86.74,John Lewis,TN,1505317103000,16607822
225523018,Nashville,,1491997995000,36.14,-86.74,John Merchant,TN,1491997995000,16607822
186819497,Nashville,,1430524476000,36.17,-86.78,John Patrone,TN,1445467059000,16607822
63587632,Hendersonville,"Valley Forge, Pa",1448516398000,36.32,-86.61,John Poteat,TN,1448516398000,16607822
196079571,Nashville,,1448517764000,36.17,-86.78,John Poteat,TN,1448517764000,16607822
212865554,Nashville,"Greenville, SC",1473777741000,36.18,-86.74,Jon Carroll,TN,1473777741000,16607822
198286572,Mount Juliet,,1494562873000,36.21,-86.52,Jon Murillo,TN,1494562873000,16607822
130161382,Nashville,,1410545764000,36.16,-86.79,Jonathan,TN,1430697697000,16607822
186360751,New York,,1429505733000,40.75,-73.99,Jonathan Owens,NY,1429505733000,16607822
208685855,Nashville,,1468086338000,36.09,-86.82,Jonathan Schenker,TN,1471024969000,16607822
236838580,Nashville,,1505753200000,36.14,-86.74,Jonathan Watson,TN,1505753200000,16607822
195529583,Nashville,,1474217546000,36.17,-86.78,Joselyn,TN,1474217546000,16607822
192252260,Murfreesboro,,1441381379000,35.82,-86.45,Joseph Cooper,TN,1463786556000,16607822
189718080,Murfreesboro,,1436504584000,35.78,-86.33,Joseph Kathmann,TN,1436504584000,16607822
62283332,Nashville,"Nashville, TN",1432775086000,36.22,-86.77,Joseph Paul Johnston II,TN,1462908331000,16607822
221628275,Nashville,,1486536663000,36.07,-86.73,Joseph Ramon Smith,TN,1486536663000,16607822
212596944,Nashville,,1483460743000,36.17,-86.78,Joseph Tatarczuk,TN,1483460743000,16607822
99794932,Smyrna,,1484261785000,35.97,-86.51,Josh,TN,1484261785000,16607822
11244289,Nashville,Charlotte,1454510333000,36.17,-86.78,Josh,TN,1454510333000,16607822
55029192,Franklin,Augusta,1411406699000,35.93,-86.81,Josh E,TN,1475178847000,16607822
209380006,Murfreesboro,,1468977713000,35.78,-86.33,Josh Griffin,TN,1469928570000,16607822
203131658,Nashville,,1460352273000,36.15,-86.81,Josh Palmer,TN,1470424240000,16607822
197245429,La Vergne,,1451117853000,36.01,-86.57,Josh Stockton,TN,1451117853000,16607822
187666172,Goodlettsville,,1432331738000,36.32,-86.72,Joshua Cigainero,TN,1432331738000,16607822
227037777,La Vergne,,1494034900000,36.01,-86.57,Joshua Turtle,TN,1494034900000,16607822
19928261,Franklin,Wolcottville,1421381688000,35.92,-86.89,Joshua Wingstrom,TN,1428958302000,16607822
111589522,Nashville,,1422810899000,36.18,-86.74,Joy Pratt,TN,1477352880000,16607822
199270888,Nashville,,1454787024000,36.09,-86.63,JP Fulks,TN,1454957113000,16607822
157248622,Nashville,,1428676343000,36.16,-86.79,Juan Job,TN,1428676343000,16607822
227186615,Nashville,,1500430188000,36.17,-86.78,Judy Cooper,TN,1500430188000,16607822
190324456,Nashville,,1437695577000,36.15,-86.86,Julian Samaroo,TN,1437695577000,16607822
200612671,Murfreesboro,,1458052473000,35.82,-86.45,Junie George,TN,1458052473000,16607822
190219094,Murfreesboro,,1437497057000,35.87,-86.44,Justin Everhardt,TN,1437497057000,16607822
205332268,Murfreesboro,,1463494321000,35.78,-86.33,Justin Smith,TN,1463494321000,16607822
228393733,New York,,1496333961000,40.75,-73.98,Justin Taylor,NY,1497451936000,16607822
203102933,Nashville,,1460315129000,36.14,-86.74,Justin Trimble,TN,1463279019000,16607822
105734222,Nashville,,1503663381000,36.17,-86.78,Justin Trimble,TN,1503663381000,16607822
206426725,Nashville,,1465011849000,36.17,-86.78,Justun Raymond Arnold,TN,1465064800000,16607822
184236794,Madison,,1423303870000,36.26,-86.7,Kadeisha Sims,TN,1423303870000,16607822
184702427,Nashville,,1424749921000,36.17,-86.78,Kami,TN,1424749921000,16607822
225126935,College Grove,,1491427167000,35.77,-86.71,Karen Collier,TN,1491427167000,16607822
218802654,Nashville,,1482961003000,36.17,-86.72,Karie Blalock,TN,1482961003000,16607822
192315664,Antioch,"Memphis, TN",1441501286000,36.04,-86.64,Karl Lashun Dean Jr,TN,1442030838000,16607822
4304748,Bowling Green,,1426780333000,37.02,-86.46,Karla,KY,1426780333000,16607822
182568739,Clarksville,Clarksville,1422371943000,36.56,-87.41,Karsten Ferguson,TN,1424312106000,16607822
73004602,Nashville,,1424822206000,36.11,-86.86,Katherine,TN,1424822206000,16607822
208081564,Murfreesboro,,1467256086000,35.78,-86.33,Kathy Buck,TN,1467256086000,16607822
227214166,Goodlettsville,,1494280535000,36.32,-86.72,Katie,TN,1494280535000,16607822
201282251,Murfreesboro,,1457664867000,35.78,-86.33,Katrina Douglas,TN,1457664867000,16607822
5344258,Clarksville,,1473110126000,36.49,-87.23,Kay,TN,1479181915000,16607822
208915157,Franklin,,1468372243000,36.73,-86.57,Kayla Renee,KY,1468372243000,16607822
190675248,Nashville,,1458936839000,36.13,-86.8,Kazadi Kazadi,TN,1475170109000,16607822
145280362,Hermitage,Nashville,1472832374000,36.19,-86.6,Keebz,TN,1491334465000,16607822
204156921,Nashville,,1461816203000,36.17,-86.72,Kei Gowda,TN,1491615976000,16607822
8537322,Nashville,Nashville,1487793885000,36.17,-86.72,Kei Gowda,TN,1487793885000,16607822
208189715,Pflugerville,,1487639437000,30.44,-97.63,Keirra Ewah,TX,1487639437000,16607822
10579442,Lebanon,"Lebanon, TN",1409169733000,36.15,-86.32,Keith Manning,TN,1495205258000,16607822
162437582,Nashville,,1413401279000,36.09,-86.82,Kelley Boothe,TN,1413467800000,16607822
193286730,Nashville,,1443310284000,36.14,-86.74,Kellie McKinney,TN,1443310284000,16607822
185045522,Clarksville,,1425763686000,36.53,-87.35,Kelvin Cook,TN,1425763686000,16607822
41993192,Nashville,"Grosse Pointe, MI",1497322186000,36.08,-86.72,Kemuel,TN,1497322186000,16607822
180084682,Murfreesboro,,1414438788000,35.87,-86.34,Ken,TN,1415502628000,16607822
183577387,Nashville,,1421252024000,36.08,-86.72,Ken Gay,TN,1421252024000,16607822
216748395,Nashville,,1479248966000,36.13,-86.8,Ken Moini,TN,1479248966000,16607822
192336911,Nashville,,1445451439000,36.09,-86.82,Ken Stockdale,TN,1445451439000,16607822
206268229,Hendersonville,,1464797312000,36.32,-86.61,Kendrick Esiason,TN,1464797312000,16607822
184362653,Nashville,,1423716923000,36.11,-86.78,Kennedy,TN,1423716923000,16607822
210561881,Nashville,,1470594432000,36.17,-86.78,Kenneth,TN,1470594432000,16607822
191269415,Hermitage,,1439479330000,36.19,-86.6,Kenny Malone,TN,1439479330000,16607822
183495480,Antioch,,1420988628000,36.04,-86.64,Kent McCarthy,TN,1465529264000,16607822
16598561,Nashville,,1495405914000,36.15,-86.81,Kent Weber,TN,1502654630000,16607822
625050,Franklin,Chattanooga,1426376372000,35.93,-86.81,Kerry Wilson,TN,1432677500000,16607822
188191003,Nashville,,1433381353000,36.06,-86.96,Keven,TN,1434203030000,16607822
12951305,Nashville,Cleveland,1463770011000,36.08,-86.72,Kevin,TN,1491090649000,16607822
182982296,Washington,,1450494701000,38.91,-77.02,Kevin,DC,1450494701000,16607822
187951183,Nashville,,1432912694000,36.14,-86.74,Kevin Griffis,TN,1468172787000,16607822
184365656,Nashville,,1428934909000,36.11,-86.78,Kevin Huber,TN,1479423606000,16607822
235318731,Nashville,,1504187916000,36.17,-86.78,Kevin Mylo,TN,1505844044000,16607822
215773393,Nashville,,1477717280000,36.15,-86.8,Kevin Normandeau,TN,1477717280000,16607822
231089525,Nashville,,1499189241000,36.11,-86.78,Kevin Slattery,TN,1499189241000,16607822
223169992,Lebanon,,1488686585000,36.21,-86.31,Kevin Suarez,TN,1491256480000,16607822
224620995,Nashville,,1490713714000,36.17,-86.78,Kiesha,TN,1490713714000,16607822
199056574,Nashville,,1454444095000,36.17,-86.78,Kim,TN,1466437024000,16607822
36083592,Nashville,,1494140812000,36.17,-86.78,Kim Fintel Worthington,TN,1494140812000,16607822
3016909,Nashville,Nashville,1421952357000,36.15,-86.86,Kim L.,TN,1468557728000,16607822
173164802,Thompsons Station,,1484951179000,35.8,-86.9,Kimberly Dawn Spain,TN,1484951179000,16607822
225957020,Nashville,,1492578946000,36.14,-86.74,King Ukwu,TN,1492635913000,16607822
136932882,Brentwood,,1457887813000,36.0,-86.79,Kisha,TN,1457887813000,16607822
202111278,Nashville,,1458862536000,36.17,-86.78,Korey,TN,1458862536000,16607822
222902626,Nashville,,1488306062000,36.15,-86.86,Korie Collins,TN,1488306062000,16607822
203516413,La Vergne,,1460906817000,36.01,-86.57,Koz,TN,1460906817000,16607822
215145659,Nashville,,1476765677000,36.14,-86.74,Kris Lange,TN,1492810447000,16607822
199743108,Clarksville,,1461770069000,36.49,-87.23,Kris Raves,TN,1461770069000,16607822
206303155,Mount Juliet,,1464840356000,36.21,-86.52,Kris!,TN,1464840356000,16607822
206735625,Nashville,,1465413508000,36.08,-86.71,Krish,TN,1465413508000,16607822
182662859,Murfreesboro,,1418773377000,35.87,-86.34,Kristen Brown,TN,1418773377000,16607822
226135246,Nashville,,1492821601000,36.17,-86.78,Kristian,TN,1492821601000,16607822
183209864,Nashville,,1420005393000,36.17,-86.78,Kristina Raschelle Seyer,TN,1420005393000,16607822
215005104,Fort Campbell,,1476570108000,36.65,-87.46,kwame FRIMPONG,KY,1476570108000,16607822
13204678,Nashville,,1442800767000,36.13,-86.8,Kyle Greenwood,TN,1442800767000,16607822
189568283,Franklin,,1455640043000,35.99,-86.9,Kyle Mann,TN,1491175735000,16607822
38415082,Old Hickory,,1432088874000,36.25,-86.63,kyle twilley,TN,1432088874000,16607822
192672843,Gallatin,,1442164110000,36.39,-86.45,L. Holland,TN,1442164110000,16607822
183843098,Germantown,,1463072415000,35.09,-89.77,Ladd Caldwell,TN,1463085808000,16607822
36144212,Murfreesboro,,1432584723000,35.87,-86.44,Lance Cain,TN,1433020698000,16607822
149190242,Mount Juliet,,1452658527000,36.21,-86.52,Landry Russom,TN,1452658527000,16607822
228998284,Clarksville,,1496588662000,36.53,-87.35,Larry Mervine,TN,1496588662000,16607822
183161441,Murfreesboro,,1419835808000,35.83,-86.38,Larry Parkhurst,TN,1419835808000,16607822
224864985,Clarksville,,1491060996000,36.56,-87.35,Latanya Allen,TN,1491060996000,16607822
224017553,Clarksville,,1489883494000,36.53,-87.34,Laurenh,TN,1489883494000,16607822
199050046,Nashville,,1454435400000,36.17,-86.78,Lee,TN,1454435400000,16607822
38783652,Nashville,"Nashville, TN",1436403943000,36.07,-86.73,Lee Perry,TN,1436403943000,16607822
217086751,Nashville,,1479788213000,36.17,-86.78,Leesa Clark Stone,TN,1480705962000,16607822
71327802,Tullahoma,,1464634163000,35.37,-86.21,Lei Shi,TN,1464634163000,16607822
203352101,Nashville,,1461555773000,36.13,-86.8,Leif E. Hetland,TN,1476458171000,16607822
209188346,Arlington,,1468739334000,32.62,-97.15,LENA,TX,1468739334000,16607822
134543412,Nashville,,1412108405000,36.16,-86.8,Leon Peck,TN,1444096123000,16607822
217012816,Gallatin,,1479672426000,36.39,-86.45,Lexie McCoy,TN,1479672426000,16607822
209509640,Nashville,,1469150707000,36.1,-86.66,Lillian O'Hara,TN,1469150707000,16607822
212548847,Clarksville,,1502225052000,36.56,-87.41,Lily,TN,1502225052000,16607822
223690505,Nashville,,1489422812000,36.13,-86.8,Lindsay Conlin,TN,1489422812000,16607822
183602570,Nashville,,1421336712000,36.18,-86.74,Lindsey Boise,TN,1424199865000,16607822
205023314,Clarksville,,1481298427000,36.49,-87.23,Lisa Brady,TN,1491255143000,16607822
3098530,Nashville,"Memphis, TN",1429135898000,36.08,-86.72,Lisa French,TN,1504195745000,16607822
183904410,Brentwood,,1422234251000,36.0,-86.79,Liz Edwards,TN,1422234251000,16607822
197768960,Brentwood,,1452188873000,36.0,-86.79,LJ,TN,1452188873000,16607822
218698840,Nashville,,1482768071000,36.07,-86.73,Lloyd Gray,TN,1482768071000,16607822
212225594,Smyrna,,1473614988000,35.97,-86.51,Logan Wilson,TN,1477605447000,16607822
184743032,Nashville,,1424877201000,36.14,-86.74,Lonnie Yandell,TN,1468766050000,16607822
185478055,Clarksville,,1427082896000,36.53,-87.35,lordsown,TN,1490385632000,16607822
209382675,Murfreesboro,,1469017539000,35.78,-86.33,Lori Gonzalez,TN,1469017539000,16607822
188594800,Nashville,,1434215299000,36.16,-86.79,LoveCoco,TN,1434215299000,16607822
236751111,Nashville,,1505668148000,36.17,-86.78,Luke Arthur Sykes,TN,1505668148000,16607822
186167083,Nashville,,1430180127000,36.16,-86.72,Luke Bolton,TN,1448821415000,16607822
197478844,Manchester,,1451637737000,35.47,-86.11,Luke Hagan,TN,1451637737000,16607822
187624371,Nashville,"Jackson, TN",1469330648000,36.17,-86.78,Luke N.,TN,1469330648000,16607822
64429432,Brentwood,Nashville,1454022987000,36.0,-86.79,Lyle Reed,TN,1484324922000,16607822
224182119,Murfreesboro,,1490107773000,35.78,-86.33,M Carroll,TN,1490464327000,16607822
193165290,Murfreesboro,,1443071973000,35.82,-86.45,M. Iman,TN,1443071973000,16607822
194700251,Franklin,,1445920983000,35.92,-86.89,Madison,TN,1445920983000,16607822
205561071,Antioch,,1463800695000,36.04,-86.64,Madison Martin,TN,1463800695000,16607822
190548646,Hermitage,,1438107581000,36.19,-86.6,Maegan,TN,1438107581000,16607822
188182242,Nashville,,1433366471000,36.06,-86.96,Mahadi,TN,1433366471000,16607822
201647608,Clarksville,"Wahiawa, HI",1460558252000,36.53,-87.35,Maiya,TN,1460558252000,16607822
198639713,Murfreesboro,,1453786153000,35.78,-86.33,Manuel Herrera,TN,1453786153000,16607822
81213252,Franklin,,1445464469000,35.96,-86.89,Manuel Izturriaga,TN,1445464469000,16607822
9683438,Nashville,Nashville,1462380104000,36.21,-86.72,Marc,TN,1462380104000,16607822
202053465,Hermitage,,1458769344000,36.19,-86.6,Marc Cox,TN,1458769344000,16607822
184834781,Crossville,,1425157647000,35.87,-84.98,Marcus Whitaker,TN,1425157647000,16607822
186849054,Nashville,,1430602744000,36.17,-86.78,Marekjk,TN,1445097694000,16607822
201797298,Nashville,,1458402107000,36.15,-86.86,Margaret Hietanen,TN,1458402107000,16607822
94718632,Nashville,,1464006467000,36.08,-86.72,Margaret Miles,TN,1464006467000,16607822
205708812,Nashville,,1464010844000,36.07,-86.73,Marie,TN,1464010844000,16607822
210096250,Fosterville,,1469933877000,35.75,-86.39,Mario Allen,TN,1469933877000,16607822
155073932,Fairview,"Guatemala, GT",1440136432000,35.97,-87.13,Mario David Alvarado Amaya,TN,1440136432000,16607822
197353404,Columbia,,1467397771000,35.61,-87.05,Marissa King,TN,1467397771000,16607822
181400792,Nashville,,1435685385000,36.11,-86.86,Mark,TN,1435685385000,16607822
210706195,Antioch,,1470787637000,36.17,-86.88,Mark,TN,1470787637000,16607822
182626228,Brentwood,,1460135418000,36.0,-86.79,Mark,TN,1477313394000,16607822
90089452,Jackson,"Modesto, CA",1421983646000,35.79,-88.85,Mark,TN,1435341055000,16607822
195625137,Murfreesboro,,1447641713000,35.78,-86.33,Mark Holmes,TN,1447641713000,16607822
126015852,New York,"New York, NY",1442460863000,40.71,-74.0,Mark Miscavage,NY,1443305439000,16607822
198772889,Murfreesboro,,1454004452000,35.78,-86.33,Mark Pine,TN,1454004452000,16607822
191272888,Brentwood,,1461039488000,36.0,-86.79,Martin Cross,TN,1461687928000,16607822
205277422,Nashville,,1463423038000,36.17,-86.78,Marty,TN,1463423038000,16607822
221212756,Nashville,,1486023235000,36.17,-86.78,Martynas ustavi?ius,TN,1487033109000,16607822
190581572,Charleston,Charleston,1484840505000,32.78,-79.94,Marwan,SC,1484840505000,16607822
192465320,Nashville,,1441766781000,36.17,-86.78,Mary Ann Sobczak Chisholm,TN,1441766781000,16607822
219744699,Nashville,,1484171466000,36.14,-86.81,Mary Elizabeth Pellett,TN,1484171466000,16607822
195383276,Mount Juliet,,1447184274000,36.22,-86.52,Mary Harper Ayre,TN,1447184274000,16607822
159605022,Anderson,,1479580620000,34.52,-82.64,Matt Bobo,SC,1479580620000,16607822
10270504,Nashville,,1428628228000,36.1,-86.66,Matt Coffman,TN,1428628228000,16607822
132277442,Nashville,,1436315470000,36.14,-86.74,Matt Frederick,TN,1446055345000,16607822
188136065,Bowling Green,,1433275133000,37.02,-86.46,Matt Fridy,KY,1433275133000,16607822
208254483,Nashville,,1467506665000,36.09,-86.82,Matt Hojsik,TN,1467506665000,16607822
5900662,Nashville,"Nashville, TN",1424699164000,36.07,-86.78,Matt Kenigson,TN,1487004024000,16607822
213152508,Nashville,,1480621811000,36.09,-86.82,Matt L,TN,1487365002000,16607822
204914631,Smyrna,"Smyrna, TN",1491227329000,35.97,-86.51,Matt McCord,TN,1491250939000,16607822
185579238,Brentwood,,1427391066000,36.0,-86.79,Matt Sargent ,TN,1428547687000,16607822
210794240,Nashville,,1470921814000,36.06,-86.69,Matt T.,TN,1470921814000,16607822
188218969,Murfreesboro,,1433544797000,35.78,-86.33,MattandSarah Hall,TN,1467518261000,16607822
117485972,Nashville,,1463795420000,36.17,-86.78,Matthew,TN,1463795420000,16607822
160338602,Nashville,"Nashville, TN",1478850940000,36.11,-86.86,Matthew Braman,TN,1478850940000,16607822
207193520,Murfreesboro,,1490826538000,35.78,-86.33,Matthew Cotter,TN,1490826538000,16607822
213939968,Madison,,1475151911000,36.26,-86.71,Matthew Davis,TN,1475151911000,16607822
199348150,New York,,1454909389000,40.75,-73.99,Matthew Erwin,NY,1454909389000,16607822
185131044,Nashville,,1470074211000,36.17,-86.72,Matthew Reuther,TN,1470085114000,16607822
202639794,Spring Hill,,1464286958000,35.76,-86.88,matthew till,TN,1464286958000,16607822
7002516,Nashville,,1442830183000,36.13,-86.8,Matthew Wallace,TN,1491329441000,16607822
209877119,Nashville,,1469635358000,36.17,-86.78,Matthew Wuthrich,TN,1496278536000,16607822
229744057,Brentwood,,1497507071000,36.0,-86.79,Max Behling,TN,1497507071000,16607822
183134483,Nashville,Nashville,1419666108000,36.17,-86.78,Meghan Connor,TN,1445100131000,16607822
189586771,Nashville,,1436254524000,36.14,-86.74,Melinda Patrice Pinder ,TN,1436254524000,16607822
39034932,Antioch,Dickson,1412278782000,36.04,-86.64,Metta England,TN,1475366255000,16607822
214694132,Nashville,,1476116269000,36.17,-86.78,MF Tech,TN,1477692463000,16607822
192578643,College Grove,,1441985133000,35.77,-86.71,Michael,TN,1448822862000,16607822
184759278,Murfreesboro,,1424917635000,35.87,-86.34,Michael,TN,1425010416000,16607822
55615442,Nashville,Murfreesboro,1424017094000,36.16,-86.79,Michael,TN,1442016571000,16607822
194253124,Murfreesboro,,1445125959000,35.87,-86.34,Michael,TN,1446247230000,16607822
207448191,Spring Hill,,1466398444000,35.76,-86.88,Michael,TN,1466398444000,16607822
222360081,Nashville,,1487551935000,36.16,-86.79,Michael Carpenter,TN,1487551935000,16607822
205841841,Gallatin,,1464188890000,36.39,-86.45,Michael Dean Meador,TN,1464188890000,16607822
208571752,Brentwood,,1467933004000,36.0,-86.79,Michael Frost ,TN,1467933004000,16607822
202447151,Jakarta,Toronto,1459369763000,-6.18,106.83,Michael Gord,,1459369763000,16607822
98598512,Nashville,,1412786779000,36.11,-86.78,Michael Helfrich,TN,1466174970000,16607822
192119532,Mount Juliet,,1442261275000,36.22,-86.52,Michael J.,TN,1446087847000,16607822
226028895,Hermitage,,1492678218000,36.19,-86.6,Michael kat,TN,1492678218000,16607822
232312915,Nashville,,1506436912000,36.13,-86.8,Michael Kennedy,TN,1506436912000,16607822
227809463,Franklin,,1495073361000,35.99,-86.9,Michael Rudowski,TN,1495073361000,16607822
208449273,Murfreesboro,,1467764513000,35.87,-86.34,Michael Shannon & Megan Smoak,TN,1467764513000,16607822
119856662,Bowling Green,Bowling Green,1438229712000,37.02,-86.46,Michael Shavelieva,KY,1438229712000,16607822
220922648,Hermitage,,1485658493000,36.19,-86.6,Michael Tanguay,TN,1486731187000,16607822
217249698,Spring Hill,,1494684206000,35.76,-86.88,Michael Taylor,TN,1494684206000,16607822
191482648,Hendersonville,,1458965050000,36.32,-86.61,Michael Upchurch,TN,1458965050000,16607822
209818651,La Vergne,,1469559371000,36.01,-86.57,Michaelangelo Ruiz,TN,1469559371000,16607822
22008711,Murfreesboro,,1483425388000,35.82,-86.45,Michel Holder,TN,1483425388000,16607822
193303903,Pompano Beach,,1443349299000,26.25,-80.21,Michelangelo,FL,1475166013000,16607822
46486792,Nashville,,1474984556000,36.17,-86.78,Michelle McManus,TN,1474984556000,16607822
115055042,Nashville,Nashville,1424731049000,36.17,-86.78,Mickey Davis,TN,1425496990000,16607822
195794101,Nashville,,1448035956000,36.15,-86.86,Midi,TN,1468167963000,16607822
230237578,Nashville,,1498133518000,36.16,-86.66,Mike Donahue,TN,1498133518000,16607822
97435322,Franklin,,1457543385000,35.93,-86.81,Mike Handley,TN,1488144957000,16607822
181890762,Nashville,,1415221138000,36.14,-86.74,Mindy Fitterling,TN,1415221138000,16607822
211027856,Nashville,,1471266219000,36.08,-86.72,Miriam,TN,1486177059000,16607822
21539461,Nashville,,1453923192000,36.06,-86.96,Mitchell Day,TN,1457743704000,16607822
164803042,Carthage,Lebanon,1409418778000,36.26,-85.99,Mitchell Manning,TN,1442004080000,16607822
198236974,Nashville,Nashville,1453056040000,36.15,-86.81,Miti Joshi,TN,1453056040000,16607822
211851474,Antioch,,1472417383000,36.17,-86.88,Mizani Mrinquisitive Mysteree,TN,1472417383000,16607822
8213592,Clarksville,Houston,1435012621000,36.53,-87.35,mlsj1,TN,1470441446000,16607822
58992962,Denver,Denver,1410989916000,39.75,-104.99,Monica Bolles,CO,1432051519000,16607822
186038725,Nashville,,1428692180000,36.17,-86.78,Morgan higby-flowers,TN,1468167393000,16607822
171855832,Nashville,,1457714235000,36.17,-86.78,mougee,TN,1490702925000,16607822
185565482,Madison,,1445681619000,36.26,-86.7,MsDiamante Love WhoIam,TN,1445681619000,16607822
41364992,Antioch,,1473396788000,36.17,-86.88,Myron Headd,TN,1473396788000,16607822
183533222,Christiana,,1421100903000,35.71,-86.36,mysticalcharm,TN,1421100903000,16607822
185556798,Memphis,,1427316699000,35.12,-89.93,Najamel Silver,TN,1477371307000,16607822
231017596,Nashville,,1499103166000,36.1,-86.66,Nasheeda Shaikh,TN,1499103166000,16607822
183927948,Hendersonville,,1422308021000,36.32,-86.61,Natalie ,TN,1422308021000,16607822
187890669,Nashville,,1432781215000,36.14,-86.74,Nate Bradley,TN,1432781215000,16607822
183632817,Nashville,,1421429642000,36.14,-86.74,Nate Smiley,TN,1421429642000,16607822
196557576,Gallatin,,1475070468000,36.39,-86.45,Nathan,TN,1477275108000,16607822
197191047,Mitchellville,,1450945625000,36.63,-86.54,Nathan  Brownlee,TN,1450945625000,16607822
185610421,Nashville,,1427492570000,36.14,-86.74,Nathan 'Adan' Adam,TN,1445472123000,16607822
171215762,Clarksville,,1411099072000,36.56,-87.41,Nathan Baker,TN,1411099072000,16607822
188182749,Nashville,,1471552115000,36.17,-86.78,Nathan Freitas,TN,1480605428000,16607822
215286444,Nashville,,1476976177000,36.13,-86.8,Nathan Sottek,TN,1477584159000,16607822
187259996,Nashville,,1431489606000,36.15,-86.86,Nathan Thompson,TN,1432769830000,16607822
191210363,Nashville,,1472957210000,36.11,-86.78,Nayeli Anaya Hernandez,TN,1484630555000,16607822
187098497,Nashville,,1431139042000,36.16,-86.79,Neil Clement,TN,1431139042000,16607822
184965875,Nashville,,1425521460000,36.08,-86.72,Nicholas,TN,1425521460000,16607822
182824247,Franklin,,1417617498000,35.92,-86.89,Nicholas Hodge,TN,1418222576000,16607822
196618544,Nashville,,1460990173000,36.17,-86.78,Nicholas Huffman,TN,1461008574000,16607822
201347057,Scottsville,,1457760136000,36.78,-86.19,Nicholas Reed,KY,1457760136000,16607822
228057138,Murfreesboro,,1495408517000,35.78,-86.33,Nicholas Robbins,TN,1495408517000,16607822
156250072,Fort Walton Beach,"Little Rock, AR",1417992254000,30.41,-86.61,Nicholas Stringham,FL,1417992254000,16607822
3214423,Nashville,"Albany, NY",1492743577000,36.17,-86.78,Nick,TN,1492743577000,16607822
224246840,Clarksville,,1490195302000,36.53,-87.35,Nick,TN,1490195302000,16607822
220930603,Lebanon,,1485669242000,36.21,-86.31,Nick a (DarkTarantula),TN,1485669242000,16607822
214688193,Nashville,,1491319734000,36.07,-86.73,Nick Chemsak,TN,1503927001000,16607822
102815822,Nashville,,1477361094000,36.17,-86.72,Nick Franciosi,TN,1492994601000,16607822
187904554,Nashville,Nashville,1460676670000,36.08,-86.72,Nick Glover,TN,1463785829000,16607822
222148390,Nashville,,1487255426000,36.17,-86.78,nick hayes,TN,1487255426000,16607822
18382441,Nashville,Nashville,1492262023000,36.15,-86.86,Nick Herron,TN,1494250712000,16607822
99795172,Nashville,,1464191528000,36.17,-86.78,Nick Horne,TN,1464191528000,16607822
58983922,Nashville,NASHVILLE,1460761545000,36.21,-86.72,Nick Lorenson,TN,1483676981000,16607822
223884983,Nashville,,1489693091000,36.16,-86.66,Nickie Denning,TN,1489693091000,16607822
185785532,Nashville,,1457544242000,36.15,-86.8,Noah,TN,1486939758000,16607822
175569102,Seattle,,1494333213000,47.61,-122.33,Noelle Denisi,WA,1494333213000,16607822
207925050,White House,,1467053580000,36.48,-86.69,Norma Gardner,TN,1467053580000,16607822
234168251,Franklin,,1502888332000,35.93,-86.81,Olivia Oetjens,TN,1502888332000,16607822
190515975,Nashville,,1438034956000,36.13,-86.8,Oscar Arana,TN,1438034956000,16607822
164015602,Nashville,,1409191569000,36.14,-86.74,Oscar Yengle,TN,1413949098000,16607822
156895842,Nashville,,1409093191000,36.16,-86.79,Paden Pierry,TN,1461264236000,16607822
145105442,Nashville,,1412829841000,36.17,-86.78,Paden Pierry,TN,1417560658000,16607822
86586812,Nashville,Hong Kong,1491359341000,36.17,-86.78,Pan Chan,TN,1491359341000,16607822
205095793,Nashville,,1463183844000,36.08,-86.72,Patrick Duteau,TN,1463527682000,16607822
187293527,Whittier,,1431560668000,35.46,-83.29,Paul,NC,1431560668000,16607822
14403986,Nashville,,1445355923000,36.17,-86.78,Paul Campbell,TN,1503680974000,16607822
207255733,Chicago,,1467238991000,41.81,-87.71,Paul Frieh,IL,1484492276000,16607822
228658592,Gallatin,,1496164607000,36.39,-86.45,Paul Mesaros,TN,1496164607000,16607822
201759245,Nashville,,1458346451000,36.16,-86.79,Paul Park,TN,1458346451000,16607822
185123991,Nashville,,1425993538000,36.16,-86.79,Paul Sylvester Shanley,TN,1425993538000,16607822
222369017,Nashville,,1487563772000,36.14,-86.74,Pedro,TN,1491171264000,16607822
108480342,Nashville,,1409188766000,36.17,-86.72,Peter,TN,1475242212000,16607822
119887392,Franklin,Nashville,1413830086000,35.93,-86.81,Peter Hunsberger,TN,1460224250000,16607822
201154548,Brentwood,,1457482531000,36.0,-86.79,Peter Leiser,TN,1491251302000,16607822
223363210,Nashville,,1488957549000,36.07,-86.73,Petra Moreno-Frasca,TN,1488957549000,16607822
217570160,Nashville,,1480632041000,36.14,-86.74,Phil Michal Thomas,TN,1480726032000,16607822
69653682,Nashville,Nashville,1435198050000,36.11,-86.86,Philip Brown,TN,1435198050000,16607822
207611824,Nashville,,1472173659000,36.17,-86.78,Phillip Morrow,TN,1472271527000,16607822
126345502,Nashville,,1493257890000,36.22,-86.77,Preston Vienneau,TN,1505265785000,16607822
222890703,Nashville,,1488292011000,36.17,-86.78,Q Harris,TN,1488292011000,16607822
216269148,Brentwood,,1483731966000,36.0,-86.79,Q. White,TN,1483736892000,16607822
214548728,Clarksville,,1475888747000,36.53,-87.35,RA Blair,TN,1475888747000,16607822
220789347,White House,,1485482832000,36.48,-86.69,Rafah Muhammad,TN,1485482832000,16607822
184991548,Nashville,,1425597739000,36.17,-86.78,Ram,TN,1466378621000,16607822
201834912,Murfreesboro,,1458450868000,35.78,-86.33,Ramona Davis-Gee,TN,1458450868000,16607822
175300482,Nashville,,1412384473000,36.16,-86.79,Rav,TN,1477523633000,16607822
209165872,Clarksville,,1468712284000,36.53,-87.35,Ray Watkins,TN,1468712284000,16607822
13812864,Huntsville,,1409176301000,34.71,-86.61,Raymond,AL,1418550535000,16607822
223498682,Nashville,,1489157979000,36.17,-86.78,RB,TN,1492165551000,16607822
100367272,Nashville,,1415290699000,36.13,-86.8,Rebecca Cronin-Dixon,TN,1461975279000,16607822
186516414,Spring Hill,,1429848403000,35.76,-86.88,Renae,TN,1429848403000,16607822
221161925,Clarksville,,1485961031000,36.56,-87.41,Renee Palicia,TN,1485961031000,16607822
103838042,Nashville,,1457103186000,36.11,-86.86,Rex Perry,TN,1466194302000,16607822
173131342,Nashville,,1449734585000,36.18,-86.74,Rheiner von Boots,TN,1449734585000,16607822
183562494,Nashville,,1421194823000,36.11,-86.86,Rhonda,TN,1421397374000,16607822
218216465,Smyrna,,1481771251000,35.97,-86.51,Rhys Patterson,TN,1481771251000,16607822
41233752,Nashville,,1433987503000,36.08,-86.72,Richard,TN,1457892772000,16607822
226502472,Nashville,,1493306841000,36.11,-86.67,Richard Beauchamp,TN,1493306841000,16607822
204454387,Nashville,,1462261391000,36.21,-86.72,Richard Ethan Barrow,TN,1462261391000,16607822
190940582,Eagleville,,1438827009000,35.75,-86.64,Rickey Olsen,TN,1438827009000,16607822
170944062,Nashville,,1410720654000,36.17,-86.79,Ricky Arras,TN,1416863779000,16607822
202030832,Clarksville,,1458739622000,36.56,-87.41,Robbie Niemela,TN,1463316365000,16607822
194487030,Fort Campbell,,1445550428000,36.65,-87.46,Robby,KY,1445550428000,16607822
9712942,Nashville,Nashville,1427311490000,36.22,-86.77,Robert,TN,1490383377000,16607822
215243626,Nashville,,1490892833000,36.08,-86.72,Robert Coomber,TN,1490892833000,16607822
220955068,Franklin,,1485705960000,35.93,-86.81,Robert Rice,TN,1485705960000,16607822
191486784,Madison,,1439910057000,36.26,-86.71,Robin Cramp,TN,1439910057000,16607822
223150211,Antioch,,1488657146000,36.04,-86.64,Robyn ,TN,1488657146000,16607822
219126365,Nashville,,1483411656000,36.18,-86.74,Rochelle Huey,TN,1483411656000,16607822
220394149,Shelbyville,,1484992464000,35.48,-86.47,Rocky Derryberry,TN,1484992464000,16607822
218061898,Nashville,,1481495605000,36.17,-86.78,Rodney Chism,TN,1481495605000,16607822
204911282,Bentonville,,1470633711000,36.38,-94.21,Rodney Vincent Truitt Jr.,AR,1475175766000,16607822
204884612,Nashville,,1462891734000,36.14,-86.74,Rohan Kohli,TN,1463755947000,16607822
99285742,Nashville,,1492190124000,36.17,-86.78,Roman Rodriguez,TN,1507126205000,16607822
196626354,Murfreesboro,,1449620649000,35.78,-86.33,Romerus Greer,TN,1449620649000,16607822
214224356,Nashville,,1486248289000,36.14,-86.74,Ross Olinger,TN,1486248289000,16607822
192919256,Nashville,,1442616941000,36.15,-86.81,Rounak Salim,TN,1442616941000,16607822
183621154,Smyrna,,1421386271000,35.97,-86.51,Russell Church,TN,1421386271000,16607822
214207348,Clarksville,,1475451451000,36.56,-87.35,Ruth Coats,TN,1475451451000,16607822
193343063,Murfreesboro,,1443415435000,35.78,-86.33,Ruth Kilcrease,TN,1443415435000,16607822
63746852,Nashville,,1425318295000,36.17,-86.78,Ryan,TN,1490390244000,16607822
25353852,Nashville,,1488924072000,36.08,-86.72,Ryan Hogan,TN,1491329618000,16607822
183564319,Nashville,,1421276994000,36.14,-86.8,Ryan Murray,TN,1476470103000,16607822
15359191,Bowling Green,"Lexington, KY",1495759647000,36.95,-86.43,Ryan Peach,KY,1495759647000,16607822
207389960,Knoxville,,1466314597000,36.03,-83.89,Ryan Shivers,TN,1466314597000,16607822
190496114,Thompsons Station,,1438007102000,35.8,-86.9,Ryan Thomas Hylton,TN,1438007102000,16607822
220519106,Nashville,Nashville,1492883644000,36.06,-86.96,Rylan Browner,TN,1492883644000,16607822
198627070,Nashville,,1453765608000,36.17,-86.78,S C Campbell,TN,1453765608000,16607822
125087732,Atlanta,,1412783151000,33.83,-84.39,S J,GA,1414596608000,16607822
163370582,Nashville,,1409519130000,36.17,-86.72,s427743,TN,1409519130000,16607822
13772465,Nashville,,1414376740000,36.13,-86.8,Sam,TN,1415325492000,16607822
37612682,Jerusalem,New York,1463268625000,31.76,35.22,Sam Fisher,,1466204936000,16607822
189910252,Nashville,,1491190321000,36.11,-86.86,Sam H,TN,1496149837000,16607822
183225365,Nashville,,1421303315000,36.17,-86.78,Sam H.,TN,1490564720000,16607822
203062674,Nashville,,1462670831000,36.17,-86.78,Sam Lax,TN,1462670831000,16607822
196467754,Nashville,,1449326618000,36.08,-86.72,Samantha Abu-Bakr ,TN,1449326618000,16607822
224339566,Nashville,,1494952364000,36.14,-86.74,Samer Salib,TN,1494952364000,16607822
186548106,Franklin,,1429923444000,35.92,-86.89,Sampson Brueher,TN,1429923444000,16607822
193262365,San Antonio,,1443572829000,29.5,-98.61,Samuel Díaz,TX,1443572829000,16607822
174951522,Murfreesboro,,1471810198000,35.78,-86.33,Sandy Blevins,TN,1471810198000,16607822
191823767,Dimock,,1476765286000,41.74,-75.9,Sara Kistner,PA,1476765286000,16607822
214093114,Nashville,,1475308785000,36.14,-86.74,Sara Sharooni,TN,1477921784000,16607822
78141972,Nashville,N/A,1503336905000,36.21,-86.72,Sarah,TN,1505438990000,16607822
192259462,Mc Minnville,,1441464572000,35.68,-85.78,sarah ford,TN,1441464572000,16607822
190566193,Christiana,,1438119850000,35.71,-86.36,Sarah Story,TN,1438119850000,16607822
214590028,Nashville,,1475954921000,36.18,-86.81,Sarai Corea,TN,1475954921000,16607822
132696942,Nashville,,1413825632000,36.14,-86.74,Sarkaut Taro,TN,1490751975000,16607822
194397680,Nashville,,1445385630000,36.17,-86.78,Saska,TN,1445385630000,16607822
209022267,Nashville,,1468518400000,36.08,-86.72,Savannah Smith,TN,1468518400000,16607822
3710232,Nashville,,1457727430000,36.17,-86.78,Scott,TN,1507084116000,16607822
199019755,Nashville,,1454382061000,36.14,-86.74,Scott Hudson ,TN,1454382061000,16607822
183038379,Franklin,Franklin,1418945031000,35.92,-86.89,Scott L.,TN,1425088809000,16607822
73329392,Lebanon,,1422839526000,36.15,-86.32,ScottandGeneva Winslow,TN,1456416939000,16607822
183154788,Christiana,,1419749676000,35.71,-86.36,scotty newingham,TN,1419749676000,16607822
186309072,Stockholm,Stockholm,1470566062000,59.33,18.07,Sean,,1470566062000,16607822
228682936,White House,,1496188238000,36.48,-86.69,Sean Michael Keyes,TN,1496188238000,16607822
187007994,Antioch,,1430942550000,36.04,-86.64,Seba Bonacic,TN,1430942550000,16607822
200407318,Nashville,"Lima, PE",1467744968000,36.17,-86.78,Sebastián Alegre,TN,1467744968000,16607822
190978121,Lebanon,,1438905664000,36.21,-86.31,Senn Nathan,TN,1440123972000,16607822
182754952,Nashville,,1487060085000,36.08,-86.72,Sergio Valenzuela,TN,1492023451000,16607822
206664418,Hermitage,,1465327660000,36.19,-86.6,Seth Baxter Ratcliffe,TN,1468189596000,16607822
128800052,Nashville,,1413824976000,36.13,-86.8,Seth C Whiting,TN,1432732902000,16607822
206946069,Smyrna,,1465701276000,35.97,-86.51,Seth Haynes,TN,1492561147000,16607822
210431008,Mount Juliet,,1473758237000,36.21,-86.52,Seth Walker,TN,1473758237000,16607822
8539046,Nashville,,1491686282000,36.13,-86.8,Shalini,TN,1491686282000,16607822
192591200,Nashville,,1442005382000,36.14,-86.74,Shane C.,TN,1442005382000,16607822
171215992,Nashville,,1411770794000,36.14,-86.74,Shannon,TN,1411770794000,16607822
216374980,Nashville,,1478652764000,36.15,-86.79,Shannon Lutes,TN,1478652764000,16607822
203869588,Murfreesboro,,1461415211000,35.78,-86.33,Shante Don,TN,1461415211000,16607822
178674672,Nashville,,1413778022000,36.14,-86.74,Shawn Stewart,TN,1413998628000,16607822
192314185,Brentwood,,1480550104000,36.0,-86.79,Shawn Stewart,TN,1490383359000,16607822
12112025,Bellevue,"Bellevue, WA",1409036788000,47.62,-122.17,Shawn Whiting,WA,1503519813000,16607822
2000166,Clarksville,,1462105547000,36.53,-87.35,Shawnmarie Bane,TN,1462105547000,16607822
201028041,Oak Grove,,1457301561000,36.68,-87.45,Shay Curenton,KY,1457301561000,16607822
145933762,Nashville,,1436317135000,36.13,-86.8,Shay Fysbigtbabn Negron,TN,1436317135000,16607822
182831865,Nashville,"Nashville, TN",1487525174000,36.08,-86.72,Shayla Rucker,TN,1491265568000,16607822
223139602,Spring Hill,,1488645329000,35.76,-86.88,Shayna Clemmer,TN,1488743170000,16607822
196044211,Dickson,,1448442593000,36.08,-87.43,Shea Abbott,TN,1448442593000,16607822
188222061,Mount Juliet,,1433451182000,36.21,-86.52,Shelley Stewart,TN,1433451182000,16607822
216707659,Nashville,,1479186266000,36.11,-86.86,Shengquan Tuo,TN,1481393846000,16607822
222740881,Nashville,,1488078615000,36.08,-86.72,Sherman Megibben,TN,1488078615000,16607822
37266842,Nashville,,1466307011000,36.17,-86.78,Spencer Rowland,TN,1466307011000,16607822
220731917,Nashville,,1485407701000,36.21,-86.72,Stalios Cantose,TN,1485407701000,16607822
192552922,Murfreesboro,,1441930701000,35.85,-86.36,Steph Hendrick,TN,1445212622000,16607822
224811331,Lebanon,,1490980711000,36.21,-86.31,Stephanie Anderson,TN,1490980711000,16607822
194573109,Nashville,,1445705937000,36.17,-86.78,Stephanie Kendrick,TN,1445705937000,16607822
228883854,Syracuse,,1496441981000,41.42,-85.74,Stephen,IN,1496441981000,16607822
229735280,Mount Juliet,,1497494418000,36.21,-86.52,Stephen Broyles,TN,1497494418000,16607822
212151735,New York,,1472831625000,40.75,-73.99,Stephen Gilbert,NY,1472831625000,16607822
9683224,La Vergne,,1446048057000,36.01,-86.57,Stephen Seifert,TN,1446048057000,16607822
183500184,New York,,1499704280000,40.72,-73.98,Stephen Spinola,NY,1499704280000,16607822
212593454,Nashville,,1473422413000,36.17,-86.78,Sterling,TN,1483456717000,16607822
184563934,Mount Juliet,,1424328540000,36.22,-86.52,Steve,TN,1424328540000,16607822
31468012,Nashville,,1419403765000,36.17,-86.72,Steve,TN,1466257603000,16607822
12610918,Nashville,,1458498884000,36.22,-86.77,Steve McRuiz,TN,1484836021000,16607822
192411409,Suwanee,,1441673652000,34.06,-84.08,Steven Michael Anderson,GA,1441673652000,16607822
220702209,Nashville,,1485382169000,36.16,-86.79,Studio Npl,TN,1485382169000,16607822
9657641,Antioch,Antioch,1451954778000,36.04,-86.64,Sunny,TN,1487867841000,16607822
3469568,Brentwood,Brentwood,1422591162000,36.0,-86.79,Susan,TN,1422591162000,16607822
192308257,Cookeville,,1441487243000,36.2,-85.52,T Hughes,TN,1441487243000,16607822
188296639,Nashville,,1433612440000,36.16,-86.79,T Riche,TN,1433612440000,16607822
217775215,Murfreesboro,,1480987365000,35.82,-86.45,T. James Carmichael,TN,1480987365000,16607822
205539712,Murfreesboro,,1463772811000,35.82,-86.45,Tabitha Dominique Sharpe,TN,1463772811000,16607822
205282643,Lebanon,,1463431913000,36.21,-86.31,Tami Shahan,TN,1463431913000,16607822
14333040,Nashville,,1428959565000,36.17,-86.78,Tanner Netterville,TN,1428959565000,16607822
226778406,Fairview,,1493684043000,35.97,-87.13,Tara bowman,TN,1493684043000,16607822
185713569,Franklin,,1427811285000,35.9,-86.96,Tara L.,TN,1427811285000,16607822
198565954,Clarksville,,1453659948000,36.49,-87.23,Tarri ,TN,1453659948000,16607822
219077257,Nashville,,1483362241000,36.14,-86.81,Tate Cheveyo,TN,1483362241000,16607822
206873092,Hermitage,,1465603439000,36.19,-86.6,Taylor,TN,1465603439000,16607822
126066112,Nashville,Nashville,1482824244000,36.17,-86.78,Taylor Michael Matson,TN,1493220013000,16607822
197780056,Nashville,,1452204521000,36.06,-86.96,Taylor Preston,TN,1453748688000,16607822
213392064,Smyrna,,1474450075000,35.97,-86.51,Tc,TN,1474450075000,16607822
126525082,Nashville,,1498352434000,36.13,-86.8,TeamLockhart,TN,1498352434000,16607822
207856189,Nashville,,1466962257000,36.17,-86.78,Teka,TN,1466962257000,16607822
208177971,Nashville,,1467400052000,36.17,-86.78,Tell Ball,TN,1467400052000,16607822
204879671,Nashville,,1462889461000,36.17,-86.78,Terielle Murphy,TN,1462889461000,16607822
154867292,Nashville,,1418620745000,36.16,-86.79,Terrence Boyce,TN,1466336569000,16607822
186261612,Nashville,,1429256769000,36.14,-86.74,Terry McMoore,TN,1429256769000,16607822
185712362,Franklin,,1427808718000,35.93,-86.81,Thomas Iverson,TN,1427808718000,16607822
185669528,Lawrenceburg,,1427683351000,35.25,-87.33,Tiffany,TN,1427683351000,16607822
227566374,Franklin,,1494771280000,35.92,-86.89,Tiffany Hope,TN,1494771280000,16607822
215138048,La Vergne,,1476755663000,36.0,-86.57,Tim C,TN,1476755663000,16607822
90350612,Nashville,,1432823517000,36.17,-86.78,Tim Kucejko,TN,1432823517000,16607822
182906539,Nashville,,1418101769000,36.14,-86.74,timothy,TN,1421423338000,16607822
177822072,Nashville,,1413476595000,36.14,-86.74,Timothy,TN,1429040136000,16607822
207799483,Nashville,,1466882569000,36.17,-86.78,Todd Matthew Nicholas Hoote,TN,1466882569000,16607822
3955905,Murfreesboro,"Hawthorne, NJ",1442600931000,35.87,-86.44,Todd O'Neill,TN,1490986505000,16607822
12626414,Nashville,,1490741950000,36.11,-86.86,tom nguyen,TN,1508787086000,16607822
222212836,Nashville,,1487345607000,36.11,-86.78,Tom Wilson,TN,1487352051000,16607822
186320204,Nashville,,1429415517000,36.17,-86.72,Tommy,TN,1460317711000,16607822
3920320,Nashville,,1425931280000,36.21,-86.72,Tony,TN,1425931280000,16607822
196500880,Nashville,,1466571258000,36.17,-86.78,Traci Lindsey Farmer,TN,1466571258000,16607822
8228323,Nashville,,1412524441000,36.17,-86.78,tracy ,TN,1466565714000,16607822
224606368,Nashville,,1490692853000,36.21,-86.72,travis braud,TN,1490711905000,16607822
177848272,Spring Hill,,1413343393000,35.76,-86.88,Travis Lee Beatty,TN,1421256838000,16607822
218502866,Murfreesboro,,1482334328000,35.82,-86.45,Travis Lee Kenyon,TN,1482334328000,16607822
228244950,La Vergne,,1495614844000,36.01,-86.57,Travis Waters,TN,1495614844000,16607822
208892087,Nashville,,1468346818000,36.14,-86.74,Traylor,TN,1470339139000,16607822
184332334,Nashville,,1432905054000,36.17,-86.78,Tremaine James,TN,1460240360000,16607822
220511573,Nashville,,1485139813000,36.18,-86.74,Trent Baldwin (TrueRoyaltyEnt),TN,1485139813000,16607822
221180409,Nashville,,1485981549000,36.18,-86.81,Trevor Boren,TN,1485981549000,16607822
181759832,Nashville,,1420586182000,36.16,-86.79,Trevor Burbank,TN,1420650070000,16607822
186552914,Nashville,,1429933361000,36.08,-86.72,Tricia Wilson,TN,1429937112000,16607822
225923443,Nashville,,1492539900000,36.15,-86.81,Triunn Maeginbiarnarson,TN,1492685329000,16607822
12539308,Nashville,,1463547161000,36.08,-86.72,Troy,TN,1463547161000,16607822
209826465,Nashville,,1469962052000,36.18,-86.74,Troy,TN,1484521069000,16607822
8986869,Old Hickory,Nashville,1482240935000,36.25,-86.63,Truitt,TN,1482327970000,16607822
206428590,Nashville,,1465014994000,36.21,-86.72,Tucker Ford,TN,1465853058000,16607822
201445156,Nashville,"Nashville, TN",1457899681000,36.17,-86.78,Ty Gilliam,TN,1460666155000,16607822
187282112,Nashville,,1431543769000,36.16,-86.79,Tyler,TN,1431543769000,16607822
192574198,Madison,,1441977175000,36.26,-86.71,Tyler Blankenship,TN,1442029914000,16607822
216750774,Brentwood,,1481835034000,36.0,-86.79,Tyler Daniel,TN,1483553928000,16607822
206806749,Nashville,,1470410393000,36.17,-86.78,Tyler Evans,TN,1470410393000,16607822
202340913,Franklin,,1459214220000,35.92,-86.87,Tyler Welker,TN,1459214220000,16607822
11237953,Franklin,,1503930987000,35.93,-86.81,Tyrale,TN,1503930987000,16607822
188863772,Madison,,1434751790000,36.26,-86.71,Tyree B,TN,1434751790000,16607822
189586214,Nashville,,1436247240000,36.16,-86.79,Tyron Clarke,TN,1436247240000,16607822
216962893,Murfreesboro,,1479589915000,35.85,-86.36,Ukela Alred,TN,1479589915000,16607822
188793905,Smyrna,,1434602384000,35.97,-86.51,Usama Sahham,TN,1477850043000,16607822
201930849,Nashville,,1484451925000,36.17,-86.77,Vane Quiroz,TN,1484451925000,16607822
226917309,Hendersonville,,1493904030000,36.32,-86.61,Vanesa Neria,TN,1493904030000,16607822
191983472,Nashville,,1440867885000,36.17,-86.78,Veronique Mk,TN,1440867885000,16607822
205802574,Nashville,,1464149345000,36.06,-86.96,Victoria Sfasciotti Rovier Lowri,TN,1464149345000,16607822
209492166,Nashville,,1469130711000,36.17,-86.78,Vincent,TN,1490791064000,16607822
200946236,Franklin,,1457190903000,35.92,-86.89,Vincentzenno Cappelli,TN,1457190903000,16607822
215050917,Nashville,,1476642093000,36.11,-86.78,Vincenzeno,TN,1476642093000,16607822
5042442,Nashville,,1413911054000,36.06,-86.96,vmorelli,TN,1414072742000,16607822
12864602,San Francisco,,1482195397000,37.77,-122.4,Wallace Poulter,CA,1482195397000,16607822
129012662,Nashville,,1420778412000,36.16,-86.79,Warren Sadler,TN,1420778412000,16607822
223327032,Nashville,,1496065194000,36.07,-86.73,Wayne Lee,TN,1496065194000,16607822
182072982,Smyrna,Nashville,1463762472000,35.97,-86.51,Wes,TN,1463762472000,16607822
189873720,Nashville,,1436815172000,36.11,-86.78,Wes Burtner,TN,1436818834000,16607822
202219498,Nashville,,1459034989000,36.17,-86.78,Will,TN,1459034989000,16607822
114885682,Nashville,,1462147155000,36.16,-86.79,Will Callaway,TN,1462147155000,16607822
180420072,Nashville,,1420132654000,36.13,-86.8,Will Gray,TN,1440816212000,16607822
104949862,Chicago,Nashville,1460642421000,41.9,-87.67,Will WIlkins III,IL,1461613902000,16607822
212417557,Nashville,,1475093021000,36.17,-86.78,William Jones,TN,1475264984000,16607822
32653202,Massapequa,,1487248142000,40.69,-73.47,William Liani,NY,1487248142000,16607822
193430245,Madison,,1443569595000,36.26,-86.71,William Savor,TN,1444780772000,16607822
5819304,Nashville,Nashville,1477382701000,36.18,-86.74,William Smith Jr.,TN,1477386717000,16607822
145137562,Nashville,Knoxville,1415050397000,36.17,-86.72,Wolfgang Wozniak,TN,1424740423000,16607822
207994183,Nashville,,1467146159000,36.17,-86.78,Woody Evins,TN,1467146159000,16607822
222268763,Nashville,,1487429219000,36.17,-86.78,Ying Fu,TN,1487429219000,16607822
210921083,Nashville,,1471109571000,36.16,-86.79,You Zhou,TN,1479142280000,16607822
196604857,Murfreesboro,"Paris, TN",1449589540000,35.78,-86.33,Zacchaeus Crawford,TN,1449589540000,16607822
224769329,Nashville,,1490913423000,36.14,-86.74,Zach Duensing,TN,1491421425000,16607822
206088797,Murfreesboro,,1464551390000,35.78,-86.33,Zach Hutcherson,TN,1464661978000,16607822
183602124,Nashville,,1421335182000,36.11,-86.78,Zach Leaver,TN,1484933538000,16607822
182814931,Nashville,,1464288726000,36.14,-86.74,Zack Bapty,TN,1464381553000,16607822
186961863,Nashville,,1430842175000,36.21,-86.72,Zain Syed,TN,1430842175000,16607822
186673449,White House,,1430192437000,36.48,-86.69,Zarabeth Anderson Licensed Esthe,TN,1430192437000,16607822
199325106,La Vergne,,1454874746000,36.01,-86.57,Zechariah Soorty,TN,1454874746000,16607822
189245046,Nashville,Nashville,1461513508000,36.17,-86.79,Zoey Baker,TN,1480874717000,16607822
