id,city,hometown,joined,lat,lon,name,state,visited,group_id
193935031,Smyrna,,1444531710000,35.97,-86.51,Aaron Olin,TN,1503550264000,18536116
4811988,Nashville,"Grand Blanc, MI",1443655011000,36.08,-86.72,Ad,TN,1443655011000,18536116
194117980,Nashville,,1444864042000,36.17,-86.72,Aidan,TN,1451281245000,18536116
96789092,Nashville,michigan,1474216121000,36.19,-86.8,Alexandria Dobert,TN,1474216121000,18536116
229569030,Nashville,,1497291575000,36.17,-86.78,Allison,TN,1497291575000,18536116
91829062,Brentwood,Chesterfield,1434624338000,36.0,-86.79,Belinda,TN,1434624338000,18536116
28202252,Nashville,"Okemos, MI",1442971598000,36.14,-86.74,Casey Booyinga,TN,1444449533000,18536116
34086372,Murfreesboro,Milwaukee,1428364782000,35.87,-86.44,Casey Laarkamp,TN,1503487856000,18536116
191966482,Nashville,Nashville,1461167072000,36.22,-86.77,cayala,TN,1461167072000,18536116
183765084,Brentwood,,1434757265000,36.0,-86.79,Chelsea,TN,1434757265000,18536116
214683367,Nashville,,1483316408000,36.18,-86.74,Dayna,TN,1506185637000,18536116
193065941,Nashville,,1444695604000,36.09,-86.82,Debby Isaacs,TN,1444695604000,18536116
186701089,Fairview,,1501267690000,36.0,-87.09,Dillon Stanco,TN,1501267690000,18536116
186420111,Nashville,,1429642566000,36.17,-86.78,Donna Gessert Watkins,TN,1429705382000,18536116
197977142,Nashville,"Rochester, MI",1452559740000,36.16,-86.79,Drew Michelotti,TN,1456442296000,18536116
198117203,Mount Juliet,,1452821638000,36.22,-86.52,Emily,TN,1506904753000,18536116
194828347,Hermitage,,1446153723000,36.19,-86.6,Erica Freckelton,TN,1446153723000,18536116
236196310,Venezia,,1505985181000,45.44,12.33,gall61m,VE,1505985181000,18536116
209681408,Smyrna,,1469386534000,35.97,-86.51,Ghost,TN,1469386534000,18536116
196193377,Nashville,,1448770165000,36.17,-86.72,Hannah Hayes,TN,1448770165000,18536116
188772435,Nashville,,1434564518000,36.08,-86.72,Hannah Mowry,TN,1434564518000,18536116
182513375,Nashville,,1440541211000,36.09,-86.61,Heather Neal,TN,1496868084000,18536116
73846022,Nashville,,1428676341000,36.17,-86.78,Heather Overholt,TN,1449047266000,18536116
186623207,Nashville,,1430088995000,36.17,-86.72,Isaac Miller,TN,1430088995000,18536116
206030466,Pegram,,1464536028000,36.12,-87.03,Jason,TN,1464536028000,18536116
186705716,Springfield,,1430262131000,36.52,-86.87,jeremy,TN,1444317053000,18536116
193866054,Hendersonville,,1444405475000,36.32,-86.61,John R.,TN,1455218496000,18536116
189673328,Nashville,,1436412741000,36.1,-86.66,Josh,TN,1484854364000,18536116
53166742,Nashville,Winter Park,1430878927000,36.17,-86.78,Joshua LD,TN,1481467048000,18536116
178568672,Evansville,Evansville,1451099834000,37.96,-87.52,Justin W.,IN,1451099834000,18536116
185874155,Bristol,,1451516540000,36.57,-82.18,Kath WILLIAMS,TN,1455631365000,18536116
197985036,Spring Hill,"Auburn, MI",1452572767000,35.76,-86.88,Kaysie Rytlewski,TN,1456542242000,18536116
205607384,Murfreesboro,,1482131201000,35.82,-86.45,Mallika K,TN,1488245695000,18536116
155788682,Nashville,Nashville,1447443344000,36.16,-86.79,Matt Fish,TN,1447443344000,18536116
198589043,Nashville,,1453696677000,36.11,-86.86,Mikaila Ribianszky,TN,1453696677000,18536116
234168251,Franklin,,1502888384000,35.93,-86.81,Olivia Oetjens,TN,1502888384000,18536116
11315642,Nashville,,1432516905000,36.13,-86.8,Patrick ,TN,1502666890000,18536116
35276942,Nashville,Painesdale Michigan,1428819193000,36.17,-86.72,Paula,TN,1504883110000,18536116
186281061,Old Hickory,"Oxford, MI",1485668125000,36.25,-86.63,Ryan Hunter,TN,1485668125000,18536116
195098961,Clarksville,,1446658542000,36.53,-87.35,Sara Mae,TN,1446658542000,18536116
225020670,Nashville,,1491275233000,36.15,-86.81,Sarah,TN,1506911669000,18536116
223143499,Spring Hill,Howard,1494183860000,35.76,-86.88,Shawn,TN,1494183860000,18536116
195250622,Hendersonville,,1446957144000,36.32,-86.61,Stephanie,TN,1446957144000,18536116
157434242,Nashville,,1428702502000,36.17,-86.78,Tom,TN,1429571947000,18536116
222351271,Nashville,,1487540733000,36.17,-86.78,Zack Hoover,TN,1487553948000,18536116
