id,city,hometown,joined,lat,lon,name,state,visited,group_id
86561202,Buford,,1457049802000,34.1,-83.97, Lesley  Flakus,GA,1471194518000,18549379
82284732,Brentwood,Nashville,1456003294000,36.0,-86.79,"""Courtney""",TN,1490187282000,18549379
191704957,College Grove,,1440338315000,35.77,-86.71,A Meetup Member,TN,1440338315000,18549379
227549082,Hendersonville,,1494739623000,36.32,-86.61,Aaron,TN,1494739623000,18549379
57898642,Nashville,,1480388815000,36.17,-86.78,Aaron J.,TN,1480388815000,18549379
209929200,Nashville,,1469707672000,36.17,-86.78,Abby,TN,1480687278000,18549379
191424191,Madison,,1439788818000,36.26,-86.71,Achan Munroe,TN,1439788818000,18549379
188611512,Nashville,"New Orleans, LA",1438045649000,36.18,-86.74,Adam,TN,1438045649000,18549379
184892012,Franklin,,1460434433000,35.92,-86.89,Adam,TN,1470789982000,18549379
193471241,Nashville,,1443649323000,36.08,-86.72,Adam Bowie,TN,1448418266000,18549379
188972835,Nashville,,1435250495000,36.18,-86.74,Adam Fisher,TN,1435250495000,18549379
186381002,Franklin,,1429557742000,35.91,-86.78,Adam Hehnen,TN,1435173711000,18549379
205047686,Nashville,,1463116133000,36.08,-86.72,Adam Keckley,TN,1463116133000,18549379
190919387,Nashville,,1438791722000,36.06,-86.96,Adena,TN,1438791722000,18549379
199164918,Brentwood,,1454618255000,36.0,-86.79,Adrienne,TN,1454618255000,18549379
39958132,Murfreesboro,Murfreesboro,1477685066000,35.82,-86.45,AJ,TN,1484327393000,18549379
190803317,Hopkinsville,,1438571063000,36.87,-87.48,AJ,KY,1440506618000,18549379
11123160,Nashville,,1492614922000,36.15,-86.86,Alan R,TN,1492614922000,18549379
219644089,Fort Campbell,,1484041037000,36.65,-87.46,Alanna Rachaé Thomas,KY,1484041037000,18549379
229577022,Nashville,,1497297340000,36.16,-86.79,Alena Colborn,TN,1497297340000,18549379
228653262,Carthage,,1496158006000,36.26,-85.99,Alex Bray,TN,1496158006000,18549379
202628742,Clarksville,,1459641202000,36.49,-87.23,Alex Graber,TN,1470787338000,18549379
235742118,Nashville,,1504650577000,36.17,-86.78,Alex S,TN,1504650577000,18549379
197864753,Nashville,,1452372982000,36.18,-86.74,Alexa Denner,TN,1452372982000,18549379
228387321,Nashville,,1495805115000,36.21,-86.72,Alexander Tyshkevych,TN,1495805115000,18549379
214068078,Nashville,,1475275761000,36.17,-86.78,Alexis,TN,1475275761000,18549379
190826445,Murfreesboro,,1438618288000,35.82,-86.45,Alicia,TN,1438618288000,18549379
198011342,Nashville,,1454356104000,36.17,-86.78,Alicia,TN,1455628815000,18549379
9566452,Nashville,,1445302247000,36.15,-86.86,Alicia Guadagno,TN,1447910926000,18549379
163178042,Hermitage,,1439427795000,36.18,-86.61,AlieB,TN,1452923746000,18549379
192711577,Nashville,,1442236784000,36.08,-86.72,Alisha T,TN,1443992333000,18549379
190965892,Nashville,,1438882206000,36.08,-86.72,Allen ,TN,1438882206000,18549379
194304428,Nashville,,1448750318000,36.17,-86.78,Alli T,TN,1448750318000,18549379
235119565,Spring Hill,,1503967851000,35.76,-86.88,Allie Laughary,TN,1503967851000,18549379
232995894,Hermitage,,1501517877000,36.19,-86.6,Allison Cates,TN,1501517877000,18549379
211750619,Nashville,"Napa Valley, CA",1473115434000,36.17,-86.78,Allison M,TN,1474475070000,18549379
47185942,Franklin,Cincinnati,1478736277000,35.91,-86.88,Alok,TN,1500769815000,18549379
206657063,Madison,"Buckeye, AZ",1465320147000,36.26,-86.71,Aly Dillon,TN,1465320147000,18549379
230269087,Brentwood,,1498170619000,36.0,-86.79,Alyssa Flachman,TN,1498170619000,18549379
229235285,Nashville,,1496880287000,36.08,-86.72,Amanda Hamilton,TN,1496880287000,18549379
235410949,Nashville,,1504290353000,36.17,-86.78,Amanda Lynn,TN,1504290353000,18549379
190302599,Nashville,,1437661639000,36.17,-86.78,Amanda Nicole,TN,1437661639000,18549379
198332254,Murfreesboro,,1453223540000,35.87,-86.44,Amanda Smith,TN,1453223540000,18549379
195649609,Nashville,,1475542961000,36.18,-86.81,Amber,TN,1498005617000,18549379
198062912,Franklin,,1452723429000,35.93,-86.81,Amber V,TN,1452723429000,18549379
235269212,Nashville,,1504127618000,36.08,-86.72,Amber Walters,TN,1504127618000,18549379
3227303,Nashville,,1459097427000,36.17,-86.72,Amir,TN,1459097427000,18549379
216192762,Hermitage,,1478375575000,36.19,-86.6,Amy Holmberg,TN,1485401232000,18549379
205446360,Houston,Houston,1463637108000,29.86,-95.38,Amy Huynh,TX,1463637108000,18549379
104607002,Nashville,,1493693555000,36.17,-86.78,Amy McManus,TN,1495750201000,18549379
204871578,Clarksville,,1462874020000,36.49,-87.23,AnaKatarina Lalonde,TN,1462874020000,18549379
155195962,Nashville,,1452306661000,36.13,-86.8,Andrea,TN,1452306661000,18549379
100499072,Clarksville,,1455429047000,36.53,-87.35,Andrea Johnson,TN,1460231251000,18549379
20418,Nashville,"Huntington, WV",1439684501000,36.17,-86.72,Andrea Reynolds,TN,1471642312000,18549379
228891169,Murfreesboro,,1505488997000,35.87,-86.44,Andrea Rogers,TN,1506470999000,18549379
206741636,Nashville,,1465423804000,36.17,-86.78,Andrew,TN,1498251633000,18549379
184175830,Nashville,,1446011227000,36.17,-86.78,Andrew C,TN,1446011227000,18549379
217959206,Nashville,,1481310873000,36.1,-86.66,Andrew H,TN,1481310873000,18549379
185989008,Nashville,Orange County,1465782849000,36.17,-86.78,Andrew Hyland,TN,1466029638000,18549379
223931276,Murfreesboro,,1489945417000,35.87,-86.34,Andrew Presnell,TN,1494414373000,18549379
209171518,Clarksville,,1468716807000,36.53,-87.35,Andria,TN,1470779421000,18549379
228470050,Nashville,,1497975115000,36.1,-86.66,Andy Herrera,TN,1506974002000,18549379
188212414,Brentwood,,1433433191000,36.0,-86.79,Andy Sparks,TN,1433441317000,18549379
101939542,Franklin,franklin,1487037876000,35.93,-86.81,ang,TN,1502942532000,18549379
186963152,Nashville,"Columbia, TN",1468932034000,36.07,-86.72,Angela McCuiston,TN,1506105930000,18549379
188486451,Nashville,,1433985229000,36.14,-86.74,Angela Wright,TN,1435272989000,18549379
223615387,Nashville,,1500859146000,36.17,-86.78,anjali Venkataraman,TN,1500859146000,18549379
200624277,Nashville,,1456710208000,36.14,-86.81,Ann Marie Rittenhouse,TN,1457202481000,18549379
228722899,Lexington,Lexington,1496244498000,38.0,-84.53,Anna Buchanan,KY,1496244498000,18549379
201288228,Franklin,,1457673607000,35.92,-86.89,Anna Headen,TN,1457673607000,18549379
20809071,Nashville,Conway,1455838809000,36.22,-86.77,Anna_G,TN,1457039561000,18549379
138308322,Nashville,,1463631980000,36.17,-86.78,Anne,TN,1507738216000,18549379
20297661,Nashville,"Guilford, CT",1438177710000,36.15,-86.86,Anne D,TN,1446500573000,18549379
200594198,Lebanon,,1456675705000,36.21,-86.31,Anne DePrekel,TN,1456675705000,18549379
201931877,Clarksville,,1458590285000,36.49,-87.23,Annie Griffin,TN,1489516486000,18549379
215251139,Nashville,,1476916337000,36.16,-86.79,Annie S. Lee,TN,1476916337000,18549379
223884203,Nashville,,1490023547000,36.07,-86.73,Anthony Easterwood,TN,1490023547000,18549379
228462889,Nashville,,1495993336000,36.17,-86.78,Anthony Escorza,TN,1495993336000,18549379
193248264,Nashville,,1498433133000,36.18,-86.74,April,TN,1498433133000,18549379
227496236,Nashville,,1494668804000,36.08,-86.72,ARi Lyon,TN,1494668804000,18549379
236975889,Nashville,,1505877596000,36.15,-86.86,Armel Bama,TN,1505877596000,18549379
217424712,Nashville,,1480387925000,36.16,-86.79,Arthur M,TN,1480387925000,18549379
87922642,Nashville,,1459815421000,36.1,-86.66,Artie,TN,1460682977000,18549379
185055574,Nashville,,1436475721000,36.08,-86.72,Ashish,TN,1474674701000,18549379
191459480,Murfreesboro,,1439854017000,35.78,-86.33,Ashley,TN,1462146432000,18549379
205144949,Nashville,,1465774268000,36.17,-86.78,Ashley,TN,1465774268000,18549379
187202097,Nashville,,1431650949000,36.17,-86.78,Ashley,TN,1431650949000,18549379
184361981,Nashville,,1449073833000,36.17,-86.78,Ashley Gootee,TN,1449095939000,18549379
217321723,Brentwood,,1480218043000,36.0,-86.79,Ashley Hanson Van Sandt,TN,1480218043000,18549379
190321509,Nashville,,1438029494000,36.17,-86.78,Ashley Land,TN,1456889769000,18549379
191993529,Nashville,,1440887141000,36.17,-86.78,Ashley Lynn Hopper,TN,1452489029000,18549379
211667388,Nashville,,1485022143000,36.08,-86.72,Ashlyn Young-Phelps,TN,1485022143000,18549379
211534404,Antioch,,1472548435000,36.17,-86.88,Aspen,TN,1472548435000,18549379
206212552,Gallatin,,1464718974000,36.39,-86.45,Audra,TN,1472060009000,18549379
238498803,Nashville,,1507569956000,36.19,-86.8,Austin Monsrud,TN,1507569956000,18549379
10222840,Nashville,Nashville,1459036365000,36.22,-86.77,BChilds,TN,1459036365000,18549379
205744179,Franklin,,1464051671000,35.92,-86.89,Becca,TN,1464051671000,18549379
197106751,Hendersonville,,1450724285000,36.32,-86.61,Becky,TN,1479401977000,18549379
188229283,Nashville,,1433462488000,36.09,-86.82,Belinda Chen,TN,1433462488000,18549379
189507209,Nashville,,1436108944000,36.11,-86.78,Bella Davenport,TN,1454465993000,18549379
207185905,Nashville,,1466349604000,36.09,-86.82,Ben,TN,1495119647000,18549379
207575532,Nashville,,1468464310000,36.17,-86.78,Ben B,TN,1470628928000,18549379
230354656,Nashville,,1498275324000,36.17,-86.78,Ben Harp,TN,1498672138000,18549379
7110342,Mount Juliet,"Indianapolis, IND",1461445742000,36.22,-86.52,Beth,TN,1461445742000,18549379
189321985,Nashville,,1500031049000,36.15,-86.86,Beth,TN,1500841194000,18549379
192648553,Nashville,,1442113244000,36.17,-86.78,Beth McNichol,TN,1443018591000,18549379
236156834,Nashville,,1505081322000,36.17,-86.78,Bethany ,TN,1505081322000,18549379
208572442,Murfreesboro,,1467928554000,35.82,-86.45,Bethany Mohr,TN,1467928554000,18549379
206983775,Nashville,,1465756248000,36.13,-86.8,Bets,TN,1465756248000,18549379
130777342,Pleasant View,,1497672532000,36.38,-87.03,Beverly,TN,1498015843000,18549379
221231887,Nashville,Nashville,1494941353000,36.21,-86.72,Bill P,TN,1494941353000,18549379
187188675,Bethpage,,1431353607000,36.51,-86.32,Bill Roberson,TN,1459434814000,18549379
189124345,Franklin,,1435283693000,35.93,-86.81,Blake McConnell,TN,1435283693000,18549379
193276470,Fort Campbell,,1443293153000,36.65,-87.46,Bob ,KY,1444499487000,18549379
201154777,Murfreesboro,,1457479064000,35.87,-86.34,Bob Pondillo,TN,1457479064000,18549379
194057278,Clarksville,,1497309293000,36.53,-87.35,Bobby,TN,1500747183000,18549379
236692828,Nashville,,1506735219000,36.07,-86.73,Bobby Reed,TN,1506735219000,18549379
191446955,Nashville,,1439834350000,36.18,-86.74,Bonnie-Jeff Glueck,TN,1439834350000,18549379
197345993,Guthrie,,1451340477000,36.7,-87.18,Brach Janney,KY,1451340477000,18549379
133140612,Franklin,,1430684909000,35.99,-86.9,Brad,TN,1430684909000,18549379
189917115,Nashville,,1436897015000,36.11,-86.86,Brad S.,TN,1437260236000,18549379
193008351,Nashville,,1442789230000,36.1,-86.66,Bradly Montague,TN,1442789230000,18549379
199843274,Nashville,Nashville,1455633796000,36.08,-86.72,Brandi Wyatt,TN,1473512915000,18549379
113455192,Nashville,Nashville,1460986456000,36.17,-86.72,Brandon,TN,1460986456000,18549379
206555919,Nashville,,1483543303000,36.11,-86.86,Brandon,TN,1483543303000,18549379
207174139,Clarksville,,1466011883000,36.53,-87.35,Brandon Ferguson,TN,1466011883000,18549379
222928001,Nashville,,1488338263000,36.18,-86.81,Brandon Newton,TN,1488338263000,18549379
197654825,Pegram,,1451968734000,36.12,-87.03,Brandon Wookie Johnson,TN,1455066318000,18549379
182876225,Franklin,,1496236543000,35.91,-86.87,Brandy,TN,1496236543000,18549379
211705099,Nashville,,1472216892000,36.17,-86.78,Brayton Doll,TN,1472216892000,18549379
221750078,Nashville,,1486696498000,36.08,-86.72,Brenda,TN,1486696498000,18549379
116389082,Columbia,Columbia,1482244234000,35.61,-87.05,Brent Dowdell,TN,1496147186000,18549379
233284715,Nashville,,1501890114000,36.17,-86.78,Brent Strieter,TN,1501890114000,18549379
189153948,Nashville,,1443202387000,36.16,-86.79,Brewer Douglas II,TN,1464835466000,18549379
56456672,Nashville,,1465320998000,36.17,-86.78,Brian Carlson,TN,1474631621000,18549379
234933772,White House,,1503755227000,36.48,-86.69,brian hufham,TN,1503755227000,18549379
191983261,Nashville,,1441207444000,36.06,-86.96,Brian Pearson,TN,1464976559000,18549379
214712441,Nashville,,1476138508000,36.17,-86.78,Brian Smith,TN,1476138508000,18549379
233171899,Nashville,,1501728808000,36.17,-86.78,briandu,TN,1501728808000,18549379
231946646,Nashville,,1500217560000,36.17,-86.78,Bridget Griffin,TN,1500217560000,18549379
196819172,Spring Hill,,1450326354000,35.76,-86.88,Bridget L ,TN,1494098372000,18549379
203619085,Nashville,,1506895418000,36.16,-86.78,Brie Ana Vogt,TN,1506895418000,18549379
229020394,Old Hickory,,1496611188000,36.25,-86.63,Brigitte Morris,TN,1496611188000,18549379
233991262,Nashville,,1505166409000,36.17,-86.78,Brit Van Laeken,TN,1505166409000,18549379
198047584,Marietta,,1467447986000,33.94,-84.61,Britt Barnes,GA,1478417710000,18549379
230220310,Nashville,,1508392457000,36.08,-86.72,Britt Todd,TN,1508392457000,18549379
58997362,Nashville,Nashville,1440884796000,36.15,-86.86,Brittany and Scott,TN,1443035561000,18549379
189202056,Thompsons Station,,1435453898000,35.8,-86.9,Brittany Lee,TN,1435453898000,18549379
196532457,Nashville,,1450061419000,36.08,-86.72,Brittany Marie Madden,TN,1454724437000,18549379
201798840,Antioch,,1458437927000,36.04,-86.64,Brittney,TN,1463683800000,18549379
214692622,Nashville,,1476114310000,36.11,-86.78,Brittney Whidden,TN,1476114310000,18549379
12403161,Nashville,Nashville,1470796608000,36.16,-86.79,Bryan Pieper,TN,1470796608000,18549379
188133244,Mount Juliet,,1433270995000,36.21,-86.52,Bueller Farris,TN,1433270995000,18549379
203684789,Mount Juliet,,1496116906000,36.28,-86.46,Byron Magedanz,TN,1496116906000,18549379
236079912,Nashville,,1505861888000,36.17,-86.78,C.F. Jackson,TN,1505861888000,18549379
204660671,Nashville,,1462565549000,36.18,-86.74,Caitlin,TN,1479674693000,18549379
191018824,Nashville,,1438987408000,36.15,-86.86,Caitlin Aimee Lee,TN,1467926375000,18549379
198682980,Nashville,,1453859900000,36.09,-86.82,Caitlyn Shealy,TN,1453859900000,18549379
221305173,Nashville,,1495732668000,36.17,-86.72,CallieC,TN,1495732668000,18549379
188230258,Nashville,,1435447148000,36.17,-86.78,Cameron Duke,TN,1435447148000,18549379
235430799,Nashville,,1504310600000,36.16,-86.79,Cameryn Shaver,TN,1504310600000,18549379
233426938,Nashville,,1506126627000,36.15,-86.81,Candice Ardoin,TN,1506815759000,18549379
200120466,Nashville,,1463627781000,36.17,-86.78,Candy,TN,1467317048000,18549379
209970904,Nashville,,1469759563000,36.15,-86.86,Cara,TN,1469759563000,18549379
195306537,Hermitage,,1447042726000,36.19,-86.6,Carah,TN,1447845241000,18549379
219626705,Madison,,1484015844000,36.19,-86.74,Carly Hill,TN,1484015844000,18549379
187365176,Olive Branch,"Memphis, TN",1435673783000,34.95,-89.86,Carol,MS,1435673783000,18549379
216079197,Nashville,,1478195769000,36.17,-86.78,Caroline Acree,TN,1478622347000,18549379
121021612,Nashville,"Quincy, MA",1429744022000,36.17,-86.78,Carolyn,TN,1495932006000,18549379
102325582,Nashville,Nashville,1466090305000,36.09,-86.82,Carrie,TN,1466099730000,18549379
200112618,Nashville,,1456004068000,36.08,-86.72,Carter Schick,TN,1456004068000,18549379
220768796,Nashville,,1495604090000,36.17,-86.78,Casey Czerpak,TN,1495723424000,18549379
186657231,Nashville,,1430163127000,36.08,-86.72,Casey Gymrek,TN,1507754748000,18549379
193327015,Nashville,,1443391539000,36.13,-86.8,Cassandra Lawson,TN,1460479861000,18549379
190917085,Hermitage,,1438787729000,36.19,-86.6,Cathy,TN,1463000902000,18549379
13945206,Smyrna,"Oldsmar, FL",1493033859000,35.97,-86.51,Cathy Loranger Bass,TN,1493033859000,18549379
230966901,Nashville,,1499037731000,36.06,-86.96,Ceci Figueroa,TN,1499037731000,18549379
200419938,Mount Juliet,,1456422584000,36.22,-86.52,Cerridwen,TN,1456422584000,18549379
200457713,Nashville,,1456475216000,36.22,-86.77,cfairbanks02,TN,1456475216000,18549379
12220466,Nashville,,1470783753000,36.22,-86.77,Chanda Stallings Wood,TN,1474919273000,18549379
190102632,Nashville,,1437273480000,36.17,-86.78,Chandler B,TN,1437273480000,18549379
193362268,Nashville,,1444277658000,36.17,-86.78,Chandra,TN,1458826685000,18549379
228678795,Nashville,,1496184298000,36.06,-86.96,Charlie Gibson,TN,1496184298000,18549379
209694645,Lebanon,,1469399722000,36.21,-86.31,Charlotte Frost,TN,1469399722000,18549379
208518829,Nashville,,1467854038000,36.17,-86.78,Chase Pruett,TN,1467854038000,18549379
183765084,Brentwood,,1436908175000,36.0,-86.79,Chelsea,TN,1436908175000,18549379
194063569,Nashville,"Vicksburg, MS",1444765978000,36.22,-86.86,Chelsey Liddell,TN,1450022525000,18549379
157231642,Nashville,,1461975259000,36.21,-86.76,Chelsey Riddle,TN,1461975259000,18549379
189328824,Hendersonville,,1435712601000,36.32,-86.61,Chere Talbott,TN,1435712601000,18549379
191783559,Nashville,,1440473843000,36.18,-86.81,Cheryl Vaccaro,TN,1443308844000,18549379
191287650,Nashville,"Singapore, SG",1442340618000,36.17,-86.78,Chester,TN,1444249742000,18549379
184735550,Antioch,,1486524678000,36.17,-86.88,Chris,TN,1486524678000,18549379
220725886,Mount Juliet,,1485400165000,36.21,-86.52,Chris,TN,1485400165000,18549379
26774032,Nashville,"Jenison, MI",1440047709000,36.17,-86.78,Chris,TN,1460844734000,18549379
204661862,Nashville,,1462567556000,36.06,-86.96,Chris,TN,1462567556000,18549379
188028428,Nashville,North Jersey,1443552009000,36.17,-86.78,Chris Alston,TN,1443711140000,18549379
215604864,Nashville,,1494428618000,36.07,-86.78,Chris Blalock,TN,1495509928000,18549379
194217848,Nashville,,1445051559000,36.09,-86.82,Chris Canlas,TN,1445051559000,18549379
232621231,Brentwood,,1501036019000,36.0,-86.79,Chris Johnson ,TN,1501036019000,18549379
198148080,Nashville,,1452885660000,36.08,-86.72,Chris Kurtz,TN,1452885660000,18549379
220052996,Nashville,,1484601959000,36.06,-86.96,Chris Manner,TN,1485304344000,18549379
230108593,Nashville,,1497988653000,36.17,-86.78,Chris Pursell,TN,1497988653000,18549379
201590778,Nashville,,1458192470000,36.14,-86.74,Chris Smith,TN,1458192470000,18549379
208757225,Denver,,1468179064000,39.7,-105.08,Chrishna Cool,CO,1468179064000,18549379
220452154,Nashville,,1485067067000,36.17,-86.78,Christal Horne,TN,1485067067000,18549379
104200192,Franklin,,1454156340000,35.93,-86.81,Christian,TN,1472404712000,18549379
66552662,Nashville,,1452199996000,36.13,-86.8,Christian Montgomery,TN,1500555955000,18549379
197733414,Nashville,,1452120803000,36.16,-86.79,Christian Redl,TN,1452120803000,18549379
207031840,Nashville,,1465824477000,36.04,-86.72,Christian Wells,TN,1465824477000,18549379
24408952,Nashville,"Little Neck, NY",1464783241000,36.17,-86.78,Christina,TN,1500881771000,18549379
198654054,Lilburn,"Atlanta, GA",1453818383000,33.87,-84.11,Christina Hartlage,GA,1490120597000,18549379
219290165,Nashville,,1495489667000,36.15,-86.68,Christina Shoptaw,TN,1498681097000,18549379
192784680,Conroe,"Houston, TX",1442364086000,30.31,-95.43,Christopher Dawkins,TX,1447908679000,18549379
190338822,Erin,,1437719878000,36.29,-87.75,Chuck,TN,1437719878000,18549379
225249722,Old Hickory,,1491611841000,36.25,-86.63,Cj Caruthers,TN,1491611841000,18549379
161574592,Franklin,,1497138242000,35.92,-86.89,Claire Cassidy,TN,1497138242000,18549379
192553727,Nashville,,1441936855000,36.16,-86.79,Claudia Lorraine,TN,1441936855000,18549379
135507172,Franklin,,1470690468000,35.92,-86.89,Clayton Johnson,TN,1470801389000,18549379
192854825,Nashville,,1442518170000,36.16,-86.79,Clayton Sanders,TN,1442592003000,18549379
208525345,Antioch,,1474857362000,36.04,-86.64,Cody Dumont,TN,1474857362000,18549379
188388123,Nashville,"Galion, OH",1433796597000,36.11,-86.86,Colby Landin,TN,1442596774000,18549379
191600216,Nashville,,1477260817000,36.16,-86.8,Colleen Roberts,TN,1477260817000,18549379
171993182,Antioch,,1442717730000,36.04,-86.64,Connie Tsai,TN,1447192810000,18549379
186284439,Huntsville,,1430949923000,34.73,-86.57,Corey Dunham,AL,1432348336000,18549379
207739204,Hendersonville,,1466797930000,36.32,-86.61,Corinne ,TN,1466797930000,18549379
189624823,Nashville,,1436320860000,36.08,-86.72,Corinne,TN,1436320860000,18549379
67122632,Nashville,,1444443577000,36.17,-86.78,Cory,TN,1498248035000,18549379
233698074,Nashville,,1502331070000,36.17,-86.78,Cory Kiefer,TN,1502331070000,18549379
234785913,Gallatin,,1503577318000,36.39,-86.45,Courtney Dew,TN,1503577318000,18549379
226704990,Nashville,,1498253135000,36.08,-86.78,Courtney Wetterich,TN,1498253135000,18549379
192746754,Hermitage,,1442290665000,36.19,-86.6,Cydney Greenwood,TN,1442290665000,18549379
131237652,Nashville,,1446093514000,36.08,-86.72,Cynthia Burkeen,TN,1498044611000,18549379
11305936,Nashville,"Washington, DC",1431396081000,36.11,-86.78,Daina ,TN,1431396081000,18549379
118495742,Nashville,"Portland, OR",1499738331000,36.16,-86.79,Dallas Jessup,TN,1500587091000,18549379
191148731,Nashville,,1439243730000,36.08,-86.72,Damon Terry Sanderson,TN,1448545688000,18549379
192764565,Brentwood,,1442329793000,36.0,-86.79,Dane Hoffmeister,TN,1442329793000,18549379
161733362,Nashville,,1457049423000,36.17,-86.78,Daniel Babin,TN,1474154392000,18549379
234934472,Franklin,,1503756367000,35.99,-86.9,Daniel Bradley,TN,1503756367000,18549379
192339869,Clarksville,,1441553103000,36.53,-87.35,Daniel Na,TN,1441553103000,18549379
186306928,Franklin,,1429376865000,35.92,-86.89,Daniel Perry,TN,1429376865000,18549379
210280391,Nashville,,1470180478000,36.17,-86.78,Danielle Fernandez,TN,1470180478000,18549379
197825101,Nashville,,1452286670000,36.16,-86.79,Daphne,TN,1466595450000,18549379
182530370,Nashville,Nashville,1430261809000,36.17,-86.78,Darrin,TN,1447793463000,18549379
205920844,Nashville,,1464298305000,36.16,-86.79,Dave,TN,1471733969000,18549379
237707224,Nashville,,1506700439000,36.1,-86.66,Dave Jacobs,TN,1506700439000,18549379
132338182,Louisville,,1502367880000,38.26,-85.5,Dave Morris,KY,1502367880000,18549379
13588658,Smyrna,Atlanta,1460322017000,33.87,-84.51,David,GA,1460322017000,18549379
29253962,Nashville,Nashville,1436491055000,36.08,-86.72,David,TN,1436491055000,18549379
69604182,Nashville,,1439398025000,36.08,-86.72,David Adkins,TN,1460413806000,18549379
34585292,Nashville,"New York, NY",1497582557000,36.17,-86.78,David Diamond,TN,1505747190000,18549379
73549562,Goodlettsville,Goodlettsville ,1446845146000,36.33,-86.74,David GIgear,TN,1460406613000,18549379
204726390,Hendersonville,,1462661348000,36.32,-86.61,David Martin,TN,1462661348000,18549379
191321920,Brentwood,,1439583871000,36.0,-86.79,David Oswaks,TN,1439583871000,18549379
231504753,Nashville,,1499690487000,36.08,-86.72,David Patterson,TN,1499690487000,18549379
217777187,Nashville,,1481147030000,36.06,-86.96,David Piller,TN,1498003724000,18549379
144256692,Nashville,,1478661979000,36.15,-86.86,David VanWie,TN,1492983141000,18549379
232523643,Crossville,,1501011710000,35.95,-85.03,Dawn Modlin,TN,1501011710000,18549379
214683367,Nashville,,1492795615000,36.18,-86.74,Dayna,TN,1506739439000,18549379
3156031,Hermitage,,1437510838000,36.19,-86.6,Debra,TN,1498085032000,18549379
186148103,Springfield,,1494154566000,36.52,-86.87,Demika Smith,TN,1494154566000,18549379
221101838,Murfreesboro,,1485883984000,35.78,-86.33,Denis,TN,1491306728000,18549379
189530610,Nashville,,1442873741000,36.17,-86.78,Denise Simpson,TN,1446935895000,18549379
233864875,Clarksville,,1502522494000,36.49,-87.23,Dennis Hut,TN,1502522494000,18549379
206240795,Nashville,,1464752532000,36.11,-86.86,Derek Charles,TN,1464752532000,18549379
190490962,Clarksville,,1437997715000,36.53,-87.35,Derrick Sarago,TN,1437997715000,18549379
199860963,Nashville,,1455654041000,36.16,-86.79,Derrick Wright II,TN,1455661186000,18549379
59831822,Atlanta,,1455218685000,33.86,-84.4,Dewey Vu,GA,1463435001000,18549379
228353045,Antioch,,1495751950000,36.04,-86.64,Diane Fashing,TN,1495751950000,18549379
31322162,Nashville,,1496163017000,36.17,-86.78,Dick Pepper,TN,1496163017000,18549379
232455716,Nashville,,1500843040000,36.08,-86.72,Dipak Desai,TN,1500843040000,18549379
208841727,Clarksville,,1468284655000,36.53,-87.35,Donna W,TN,1468284655000,18549379
193437998,Nashville,,1443583120000,36.18,-86.74,Dorothy Marie Daly,TN,1443583120000,18549379
188831315,Murfreesboro,,1435458834000,35.78,-86.33,Doug,TN,1492606096000,18549379
146821002,Nashville,,1442854994000,36.08,-86.72,Doug Adams,TN,1442854994000,18549379
216715772,Brentwood,,1479203528000,36.0,-86.79,Doug Blanchard,TN,1479203528000,18549379
81756852,Nashville,Nashville,1462991912000,36.13,-86.8,Doug Burroughs,TN,1465620392000,18549379
203547411,Nashville,,1462892428000,36.09,-86.82,Doug Burroughs,TN,1498005135000,18549379
200735518,Nashville,Nashville,1484846964000,36.15,-86.79,Drake,TN,1495736607000,18549379
118758712,Nashville,,1497405447000,36.17,-86.78,Duane Stephenson,TN,1497405447000,18549379
198026946,Columbia,,1452650206000,35.61,-87.05,Dv Bull Tn,TN,1452650206000,18549379
9448133,Franklin,,1495408795000,35.92,-86.89,Dwayne Pate,TN,1495408795000,18549379
208312378,Nashville,,1469642321000,36.17,-86.78,Eli,TN,1470510297000,18549379
188360971,Nashville,Nashville,1476068079000,36.16,-86.79,Eliot,TN,1476068079000,18549379
196259862,Murfreesboro,,1484630860000,35.87,-86.44,Elisabeth Vincent,TN,1484630860000,18549379
205210997,Murfreesboro,,1463338243000,35.87,-86.34,Elisabetta Bess Estelle Hunt,TN,1463338243000,18549379
193278483,Nashville,,1457495651000,36.16,-86.79,Elizabeth,TN,1457495651000,18549379
192871657,Independence,,1442690527000,39.05,-94.4,Elizabeth,MO,1462360694000,18549379
200263668,Nashville,Nashville,1475473214000,36.11,-86.86,Elizabeth ,TN,1478571647000,18549379
138826172,Nashville,,1505340539000,36.15,-86.86,Elizabeth,TN,1505340539000,18549379
137430292,Nashville,,1464019726000,36.08,-86.72,Elizabeth,TN,1506385189000,18549379
235812109,Nashville,,1504719237000,36.17,-86.78,Elizabeth Cannon,TN,1504719237000,18549379
174185862,Nashville,,1440859803000,36.17,-86.78,Elizabeth H.,TN,1473989506000,18549379
210322023,Nashville,,1470244298000,36.09,-86.82,Ellen Weber,TN,1470244298000,18549379
209094346,Nashville,,1468620491000,36.17,-86.78,Emilie Ann,TN,1470148106000,18549379
188068904,Primm Springs,,1433171957000,35.84,-87.24,Emily,TN,1433316174000,18549379
202288485,Nashville,,1459142803000,36.18,-86.74,Emily,TN,1460211133000,18549379
199919388,Nashville,,1455733282000,36.18,-86.74,Emily Allen,TN,1455733282000,18549379
228927947,Nashville,,1496501665000,36.1,-86.66,Emily Bruer,TN,1496501665000,18549379
217784644,Antioch,,1481000943000,36.04,-86.64,Emily Donoghue,TN,1481000943000,18549379
189921607,Charlotte,,1476378393000,35.19,-80.83,Emily K,NC,1476378393000,18549379
206074287,Nashville,,1464534739000,36.14,-86.74,Emily Kay,TN,1464551495000,18549379
215294045,Brentwood,,1478810156000,36.0,-86.79,Emily Lemons,TN,1478810156000,18549379
214783670,Nashville,,1476241375000,36.1,-86.66,Emily Matijevich,TN,1492466262000,18549379
13227436,Nashville,,1439915512000,36.11,-86.78,Emily Richardson ,TN,1463675719000,18549379
192229571,Nashville,,1485756103000,36.17,-86.78,Emily Van Seeters,TN,1507414276000,18549379
194105360,Nashville,"Potomac, MD",1444861279000,36.17,-86.78,Eric,TN,1444861279000,18549379
230614053,Nashville,,1498595946000,36.17,-86.78,Eric Becker,TN,1500871685000,18549379
219952884,Clarksville,,1484439416000,36.49,-87.23,eric dimon,TN,1484439416000,18549379
233103592,Nashville,,1501645678000,36.07,-86.73,Eric Washburn,TN,1501645678000,18549379
200298560,Nashville,,1456252887000,36.13,-86.8,Eric Woodard,TN,1460668475000,18549379
217372745,Clarksville,,1493763483000,36.5,-87.31,Erica Brechtelsbauer,TN,1493763483000,18549379
163584182,Nashville,,1468848931000,36.17,-86.78,Erika,TN,1468848931000,18549379
203845020,Hendersonville,,1461372137000,36.32,-86.61,Erin Deters,TN,1461372137000,18549379
213217656,Nashville,,1474234690000,36.17,-86.78,Ethan O,TN,1492436913000,18549379
87567792,Nashville,Nashville,1490124397000,36.15,-86.86,Eva,TN,1490124397000,18549379
211777421,Nashville,,1472317661000,36.17,-86.72,Evan Ludin,TN,1472317661000,18549379
206136782,Atlanta,,1473510810000,33.88,-84.33,Fallon ,GA,1473510810000,18549379
194292289,Brentwood,"Mobile, AL",1445200455000,36.0,-86.79,Francis,TN,1453725295000,18549379
33079232,Nashville,,1443289764000,36.17,-86.78,Francis Flynn,TN,1443289764000,18549379
232230702,Nashville,,1500559356000,36.16,-86.79,Gabe Wateski,TN,1500559356000,18549379
54585082,Nashville,,1455248517000,36.17,-86.78,Gail Tucker,TN,1455248517000,18549379
164126442,Nashville,Nashville,1454011715000,36.18,-86.74,Gainer Phay,TN,1472657639000,18549379
194471031,White House,,1445532262000,36.48,-86.69,Gary Chalfont,TN,1445803439000,18549379
198541466,Nashville,,1453608400000,36.06,-86.96,Genevieve Joyner,TN,1470583843000,18549379
17028461,Nashville,"Nashville, TN",1448054637000,36.1,-86.66,George Harvell,TN,1500908028000,18549379
191869329,Nashville,,1440636715000,36.11,-86.78,George Pjetri,TN,1440636715000,18549379
229740461,Clarksville,,1497501398000,36.56,-87.41,Gëtêm Tìtçhè,TN,1497501398000,18549379
192142676,Nashville,,1441164368000,36.08,-86.72,Gia Broussard,TN,1441164368000,18549379
193981146,Gallatin,,1444616353000,36.39,-86.45,Gina Rastrelli Huffman,TN,1448655830000,18549379
75119422,Nashville,,1503952171000,36.18,-86.74,Grace,TN,1503952171000,18549379
190883235,Nashville,,1438719307000,36.18,-86.81,Grace Stern,TN,1439406275000,18549379
195161916,Portland,,1446771890000,36.57,-86.49,Greg,TN,1468544519000,18549379
211815375,Nashville,,1472368739000,36.18,-86.74,Grego,TN,1472447176000,18549379
205270114,Nashville,,1463414921000,36.16,-86.79,Hailey Duke,TN,1463414921000,18549379
38844582,Nashville,Seattle,1468671096000,36.13,-86.8,Hailey Jade Peterson,TN,1470677356000,18549379
186859207,Nashville,Pittsburgh,1430618394000,36.11,-86.78,Hannah,TN,1498343817000,18549379
232475537,Nashville,,1500865415000,36.17,-86.78,Harrison Zeitlin,TN,1500865415000,18549379
200493376,Nashville,,1473470214000,36.17,-86.78,Heather E.,TN,1495671858000,18549379
217967759,Nashville,,1481324664000,36.17,-86.78,Heather McCue,TN,1481845515000,18549379
227131120,Nashville,,1494172894000,36.17,-86.72,Heidi ,TN,1494172894000,18549379
192214170,Nashville,,1441305825000,36.17,-86.72,Hilary Hommes,TN,1441305825000,18549379
191762778,Nashville,,1440441409000,36.21,-86.72,Hilary Tomlinson,TN,1440441409000,18549379
220887460,Franklin,,1485620474000,35.92,-86.89,J Brinker,TN,1485620474000,18549379
201890857,Nashville,,1458530515000,36.13,-86.8,Jack Simon,TN,1458530515000,18549379
231907764,Nashville,,1500161371000,36.18,-86.74,Jackie,TN,1500679240000,18549379
204809115,Nashville,,1462790097000,36.17,-86.78,Jacob Roper,TN,1470660044000,18549379
193513768,Nashville,,1443736660000,36.18,-86.74,Jacquelyn Peck,TN,1443736660000,18549379
208630549,Nashville,,1468011195000,36.07,-86.73,Jake Perrone,TN,1468011195000,18549379
203653716,Murfreesboro,"Louisville, KY",1461094660000,35.87,-86.44,James,TN,1467935452000,18549379
190046816,Milwaukee,,1507605448000,43.04,-87.93,James Cooper,WI,1507605448000,18549379
185329067,Hermitage,"Marshalltown, IA",1460898312000,36.19,-86.6,James Dalluge,TN,1460898312000,18549379
196024931,Antioch,,1448402347000,36.04,-86.64,James Matthew Freeman,TN,1448402347000,18549379
202315924,Nashville,nashville,1459185819000,36.13,-86.8,James McCary,TN,1459185819000,18549379
208081360,Mount Juliet,,1467263058000,36.22,-86.52,James Moore,TN,1467263058000,18549379
153168292,Hendersonville,,1449270164000,36.32,-86.61,James West,TN,1449270164000,18549379
105903672,Nashville,,1469480236000,36.22,-86.77,Jamie Hutchison ,TN,1471476947000,18549379
198190019,Nashville,,1452967716000,36.15,-86.86,Jamie McCormick,TN,1472139974000,18549379
31867642,Nashville,Nashville,1440384710000,36.18,-86.74,Jane Moore,TN,1507822594000,18549379
29497642,Hendersonville,,1460648206000,36.35,-86.59,Janice ,TN,1478634346000,18549379
203730002,Nashville,,1461201006000,36.17,-86.78,Janiel E. Jackson,TN,1461201006000,18549379
188045150,Nashville,,1464229422000,36.06,-86.96,Jared,TN,1470679269000,18549379
229430389,Nashville,,1497120450000,36.1,-86.66,Jarod,TN,1500686791000,18549379
194867619,Nashville,,1446232179000,36.16,-86.79,Jarod Goenner,TN,1446232179000,18549379
194063497,Gallatin,,1444765825000,36.39,-86.45,Jarrett McCall,TN,1444765825000,18549379
206030466,Pegram,,1464534982000,36.12,-87.03,Jason,TN,1464534982000,18549379
200002113,Nashville,,1455845269000,36.08,-86.72,Jason Petty,TN,1455845269000,18549379
232309384,Nashville,,1500657183000,36.17,-86.78,Javier Camacho,TN,1500657183000,18549379
13537265,Smyrna,Smyrna,1441860195000,35.97,-86.51,Jeff Bouldin,TN,1474908173000,18549379
226783094,Nashville,,1493690191000,36.11,-86.78,Jeff Green,TN,1507399635000,18549379
196897895,Nolensville,,1450212774000,35.94,-86.67,Jeff H,TN,1450403666000,18549379
197969042,Dickson,,1452548282000,36.08,-87.43,JeffB770,TN,1452548282000,18549379
69235212,Nashville,,1473678836000,36.17,-86.78,Jenna,TN,1473678836000,18549379
198029747,Nashville,,1452656122000,36.14,-86.74,Jenna Gable,TN,1452656122000,18549379
8929958,Clarksville,,1496429146000,36.53,-87.35,jennifer,TN,1496429146000,18549379
191205483,Nashville,,1439348032000,36.14,-86.74,Jennifer Beltre,TN,1495069415000,18549379
220624359,Brentwood,,1485280770000,36.0,-86.79,Jennifer Duda,TN,1491315872000,18549379
210773736,Nashville,,1470884549000,36.15,-86.86,Jennifer Litos,TN,1481398084000,18549379
83833622,Nashville,,1456722796000,36.08,-86.72,Jennifer R.,TN,1497992302000,18549379
219772202,Spring Hill,,1491418208000,35.76,-86.88,Jennifer Serene,TN,1491418208000,18549379
186287574,Nashville,,1429654921000,36.08,-86.72,Jennifer Turcotte,TN,1506371521000,18549379
191726247,Goodlettsville,,1440383084000,36.33,-86.74,Jenny,TN,1440429417000,18549379
11440057,Nashville,"Bowling Green, KY",1455341461000,36.06,-86.96,Jenny Becker,TN,1462706250000,18549379
233752750,Nashville,,1502394326000,36.17,-86.78,Jenny Dyer Vinson,TN,1502394326000,18549379
126165342,North Grafton,,1472995350000,42.23,-71.7,Jeremiah Goodwin,MA,1472995350000,18549379
194813625,Nashville,,1446133865000,36.18,-86.81,Jeremy,TN,1446133865000,18549379
231111589,Clarksville,,1499212285000,36.53,-87.35,Jeremy,TN,1499212285000,18549379
215906368,Old Hickory,,1477933316000,36.25,-86.63,Jeremy H,TN,1477933316000,18549379
14486634,Nashville,"San Diego, CA",1447171426000,36.17,-86.78,Jeremy Landi,TN,1460742629000,18549379
191113126,Shrewsbury,,1439181185000,42.29,-71.72,Jeri,MA,1456326482000,18549379
226749171,Nashville,,1493651929000,36.17,-86.78,Jerry Heath,TN,1493651929000,18549379
184855982,Nashville,,1436304042000,36.14,-86.74,Jess,TN,1444220537000,18549379
220017864,Nashville,,1484523723000,36.16,-86.66,Jesse Kellerman,TN,1484523723000,18549379
62522412,Nashville,Nashville,1473716581000,36.11,-86.86,Jessica,TN,1474127681000,18549379
191097661,Nashville,,1442609867000,36.13,-86.8,Jessica K,TN,1472219961000,18549379
198445277,Knoxville,,1453424903000,36.0,-83.92,Jessica Linzy,TN,1458766644000,18549379
185535531,Nashville,,1455154461000,36.13,-86.63,Jessica Rice,TN,1471920808000,18549379
212893195,Nashville,,1473808434000,36.17,-86.78,Jessica Taylor,TN,1473808434000,18549379
199614986,New York,Nashville,1455314865000,40.75,-73.99,Jessica Wills,NY,1472685395000,18549379
232376470,Nashville,,1500744320000,36.17,-86.78,Jessie Valentino,TN,1500744320000,18549379
220710425,Nashville,,1485383031000,36.11,-86.86,Jillian Bancroft,TN,1485383031000,18549379
3380276,Nashville,Nashville/Shelbyville,1481930872000,36.11,-86.78,Jim H,TN,1481930872000,18549379
195744247,Nashville,,1448156869000,36.17,-86.78,Jimi Aguilard,TN,1506379324000,18549379
231661235,Mount Juliet,,1499869378000,36.22,-86.52,Jimi Sanders,TN,1499869378000,18549379
210364364,Nashville,,1470310709000,36.17,-86.78,jimshap,TN,1507378227000,18549379
18368711,Nashville,Nashville,1442169060000,36.07,-86.73,JJ,TN,1455046805000,18549379
183853641,Smyrna,,1433422501000,35.97,-86.51,Jo Ann Lynch,TN,1439124390000,18549379
218054797,Nashville,,1481485915000,36.16,-86.79,Joann Young,TN,1481485915000,18549379
89163892,Murfreesboro,"Pittsburgh, PA",1436808615000,35.78,-86.33,Joanna Hubenthal,TN,1447893024000,18549379
197980932,Franklin,,1452566308000,35.93,-86.81,Joanna Kimmel,TN,1452566308000,18549379
45952022,Nashville,,1452360041000,36.17,-86.72,Joanne s Aronis,TN,1495646064000,18549379
218074151,Hermitage,,1481516160000,36.19,-86.6,Joesph Orr,TN,1481516160000,18549379
14344754,Nashville,Nashville,1447858862000,36.16,-86.79,John,TN,1447858862000,18549379
191155450,Franklin,,1439255159000,35.92,-86.89,john Hays,TN,1439255159000,18549379
172534882,Fort Knox,,1435677526000,37.89,-85.95,John P. Wallace Jr.,KY,1435677526000,18549379
193866054,Hendersonville,,1444754200000,36.32,-86.61,John R.,TN,1444754200000,18549379
191657441,Old Hickory,,1440247081000,36.25,-86.63,John Zarth,TN,1440247081000,18549379
201278955,Nashville,Nashville ,1458335657000,36.17,-86.78,Johnathan,TN,1473988518000,18549379
56711872,Brentwood,,1464124518000,36.0,-86.79,Johnnie Butler,TN,1495653642000,18549379
112151972,Nashville,"Cedarville, mich.",1457225649000,36.17,-86.78,Johnny Bee,TN,1462997260000,18549379
12327570,Nashville,,1454525479000,36.17,-86.78,Jon Braden,TN,1503240185000,18549379
104410112,Nashville,,1506371205000,36.2,-86.62,Jon Markahn,TN,1506371205000,18549379
219698471,Nashville,,1484104993000,36.18,-86.81,Jon-luke Donnangelo,TN,1484104993000,18549379
198385300,Nashville,"Hinesville, GA",1453317499000,36.17,-86.78,Jonathan Boyd,TN,1453317499000,18549379
230020985,Nashville,,1497892041000,36.17,-86.78,Jonathan Garcia,TN,1497892041000,18549379
192082948,Antioch,,1441056057000,36.04,-86.64,Jonathan Slape,TN,1442593001000,18549379
197825116,Nashville,,1452287515000,36.16,-86.79,Jonathan U,TN,1470517647000,18549379
108297612,Nashville,"Nashville, TN",1477748220000,36.17,-86.78,Jordan,TN,1477748220000,18549379
199321861,Nashville,,1455404203000,36.08,-86.72,Jordan,TN,1455732956000,18549379
209298807,Nashville,,1468876778000,36.17,-86.72,Jordan Gilliland,TN,1469228398000,18549379
196101808,Nashville,Nashville,1448570233000,36.18,-86.74,Joseph Harrison,TN,1448570233000,18549379
55682472,Hendersonville,,1472410726000,36.32,-86.61,Joseph K,TN,1492522670000,18549379
189718080,Murfreesboro,,1436504584000,35.78,-86.33,Joseph Kathmann,TN,1463157151000,18549379
228731982,Nashville,,1496776932000,36.15,-86.86,Joseph Lee,TN,1498350049000,18549379
198899170,Nashville,East Lansing,1502828917000,36.16,-86.79,Josh,TN,1502828917000,18549379
206297800,Nashville,Detroit,1499183129000,36.16,-86.79,Josh ,TN,1507510099000,18549379
211684830,Nashville,,1472182171000,36.13,-86.8,Josh Bueno,TN,1472182171000,18549379
187302690,Lebanon,,1431578586000,36.21,-86.31,Josh Crystal Evans,TN,1456033179000,18549379
190304810,Nashville,"Liberty, SC",1437664422000,36.17,-86.78,Josh Gillespie,TN,1437872440000,18549379
8736052,Brentwood,"Nashville, TN",1463235909000,36.0,-86.79,Joshua,TN,1471953545000,18549379
225302202,Franklin,,1491686702000,35.93,-86.81,Joshua Courtney,TN,1491686702000,18549379
191147683,Kalamazoo,,1439242579000,42.26,-85.46,Joshua Dobbins,MI,1439242579000,18549379
231381472,Old Hickory,,1499542688000,36.25,-86.63,Joshua Farmer,TN,1499542688000,18549379
216823553,Lebanon,,1479366099000,36.21,-86.31,Joshua Foster,TN,1479366099000,18549379
212854606,Nashville,,1473766548000,36.17,-86.78,Joy Naylor,TN,1474427056000,18549379
216319024,Nashville,,1478563487000,36.14,-86.8,Juan Felipe Ortiz,TN,1478563487000,18549379
215300072,Nashville,Nashville,1477322615000,36.19,-86.8,Jules McAnallen,TN,1477322615000,18549379
192745628,Nashville,,1442289569000,36.09,-86.82,Julia,TN,1446423891000,18549379
190324456,Nashville,,1437696145000,36.15,-86.86,Julian Samaroo,TN,1437696145000,18549379
212495047,Hollywood,,1473287286000,26.02,-80.2,Julie Rose,FL,1473287286000,18549379
13216278,Nashville,,1442612154000,36.1,-86.66,Julie W,TN,1444608132000,18549379
215408590,Smyrna,,1489203756000,35.97,-86.51,Just Me,TN,1489203756000,18549379
191326163,Mount Juliet,,1439590823000,36.21,-86.52,Justin Shaak,TN,1439590823000,18549379
199927549,Nashville,,1456864497000,36.11,-86.86,JW Steger,TN,1458231159000,18549379
233149348,Spring Hill,,1502310135000,35.76,-86.88,K.Lee Mitchell,TN,1502310135000,18549379
199102620,Murfreesboro,,1454518298000,35.78,-86.33,Kaela Rae,TN,1482021195000,18549379
206105780,Nashville,,1468119725000,36.15,-86.86,Kaitlyn,TN,1468119725000,18549379
223389856,Murfreesboro,,1488998377000,35.87,-86.44,Kaitlyn Mobley,TN,1488998377000,18549379
196515744,La Vergne,,1449423730000,36.01,-86.57,Kalandrian Davis,TN,1449423730000,18549379
237193440,Nashville,,1506126130000,36.11,-86.78,Kaleigh Thacker,TN,1506126130000,18549379
206401764,Nashville,,1464981437000,36.17,-86.78,Kaley Wypyszynski,TN,1468704967000,18549379
225316183,Nashville,,1491705803000,36.17,-86.72,Kana Ichimura,TN,1491705803000,18549379
207742183,Nashville,,1466801896000,36.17,-86.78,Kane Ball,TN,1481030241000,18549379
76691132,Nashville,"Cumming, GA",1450474023000,36.17,-86.78,Kara,TN,1473992161000,18549379
208353670,Gallatin,,1467644870000,36.39,-86.45,Karen Casey,TN,1467644870000,18549379
13967433,Goodlettsville,"Edina, MN",1467121389000,36.32,-86.72,Karen James,TN,1507833405000,18549379
202248298,Nashville,,1498877467000,36.08,-86.72,Karen M,TN,1498877467000,18549379
215787900,Nashville,,1483311731000,36.07,-86.73,Karen M Haase,TN,1495333520000,18549379
127792002,Chicago,,1437015687000,41.94,-87.65,Kari,IL,1472404939000,18549379
231085846,Nashville,,1499185658000,36.1,-86.66,Kari VanHeulen,TN,1499185658000,18549379
192315664,Antioch,"Memphis, TN",1441501008000,36.04,-86.64,Karl Lashun Dean Jr,TN,1441501008000,18549379
196515656,Nashville,Nashville,1485814732000,36.15,-86.86,Karla Dayhoff,TN,1488424581000,18549379
60106502,Tijuana,,1502749767000,32.53,-117.02,Karla Pliego,,1502749767000,18549379
192135635,Franklin,Franklin,1441152381000,35.92,-86.89,Karli Mauldin,TN,1441152381000,18549379
227006595,Nashville,,1493997619000,36.17,-86.78,Kassidy McElheney,TN,1493997619000,18549379
209453152,Nashville,,1488752061000,36.17,-86.78,Kat Stephenson,TN,1488752061000,18549379
13510929,Boston,Boston,1490482785000,42.36,-71.07,Kate Crawford ,MA,1494452566000,18549379
199228243,Nashville,,1460493487000,36.11,-86.86,Kathryn,TN,1500587709000,18549379
228478067,Nashville,,1495924351000,36.08,-86.72,Kathryn Bennett,TN,1495924351000,18549379
9162674,Nashville,,1432070040000,36.15,-86.85,Kathy,TN,1432070040000,18549379
190152297,Nashville,,1442649405000,36.16,-86.79,Katie,TN,1442654459000,18549379
200346928,Nashville,,1456322251000,36.14,-86.74,katie,TN,1456322251000,18549379
190599700,Sarasota,,1438184223000,27.35,-82.49,Katie,FL,1449454271000,18549379
228060438,Nolensville,,1495413089000,35.94,-86.67,Katie Clark,TN,1495413089000,18549379
198205248,Nashville,,1454812693000,36.16,-86.79,Katie E,TN,1455080608000,18549379
191143635,Nashville,,1439237808000,36.09,-86.82,Katy,TN,1440380829000,18549379
9504629,Nashville,San Diego,1486420197000,36.18,-86.74,Katy DeWinter,TN,1498157535000,18549379
194396758,Nashville,,1445382594000,36.18,-86.74,Katy P,TN,1457478909000,18549379
209554467,Nashville,,1469216211000,36.13,-86.8,Katy Sanders,TN,1469216211000,18549379
214978793,Nashville,,1476536796000,36.08,-86.72,Kay-leigh Sulecki,TN,1476536796000,18549379
206442873,Nashville,,1465043401000,36.17,-86.78,Kayla Colson,TN,1465043401000,18549379
234828323,Franklin,,1503620938000,35.93,-86.84,Kayla Gates,TN,1503620938000,18549379
191593600,Nashville,,1447698423000,36.16,-86.79,Kayla Hughes,TN,1447698423000,18549379
12641465,Nashville,Nashville,1478446597000,36.15,-86.86,Kaylee Harmon,TN,1495758649000,18549379
14472415,Nashville,nashville,1495727599000,36.18,-86.81,Keith Smith,TN,1495727599000,18549379
193366208,Ethridge,,1443461507000,35.32,-87.31,Keleigh,TN,1443461507000,18549379
225284910,Nashville,,1496290165000,36.17,-86.78,Kelly Davis Long,TN,1506050304000,18549379
228024357,Nashville,,1495371000000,36.16,-86.79,Kelly Hackett,TN,1495371000000,18549379
191618145,Hermitage,Colorado Springs,1440290205000,36.19,-86.6,Kelsea Edwards,TN,1498966258000,18549379
202389001,Nashville,,1459285007000,36.16,-86.79,Kelsey Canfield,TN,1463574702000,18549379
198478804,Nashville,,1453492323000,36.17,-86.78,Kendall,TN,1456704449000,18549379
9559512,Nashville,Nashville,1456281522000,36.09,-86.82,Kendall,TN,1474640712000,18549379
150370402,Nashville,,1461779897000,36.22,-86.77,kennedy,TN,1461779897000,18549379
229788618,Madison,Madison,1497568143000,36.26,-86.71,Kenny Johnson,TN,1497568143000,18549379
224464407,Nashville,,1491528291000,36.17,-86.78,kerall,TN,1495412338000,18549379
12951305,Nashville,Cleveland,1442415442000,36.08,-86.72,Kevin,TN,1507337024000,18549379
229106488,Nashville,,1496707726000,36.17,-86.78,Kevin and Amy,TN,1496786231000,18549379
189845211,Hermitage,,1436760126000,36.19,-86.6,Kevin Groher,TN,1508019586000,18549379
221745559,Spring Hill,,1486690221000,35.76,-86.88,Kevin Jacobs,TN,1492220391000,18549379
202224239,Nashville,,1460429320000,36.15,-86.86,Kevin Liu,TN,1507687827000,18549379
195561339,Antioch,,1447522499000,36.04,-86.64,Kevin Plaster,TN,1447522499000,18549379
237028388,Nashville,,1505940643000,36.1,-86.66,Kevin Seedorf,TN,1506373257000,18549379
197040014,Madison,,1450560106000,36.26,-86.71,Kiari Danielle Holland,TN,1450560106000,18549379
186712906,Nashville,,1431215483000,36.17,-86.79,Kim,TN,1461981325000,18549379
204303529,Antioch,,1462926921000,36.04,-86.64,Kim,TN,1462926921000,18549379
196728634,Nashville,,1450030807000,36.15,-86.86,Kim Estes,TN,1450217084000,18549379
230362508,Nashville,,1498839823000,36.17,-86.78,Kim Latinik- Ayers,TN,1498839823000,18549379
49863072,Hermitage,,1476284385000,36.19,-86.6,kiran,TN,1492913084000,18549379
205535019,Antioch,"Nashville, TN",1463885863000,36.17,-86.88,Kirolos Shahat,TN,1463885863000,18549379
233678037,Cedar Hill,Cedar Hill,1502311337000,36.51,-87.02,Kolby Demers,TN,1502311337000,18549379
205006191,Murfreesboro,,1463329921000,35.82,-86.45,Krista,TN,1506698754000,18549379
199742232,Nashville,"Antioch, CA",1455494317000,36.17,-86.78,Kristen,TN,1470591183000,18549379
193043757,Nashville,,1452111506000,36.15,-86.86,Kristen Freeman,TN,1464106426000,18549379
209245105,Nashville,,1468808952000,36.17,-86.78,Kristen J.,TN,1471279842000,18549379
195050784,Nashville,,1446570965000,36.21,-86.72,Kristen Rehbach,TN,1446570965000,18549379
227969727,Antioch,,1495295055000,36.04,-86.64,Kristen Workley,TN,1495295055000,18549379
171293422,Nashville,Nashville,1455908821000,36.17,-86.79,Kristen Wyatt,TN,1460069397000,18549379
76735092,Nashville,Miami,1439768841000,36.15,-86.86,Kristie,TN,1461984350000,18549379
189673461,Antioch,,1436413264000,36.04,-86.64,Kristin,TN,1436413264000,18549379
201083161,Nashville,,1457381622000,36.08,-86.72,Kumar,TN,1460125986000,18549379
192141013,Nashville,,1441161447000,36.13,-86.8,Kyle Godbey,TN,1441161447000,18549379
173556522,Nashville,"Boston, MA",1446671710000,36.18,-86.74,Kyle McCarthy,TN,1446671710000,18549379
233898688,Nashville,,1502563478000,36.06,-86.96,Kyle Meek,TN,1502563478000,18549379
219124581,Nashville,,1483409702000,36.17,-86.78,Lacey Norlander,TN,1483409702000,18549379
173879692,Nashville,Nashville,1461339653000,36.07,-86.78,Lacie Daye,TN,1461339653000,18549379
187246364,Woodlawn,,1431464842000,36.5,-87.54,Lana Sutton,TN,1431464842000,18549379
208165817,Nashville,Nashville,1499545822000,36.22,-86.77,Landon Drake Bell,TN,1499545822000,18549379
149190242,Mount Juliet,,1446685569000,36.21,-86.52,Landry Russom,TN,1474127242000,18549379
10716469,Nashville,Abilene ,1482874925000,36.17,-86.78,Lane Hollingsworth,TN,1482874925000,18549379
216787599,Nashville,,1479314944000,36.11,-86.78,Lanson Hyde,TN,1479314944000,18549379
182885869,Nashville,,1461589069000,36.13,-86.8,Lara,TN,1461589069000,18549379
177286062,Nashville,"Grass Valley, CA",1445613252000,36.14,-86.82,Laura,TN,1495500610000,18549379
187199378,Nashville,,1431371947000,36.22,-86.86,Laura B.,TN,1493933189000,18549379
189651474,Nashville,,1499262155000,36.17,-86.78,Laura Liebmann,TN,1499262155000,18549379
201310111,Nashville,,1463944611000,36.17,-86.78,Laurel,TN,1463944611000,18549379
205328859,Nashville,,1464917354000,36.19,-86.8,Lauren,TN,1467308597000,18549379
187565375,Nashville,,1471900241000,36.13,-86.8,Lauren,TN,1471900241000,18549379
227330567,Nashville,,1494440934000,36.09,-86.82,Lauren Ashley,TN,1494440934000,18549379
42955002,Chicago,Chicago,1436105818000,41.9,-87.64,Lauren Beach,IL,1436105818000,18549379
195997257,Nashville,,1448347977000,36.13,-86.8,Lauren Browning,TN,1456006239000,18549379
189448893,Nashville,,1435971164000,36.17,-86.78,Lauren Dixon,TN,1435971164000,18549379
187239619,Franklin,"Philadelphia, PA",1488333617000,35.92,-86.89,Lauren Hall,TN,1488333617000,18549379
153884922,Nashville,San Diego,1452836258000,36.15,-86.86,Lauren Seall,TN,1458868079000,18549379
161006192,Nashville,,1438022963000,36.17,-86.78,Lauryn Luderman,TN,1468535449000,18549379
199878788,Nashville,,1455674037000,36.16,-86.79,Lawton Rhodes,TN,1489354630000,18549379
214204915,Nashville,,1475449101000,36.17,-86.78,Leah Bluestone,TN,1475449101000,18549379
199050046,Nashville,,1494802966000,36.17,-86.78,Lee,TN,1494802966000,18549379
182248852,Nashville,,1429757526000,36.08,-86.72,Leia,TN,1442597226000,18549379
195466745,Nashville,,1447338745000,36.17,-86.72,Leigh Anne Lewis,TN,1503405947000,18549379
226741162,Hendersonville,,1493642854000,36.32,-86.61,Leigh Sims,TN,1495238799000,18549379
7286646,La Vergne,Nashville,1448146745000,36.01,-86.57,Leslie,TN,1448146745000,18549379
226783570,Nashville,,1493691859000,36.15,-86.86,Leslie Ammons,TN,1500754173000,18549379
217193511,Nashville,,1491863763000,36.11,-86.86,Lianne,TN,1507767442000,18549379
214724158,Franklin,,1476156367000,36.73,-86.57,Linda,KY,1476156367000,18549379
194080257,Franklin,,1444792694000,36.73,-86.57,Linda Williams,KY,1444792694000,18549379
195154014,Nashville,,1446758326000,36.15,-86.86,Lindley Duncan,TN,1446758326000,18549379
230452063,Nashville,,1498405247000,36.17,-86.72,Lindsay Davis,TN,1498405247000,18549379
161839142,Nashville,,1443379107000,36.17,-86.78,Lindsey,TN,1473972034000,18549379
218812356,Nashville,,1482957513000,36.17,-86.78,Lindsey Johnson Gray,TN,1482957513000,18549379
191098462,Nashville,Nashville,1485731666000,36.17,-86.79,Lindsey Miller,TN,1491312659000,18549379
200916746,Nashville,,1457139640000,36.11,-86.86,Lindsey Powell,TN,1457139640000,18549379
197547125,Nashville,,1451778308000,36.17,-86.72,Lindsey Tambo,TN,1451778308000,18549379
206288146,Goodlettsville,,1464820748000,36.33,-86.74,Link,TN,1464820748000,18549379
199203696,Nashville,,1493120165000,36.13,-86.8,Linus,TN,1493837884000,18549379
9718805,Nashville,,1494015783000,36.13,-86.8,Lisa,TN,1494015783000,18549379
68750092,Nashville,,1455235142000,36.17,-86.78,Lisa,TN,1455235142000,18549379
192068353,Nashville,,1441122307000,36.08,-86.72,Lisa Loper,TN,1447103831000,18549379
195311342,Nashville,,1447056911000,36.08,-86.72,Lisa Marcy,TN,1474338507000,18549379
195102123,Franklin,,1446737895000,35.92,-86.89,Liz Agee Sayers,TN,1446737895000,18549379
232827579,Antioch,,1501297151000,36.04,-86.64,Liz Tinker,TN,1501297151000,18549379
187888304,Nashville,Richmond,1468270498000,36.15,-86.86,Lizzie,TN,1470712342000,18549379
204176516,Mount Juliet,,1461853105000,36.22,-86.52,Lori Brockman,TN,1462579868000,18549379
233234460,Nashville,,1501806824000,36.16,-86.79,Lucas Barnhill,TN,1501806824000,18549379
197071558,Franklin,,1450643675000,35.92,-86.89,Luna Kimberlee,TN,1450643675000,18549379
202665332,Nolensville,,1459698861000,35.94,-86.67,Lydia Stabler,TN,1459698861000,18549379
187210062,Unionville,,1439218386000,35.62,-86.57,M. Wesley Hall IV,TN,1457619477000,18549379
212632243,Nashville,,1473470619000,36.13,-86.8,Madeline Bule,TN,1473470619000,18549379
218197063,Nashville,,1481739505000,36.17,-86.78,Maggie Ehrenreich,TN,1481739505000,18549379
192403958,Hendersonville,,1441741522000,36.32,-86.61,Maggie Sladick,TN,1443064229000,18549379
191848614,Newark,Newark,1440602852000,39.71,-75.74,Mallory,DE,1446504111000,18549379
198611243,Smyrna,,1453742153000,35.97,-86.51,Malorie Young,TN,1454655078000,18549379
199838186,Nashville,,1459739885000,36.17,-86.78,Marc Meredith,TN,1472076563000,18549379
201944644,Nashville,,1458618518000,36.17,-86.78,Marci,TN,1475766809000,18549379
208372328,Nashville,,1468101276000,36.13,-86.8,Margaret Patricia,TN,1470973728000,18549379
12476704,Nashville,,1445975946000,36.1,-86.66,Marisa Scott,TN,1477671356000,18549379
217813560,Nashville,,1481051533000,36.16,-86.79,Marissa Fontanini,TN,1492456702000,18549379
237111577,Nashville,,1506031772000,36.17,-86.78,Marissa Sassa,TN,1506031772000,18549379
225522105,Nashville,,1493173389000,36.13,-86.8,Maritza Williams,TN,1493173389000,18549379
61837762,Nashville,Miami ,1429538271000,36.16,-86.79,Mark,TN,1507774997000,18549379
200435524,Nashville,"Mount Juliet, TN",1456441450000,36.17,-86.78,Mark Aden Camire,TN,1456778441000,18549379
197228317,Hopkinsville,,1451080186000,36.87,-87.48,Mark Henderson ,KY,1495508880000,18549379
195103108,Nashville,,1449630458000,36.21,-86.72,Mark Neglia,TN,1455338547000,18549379
229846482,Nashville,,1497976950000,36.17,-86.78,Mark Razzaghi,TN,1497976950000,18549379
12525792,Nashville,"Tulsa, OK",1429980622000,36.17,-86.78,Marsh,TN,1470577834000,18549379
14300625,Nashville,,1483469073000,36.1,-86.66,Marshall Hix,TN,1492202234000,18549379
228003485,Nashville,,1495335926000,36.11,-86.86,Martha Frances Ladner,TN,1495335926000,18549379
219823994,Nashville,,1491426081000,36.14,-86.74,Marty Serene,TN,1491426081000,18549379
218687832,Nashville,,1482743598000,36.07,-86.73,Marwen Ben Jeddou,TN,1482743598000,18549379
65571302,Franklin,"Fort Walton Beach, Florida ",1455041286000,35.99,-86.9,Mary Alice Armstrong,TN,1455606187000,18549379
190753689,Rockwood,,1439428944000,35.86,-84.68,Mary Bates,TN,1440055192000,18549379
191279051,Nashville,,1439591465000,36.17,-86.78,Mary Booth,TN,1443656788000,18549379
225483657,Thompsons Station,,1491938307000,35.8,-86.9,Mary Lou Bradley Casey,TN,1491938307000,18549379
196126919,Brentwood,,1489633945000,36.0,-86.79,Mary Thursby,TN,1494988979000,18549379
204296485,Murfreesboro,,1495653938000,35.78,-86.33,Mason Dreyer,TN,1506962374000,18549379
149248092,Nashville,,1431031899000,36.17,-86.78,Matt Chibe,TN,1431031899000,18549379
132277442,Nashville,,1436315457000,36.14,-86.74,Matt Frederick,TN,1436315457000,18549379
104220992,Nashville,,1444493012000,36.11,-86.86,Matt Good,TN,1457045883000,18549379
216902463,Nashville,,1479494535000,36.15,-86.86,Matt Pagano,TN,1482529700000,18549379
199513676,Mount Juliet,,1455155518000,36.22,-86.52,Matt Rice,TN,1465960700000,18549379
206400804,Nashville,,1464980007000,36.17,-86.78,Matt Stubing,TN,1464984273000,18549379
186782542,Antioch,,1430436888000,36.04,-86.64,Matthew,TN,1470514230000,18549379
203315648,Nashville,,1460604129000,36.16,-86.79,matthew,TN,1460668293000,18549379
7528585,Nashville,Miami,1473040893000,36.15,-86.86,Matthew Stewart,TN,1474917871000,18549379
182457245,Nashville,,1469844176000,36.17,-86.78,Maureen,TN,1469844176000,18549379
214709083,Nashville,,1476133958000,36.17,-86.78,Mauricio Pineda,TN,1476133958000,18549379
189980328,Nashville,,1437018037000,36.22,-86.77,Max Emery,TN,1437018037000,18549379
185930717,Nashville,"Murfreesboro, TN",1441005593000,36.17,-86.78,Max Trenkle,TN,1444153410000,18549379
232301417,Nashville,,1500648210000,36.16,-86.79,McKenzie Winter,TN,1500648210000,18549379
195025675,Nashville,,1446522433000,36.17,-86.78,Meg Red,TN,1462659013000,18549379
193745334,Franklin,,1444222420000,35.93,-86.81,Megan ,TN,1444338716000,18549379
129023382,Clarksville,,1488767769000,36.53,-87.35,Megan Miller,TN,1503357332000,18549379
191626192,Nashville,,1440182532000,36.17,-86.78,Meghan,TN,1440182532000,18549379
234134747,Nashville,,1502842216000,36.09,-86.82,Meghan Dougherty,TN,1502842216000,18549379
191139297,Nashville,,1439229109000,36.13,-86.8,Mehgan,TN,1439312692000,18549379
188353738,Nashville,,1433727296000,36.15,-86.86,Melanie,TN,1433738860000,18549379
105152592,Nashville,Milwaukee,1466266922000,36.17,-86.78,Melanie Bee,TN,1467338028000,18549379
199430690,Nashville,,1455037398000,36.13,-86.8,Melanie Placke,TN,1455212951000,18549379
199824064,Nashville,,1455643265000,36.1,-86.66,Melissa,TN,1474289703000,18549379
194445325,Nashville,,1445471002000,36.11,-86.86,Melissa Mooshegian,TN,1445471002000,18549379
210596951,Clarksville,,1470639127000,36.56,-87.41,Melony Johnson,TN,1470639127000,18549379
81008572,Franklin,"Franklin, TN",1502462596000,35.93,-86.81,Mercedes,TN,1502462596000,18549379
92534262,Nashville,Nashville,1447781688000,36.17,-86.72,Mia Rooks,TN,1447781688000,18549379
188562198,Nashville,,1438309393000,36.06,-86.96,Michael,TN,1470410024000,18549379
191057885,Nashville,,1439067707000,36.08,-86.72,Michael B.,TN,1439067707000,18549379
197933712,Lebanon,,1452484075000,36.21,-86.31,Michael Blazer,TN,1452484075000,18549379
202447151,Jakarta,Toronto,1459369811000,-6.18,106.83,Michael Gord,,1459369811000,18549379
234749432,Nashville,,1504140366000,36.18,-86.74,michael harrington,TN,1504228472000,18549379
209103533,Madison,,1468627042000,36.26,-86.71,Michael J. Radyko,TN,1468627042000,18549379
12416897,Nashville,"Evansville, IN",1429541483000,36.17,-86.78,Michael Kaiser,TN,1498018649000,18549379
232312915,Nashville,,1500662589000,36.13,-86.8,Michael Kennedy,TN,1500662589000,18549379
191497484,Nashville,,1439926802000,36.17,-86.79,Michael Ralph,TN,1439926802000,18549379
219921759,Nashville,,1484405829000,36.08,-86.72,Michael Roger,TN,1485532000000,18549379
224996976,Nashville,"Baileyville, IL",1502046318000,36.21,-86.72,Michael S,TN,1507771738000,18549379
214135279,Nashville,,1475360359000,36.16,-86.79,Michael Shapiro,TN,1475928811000,18549379
225854465,Nashville,,1492455183000,36.17,-86.78,Michael Shea,TN,1500567798000,18549379
190408520,Nashville,,1458948649000,36.17,-86.78,Michael Wahl,TN,1458948649000,18549379
80979182,Franklin,,1441204477000,35.93,-86.84,Michele,TN,1503379274000,18549379
215855060,Nashville,,1477949679000,36.06,-86.96,Michelle Cassar,TN,1478665882000,18549379
221058442,Nashville,,1490305563000,36.14,-86.74,mike,TN,1490305563000,18549379
200923020,Hermitage,,1457148026000,36.19,-86.6,mike brown,TN,1457148026000,18549379
198234410,Fairview,,1455044767000,35.97,-87.13,Mike D,TN,1455645329000,18549379
194573857,Murfreesboro,,1445707778000,35.87,-86.34,Mike Fulmer,TN,1445707778000,18549379
232448911,Nashville,,1500836693000,36.16,-86.79,Mike Glass,TN,1500836693000,18549379
202260617,Nashville,,1459104385000,36.22,-86.77,Mike H,TN,1462141614000,18549379
108228242,Nashville,"Nashville, TN",1438622157000,36.18,-86.74,Mike Logsdon,TN,1438622157000,18549379
82309962,Nashville,,1446604582000,36.17,-86.78,Mike Mariaskin,TN,1457604396000,18549379
194099532,Nashville,,1449006958000,36.17,-86.78,Mike Meadows,TN,1478630747000,18549379
192586058,Nashville,,1474680858000,36.17,-86.78,Mike Turbeville,TN,1474680858000,18549379
208258500,Nashville,,1467511386000,36.16,-86.79,Mike Wood,TN,1467511386000,18549379
228327157,Nashville,,1495723010000,36.17,-86.78,MikeND2017,TN,1495723010000,18549379
194875027,Nashville,,1446244118000,36.08,-86.72,Minh Le,TN,1446244118000,18549379
188813957,Nashville,,1458844176000,36.17,-86.78,Minna,TN,1458844176000,18549379
191142999,Hendersonville,Hendersonville,1439235291000,36.32,-86.61,Mitchell Cooley,TN,1443677337000,18549379
197728004,Nashville,,1474296327000,36.17,-86.78,Mitchell Green,TN,1474983127000,18549379
183399627,Nashville,,1455500955000,36.16,-86.79,Molly,TN,1467161239000,18549379
234205531,Nashville,,1502925530000,36.18,-86.74,Molly Perkins,TN,1502925530000,18549379
186924662,Duck River,,1430763698000,35.7,-87.34,Monica,TN,1430763698000,18549379
199574006,Hermitage,,1455247628000,36.19,-86.6,Montana Gardner ,TN,1455247628000,18549379
182952938,Brentwood,,1460985245000,36.0,-86.79,Morgan Cole,TN,1462905676000,18549379
192211563,Nashville,,1441301821000,36.17,-86.72,Morgan Patricia,TN,1441301821000,18549379
203922283,Toronto,Auckland,1482362136000,43.67,-79.38,Najlaa Abayechi,ON,1482362136000,18549379
14152532,Tinley Park,,1496703666000,41.57,-87.79,Nancy,IL,1496703666000,18549379
12107374,Nashville,,1464810256000,36.08,-86.72,Nathan,TN,1464810256000,18549379
232013912,Nashville,,1500300622000,36.21,-86.72,Nathan Moore,TN,1500300622000,18549379
21872271,Nashville,"Lawton, OK",1434498064000,36.08,-86.72,Nathan Rightmer,TN,1456176019000,18549379
196682395,Smyrna,,1449733101000,35.97,-86.51,Nathan Valentine,TN,1449733101000,18549379
215907491,Nashville,,1477933934000,36.09,-86.82,Neil MacDonald,TN,1477933934000,18549379
206234001,Austin,,1464744998000,30.22,-97.75,Ngenze A,TX,1464744998000,18549379
215502931,Hermitage,,1477315641000,36.19,-86.6,Nic Leftrick,TN,1477315641000,18549379
16019151,Nashville,Savannah,1451601327000,36.22,-86.86,Nick,TN,1467664930000,18549379
226879837,Nashville,,1493825215000,36.17,-86.78,Nick,TN,1495245580000,18549379
232038153,Nashville,,1500324850000,36.17,-86.78,Nick Sapp,TN,1500568299000,18549379
8185389,Nashville,,1429541311000,36.18,-86.74,Nicole,TN,1429541311000,18549379
194927819,Antioch,,1486522939000,36.04,-86.64,Nicole,TN,1494769743000,18549379
215740536,Spring Hill,,1477668704000,35.76,-86.88,Nicole Conner,TN,1477668704000,18549379
213283992,Nashville,,1506448634000,36.17,-86.78,Nicole Kogowski,TN,1506448634000,18549379
199541458,Nashville,,1455208013000,36.1,-86.66,Niese,TN,1455208013000,18549379
198692148,Franklin,,1472007672000,35.93,-86.81,Nikki Rooks,TN,1507497168000,18549379
53631422,Nashville,Boulder,1498098146000,36.16,-86.79,Nina,TN,1498871479000,18549379
1738473,Nashville,"Nashville, Tennessee",1472338509000,36.11,-86.78,oh_me,TN,1472338509000,18549379
206533290,Nashville,,1465158409000,36.17,-86.78,Oliver Vranjkovic,TN,1478065810000,18549379
234168251,Franklin,,1502888739000,35.93,-86.81,Olivia Oetjens,TN,1502888739000,18549379
186388465,Naples,Brentwood,1429573271000,26.11,-81.74,Pamela,FL,1433257357000,18549379
10385812,Nashville,,1495473453000,36.21,-86.72,Pamela Howard,TN,1507754805000,18549379
202618250,Nashville,,1459628093000,36.06,-86.96,Patricia Capps Burke,TN,1459628093000,18549379
215120656,Nashville,,1476734982000,36.18,-86.74,patrick hayes,TN,1476734982000,18549379
195956752,Nashville,,1448277630000,36.06,-86.96,Paul Peterson,TN,1448277630000,18549379
233394790,Nashville,,1501994613000,36.21,-86.72,Paul Richard Cook,TN,1501994613000,18549379
7284309,Mount Juliet,Virginia Beach,1495580274000,36.21,-86.52,Pepper,TN,1498585305000,18549379
145915072,Antioch,,1443144435000,36.16,-86.83,Pete,TN,1443144435000,18549379
208550066,Franklin,Franklin,1467902702000,35.93,-86.81,Peter Ledet,TN,1467902702000,18549379
191542179,Nashville,,1440015262000,36.11,-86.78,Pfeiffer,TN,1440015262000,18549379
83878422,Ashland City,"Bryson City, NC",1452203409000,36.28,-87.07,Phil Breedlove,TN,1500597291000,18549379
186706259,Gallatin,clarksville,1441116464000,36.37,-86.49,phillip,TN,1465012726000,18549379
118335562,Nashville,,1452378986000,36.17,-86.78,Piper,TN,1461977672000,18549379
192449206,Nashville,,1441742233000,36.07,-86.73,Rachel,TN,1441742233000,18549379
191782217,Vancouver,,1440471009000,49.27,-123.15,Rachel,BC,1446783039000,18549379
95713072,Old Hickory,,1430523307000,36.25,-86.63,Rachel,TN,1430523307000,18549379
199269068,Nashville,"Chattanooga, TN",1454979630000,36.17,-86.78,Rachel Dorsey,TN,1456533713000,18549379
188973087,Nashville,,1451498102000,36.16,-86.79,Rachel Harris,TN,1495595186000,18549379
237089295,Nashville,,1506014863000,36.16,-86.78,Rachel Hellewell,TN,1506014863000,18549379
195826917,Nashville,,1448140553000,36.17,-86.78,Rachel S,TN,1448140553000,18549379
189286239,Antioch,,1435625261000,36.04,-86.64,Rae,TN,1435625261000,18549379
78741522,Brentwood,"Glendale, California",1459952514000,36.0,-86.79,Randy Tashjian,TN,1459952514000,18549379
21904561,Nashville,Greenville,1429459375000,36.17,-86.78,Raquel L Petak,TN,1479124304000,18549379
34814052,Nashville,,1442932544000,36.1,-86.66,Ray Cristobal,TN,1495757294000,18549379
211095470,Brentwood,Brentwood,1476131179000,36.0,-86.79,Ray Minias,TN,1476131179000,18549379
214079627,Nashville,,1475290002000,36.17,-86.72,Ray W,TN,1475290002000,18549379
211227243,Nashville,,1472399992000,36.17,-86.78,Ray Woron,TN,1493827143000,18549379
187256640,Nashville,,1433476638000,36.18,-86.81,Raye,TN,1433476638000,18549379
119975472,Nashville,,1444085806000,36.17,-86.78,Rebecca,TN,1444085806000,18549379
190777546,Nashville,,1438528776000,36.11,-86.78,Rebecca Francese,TN,1440898733000,18549379
200973943,Nashville,,1457222307000,36.06,-86.96,RED Spirits & Wine,TN,1457222307000,18549379
233136900,Nashville,,1503942019000,36.17,-86.78,Reed,TN,1507751086000,18549379
225761449,Nashville,,1492313569000,36.18,-86.81,Reggie Wells,TN,1492313569000,18549379
199233297,Raleigh,,1454724219000,35.77,-78.64,Rene,NC,1454724219000,18549379
235203755,Brentwood,,1505947491000,36.0,-86.79,Renee Harris,TN,1507753656000,18549379
193982461,Fort Campbell,,1444618982000,36.65,-87.46,Ricardo Luna,KY,1444618982000,18549379
12071613,Hermitage,"Canton, OH",1455664746000,36.19,-86.6,Richard Binkley,TN,1473951744000,18549379
215916111,Shelbyville,,1478055438000,35.48,-86.47,Richard Eutsler,TN,1478055438000,18549379
5856456,Nashville,New York,1439919464000,36.08,-86.72,Richard Pelych,TN,1507758257000,18549379
25976592,Portland,San Diego,1454542078000,43.66,-70.26,Richard W Hennings III,ME,1457716858000,18549379
30994132,Nashville,Nashville,1452568639000,36.15,-86.86,Richard Zamora,TN,1452568639000,18549379
170944062,Nashville,,1468054132000,36.17,-86.79,Ricky Arras,TN,1468054132000,18549379
206261374,Hendersonville,,1464790054000,36.32,-86.61,Riley Sheen,TN,1481666880000,18549379
135724292,Spring Hill,Spring Hill,1483835872000,35.76,-86.88,Rob Ball,TN,1483835872000,18549379
197246622,Nashville,,1451122371000,36.17,-86.78,Rob Busler,TN,1454508759000,18549379
185448684,Oak Ridge,,1429129544000,36.02,-84.25,Rob Forbes,TN,1507137611000,18549379
225644457,Spring Hill,Spring Hill,1492140899000,35.76,-86.88,Rob Ray,TN,1495717930000,18549379
202429218,Nashville,Nashville,1459384168000,36.22,-86.77,Rob Spekhardt,TN,1462024913000,18549379
154683162,Burns,,1483078398000,36.04,-87.26,Robbie Lee Roach,TN,1498678773000,18549379
189086697,Nashville,NASHVILLE,1462319320000,36.16,-86.79,Robert Flood,TN,1462319320000,18549379
8884653,Franklin,Frankin,1466217902000,35.92,-86.89,Robert McAfee,TN,1502907759000,18549379
200714647,Clarksville,,1456845982000,36.53,-87.35,Robert Sample,TN,1456845982000,18549379
199787452,Nashville,,1455559476000,36.17,-86.78,Robert Walters,TN,1463070798000,18549379
209104586,Franklin,,1468628056000,35.92,-86.89,Rodney Metoyer,TN,1468628056000,18549379
183712831,Franklin,,1497716240000,35.92,-86.89,Ron,TN,1506460998000,18549379
218214313,Nashville,,1481767564000,36.15,-86.86,Ronnie Thomas,TN,1489695330000,18549379
185835944,Nashville,,1442985055000,36.13,-86.8,Rose Cook,TN,1442985055000,18549379
209416391,Nashville,,1469030563000,36.17,-86.78,Ross Welch,TN,1469030563000,18549379
193149624,Clarksville,,1443042893000,36.53,-87.35,Roxanne Smith,TN,1456278174000,18549379
193604818,Nashville,,1443921824000,36.15,-86.79,RupaGraham,TN,1443921824000,18549379
183459328,Hermitage,Hermitage,1446689255000,36.19,-86.6,Ruth M,TN,1492877633000,18549379
205808436,Fayetteville,"Fayetteville, TN",1464733615000,35.15,-86.57,Ryan,TN,1464733615000,18549379
203377419,Nashville,,1461013181000,36.11,-86.78,Ryan Budden,TN,1461013181000,18549379
38844132,Madison,,1463246765000,36.26,-86.71,Ryan Spainhoward,TN,1495601763000,18549379
188734438,Hermitage,Hermitage,1438196164000,36.19,-86.6,Ryan Yamada,TN,1438196164000,18549379
203951302,Nashville,,1461529158000,36.08,-86.72,Sally,TN,1461529158000,18549379
188988997,San Antonio,,1470520357000,29.49,-98.55,Sam,TX,1485991850000,18549379
18957461,Nashville,,1431257929000,36.17,-86.78,Sam Weitzel,TN,1431257929000,18549379
89049782,Nashville,,1444318654000,36.08,-86.72,Samantha,TN,1444499790000,18549379
10173730,La Vergne,"Lansing, MI",1451840310000,36.06,-86.54,Samantha,TN,1498107812000,18549379
126529282,Nashville,,1468164868000,36.17,-86.78,Samantha,TN,1468164868000,18549379
199846099,Nashville,,1455820502000,36.16,-86.79,Samantha Krentz,TN,1456639369000,18549379
207488739,Nashville,,1466454318000,36.11,-86.78,Sammi Bosler,TN,1472419724000,18549379
188524732,Nashville,,1434064903000,36.18,-86.81,Sammy Thames,TN,1434064903000,18549379
12943217,Nashville,Nashville,1472319692000,36.16,-86.79,Sandra,TN,1496785851000,18549379
210861176,Russellville,,1471019848000,36.83,-86.92,Sandra Feeney,KY,1471019848000,18549379
190947331,Franklin,,1438839469000,35.92,-86.89,Sara,TN,1439008311000,18549379
212770120,Spring Hill,,1479706375000,35.76,-86.88,Sara Nash,TN,1479706375000,18549379
211838244,Nashville,,1472402847000,36.17,-86.78,Sarah ,TN,1472402847000,18549379
188095209,Nashville,,1445219210000,36.1,-86.66,Sarah,TN,1450964880000,18549379
199317742,Nashville,,1454865309000,36.16,-86.79,Sarah Brandon,TN,1454865309000,18549379
227703239,Nashville,,1494949847000,36.17,-86.78,Sarah Cody,TN,1495566287000,18549379
225124086,Murfreesboro,,1491423686000,35.87,-86.34,Sarah Doolittle,TN,1491423686000,18549379
193529532,Old Hickory,,1443985168000,36.25,-86.63,Sarah Kenzer,TN,1450724252000,18549379
195563118,Joelton,,1447525546000,36.33,-86.91,Sarah Maxwell,TN,1447525546000,18549379
231906636,Nashville,,1500161071000,36.08,-86.72,Sarah Owen,TN,1500161071000,18549379
217528080,Nashville,,1480730699000,36.07,-86.73,Sarah S,TN,1480730699000,18549379
203435173,Mount Juliet,,1460787297000,36.22,-86.52,Sarah Volheim,TN,1460787297000,18549379
57719712,Nashville,,1443159534000,36.1,-86.66,Savannah McHenry,TN,1444113791000,18549379
115052062,Nashville,,1459218346000,36.17,-86.78,Scott Benjamin,TN,1495105878000,18549379
206405691,Nashville,,1465094785000,36.17,-86.78,Scott Kaplan,TN,1465094785000,18549379
219745067,Nashville,,1484168539000,36.17,-86.78,Scott Oldham,TN,1484168539000,18549379
190675810,Nashville,,1439416305000,36.17,-86.78,Scott Stanford,TN,1440697590000,18549379
22537571,Nashville,,1461129031000,36.14,-86.84,Scott Womer,TN,1477653756000,18549379
188172721,Franklin,,1464196611000,35.93,-86.81,Sean,TN,1467342673000,18549379
223354420,Spring Hill,,1488943358000,35.76,-86.88,Sean Casey Nash,TN,1488943358000,18549379
106899782,Nashville,,1447964899000,36.17,-86.78,Sean Fricke,TN,1457637773000,18549379
193330722,Nashville,,1443394635000,36.16,-86.79,Sean Wilkinson,TN,1443394635000,18549379
121201822,Hendersonville,,1444250515000,36.32,-86.61,Seth Calabrese,TN,1483578602000,18549379
127889372,Nashville,,1486763411000,36.17,-86.78,Shadey Buttons,TN,1486763411000,18549379
190849082,Nashville,,1438652287000,36.22,-86.77,Shaina Elise Rose Gieg,TN,1438652287000,18549379
110145982,Nashville,"Williamsport, PA",1467872645000,36.14,-86.74,Shane Gibbs,TN,1491316189000,18549379
79889002,Nashville,,1459829153000,36.11,-86.86,Shane Keadle,TN,1494556952000,18549379
52471972,Brentwood,,1446512519000,36.0,-86.79,Shani,TN,1462851877000,18549379
180876412,Naples,,1443105888000,26.14,-81.8,Shannon,FL,1454910390000,18549379
193764231,Hendersonville,,1457099499000,36.32,-86.61,Sharon,TN,1493689145000,18549379
195247227,Mount Juliet,,1446937543000,36.22,-86.52,Sharon Hodge,TN,1446937543000,18549379
234938337,Clarksville,,1503760110000,36.53,-87.35,Shawn ,TN,1507334157000,18549379
193565747,Brentwood,,1443843628000,36.0,-86.79,Shawn T,TN,1456265189000,18549379
140055302,Franklin,,1441812385000,35.93,-86.81,Shawnda Tiernan,TN,1441812385000,18549379
201197304,Mount Juliet,,1457543438000,36.22,-86.52,Shelby,TN,1467316120000,18549379
198072300,Murfreesboro,,1452735394000,35.82,-86.45,Shelia ,TN,1452735394000,18549379
209957691,Nashville,,1469742209000,36.17,-86.79,Shirlet M Robinson,TN,1469742209000,18549379
206407078,Nashville,,1464987510000,36.08,-86.72,Shirley Carlisle,TN,1464987510000,18549379
235982683,Spring Hill,,1504895013000,35.76,-86.88,skyelarr cloud,TN,1504895013000,18549379
209512394,Nashville,,1469161175000,36.17,-86.78,Sophia Marie Gault,TN,1471728114000,18549379
187689213,Nashville,,1478356283000,36.08,-86.72,Sourav Tarafdar,TN,1498185516000,18549379
152133442,Nashville,Kolkata,1494477723000,36.17,-86.79,"Srijata ""Jay"" Chakravorti",TN,1494477723000,18549379
10322475,Spring Hill,NJ,1492227468000,35.76,-86.88,Staci Ann,TN,1496589632000,18549379
233216153,Nashville,,1501787241000,36.13,-86.8,Stacie Holland,TN,1501787241000,18549379
203278516,Columbus,Columbus,1460558194000,39.99,-83.0,Stacy Brooks Smith,OH,1460558194000,18549379
220060943,Murfreesboro,,1484581390000,35.82,-86.45,STACY SIMERI,TN,1484746509000,18549379
197918241,Antioch,,1452460500000,36.04,-86.64,Stacy Tanner,TN,1452460500000,18549379
222912068,Nashville,,1488321793000,36.16,-86.78,Stephanie Alvarez,TN,1488321793000,18549379
139664702,Nashville,,1457910109000,36.17,-86.78,Stephen Horvath,TN,1457910109000,18549379
225407460,Clarksville,,1491841360000,36.56,-87.41,Stephen Thomas,TN,1491841360000,18549379
41142202,Nashville,Clarksville,1457048745000,36.18,-86.81,Steve D.,TN,1457052814000,18549379
202566569,Nashville,,1459550571000,36.11,-86.78,Steve Feki,TN,1498327925000,18549379
2703855,Nashville,"Owensboro, KY",1449236223000,36.18,-86.74,"Steve Roehm, MHt, MNLP, CMT",TN,1449236223000,18549379
186014003,Nashville,,1456879083000,36.17,-86.78,Steve T,TN,1492390137000,18549379
49910922,Nashville,,1502244849000,36.13,-86.8,Steven Harris,TN,1502244849000,18549379
78879112,Encinitas,,1436962970000,33.03,-117.29,Steven Stallard,CA,1436962970000,18549379
186187494,Nashville,,1454882457000,36.17,-86.78,Susan Hewett,TN,1454882457000,18549379
204188025,Nashville,,1461869423000,36.19,-86.8,Susan Lazar,TN,1495642404000,18549379
199103025,Nashville,,1454518330000,36.18,-86.74,Susan S.,TN,1455566399000,18549379
193308554,Nashville,,1443365181000,36.17,-86.78,Suzy Adkins,TN,1443365181000,18549379
148095552,Nashville,,1504473474000,36.11,-86.72,Tabatha Parks,TN,1504473474000,18549379
210520916,Antioch,,1470534448000,36.04,-86.64,Taku Kataura,TN,1470534448000,18549379
158474712,Murfreesboro,Murfreesboro,1466479446000,35.82,-86.45,Tami,TN,1466479446000,18549379
188858606,Nashville,,1434743080000,36.16,-86.79,Tami Goss,TN,1434743080000,18549379
203235278,Nashville,,1460494943000,36.17,-86.72,Tammy,TN,1460494943000,18549379
220772426,Nashville,,1485463957000,36.17,-86.78,Tammy Baldocchi,TN,1485463957000,18549379
198202281,Nashville,,1463068862000,36.17,-86.78,Tanya Smith,TN,1506794279000,18549379
191100426,Albuquerque,Albuquerque,1439195599000,35.13,-106.52,Tara,NM,1443883992000,18549379
146346202,Nashville,Philadelphia,1488663185000,36.16,-86.79,Tara,TN,1488663185000,18549379
198191030,Nashville,,1452969212000,36.17,-86.72,Tara,TN,1465177489000,18549379
39586982,Nashville,New York,1463599837000,36.17,-86.78,Tara Layne,TN,1463599837000,18549379
190832309,Antioch,,1438625876000,36.04,-86.64,Tasha Perkins,TN,1438625876000,18549379
228498508,Lebanon,,1495955002000,36.15,-86.32,Taylor Franklin,TN,1495990203000,18549379
45903232,Chattanooga,,1460594119000,35.04,-85.31,Taylor Guidi,TN,1460594119000,18549379
198385125,Nashville,Nashville,1453318558000,36.1,-86.66,Taylor Miles,TN,1492551244000,18549379
211861206,Nashville,,1472430636000,36.11,-86.86,Teal,TN,1472430636000,18549379
197928971,Franklin,,1477675989000,35.92,-86.89,Ted,TN,1507683372000,18549379
192026029,Nashville,,1440952724000,36.17,-86.78,Teresa,TN,1440952724000,18549379
189192532,Nashville,,1435436319000,36.17,-86.72,Terese,TN,1435969332000,18549379
216723661,Nashville,,1479224512000,36.1,-86.66,TERRI G POTTS,TN,1479224512000,18549379
200065296,Hendersonville,,1455935288000,36.32,-86.61,the dread pirate Pete,TN,1455935288000,18549379
227806705,Franklin,,1495071392000,35.99,-86.9,Theodore Brittan,TN,1495071392000,18549379
81924252,Nashville,,1465227013000,36.17,-86.78,Theresa,TN,1478719006000,18549379
228758192,Mount Juliet,"Clarksville, TN",1498145563000,36.22,-86.52,Thomas,TN,1498703568000,18549379
195140641,Gallatin,,1467709193000,36.39,-86.45,Thomas,TN,1467758709000,18549379
206741469,Clarksville,,1465420724000,36.53,-87.35,Thomas,TN,1465420724000,18549379
201760126,Nashville,,1458344792000,36.11,-86.86,Thomas Forcum,TN,1458344792000,18549379
194013357,Nashville,,1444678533000,36.06,-86.96,Thomas Keller,TN,1444678533000,18549379
226828140,Brentwood,,1493753069000,36.0,-86.79,Tim Metzger,TN,1493753069000,18549379
195665852,Nashville,,1452122502000,36.16,-86.79,TimC,TN,1452122502000,18549379
157434242,Nashville,,1429571784000,36.17,-86.78,Tom,TN,1455636930000,18549379
147086272,Nashville,"Augusta, GA",1433023497000,36.15,-86.86,Toni ,TN,1507764242000,18549379
179884652,Antioch,Norcross,1502808620000,36.04,-86.64,Tony,TN,1502808620000,18549379
225209150,Nashville,,1491551038000,36.17,-86.78,Tosh Mccoy,TN,1492401061000,18549379
132104122,Nashville,,1483464690000,36.1,-86.66,Tracey,TN,1483464690000,18549379
232961233,Nashville,,1501470554000,36.08,-86.72,Tracey James,TN,1501470554000,18549379
192641457,Hermitage,,1442100061000,36.19,-86.6,Tracey White,TN,1442100061000,18549379
195728269,Nashville,,1447828727000,36.15,-86.86,Travis Campbell,TN,1455384437000,18549379
211124212,Nashville,,1471391538000,36.13,-86.78,Travis Wallander,TN,1471391538000,18549379
230745668,Nashville,,1498759300000,36.17,-86.78,Trebor,TN,1500582766000,18549379
195393262,Nashville,,1447198742000,36.07,-86.73,Trevor,TN,1447198742000,18549379
5021966,Franklin,Nashville,1477958103000,35.93,-86.81,Tricia,TN,1497999344000,18549379
229526648,Clarksville,,1497234894000,36.53,-87.35,Tricia Hale,TN,1497234894000,18549379
209668909,Lebanon,,1469381512000,36.21,-86.31,Troy Schumacher,TN,1469381512000,18549379
205101066,Nashville,,1480096614000,36.17,-86.78,Ty,TN,1494975813000,18549379
199389006,New York,,1457370368000,40.75,-73.99,Tyler Dishman,NY,1472575356000,18549379
217930840,Nashville,,1481254769000,36.11,-86.86,Tyler King,TN,1491614660000,18549379
200051335,Nashville,,1471908747000,36.22,-86.86,Tyler M.,TN,1499176163000,18549379
203424114,Nashville,,1460769525000,36.13,-86.8,Tyler Smith,TN,1460784242000,18549379
190847355,Nashville,,1438649046000,36.17,-86.78,Vamshi Gajari,TN,1438649046000,18549379
203972115,Nashville,,1461553775000,36.19,-86.8,Vanessa ,TN,1461553775000,18549379
221042332,Antioch,,1507773653000,36.17,-86.88,Vernon D Russ,TN,1507773653000,18549379
104412762,Nashville,Nashville,1445921056000,36.17,-86.78,Victoria Franz,TN,1479185414000,18549379
235733177,Nashville,,1504639067000,36.17,-86.78,Victoria Mount,TN,1504639067000,18549379
193330746,Nashville,,1443395039000,36.13,-86.8,Victoria Payne,TN,1443395039000,18549379
217058612,Nashville,,1479745265000,36.09,-86.82,Warren Troy Bondi,TN,1490193077000,18549379
206597108,Nashville,,1465244859000,36.17,-86.78,Wayne,TN,1465358041000,18549379
187052248,Murfreesboro,,1444144038000,35.82,-86.45,"Wayne Stearns, Jr;.",TN,1444144038000,18549379
204854476,Nashville,Pittsburgh,1462845665000,36.17,-86.78,Wendy J,TN,1463491738000,18549379
186550628,Springfield,,1437016709000,36.52,-86.87,Wes O'Heron,TN,1495482521000,18549379
212239029,Nashville,,1472950795000,36.17,-86.78,Wes Sparks,TN,1474658328000,18549379
206748135,Nashville,,1482946849000,36.17,-86.78,Whit Joseph,TN,1482946849000,18549379
173222172,Medford,,1503966910000,42.42,-71.11,Will Lehmann,MA,1503966910000,18549379
212294504,Smyrna,,1473025384000,35.97,-86.51,william loggins,TN,1473025384000,18549379
199547904,Hermitage,,1455949519000,36.19,-86.6,Yasminne,TN,1500574508000,18549379
190462331,Murfreesboro,,1437946970000,35.82,-86.45,Yking,TN,1437946970000,18549379
209296950,Portland,,1468875599000,36.57,-86.49,Yulizza,TN,1468875599000,18549379
213237301,Nashville,,1488471843000,36.17,-86.78,Zach Morse,TN,1488471843000,18549379
197747803,Nashville,,1452142605000,36.15,-86.86,Zach V.,TN,1500567696000,18549379
11149295,Nashville,Delphos,1429909318000,36.17,-86.72,Zack Benner,TN,1450387004000,18549379
