id,city,hometown,joined,lat,lon,name,state,visited,group_id
221847659,Franklin,,1489332766000,35.93,-86.81,Aaron Duncan,TN,1506694525000,18556100
232740181,Nashville,,1501210081000,36.17,-86.78,Alec Clevenger,TN,1501186921000,18556100
234869237,Nashville,,1503685944000,36.17,-86.78,Alex Karpinski,TN,1505615221000,18556100
232126408,Murfreesboro,,1500653225000,35.87,-86.44,Amy C.,TN,1502790579000,18556100
207106365,Nashville,,1465924880000,36.17,-86.78,Amy Killett,TN,1485011053000,18556100
213474544,Brentwood,,1474564031000,36.0,-86.79,Andrey  Tutubalin,TN,1506715832000,18556100
199499388,Mount Juliet,,1506712582000,36.22,-86.52,Angie Groves Rowe,TN,1506710051000,18556100
191442878,Murfreesboro,,1467484812000,35.87,-86.44,Ariana Flowers,TN,1506776862000,18556100
235642800,Nashville,,1504586880000,36.17,-86.78,Arthur Sloatman,TN,1507075185000,18556100
72306112,Ann Arbor,Seattle,1439993679000,42.27,-83.81,Ava,MI,1442083993000,18556100
216800941,Nashville,,1484711667000,36.21,-86.72,Ava Avila,TN,1479570004000,18556100
204475423,Franklin,,1463768542000,35.93,-86.81,Ben Roddey,TN,1467468645000,18556100
13911595,Nashville,Nashville,1461173323000,36.15,-86.86,Ben Travis,TN,1498307953000,18556100
216494258,Nashville,,1478884234000,36.17,-86.78,boiaryntseva,TN,1478867970000,18556100
158680482,Nashville,Nashville,1430383542000,36.13,-86.8,Bonnie Matera,TN,1499806900000,18556100
230054010,Nashville,,1497974144000,36.17,-86.78,Brad Ludwig,TN,1506914095000,18556100
212098408,Nashville,,1472761845000,36.17,-86.78,Bradford Lewis,TN,1477884186000,18556100
229273907,Nashville,,1497449404000,36.17,-86.78,Brandon Shaw,TN,1498052983000,18556100
103296662,Nashville,Annapolis,1471989947000,36.17,-86.78,Brandon Tolman,TN,1479257076000,18556100
233297847,Madison,,1501907426000,36.19,-86.74,Brayden,TN,1506880042000,18556100
15358781,Smyrna,"Tustin, CA",1491600106000,35.97,-86.51,Bret Haas,TN,1503353150000,18556100
203189915,Boston,Boston,1472253531000,42.37,-71.05,Bret McDaniel,MA,1473090246000,18556100
119029922,Austin,,1493153904000,30.35,-97.73,Brian Ferry,TX,1504362471000,18556100
233582042,Nashville,,1502295842000,36.17,-86.78,Brinton Lindsey,TN,1502209476000,18556100
230760868,Nashville,,1500008275000,36.07,-86.78,Brooke Daugherty,TN,1506876444000,18556100
129122472,Antioch,,1501775044000,36.17,-86.88,Bryan Overbey,TN,1502575740000,18556100
229174283,Nashville,,1497108207000,36.13,-86.8,Cameron Fox,TN,1504544709000,18556100
230220250,Nashville,,1501342921000,36.17,-86.78,Carissa Rundle,TN,1501341470000,18556100
226054791,Nashville,,1492812089000,36.17,-86.78,Caroline Rudolph,TN,1492713361000,18556100
192465204,Tokyo,,1484711662000,35.67,139.77,Carrie Ravitz,,1493475512000,18556100
235108422,Nashville,,1503962130000,36.17,-86.78,Chelsea Everley Mims,TN,1503980030000,18556100
230059849,Nashville,,1497974133000,36.08,-86.72,Chris,TN,1507420220000,18556100
232121093,Nashville,Nashville,1501089765000,36.13,-86.8,Christine Joy,TN,1501086899000,18556100
169379582,Nashville,,1462446909000,36.16,-86.79,Courtney,TN,1462423868000,18556100
185270021,Parker,,1487348399000,39.47,-104.77,Crissy,CO,1487310706000,18556100
141701052,Nashville,,1497449399000,36.18,-86.74,Crystal,TN,1497413970000,18556100
210151998,Antioch,,1471989844000,36.04,-86.64,Dan Smith,TN,1503406725000,18556100
228829495,Nashville,,1496445384000,36.17,-86.78,Darren Metz,TN,1502416980000,18556100
225289681,Brentwood,,1496010833000,36.0,-86.79,Davide Sitti,TN,1496010893000,18556100
192268978,Nashville,,1484711677000,36.17,-86.78,Diego Castellon,TN,1506239412000,18556100
192792326,Nashville,,1504458177000,36.17,-86.78,Edessa Yousefzadeh,TN,1504456616000,18556100
15544741,Atlanta,,1462133978000,33.86,-84.4,Emily Bean,GA,1468950877000,18556100
4219597,Nashville,Los Angeles,1505844346000,36.16,-86.79,Eric,TN,1505843167000,18556100
15318141,Ann Arbor,,1431013142000,42.26,-83.72,Erin ,MI,1477753532000,18556100
91624232,Nashville,,1474564072000,36.08,-86.72,falin g,TN,1496967401000,18556100
235548840,Franklin,,1504458177000,35.92,-86.87,Gianni Scioscia ,TN,1504875881000,18556100
3297435,Nashville,Nashville,1501525061000,36.16,-86.79,gilberto,TN,1502449468000,18556100
184074008,Detroit,,1504367135000,42.35,-83.06,Halle Franklin,MI,1504365224000,18556100
233872016,Thompsons Station,,1502589817000,35.8,-86.9,Hayley,TN,1502546989000,18556100
211679183,Clarksville,,1476295602000,36.53,-87.35,Heather,TN,1479082306000,18556100
200231281,Nashville,,1467073452000,36.09,-86.82,Irina Barskaya,TN,1505327029000,18556100
233164242,Franklin,,1501768039000,35.93,-86.81,Ivy Kuzminsky Gabele,TN,1501763751000,18556100
231914726,Nashville,,1500261365000,36.17,-86.78,Jack Davis,TN,1508718418000,18556100
208081360,Mount Juliet,,1467296566000,36.22,-86.52,James Moore,TN,1467325360000,18556100
8655376,Nashville,,1484711661000,36.17,-86.78,Jeff,TN,1500673621000,18556100
158963632,Nashville,Nashville,1501210075000,36.17,-86.79,Jenna Bianculli,TN,1503972511000,18556100
67013522,Asheville,"Asheville, nc",1504113637000,35.58,-82.55,jennifer,NC,1504128706000,18556100
57985102,Nashville,"Nashville, TN ",1465184541000,36.08,-86.72,Jerry Pradines,TN,1506813085000,18556100
235627303,Nashville,,1504540201000,36.17,-86.78,Jessie Raye,TN,1504538465000,18556100
44927672,Nashville,,1484711677000,36.17,-86.78,John lozier,TN,1498223216000,18556100
231085603,Louisville,,1499224668000,38.25,-85.78,Jon caniff,KY,1505267869000,18556100
192032680,Nashville,,1478884258000,36.08,-86.72,Jordanne Calvin,TN,1505267108000,18556100
210570019,Grosse Pointe,,1470621531000,42.42,-82.9,Josiah Daniel Gray,MI,1473914591000,18556100
235898392,Clarksville,,1505520772000,36.56,-87.41,Julianna Sengstack,TN,1506426479000,18556100
224016925,Franklin,,1489983383000,35.92,-86.89,Justin,TN,1492181970000,18556100
211909499,Nashville,,1476295338000,36.17,-86.78,Justin Stevens,TN,1472498565000,18556100
28803812,Nashville,,1491401773000,36.17,-86.78,Justin Tarr,TN,1491359875000,18556100
231843847,Nashville,,1501732711000,36.17,-86.78,Justin Wayne Mitchell,TN,1501794911000,18556100
224051918,Franklin,,1498446076000,35.92,-86.89,karan,TN,1498602623000,18556100
189953101,Irmo,,1506553727000,34.12,-81.2,Katie Fritschie,SC,1506748797000,18556100
182917107,Nashville,,1470200229000,36.17,-86.78,KD,TN,1470400739000,18556100
209865405,Nashville,,1493911093000,36.17,-86.78,Kealy Moriarty,TN,1506632695000,18556100
206939659,Brentwood,,1478884245000,36.0,-86.79,Kelsey,TN,1491792850000,18556100
186940966,Knoxville,,1431264738000,36.03,-83.89,Kendall P,TN,1469204571000,18556100
225918461,Pensacola,,1492611965000,30.42,-87.2,Kyler,FL,1498152793000,18556100
222288505,Franklin,,1504331507000,35.93,-86.83,Latish Khubnani,TN,1504322267000,18556100
78141932,Nashville,,1498785544000,36.17,-86.78,Lauren,TN,1499201896000,18556100
210561896,Nashville,,1470621567000,36.17,-86.78,Leisa,TN,1502132002000,18556100
156861572,Nashville,,1439647471000,36.09,-86.82,Lindsey H,TN,1471955531000,18556100
4182700,Nashville,Nashville,1476295281000,36.17,-86.78,Lori,TN,1493317242000,18556100
200697496,Nashville,,1467073660000,36.17,-86.72,luke,TN,1472093935000,18556100
186139025,Nashville,,1468554046000,36.17,-86.78,Mallori Eason,TN,1471991792000,18556100
31628562,Nashville,"Anaheim, CA",1467869617000,36.17,-86.78,Mark B,TN,1468551703000,18556100
186655724,Nashville,,1495643423000,36.16,-86.79,Matt,TN,1507473234000,18556100
230884383,Nashville,,1498937035000,36.17,-86.78,Matthew Burgess,TN,1507018915000,18556100
19483281,San Francisco,,1505672621000,37.8,-122.41,Megan Sterne,CA,1506377133000,18556100
207732804,Murfreesboro,,1466802041000,35.78,-86.33,Michael Waters,TN,1498360488000,18556100
212106131,Nashville,,1484711658000,36.17,-86.78,Mike Emmerich,TN,1473109932000,18556100
4389320,Nashville,Charlotte,1484711677000,36.17,-86.78,Nat,TN,1484270827000,18556100
18382441,Nashville,Nashville,1501384564000,36.15,-86.86,Nick Herron,TN,1506740791000,18556100
191515470,Nashville,,1484693366000,36.17,-86.79,Nick M,TN,1507172271000,18556100
126805132,Nashville,"Dillon, Iowa",1435291454000,36.17,-86.72,nicolle wolken,TN,1502630249000,18556100
227042758,Nashville,,1498446064000,36.19,-86.8,Phil Paulk,TN,1503497110000,18556100
221905615,Nashville,,1487348398000,36.17,-86.78,Rachel,TN,1497916836000,18556100
195358137,Nashville,,1484711655000,36.16,-86.78,Rafael Medina,TN,1447137927000,18556100
199446215,Nashville,,1464702306000,36.21,-86.72,Reed Collins,TN,1466637462000,18556100
190362101,Nashville,Nashville,1441894088000,36.08,-86.72,Sara K,TN,1441891080000,18556100
185576118,Nashville,,1441694473000,36.17,-86.78,Scott,TN,1506775890000,18556100
109094062,Brentwood,,1429556808000,36.0,-86.79,Scott,TN,1508455012000,18556100
184952101,Brentwood,Brentwood,1431267612000,36.0,-86.79,Scott Nelson,TN,1493476278000,18556100
106899782,Nashville,,1484711677000,36.17,-86.78,Sean Fricke,TN,1501093794000,18556100
201855025,Seoul,seoul,1496890646000,37.56,126.99,Seongsil Scarlett,,1506210458000,18556100
8539046,Nashville,,1504495379000,36.13,-86.8,Shalini,TN,1504492848000,18556100
204796875,Nashville,,1464006789000,36.17,-86.78,Simone Parke,TN,1463981976000,18556100
218761975,Evansville,,1502127908000,37.97,-87.58,Ssjot,IN,1502080294000,18556100
205395885,Nashville,,1464988355000,36.17,-86.78,Stefan Dzara,TN,1504012399000,18556100
106513552,Nashville,"Los Angeles, CA",1472253464000,36.22,-86.83,Stephie G.,TN,1472966140000,18556100
225899193,Nashville,,1492523524000,36.13,-86.67,Tellis Gary,TN,1497008833000,18556100
230247150,Nashville,,1502903731000,36.15,-86.69,Tellis Gary,TN,1508165453000,18556100
237335998,Nashville,,1506303648000,36.17,-86.78,Tess,TN,1506689688000,18556100
188388391,Elizabethtown,Elizabethtown,1471989886000,37.69,-85.88,Thom,KY,1504548344000,18556100
237346053,Nashville,,1506303644000,36.17,-86.78,Tonio Vassilaros,TN,1506887086000,18556100
232227368,Bowling Green,,1501210080000,37.02,-86.46,Tyler Groneck,KY,1501766830000,18556100
8364973,Nashville,Jacksonville,1498785546000,36.17,-86.78,Vallarie,TN,1499793028000,18556100
188202042,Holland,,1435077134000,42.79,-86.11,Vanessa Epley,MI,1459533806000,18556100
235368725,Mount Juliet,,1506997001000,36.21,-86.52,Vanessa Niu,TN,1506993643000,18556100
183705950,Nashville,"Memphis, TN",1486855098000,36.17,-86.78,Vincent,TN,1486538252000,18556100
232612156,Nashville,,1501033033000,36.17,-86.78,Vinicius Albuquerque,TN,1501093793000,18556100
203857825,Nashville,,1496807483000,36.15,-86.86,Whitney,TN,1496757829000,18556100
229498167,Nashville,,1499224664000,36.15,-86.86,Whitney Newton,TN,1499065060000,18556100
159974922,Minneapolis,,1493662105000,44.98,-93.27,Will,MN,1493599642000,18556100
104949862,Chicago,Nashville,1467591376000,41.9,-87.67,Will WIlkins III,IL,1467520208000,18556100
205816960,Nashville,,1471989828000,36.16,-86.79,Yulia Romanchuk,TN,1504448004000,18556100
11149295,Nashville,Delphos,1484711653000,36.17,-86.72,Zack Benner,TN,1478003162000,18556100
