id,city,hometown,joined,lat,lon,name,state,visited,group_id
200198475,Springfield,,1456115321000.0,36.52,-86.87,.,TN,1456115321000.0,18604107
65874682,Nashville,Nashville,1441208776000.0,36.08,-86.72,*S*,TN,1441208776000.0,18604107
194358191,Mount Juliet,,1445311743000.0,36.22,-86.52,1nJen,TN,1445311743000.0,18604107
143348032,Mount Juliet,,1434474248000.0,36.22,-86.52,68gts Peyton,TN,1435077297000.0,18604107
188685155,Nashville,,1434409898000.0,36.14,-86.8,A,TN,1434409898000.0,18604107
195846689,Bowling Green,,1448060023000.0,37.02,-86.46,A123456,KY,1448060023000.0,18604107
219701744,Nashville,,1484362598000.0,36.13,-86.8,Aanish Raees,TN,1484362598000.0,18604107
199116612,Fort Campbell,,1454535007000.0,36.65,-87.46,Abbi,KY,1457798792000.0,18604107
198155719,Franklin,,1452902357000.0,36.73,-86.57,Abbigayle,KY,1452902357000.0,18604107
233293976,Nashville,,1501879209000.0,36.08,-86.72,Abby F,TN,1501879209000.0,18604107
213165133,Murfreesboro,,1474167251000.0,35.87,-86.44,Abby Smith,TN,1474167251000.0,18604107
135913482,Nashville,,1432749889000.0,36.17,-86.78,ABDULLAH,TN,1466533911000.0,18604107
117234882,Murfreesboro,,1434637277000.0,35.87,-86.44,abeo23,TN,1467910760000.0,18604107
202724794,Nashville,,1459782122000.0,36.17,-86.78,Abhik Patel,TN,1459782122000.0,18604107
49174402,Nashville,Nashville,1433099211000.0,36.15,-86.8,Abhish,TN,1469240541000.0,18604107
234042525,Spring Hill,,1502740458000.0,35.76,-86.88,Abigail Hardin,TN,1502740458000.0,18604107
236771355,Goodlettsville,,1505701511000.0,36.32,-86.7,Abonée Parker,TN,1505773800000.0,18604107
205107728,Nashville,,1463315605000.0,36.16,-86.79,Abror Mamatkulov,TN,1472638284000.0,18604107
233733864,Nashville,,1502385374000.0,36.08,-86.72,Adam Boone,TN,1502385374000.0,18604107
231084443,Nashville,,1499183748000.0,36.15,-86.86,Adam Intihar,TN,1499183748000.0,18604107
205047686,Nashville,,1463115908000.0,36.08,-86.72,Adam Keckley,TN,1471318039000.0,18604107
190630303,Murfreesboro,,1438340725000.0,35.87,-86.44,Adam Petrig,TN,1438340725000.0,18604107
226601198,Spring Hill,,1493441020000.0,35.76,-86.88,Adam Scianna,TN,1496384052000.0,18604107
238837849,Murfreesboro,,1507946327000.0,35.87,-86.44,Addie T.,TN,1507946327000.0,18604107
13885682,New York,,1438268251000.0,40.76,-73.97,Adrian Fraiha,NY,1441497968000.0,18604107
206286130,Nashville,,1464818249000.0,36.16,-86.79,Adriana Talbot,TN,1464818249000.0,18604107
236446936,Nashville,,1505350022000.0,36.18,-86.74,Adriane Kline,TN,1505350022000.0,18604107
199164918,Brentwood,,1454617999000.0,36.0,-86.79,Adrienne,TN,1454617999000.0,18604107
204173902,Nashville,,1473700578000.0,36.08,-86.72,Afton Crumitie,TN,1473700578000.0,18604107
208249877,Murfreesboro,,1467501648000.0,35.78,-86.33,AH,TN,1467512167000.0,18604107
214359255,Nashville,,1475632032000.0,36.14,-86.81,Ailie Green,TN,1475632032000.0,18604107
114971362,Clarksville,,1474042845000.0,36.53,-87.35,Aimee,TN,1474296581000.0,18604107
205457583,Joelton,"San Francisco, CA",1464368014000.0,36.37,-86.83,AJ,TN,1488746948000.0,18604107
200479586,Nashville,,1458156669000.0,36.17,-86.78,AJ Joshi,TN,1458156669000.0,18604107
235414904,Nashville,,1504293957000.0,36.16,-86.79,Ajit Munjuluru,TN,1504293957000.0,18604107
227152667,Nashville,,1494198671000.0,36.18,-86.64,Akash Vardhan,TN,1494453592000.0,18604107
229513128,Franklin,,1497218726000.0,35.93,-86.81,Akiko Sato,TN,1497925098000.0,18604107
211425515,Murfreesboro,,1471828119000.0,35.78,-86.33,Alan Tenge,TN,1471864481000.0,18604107
188902354,Fort Campbell,,1434835675000.0,36.65,-87.46,Alan Wheat,KY,1434835675000.0,18604107
222769111,Nashville,,1488125598000.0,36.06,-86.96,Alan Woody Reeves,TN,1488125598000.0,18604107
191444845,Culver City,,1443539973000.0,34.0,-118.39,Alana Sweetwater,CA,1443539973000.0,18604107
154920002,Columbia,Columbia ,1434204281000.0,35.61,-87.05,Alee,TN,1447868212000.0,18604107
231471032,Nashville,,1499645119000.0,36.15,-86.86,Alex Hanflink,TN,1500003920000.0,18604107
29589462,Nashville,,1451155277000.0,36.17,-86.78,Alexa Dimengo,TN,1451155277000.0,18604107
27586612,Nashville,Nashville,1436475609000.0,36.17,-86.72,Alexandra Bernardo,TN,1459703327000.0,18604107
205045269,Nashville,,1463111309000.0,36.09,-86.82,Alexis Ferrell,TN,1463111309000.0,18604107
98369112,Nashville,,1472955472000.0,36.17,-86.78,Alexis Preston,TN,1472955472000.0,18604107
208819937,Nashville,,1468259746000.0,36.17,-86.78,Alexisinthere,TN,1468259746000.0,18604107
213272753,Nashville,,1474302752000.0,36.17,-86.78,Aleyda,TN,1474302752000.0,18604107
190707374,Franklin,,1438391321000.0,35.92,-86.89,Ali Yousef Al-hendas,TN,1438391321000.0,18604107
218233404,Nashville,,1494108414000.0,36.17,-86.78,Alice Caldwell,TN,1494534529000.0,18604107
207940482,Nashville,,1467070620000.0,36.17,-86.78,Aliceia Fanchon,TN,1470758931000.0,18604107
207446671,Hendersonville,,1497981189000.0,36.32,-86.61,Alicia Crane,TN,1497981189000.0,18604107
210287090,Nashville,,1470189289000.0,36.1,-86.66,Alicia Mahdi,TN,1488202857000.0,18604107
231128203,Clarksville,,1499233945000.0,36.56,-87.35,Alisha Kay,TN,1499233945000.0,18604107
194440661,Nashville,Youngstown,1456850968000.0,36.16,-86.79,Alison Summers,TN,1496360518000.0,18604107
211286424,Spring Hill,,1471631108000.0,35.76,-86.88,Alix ,TN,1471631108000.0,18604107
192549192,Antioch,,1441924163000.0,36.04,-86.64,Allen,TN,1441924163000.0,18604107
209247227,Franklin,,1468811103000.0,35.92,-86.89,Allen,TN,1469023514000.0,18604107
200567954,Nashville,,1456633827000.0,36.17,-86.78,Allen Odvody,TN,1456633827000.0,18604107
212568688,Nashville,,1473886158000.0,36.17,-86.78,Allie Burnett,TN,1473886158000.0,18604107
230070077,Hermitage,,1497944506000.0,36.19,-86.6,Allie DeKam,TN,1497944506000.0,18604107
91504102,Brentwood,,1465927079000.0,36.0,-86.79,Allison Anderson,TN,1469545885000.0,18604107
228722201,Nashville,,1496243510000.0,36.08,-86.72,Allison Maloney,TN,1496243510000.0,18604107
3211528,Nashville,,1455061602000.0,36.21,-86.72,Ally,TN,1455061602000.0,18604107
213437717,Nashville,,1474504762000.0,36.07,-86.73,Allyson,TN,1474504762000.0,18604107
227256201,Nashville,,1494341275000.0,36.06,-86.96,Alora Nixon,TN,1494341275000.0,18604107
42628092,Nashville,naples,1468633139000.0,36.17,-86.78,Alyse Flick,TN,1468633139000.0,18604107
227976258,Nashville,,1495300962000.0,36.17,-86.78,Alyssa,TN,1495300962000.0,18604107
13838907,Nashville,,1458784794000.0,36.17,-86.78,Alyssa Dixon,TN,1458784794000.0,18604107
195190472,Gallatin,,1446831520000.0,36.39,-86.45,AlyssaDanae Dawson,TN,1446831520000.0,18604107
195808555,Franklin,,1447979690000.0,35.93,-86.81,Amanda,TN,1447979690000.0,18604107
182111312,Lebanon,,1468951967000.0,36.21,-86.31,Amanda,TN,1473729537000.0,18604107
227976973,Nashville,,1495326134000.0,36.17,-86.78,Amanda,TN,1496150393000.0,18604107
199946867,Columbia,"Brantley, AL",1455765344000.0,35.63,-87.02,Amanda Blackmon,TN,1466350175000.0,18604107
185280954,Nashville,,1459347755000.0,36.17,-86.78,Amanda C. Olson,TN,1467751676000.0,18604107
198849323,Portland,,1454122113000.0,36.57,-86.49,Amanda Davis,TN,1456930209000.0,18604107
229328277,Franklin,,1497011903000.0,35.92,-86.87,Amanda DiMarzio,TN,1497117146000.0,18604107
193584204,Eagleville,,1443879427000.0,35.75,-86.64,Amanda Geary,TN,1443879427000.0,18604107
191187043,Thompsons Station,,1439318853000.0,35.8,-86.9,Amanda Meyers,TN,1439318853000.0,18604107
183742617,Franklin,,1442464774000.0,35.99,-86.9,Amanda Romano,TN,1476560092000.0,18604107
186496039,Murfreesboro,,1496369275000.0,35.87,-86.44,Amanda Stephenson,TN,1496369275000.0,18604107
212359545,Nashville,,1473728633000.0,36.17,-86.78,Amanda Westhelle,TN,1473728633000.0,18604107
224389277,Nashville,,,36.17,-86.78,,TN,,18604107
223581048,Franklin,,1489273020000.0,35.92,-86.89,Amber Bartley,TN,1489273020000.0,18604107
193363870,Fresno,,1448127975000.0,36.84,-119.8,Amber Donat,CA,1448127975000.0,18604107
212874528,Fort Campbell,,1473902077000.0,36.65,-87.46,Amber M. Trendowicz,KY,1473902077000.0,18604107
227480102,Nashville,,1494641538000.0,36.17,-86.78,AmberB,TN,1494641538000.0,18604107
189436347,Hendersonville,,1435947345000.0,36.32,-86.61,Amelia,TN,1436199022000.0,18604107
205426546,Goodlettsville,,1463611984000.0,36.33,-86.74,Amine,TN,1463611984000.0,18604107
208066820,Nashville,,1481067058000.0,36.08,-86.72,Amy,TN,1481067058000.0,18604107
7981475,Smyrna,Nashville,1455737312000.0,35.97,-86.51,Amy Alder,TN,1455737312000.0,18604107
12914861,Franklin,,1495986414000.0,35.92,-86.89,Amy Brinson,TN,1495986414000.0,18604107
197455700,Nashville,,1451580543000.0,36.17,-86.78,Amy Edwards,TN,1451580543000.0,18604107
178902152,Nashville,,1444234278000.0,36.17,-86.78,Amy M.,TN,1445282450000.0,18604107
235910104,Hendersonville,,1504855990000.0,36.32,-86.61,Amy Page,TN,1504855990000.0,18604107
156190822,Nashville,,1435782167000.0,36.17,-86.78,AmyofftheA,TN,1435782167000.0,18604107
209214717,Clarksville,,1468775976000.0,36.56,-87.41,Ana Carver,TN,1468775976000.0,18604107
204871578,Clarksville,,1462873624000.0,36.49,-87.23,AnaKatarina Lalonde,TN,1462873624000.0,18604107
232462160,Nashville,,1500850213000.0,36.16,-86.66,Anand Jhajharia,TN,1500850213000.0,18604107
201043595,Nashville,,1457321165000.0,36.09,-86.82,Anastasia Burton,TN,1457321165000.0,18604107
58369512,Clarksville,Indiana,1455851136000.0,36.53,-87.35,Andi,TN,1491562008000.0,18604107
188805189,Nashville,,1434632861000.0,36.15,-86.86,Andi Tockstein ,TN,1434632861000.0,18604107
14674691,Nashville,,1488248305000.0,36.17,-86.78,Andrea,TN,1504727997000.0,18604107
221910425,Smyrna,,1486929549000.0,35.97,-86.51,Andrea Freeman,TN,1486929549000.0,18604107
220425832,Nashville,,1485033164000.0,36.11,-86.86,Andrea Marie,TN,1485033164000.0,18604107
200609336,Pegram,,1456692762000.0,36.12,-87.03,Andrea Mercer,TN,1456719962000.0,18604107
160845252,Murfreesboro,,1502215371000.0,35.78,-86.33,Andrea Moore,TN,1502215371000.0,18604107
22833121,Smyrna,"Nashville, TN",1461328576000.0,35.97,-86.51,Andrea White,TN,1500118451000.0,18604107
209308055,Nashville,,1468887427000.0,36.07,-86.73,Andrew,TN,1468930393000.0,18604107
229354527,Nashville,,1497023216000.0,36.17,-86.78,Andrew,TN,1497023216000.0,18604107
232789752,Nashville,,1501253882000.0,36.1,-86.66,Andrew Wells,TN,1501253882000.0,18604107
231986078,Murfreesboro,,1500259903000.0,35.87,-86.34,Anessa Smith Anderton,TN,1500259903000.0,18604107
101939542,Franklin,franklin,1470385515000.0,35.93,-86.81,ang,TN,1494078773000.0,18604107
187664332,Smyrna,"Hendersonville, TN",1451600666000.0,35.97,-86.51,Angel Thomas,TN,1498602678000.0,18604107
145018362,Nashville,,1460233001000.0,36.17,-86.78,Angela  Morales,TN,1471084970000.0,18604107
218067858,Clarksville,,1481504240000.0,36.49,-87.23,Angela Balthrop,TN,1481504240000.0,18604107
107203852,Goodlettsville,,1470269720000.0,36.32,-86.72,Angela Estrada,TN,1473732713000.0,18604107
201731920,Nashville,,1458306776000.0,36.21,-86.72,Angela Toth,TN,1466350252000.0,18604107
188486451,Nashville,,1433985252000.0,36.14,-86.74,Angela Wright,TN,1433985252000.0,18604107
222504287,Nashville,,1487742802000.0,36.09,-86.82,Angelica Garzon,TN,1487742802000.0,18604107
190345406,Clarksville,,1437738452000.0,36.53,-87.35,Angelina Jo Johnson ,TN,1438816527000.0,18604107
231213558,Fort Campbell,,1499344377000.0,36.65,-87.46,Angelo Fazio,KY,1499344377000.0,18604107
217268917,Greenbrier,,1480122764000.0,36.43,-86.8,Angie Meyer,TN,1480122764000.0,18604107
200215452,Nashville,,1456143910000.0,36.17,-86.78,Angie Taylor,TN,1456143910000.0,18604107
189926569,Hermitage,Nashville TN ,1490242631000.0,36.19,-86.6,Anita Walls,TN,1490242631000.0,18604107
223615387,Nashville,,1489326901000.0,36.17,-86.78,anjali Venkataraman,TN,1501693736000.0,18604107
207576708,Nashville,,1466564402000.0,36.11,-86.78,Anna,TN,1466564402000.0,18604107
202906416,Nashville,,1460035901000.0,36.15,-86.86,Anna Flautt,TN,1464131312000.0,18604107
226109371,Nashville,,1492792296000.0,36.08,-86.72,Anna Givens,TN,1492792296000.0,18604107
225934455,Murfreesboro,,1492550528000.0,35.78,-86.33,Anne,TN,1492550528000.0,18604107
226919661,Franklin,,1493873699000.0,35.92,-86.89,Anne Roberts,TN,1501841133000.0,18604107
193648846,Nashville,Nashville,1443999037000.0,36.21,-86.72,annette,TN,1445710619000.0,18604107
211651955,Nashville,,1472140370000.0,36.17,-86.78,Annie W,TN,1490359631000.0,18604107
188359091,Franklin,,1433736718000.0,35.92,-86.89,Anusha A,TN,1433736718000.0,18604107
193248264,Nashville,,1443234701000.0,36.18,-86.74,April,TN,1465762997000.0,18604107
231276901,Nashville,,1499418970000.0,36.17,-86.78,April Martina Magana,TN,1499418970000.0,18604107
230216065,Nashville,,1498099652000.0,36.08,-86.72,Araz Amedy,TN,1498099652000.0,18604107
198291982,Nashville,"Dothan, AL",1453150668000.0,36.17,-86.78,Arial Marie Roberts,TN,1453835041000.0,18604107
217672928,Nashville,,1480815747000.0,36.15,-86.81,Ariel Witman,TN,1480815747000.0,18604107
223182167,Nashville,,1488721988000.0,36.1,-86.66,Arumai Zayas,TN,1488721988000.0,18604107
217666114,Franklin,,1480804911000.0,35.93,-86.81,Ary,TN,1480804911000.0,18604107
224480723,Nashville,,1490527047000.0,36.17,-86.78,Asher Levine,TN,1490527047000.0,18604107
191428330,Murfreesboro,,1439799203000.0,35.78,-86.33,Ashlei Bain,TN,1439799203000.0,18604107
205361764,Madison,,1479605776000.0,36.26,-86.71,Ashleigh,TN,1499802633000.0,18604107
197387483,Franklin,,1451425890000.0,35.93,-86.81,Ashley,TN,1451425890000.0,18604107
183356435,Nashville,,1467179936000.0,36.17,-86.78,Ashley Bradley,TN,1467179936000.0,18604107
227267693,Clarksville,,1494353929000.0,36.56,-87.35,Ashley Gravatt,TN,1494353929000.0,18604107
216799446,Nashville,,1479328863000.0,36.16,-86.79,Ashley Hendricks Pulley,TN,1486650289000.0,18604107
190321509,Nashville,,1437691136000.0,36.17,-86.78,Ashley Land,TN,1438601365000.0,18604107
214804758,Portland,,1476281200000.0,36.57,-86.49,Ashley Lund,TN,1476281200000.0,18604107
211770956,Nashville,,1472311371000.0,36.17,-86.78,Ashley Rose,TN,1472311371000.0,18604107
238417571,Nashville,,1507483482000.0,36.11,-86.86,Ashley Sanford,TN,1507483482000.0,18604107
225947555,Nashville,,1492565349000.0,36.07,-86.73,Ashley Seiss,TN,1492565349000.0,18604107
183163500,Unadilla,,1498389718000.0,32.26,-83.75,Ashley Sinyard,GA,1498389718000.0,18604107
211996265,Franklin,Coos Bay,1494851300000.0,35.92,-86.89,Ashley Tate,TN,1494851300000.0,18604107
226503054,Nashville,,1493307882000.0,36.15,-86.86,Ashlie Baird,TN,1493594079000.0,18604107
229327085,Antioch,,1496982818000.0,36.04,-86.64,Ashten Pearson,TN,1497041302000.0,18604107
203601765,Clarksville,,1461019181000.0,36.53,-87.35,Atthica Ledbetter Sauers,TN,1461019181000.0,18604107
11991821,Nashville,Nashville ,1508380505000.0,36.11,-86.86,Aubrey Livingston,TN,1508380505000.0,18604107
208241412,Hendersonville,,1467490243000.0,36.32,-86.61,Audrey,TN,1467490243000.0,18604107
208654766,Mount Juliet,,1468041749000.0,36.21,-86.52,Austen Smith,TN,1468041749000.0,18604107
203322760,Mount Juliet,,1460615719000.0,36.22,-86.52,Austin Pardue,TN,1460615719000.0,18604107
232300966,Clarksville,,1500647622000.0,36.56,-87.41,Austin Wheeler,TN,1500647622000.0,18604107
230388692,Antioch,,1498323482000.0,36.04,-86.64,Autumn,TN,1498323482000.0,18604107
226702045,Nashville,,1493585476000.0,36.17,-86.78,Avid Tuber,TN,1493585476000.0,18604107
189512874,Gallatin,,1436117581000.0,36.39,-86.45,AZ2TN.Rhodes,TN,1436572710000.0,18604107
194804106,Nashville,,1446109852000.0,36.06,-86.96,Azi,TN,1446109852000.0,18604107
202907325,Nashville,,1460037570000.0,36.08,-86.72,Baberaham Lincoln,TN,1460037570000.0,18604107
209052701,Nashville,,1468554343000.0,36.06,-86.96,Bailey,TN,1468727118000.0,18604107
216034795,Murfreesboro,,1485052279000.0,35.87,-86.34,Baltazar Escobar,TN,1503933196000.0,18604107
208980546,Smyrna,,1468459221000.0,35.97,-86.51,Barbara,TN,1469593446000.0,18604107
190423182,Franklin,,1437875258000.0,35.92,-86.89,Barbara Fisher,TN,1468783945000.0,18604107
231865789,Adolphus,,1500112620000.0,36.67,-86.28,BARTORICO,KY,1500112620000.0,18604107
191472086,Nashville,,1439875559000.0,36.17,-86.78,Bassy12786,TN,1439875559000.0,18604107
208740312,Goodlettsville,,1468160757000.0,36.32,-86.72,Baylee,TN,1468160757000.0,18604107
225896740,Old Hickory,,1492513398000.0,36.25,-86.63,Beau Smith,TN,1492513398000.0,18604107
202920568,Nashville,,1460054506000.0,36.17,-86.78,Bebo,TN,1460054506000.0,18604107
225009248,Nashville,,1491260476000.0,36.17,-86.78,Becca Casey,TN,1507118832000.0,18604107
135223982,Clarksville,"Tilton, NH",1496316050000.0,36.56,-87.35,Becky,TN,1496316050000.0,18604107
232804005,Nashville,,1501270114000.0,36.11,-86.86,Becky Fleckenstein,TN,1501270114000.0,18604107
203544072,Hermitage,,1507675957000.0,36.19,-86.6,Becky Garland,TN,1507675957000.0,18604107
201036248,Nashville,,1457312288000.0,36.17,-86.78,Beka,TN,1457312288000.0,18604107
236160823,Gallatin,,1505085531000.0,36.39,-86.45,Beka Thorpe,TN,1505085531000.0,18604107
221953683,Nashville,,1486991895000.0,36.17,-86.78,Belinda Nydahl,TN,1486991895000.0,18604107
193561979,Beaumont,,1443830775000.0,30.09,-94.17,Ben,TX,1443830775000.0,18604107
234747306,Clarksville,,1503527323000.0,36.56,-87.41,Ben Huff,TN,1503527323000.0,18604107
188790900,Nashville,,1434597285000.0,36.17,-86.78,Ben Moody,TN,1434597285000.0,18604107
201348650,Nashville,,1457762958000.0,36.18,-86.74,Ben Turner,TN,1457762958000.0,18604107
189940435,Christiana,,1436937832000.0,35.71,-86.36,Bernadette Brock,TN,1436937832000.0,18604107
203642797,Hendersonville,,1461079519000.0,36.32,-86.61,Beth,TN,1489244412000.0,18604107
233499281,Nashville,,1502120140000.0,36.17,-86.78,Beth DeGrave,TN,1502120140000.0,18604107
39518672,Hendersonville,,1438994828000.0,36.32,-86.61,Beth Holloway,TN,1439690298000.0,18604107
208302861,Nashville,,1468323211000.0,36.08,-86.72,Beth Ratliff,TN,1468323211000.0,18604107
236814848,Fort Campbell,,1505735813000.0,36.65,-87.46,Bethany Baker,KY,1505735813000.0,18604107
11990386,Nashville,Murfreesboro ,1443756255000.0,36.11,-86.78,Bethel,TN,1443756255000.0,18604107
81012252,Nashville,,1458427505000.0,36.17,-86.78,Beverly,TN,1458427505000.0,18604107
210699050,Goodlettsville,"Goodlettsville, TN",1470778210000.0,36.33,-86.74,Beverly Goodwin,TN,1495666038000.0,18604107
237553990,Nashville,,1506528960000.0,36.17,-86.78,Bianca Grant,TN,1506528960000.0,18604107
162151722,Nashville,"Port Chester, NY",1432734670000.0,36.17,-86.78,Bill DeForest,TN,1457160036000.0,18604107
215201783,Hopkinsville,,1476843755000.0,36.87,-87.48,Bill Simon,KY,1476843755000.0,18604107
201005368,Nashville,"Nashville, TN",1457272105000.0,36.17,-86.78,Billy R Burgess Jr,TN,1459436346000.0,18604107
201536274,Smyrna,,1458014385000.0,35.97,-86.51,Blake Turner,TN,1458014385000.0,18604107
237182533,Nashville,,1506114798000.0,36.17,-86.78,Blanca Rosa,TN,1506114798000.0,18604107
188313814,Nashville,"Tucson, AZ",1497704031000.0,36.08,-86.72,Blanca V,TN,1503744356000.0,18604107
70216122,Nashville,Nashville,1463767998000.0,36.16,-86.79,Bob,TN,1463767998000.0,18604107
116205952,Nashville,,1439151864000.0,36.17,-86.78,Bonj Amon,TN,1439151864000.0,18604107
122168902,Brentwood,Nashville ,1470707437000.0,36.0,-86.79,Brad Fine,TN,1470707437000.0,18604107
215416480,Brentwood,,1477171490000.0,36.0,-86.79,Brad Maxwell,TN,1477171490000.0,18604107
217685400,Clarksville,,1480844838000.0,36.53,-87.35,Brad Mckay,TN,1480844838000.0,18604107
182825842,Nashville,,1452297279000.0,36.17,-86.78,Brady Bolf,TN,1452297279000.0,18604107
191274528,Nashville,,1439488994000.0,36.17,-86.78,Brandon Dirks,TN,1440628340000.0,18604107
233003670,Nashville,,1501525798000.0,36.17,-86.78,Brandon Moses,TN,1501525798000.0,18604107
238830329,Nashville,,1507937265000.0,36.08,-86.72,Brandon Pylant,TN,1507937265000.0,18604107
192835777,Hermitage,,1442455385000.0,36.19,-86.6,Brandon Reilly,TN,1442455385000.0,18604107
103296662,Nashville,Annapolis,1470883868000.0,36.17,-86.78,Brandon Tolman,TN,1489328965000.0,18604107
228025718,Nashville,,1495372936000.0,36.08,-86.72,Brandon Tucker,TN,1495372936000.0,18604107
212348977,Nashville,,1473099009000.0,36.17,-86.78,Brandy Dufrane,TN,1473099009000.0,18604107
229909102,Russellville,,1497733386000.0,36.83,-86.92,Brayden Yates,KY,1497733386000.0,18604107
133355872,Nashville,,1488518765000.0,36.17,-86.78,Bree,TN,1488518765000.0,18604107
182588103,Murfreesboro,,1439585478000.0,35.78,-86.33,Bree,TN,1439585478000.0,18604107
230113714,Nashville,,1497993544000.0,36.17,-86.78,bren daugherty,TN,1504038843000.0,18604107
197505549,Lebanon,,1451695786000.0,36.21,-86.31,Brenda,TN,1451871758000.0,18604107
193409615,Franklin,,1466687096000.0,35.93,-86.81,Brenda C,TN,1482076295000.0,18604107
62418442,Nashville,,1472221337000.0,36.16,-86.79,Brenda Dillard,TN,1472221337000.0,18604107
88028962,Franklin,,1438041921000.0,35.99,-86.9,Brenda Rish,TN,1438041921000.0,18604107
190086551,Richmond,,1437244660000.0,37.94,-122.36,Brendan Boland,CA,1437244660000.0,18604107
203435157,Nashville,,1460787536000.0,36.16,-86.66,Brent,TN,1460787536000.0,18604107
182671771,Nashville,,1494649985000.0,36.08,-86.72,Brett D Inman,TN,1497099869000.0,18604107
215257978,Nashville,,1476926275000.0,36.15,-86.79,Brett Hansen,TN,1476926275000.0,18604107
229391570,Nashville,,1497066572000.0,36.06,-86.96,Brett Sloan,TN,1497066572000.0,18604107
209963734,Nashville,,1469750548000.0,36.17,-86.78,Brian,TN,1475772466000.0,18604107
6044187,Hendersonville,Hendersonville,1437040319000.0,36.32,-86.61,Brian ,TN,1439719555000.0,18604107
224264063,Nashville,,1490215412000.0,36.11,-86.78,Brian Beauchamp,TN,1490215412000.0,18604107
208988050,Shelbyville,,1468467348000.0,35.48,-86.47,Brian Brenton,TN,1471882109000.0,18604107
209839421,Fort Campbell,,1469580380000.0,36.65,-87.46,Brian Butorac,KY,1469580380000.0,18604107
11820211,Tripler Army Medical Center,Annapolis,1468773237000.0,21.35,-157.87,Brian Cantrell,HI,1468773237000.0,18604107
211665926,Tolleson,"Phoenix, AZ",1472157021000.0,33.42,-112.24,Brian Cole,AZ,1472157021000.0,18604107
159442722,Nashville,,1494914441000.0,36.17,-86.77,Brian F,TN,1504794726000.0,18604107
225431589,Nashville,,1491869085000.0,36.17,-86.78,Brian Fenix,TN,1491869085000.0,18604107
218211489,Bethpage,,1481762482000.0,36.51,-86.32,Brian Hunter,TN,1486730605000.0,18604107
233171899,Nashville,,1501728446000.0,36.17,-86.78,briandu,TN,1501728446000.0,18604107
188613773,Nashville,,1469928085000.0,36.17,-86.78,Brianna,TN,1470014317000.0,18604107
150815612,Nashville,,1457963725000.0,36.17,-86.78,Bridge Marie,TN,1457963725000.0,18604107
96546812,Hendersonville,,1474371358000.0,36.32,-86.61,Bridget Radford,TN,1493208981000.0,18604107
208805077,Clarksville,,1468243557000.0,36.56,-87.41,Bridgett Michelle Lopez,TN,1468243557000.0,18604107
192865243,Columbia,,1442516733000.0,35.61,-87.05,BriS,TN,1442516733000.0,18604107
233991262,Nashville,,1502675387000.0,36.17,-86.78,Brit Van Laeken,TN,1503840751000.0,18604107
189813772,Nashville,,1467171418000.0,36.13,-86.8,Britni,TN,1507174038000.0,18604107
230220310,Nashville,,1498104003000.0,36.08,-86.72,Britt Todd,TN,1498758548000.0,18604107
58073562,Hermitage,,1456347212000.0,36.19,-86.6,Brittani,TN,1457530190000.0,18604107
237658300,Lascassas,,1506639704000.0,35.94,-86.27,Brittany Ann,TN,1506639704000.0,18604107
210089152,Antioch,,1469924897000.0,36.06,-86.64,Brittany Ann Leffew,TN,1469924897000.0,18604107
216086789,Old Hickory,,1478206127000.0,36.25,-86.63,Brittany Brandle,TN,1478206127000.0,18604107
219721310,Clarksville,,1484141476000.0,36.56,-87.35,Brittany Degner,TN,1484141476000.0,18604107
188593810,Murfreesboro,,1434214031000.0,35.87,-86.34,Brittany Gardner,TN,1434214031000.0,18604107
203044976,Nashville,,1460232947000.0,36.06,-86.96,Brittany Grogan,TN,1466304867000.0,18604107
155028052,La Vergne,jasper tn,1450269736000.0,36.01,-86.57,Brittany Pickett,TN,1450269736000.0,18604107
201398437,Nashville,,1457833148000.0,36.17,-86.78,Brittany Sutton,TN,1461531194000.0,18604107
210207477,Nashville,,1470251999000.0,36.17,-86.78,Brittini,TN,1470883017000.0,18604107
227126789,Nashville,,1494168500000.0,36.08,-86.72,Brittney Brewington,TN,1494790076000.0,18604107
200246977,Nashville,,1456181695000.0,36.18,-86.81,Brittney Michelle Hampshire,TN,1456181695000.0,18604107
219831987,Hendersonville,,1484276873000.0,36.32,-86.61,Brittney Nichole Hill,TN,1487515100000.0,18604107
204784190,Nashville,,1462749004000.0,36.08,-86.72,Brittney Redstone,TN,1467820573000.0,18604107
208349529,Nashville,,1467640131000.0,36.22,-86.77,Brittney Stockman,TN,1467899501000.0,18604107
203566512,Watertown,,1460980116000.0,36.11,-86.14,Brittney Wright ,TN,1473200344000.0,18604107
202398555,Nashville,,1459296442000.0,36.18,-86.74,Brock Curtis,TN,1462960811000.0,18604107
161867192,Nashville,San Diego,1469794483000.0,36.18,-86.74,Brooke,TN,1469794483000.0,18604107
215875831,Nashville,,1477879022000.0,36.17,-86.78,Brooke,TN,1477879022000.0,18604107
181304012,Gallatin,,1486081415000.0,36.39,-86.45,Brooke Bradley,TN,1490048048000.0,18604107
207606314,Nashville,,1466609671000.0,36.17,-86.78,Brooke Wilson,TN,1466609671000.0,18604107
187787892,Nashville,,1432746174000.0,36.16,-86.79,Brooksie,TN,1433001620000.0,18604107
206051916,Brentwood,,1465942137000.0,36.0,-86.79,Bruce Hicks,TN,1466645547000.0,18604107
226642805,Shelbyville,,1493501677000.0,35.48,-86.46,Bryan Berry,TN,1493515177000.0,18604107
239180121,Nashville,,1508342439000.0,36.17,-86.78,Bryan Moore,TN,1508342439000.0,18604107
218200194,Hermitage,Mount Juliet,1481744739000.0,36.19,-86.6,Bryan Saums,TN,1481744739000.0,18604107
212699913,Nashville,,1473561982000.0,36.09,-86.82,Cacky Breland,TN,1473561982000.0,18604107
197495650,Hermitage,,1451688454000.0,36.19,-86.6,Caitlin,TN,1451839260000.0,18604107
225402801,Nashville,,1491839565000.0,36.1,-86.66,Caitlin ,TN,1492632700000.0,18604107
223626487,Clarksville,,1489341053000.0,36.53,-87.35,caitlin nightingale,TN,1489341053000.0,18604107
219672606,Clarksville,,1484076488000.0,36.56,-87.35,Caitlyn Viehman,TN,1484076488000.0,18604107
227081945,Mount Juliet,,1494101411000.0,36.22,-86.52,Caleb Conley,TN,1494258131000.0,18604107
234074144,Nashville,,1502775488000.0,36.14,-86.74,Caleb Maurice Sprinkle,TN,1502775488000.0,18604107
205939586,Westmoreland,,1464323195000.0,36.57,-86.22,Caleigh Graves,TN,1464323195000.0,18604107
198427356,Nashville,,1459546556000.0,36.11,-86.78,Callie,TN,1488984713000.0,18604107
194679713,Nashville,,1445889843000.0,36.17,-86.78,Calvin Griffin,TN,1445889843000.0,18604107
196137209,Nashville,,1448654506000.0,36.17,-86.78,Calvin Hart,TN,1448654506000.0,18604107
159704262,Nashville,,1433620420000.0,36.16,-86.79,Camila,TN,1439988909000.0,18604107
205401434,Murfreesboro,,1463583954000.0,35.87,-86.34,Camille Dunn,TN,1463583954000.0,18604107
212839274,Nashville,,1473737647000.0,36.08,-86.72,Canaan Cox,TN,1473773342000.0,18604107
226254594,Old Hickory,,1492981634000.0,36.25,-86.63,Cara,TN,1492981634000.0,18604107
236345470,Nashville,,1505261953000.0,36.15,-86.86,Cara Lindell,TN,1505261953000.0,18604107
205776213,Lebanon,,1464099400000.0,36.21,-86.31,Carina Sawyer,TN,1464099400000.0,18604107
197902347,Murfreesboro,,1452435588000.0,35.87,-86.34,Carlos ,TN,1452435588000.0,18604107
198665212,Goodlettsville,,1453834765000.0,36.33,-86.74,Carlos,TN,1453834765000.0,18604107
211861635,Hermitage,,1472429781000.0,36.19,-86.6,Carma Mattadeen,TN,1475550296000.0,18604107
231982981,Nashville,,1500255954000.0,36.17,-86.78,Carol Clouse,TN,1500433613000.0,18604107
208873792,Nashville,,1468326477000.0,36.22,-86.86,Carole Moser,TN,1469315874000.0,18604107
187304670,Nashville,"Makanda, IL",1440251709000.0,36.17,-86.78,Carole-Ann,TN,1440251709000.0,18604107
224492007,Nashville,,1490543182000.0,36.17,-86.72,Caroline Chaney,TN,1493681523000.0,18604107
199347853,Murfreesboro,,1454908672000.0,35.87,-86.34,Caroline Marie Gay,TN,1454908672000.0,18604107
163308782,Cookeville,Cookeville,1472333337000.0,36.16,-85.5,Carrie B.,TN,1476699295000.0,18604107
231900139,Nashville,,1500153206000.0,36.16,-86.78,Carrie Bohnert,TN,1500153206000.0,18604107
187808175,La Fayette,,1432758417000.0,34.71,-85.29,Casey Barnes,GA,1434563822000.0,18604107
226345715,Nashville,,1493099100000.0,36.17,-86.78,Cason Grace,TN,1493099100000.0,18604107
210201193,Nashville,,1470326935000.0,36.06,-86.96,Cassandra,TN,1470326935000.0,18604107
213951450,Nashville,,1475581757000.0,36.17,-86.78,Cassidy Mitchiner,TN,1475600911000.0,18604107
207193029,Hendersonville,,1466034390000.0,36.32,-86.61,Cassie,TN,1466034390000.0,18604107
235511635,Clarksville,,1504404577000.0,36.53,-87.35,Cassie,TN,1507994357000.0,18604107
211987645,Nashville,,1472596566000.0,36.17,-86.78,Catherine,TN,1475852053000.0,18604107
185225109,Nashville,,1489031096000.0,36.18,-86.81,Catherine Epstein,TN,1489031096000.0,18604107
226345625,Smyrna,,1493098797000.0,35.97,-86.51,Catherine Orman,TN,1493098797000.0,18604107
137516422,Nashville,,1464958058000.0,36.08,-86.72,Cathy Kelch Napple,TN,1489255920000.0,18604107
190566256,Chapel Hill,,1438120445000.0,35.62,-86.62,Cathy Paliotta,TN,1438120445000.0,18604107
207471782,Hendersonville,,1492177391000.0,36.32,-86.61,catra ,TN,1492177391000.0,18604107
233099453,Nashville,,1501639937000.0,36.11,-86.86,Cebrina Johnson,TN,1501639937000.0,18604107
217259696,Nashville,,1480106847000.0,36.14,-86.8,Celeste Dampier Loucks,TN,1480106847000.0,18604107
199865946,Nashville,,1498567165000.0,36.21,-86.72,Celeste Greene,TN,1498567165000.0,18604107
226982873,Murfreesboro,,1493957926000.0,35.87,-86.34,Celine French,TN,1493957926000.0,18604107
14273127,Fort Campbell,Fort Campbell,1471583506000.0,36.65,-87.46,Cesar,KY,1492862267000.0,18604107
193958260,Smyrna,,1444591141000.0,35.97,-86.51,Chad,TN,1444591141000.0,18604107
226657446,Nashville,,1493521573000.0,36.17,-86.78,Chad Breece,TN,1493521573000.0,18604107
209959655,Antioch,,1469977670000.0,36.04,-86.64,Chadwin Jase Clark,TN,1470158166000.0,18604107
212698154,Nashville,,1473560186000.0,36.13,-86.8,Chaelsa Williams,TN,1473560186000.0,18604107
218380038,Hendersonville,,1482098514000.0,36.32,-86.61,Chance Coats,TN,1482098514000.0,18604107
193362268,Nashville,,1443458062000.0,36.17,-86.78,Chandra,TN,1465022908000.0,18604107
227248048,Clarksville,,1494331125000.0,36.53,-87.35,Chandra,TN,1494972962000.0,18604107
185609845,Nashville,Oakfield,1502639833000.0,36.13,-86.67,Charli Crocker,TN,1502639833000.0,18604107
184092982,Nashville,"Nashville, TN",1432656632000.0,36.21,-86.72,Charli H.,TN,1438678083000.0,18604107
219910245,Pegram,,1484387114000.0,36.12,-87.03,Charlie,TN,1484387114000.0,18604107
9473931,Murfreesboro,,1465880166000.0,35.78,-86.33,Charlie dahan,TN,1465880166000.0,18604107
210249971,Nashville,,1470145386000.0,36.17,-86.78,Charlotte Huffman,TN,1470841805000.0,18604107
193410475,Nashville,,1443539458000.0,36.17,-86.78,charlotte robinson,TN,1443990560000.0,18604107
226630728,Nashville,,1493487382000.0,36.08,-86.72,Charlotte Wight,TN,1494546815000.0,18604107
191712243,Tullahoma,,1440349639000.0,35.37,-86.21,Chase Lawson,TN,1440349639000.0,18604107
198892323,Nashville,,1454193685000.0,36.17,-86.78,Chaz Hassler,TN,1454193685000.0,18604107
199693056,Raleigh,,1455421270000.0,35.77,-78.64,Chelsea Andrews,NC,1455421270000.0,18604107
228412467,Nashville,,1495834958000.0,36.17,-86.72,Chelsea Lee,TN,1495834958000.0,18604107
194063569,Nashville,"Vicksburg, MS",1444765976000.0,36.22,-86.86,Chelsey Liddell,TN,1455291483000.0,18604107
222741145,Antioch,,1488077373000.0,36.17,-86.88,Chelsey W.,TN,1488077373000.0,18604107
47526752,Lebanon,"baton rouge, la",1461343329000.0,36.26,-86.2,cherami pace,TN,1461421359000.0,18604107
131769102,Nashville,Nashville,1500846089000.0,36.15,-86.86,Cheree Neely,TN,1500846089000.0,18604107
229358239,Nashville,,1497027542000.0,36.17,-86.78,Cherokee Couple,TN,1497027542000.0,18604107
225907924,Nashville,,1492526026000.0,36.17,-86.72,Cherry Smythe,TN,1501786319000.0,18604107
202701381,Nashville,,1459743576000.0,36.17,-86.78,Cheryl,TN,1471051908000.0,18604107
210311732,Nashville,,1470231699000.0,36.22,-86.77,Cheryl Poppert,TN,1471094650000.0,18604107
191783559,Nashville,,1440473198000.0,36.18,-86.81,Cheryl Vaccaro,TN,1440473198000.0,18604107
191287650,Nashville,"Singapore, SG",1439510744000.0,36.17,-86.78,Chester,TN,1462409073000.0,18604107
13766392,Nashville,,1463430033000.0,36.09,-86.82,chip ,TN,1493686591000.0,18604107
225795116,Nashville,,1498077294000.0,36.17,-86.78,Chris,TN,1503773955000.0,18604107
84993972,Hermitage,Hermitage,1438202121000.0,36.19,-86.6,Chris,TN,1439871792000.0,18604107
212594305,Nashville,,1473673171000.0,36.22,-86.69,Chris,TN,1474123055000.0,18604107
207438694,Clarksville,,1466385234000.0,36.53,-87.35,Chris,TN,1466385234000.0,18604107
204592493,Nashville,,1462463872000.0,36.11,-86.78,Chris Jones,TN,1465168493000.0,18604107
231112813,Lebanon,,1499213439000.0,36.15,-86.32,Chris Meggs,TN,1504983489000.0,18604107
225797989,Madison,,1492391271000.0,36.26,-86.71,Chris Plettner,TN,1492391271000.0,18604107
216943926,Huntsville,Nashville,1479564160000.0,34.78,-86.61,Chris Watson,AL,1479564160000.0,18604107
230416412,Mount Juliet,,1498354188000.0,36.21,-86.52,Christian Beere,TN,1498354188000.0,18604107
232281434,Nashville,,1505849710000.0,36.1,-86.66,Christian Garstin,TN,1505849710000.0,18604107
238223701,Brentwood,,1507268883000.0,36.0,-86.79,Christian Pilgrim,TN,1507268883000.0,18604107
209600773,Nashville,,1469282326000.0,36.17,-86.78,Christian Tabarez,TN,1469282326000.0,18604107
170403862,Lebanon,,1437445448000.0,36.13,-86.4,Christin,TN,1471448965000.0,18604107
88574032,Nashville,,1436448337000.0,36.17,-86.78,Christina,TN,1492087848000.0,18604107
234342633,Nashville,,1503083493000.0,36.25,-86.77,Christina Collier,TN,1506214263000.0,18604107
209847376,Clarksville,,1470105373000.0,36.53,-87.35,Christina DeLapp,TN,1470885433000.0,18604107
230969998,Nashville,,1499042605000.0,36.06,-86.96,Christina Rose Tumbleson,TN,1499042605000.0,18604107
219217271,Nashville,,1483503243000.0,36.16,-86.66,Christina Theodoru,TN,1483503243000.0,18604107
194016059,Franklin,,1493937257000.0,35.92,-86.89,christine arthur,TN,1493937257000.0,18604107
193616138,Staten Island,,1443936732000.0,40.63,-74.09,Christine Simon,NY,1443936732000.0,18604107
203665688,Nashville,,1472755652000.0,36.14,-86.8,Christopher Scott Koelln,TN,1492694010000.0,18604107
205416908,Nashville,,1463601345000.0,36.13,-86.8,Christy,TN,1463601345000.0,18604107
224706496,Joelton,,1490825094000.0,36.33,-86.91,Christy Davis,TN,1491743238000.0,18604107
228658938,Murfreesboro,,1496163453000.0,35.78,-86.33,Christy Loyd,TN,1498824302000.0,18604107
203447453,Murfreesboro,,1460809893000.0,35.82,-86.45,Christy Smith Fancher,TN,1499437674000.0,18604107
188973355,Springfield,,1435729809000.0,36.52,-86.87,Christy Traughber,TN,1435729809000.0,18604107
186142351,Murfreesboro,,1489089536000.0,35.82,-86.45,Chuck Fisher,TN,1489089536000.0,18604107
222215242,Nashville,,1487348773000.0,36.17,-86.78,chuck wofford,TN,1503654376000.0,18604107
236304744,Nashville,,1505226585000.0,36.1,-86.66,Ciera,TN,1505226585000.0,18604107
211027544,Nashville,,1471264265000.0,36.08,-86.72,Cindi Hipp Thomas,TN,1471264265000.0,18604107
226789173,Nashville,,1493697551000.0,36.17,-86.78,Cindy Boyd,TN,1493697551000.0,18604107
83973152,Nashville,,1461036745000.0,36.17,-86.78,Cindy Gilmore,TN,1466463250000.0,18604107
189180675,Murfreesboro,,1435414613000.0,35.82,-86.45,Cindy Woodring,TN,1465412378000.0,18604107
224919839,Brentwood,,1491142819000.0,36.0,-86.79,CJ Six,TN,1491142819000.0,18604107
234510721,Mount Juliet,,1503264367000.0,36.21,-86.52,Clay Jones,TN,1505312338000.0,18604107
224072583,Nashville,,1489963420000.0,36.13,-86.8,Clayton Master,TN,1489963420000.0,18604107
221122139,Nashville,,1485904156000.0,36.15,-86.79,Clayton Parlin,TN,1485904156000.0,18604107
192854825,Nashville,,1442514853000.0,36.16,-86.79,Clayton Sanders,TN,1442514853000.0,18604107
237287107,Nashville,,1506238819000.0,36.17,-86.72,Clayton Watts,TN,1506238819000.0,18604107
106178752,Indianapolis,Indianapolis,1491439917000.0,39.77,-86.11,Clint Mahoney,IN,1491439917000.0,18604107
191178210,Nashville,,1439304382000.0,36.18,-86.74,Clint Trinity,TN,1440043388000.0,18604107
192466831,Nashville,,1442891941000.0,36.16,-86.79,Coco,TN,1491143630000.0,18604107
103338452,Murfreesboro,,1494470818000.0,35.78,-86.4,Cody,TN,1494470818000.0,18604107
215367772,Nashville,,1477096329000.0,36.13,-86.8,Colin Klein,TN,1477096329000.0,18604107
203540016,Nashville,,1460934516000.0,36.17,-86.72,Colleen Lander,TN,1460934516000.0,18604107
228883629,Cottontown,,1496441401000.0,36.49,-86.59,Connie Carter,TN,1496441401000.0,18604107
201699067,New York,,1458251756000.0,40.75,-73.99,Constance McKee,NY,1458251756000.0,18604107
224616735,Nashville,,1490708220000.0,36.11,-86.78,Cory Cothron,TN,1490708220000.0,18604107
195603677,Cookeville,,1447642668000.0,36.15,-85.53,Cosmicflow,TN,1447642668000.0,18604107
189937535,Clarksville,,1436930231000.0,36.56,-87.41,Courtney,TN,1461335783000.0,18604107
169379582,Nashville,,1462420299000.0,36.16,-86.79,Courtney,TN,1462424188000.0,18604107
207921757,Franklin,,1467050344000.0,35.92,-86.89,Courtney,TN,1467127849000.0,18604107
196058235,Nashville,,1448472630000.0,36.17,-86.78,Courtney,TN,1448472630000.0,18604107
209029451,Old Hickory,,1468526525000.0,36.25,-86.63,Courtney A,TN,1468526525000.0,18604107
216372401,Nashville,,1478648894000.0,36.17,-86.78,Courtney Albs,TN,1478648894000.0,18604107
191113125,Russellville,,1439175587000.0,36.83,-86.92,Courtney Belew,KY,1439175587000.0,18604107
231527720,Nashville,,1499714699000.0,36.17,-86.72,Courtney Lynn,TN,1499714699000.0,18604107
204941211,Nashville,,1462971694000.0,36.17,-86.78,Courtney Pitsinger,TN,1462971694000.0,18604107
203585243,Hermitage,,1461000257000.0,36.19,-86.6,Courtney Sample,TN,1461000257000.0,18604107
228430354,Nashville,,1495857013000.0,36.17,-86.72,Courtney Stover,TN,1495857013000.0,18604107
7596537,Nashville,Nashville,1488658882000.0,36.18,-86.74,cristina campanella,TN,1488658882000.0,18604107
226938907,Nashville,,1493904457000.0,36.17,-86.78,Cristina Martínez de Carrasco,TN,1493904457000.0,18604107
201813746,Mc Minnville,,1458422377000.0,35.72,-85.76,Crystal,TN,1465139811000.0,18604107
131017252,Nashville,"Chicago, IL",1491012867000.0,36.17,-86.78,Crystal,TN,1494863981000.0,18604107
113795672,College Grove,,1504958533000.0,35.77,-86.71,Crystal,TN,1504958533000.0,18604107
228194872,Franklin,,1495553546000.0,35.93,-86.81,Crystal Howe,TN,1495553546000.0,18604107
214027715,Franklin,,1475236850000.0,35.92,-86.87,Crystal Hyatt,TN,1475236850000.0,18604107
223723066,Nashville,,1489469648000.0,36.15,-86.79,Crystal mason,TN,1489469648000.0,18604107
187989332,Nashville,,1432994228000.0,36.17,-86.78,CT,TN,1434551852000.0,18604107
197101292,Nashville,,1450712755000.0,36.18,-86.74,Curt Bee,TN,1459572128000.0,18604107
214605910,Nashville,,1475977043000.0,36.14,-86.74,Curtis Mosher ,TN,1475977043000.0,18604107
231782952,Nashville,,1500002025000.0,36.18,-86.74,Cyndi Rizzitello,TN,1501939502000.0,18604107
211050959,Nashville,,1471292709000.0,36.17,-86.78,Cyrus Graham Peterson,TN,1471292709000.0,18604107
211132012,Hermitage,,1471401783000.0,36.19,-86.6,Dale Mc Mindes (DJ),TN,1471401783000.0,18604107
223648353,Clarksville,,1489366075000.0,36.49,-87.23,Dan,TN,1503417744000.0,18604107
185460273,Antioch,,1435584095000.0,36.04,-86.64,Dan Searle,TN,1464538264000.0,18604107
232869666,Nashville,,1501355325000.0,36.17,-86.78,Dana Smith Joki,TN,1501355325000.0,18604107
217204421,Adairville,,1479994183000.0,36.68,-86.85,Dandelion441,KY,1479994183000.0,18604107
238447511,Nashville,,1507513070000.0,36.1,-86.66,Dane Fowler,TN,1507513070000.0,18604107
195506655,Nashville,,1447413192000.0,36.17,-86.78,Dane Kinderlan,TN,1447413192000.0,18604107
238024229,Trenton,,1507056554000.0,36.73,-87.26,Danette Murphy,KY,1507407884000.0,18604107
206196868,Clarksville,,1464700352000.0,36.53,-87.35,Daniel Allen,TN,1475354210000.0,18604107
207083568,Odenton,,1465884990000.0,39.05,-76.71,Daniel Bauer,MD,1466116868000.0,18604107
227478188,Nashville,,1494639197000.0,36.17,-86.78,Daniel Coleman,TN,1494639197000.0,18604107
199298359,Nashville,,1498374051000.0,36.17,-86.72,Daniel L.,TN,1505276701000.0,18604107
199685371,Murfreesboro,,1455410896000.0,35.78,-86.33,Daniel Wimberley,TN,1467997344000.0,18604107
194448404,Nashville,,1445476553000.0,36.18,-86.74,Danielle,TN,1445476553000.0,18604107
197337176,Ethridge,,1451325140000.0,35.32,-87.31,Danielle Brannon,TN,1488758069000.0,18604107
226755102,Hermitage,,1493658638000.0,36.19,-86.6,Danielle Castiglione,TN,1493658638000.0,18604107
139124672,Brentwood,,1452088559000.0,36.0,-86.79,Danielle Gillian,TN,1452088559000.0,18604107
201605855,Bowling Green,,1493663036000.0,37.02,-86.46,Danielle Phillips,KY,1494723746000.0,18604107
201773052,Maryville,,1458360648000.0,35.76,-83.97,Danielle Rae,TN,1458360648000.0,18604107
231911377,Murfreesboro,,1500165977000.0,35.87,-86.44,Danielle Rains,TN,1500165977000.0,18604107
216255211,Nashville,,1478469549000.0,36.14,-86.74,Danny Klema,TN,1481689894000.0,18604107
213441924,Clarksville,,1474682518000.0,36.53,-87.35,Danyelle H.,TN,1490440156000.0,18604107
226569699,Thompsons Station,,1493402822000.0,35.8,-86.9,Darla Morrison,TN,1493402822000.0,18604107
190299587,Clarksville,,1437654572000.0,36.53,-87.35,Darlene,TN,1437654572000.0,18604107
231760773,Murfreesboro,,1499976168000.0,35.84,-86.39,Darlene Bailey,TN,1499976168000.0,18604107
195714467,Antioch,,1447806862000.0,36.17,-86.88,darryl cox,TN,1472851685000.0,18604107
224028743,Nashville,,1489900627000.0,36.17,-86.78,Dave,TN,1489900627000.0,18604107
11049709,Nashville,,1452126110000.0,36.17,-86.78,Dave & June Wilson,TN,1453731719000.0,18604107
232877262,Arrington,,1501364679000.0,35.86,-86.66,dave hedlund,TN,1501364679000.0,18604107
206843171,Nashville,,1465563460000.0,36.15,-86.79,David,TN,1499391209000.0,18604107
199992380,Hendersonville,,1455833695000.0,36.32,-86.61,David,TN,1455833695000.0,18604107
133228552,Nashville,"Nashville, TN",1494603140000.0,36.11,-86.86,David,TN,1495653515000.0,18604107
34585292,Nashville,"New York, NY",1470778624000.0,36.17,-86.78,David Diamond,TN,1497199052000.0,18604107
230798730,Nashville,,1498831845000.0,36.16,-86.79,David Gerstein,TN,1498831845000.0,18604107
214661782,Hermitage,,1476061581000.0,36.19,-86.6,David Lopez,TN,1476061581000.0,18604107
195878679,Antioch,,1448129837000.0,36.04,-86.64,David Palmor,TN,1448129837000.0,18604107
216092618,Murfreesboro,,1478213451000.0,35.85,-86.36,David Palomeque,TN,1478213451000.0,18604107
217777187,Nashville,,1481638051000.0,36.06,-86.96,David Piller,TN,1481638051000.0,18604107
203961095,Woodbury,,1463613977000.0,35.81,-86.07,David Piper,TN,1463613977000.0,18604107
191592478,Nashville,,1440109489000.0,36.17,-86.78,David Potter,TN,1440109489000.0,18604107
219580542,Clarksville,,1483966769000.0,36.56,-87.35,David Rhodes,TN,1483966769000.0,18604107
192373501,Hendersonville,,1446868005000.0,36.32,-86.61,Davis Jackson,TN,1446868005000.0,18604107
235307665,Franklin,,1504172675000.0,35.92,-86.89,Dawn Beatty,TN,1504172675000.0,18604107
234363081,Nashville,,1503093864000.0,36.15,-86.79,Dawn Griffith,TN,1503093864000.0,18604107
189804783,Franklin,,1436684664000.0,35.92,-86.89,Dawn Thayer,TN,1436684664000.0,18604107
193142821,Mount Juliet,,1443032380000.0,36.22,-86.52,Dawna LoPiccolo,TN,1455198983000.0,18604107
227099990,Fairview,,,35.97,-87.13,,TN,,18604107
189733717,Nashville,,1436543078000.0,36.17,-86.78,Dawson Darnell,TN,1474079825000.0,18604107
190688757,Linden,,1438353694000.0,35.6,-87.85,DBMarcel,TN,1464569188000.0,18604107
200947632,Nashville,,1457189956000.0,36.11,-86.86,Deanna Loveland,TN,1457189956000.0,18604107
230757689,Nashville,,1499784816000.0,36.17,-86.72,Deb,TN,1507387812000.0,18604107
221508547,Nashville,,1486394951000.0,36.17,-86.78,Deb Adao,TN,1486743261000.0,18604107
216569526,Nashville,,1478981905000.0,36.17,-86.78,Debbie,TN,1503669987000.0,18604107
187712086,Clarksville,,1432433830000.0,36.56,-87.41,Debbie bryant,TN,1432433830000.0,18604107
214843960,Nashville,,1476329035000.0,36.17,-86.78,Debbie Hillis,TN,1476329035000.0,18604107
228465465,Nashville,,1495908353000.0,36.17,-86.78,Debbie Rowe,TN,1496925072000.0,18604107
217864958,Nashville,,1481139647000.0,36.19,-86.8,Deborah Lederman,TN,1481139647000.0,18604107
237374174,Nashville,,1506337325000.0,36.16,-86.66,Debra Hamlin,TN,1506337325000.0,18604107
233494248,Lebanon,,1502113027000.0,36.21,-86.31,Dee Fontenot,TN,1502113027000.0,18604107
188276653,Nashville,,1433564515000.0,36.08,-86.72,Deepak,TN,1434334500000.0,18604107
232813802,Antioch,,1501280552000.0,36.04,-86.64,Deezy,TN,1501280552000.0,18604107
202312442,Mount Juliet,,,36.17,-86.49,,TN,,18604107
210198547,Murfreesboro,,1470075224000.0,35.78,-86.33,Delle N. Griffin,TN,1471383274000.0,18604107
218746094,Atlanta,,1482848535000.0,33.68,-84.45,Denise Graves-Judkins,GA,1482848535000.0,18604107
12538845,Nashville,,1495153828000.0,36.17,-86.78,Denise Mitchell,TN,1495153828000.0,18604107
198195215,La Vergne,Nashville,1463846743000.0,36.01,-86.57,Denny,TN,1464477821000.0,18604107
206265729,Nashville,,1464796087000.0,36.17,-86.78,deonsha,TN,1464796087000.0,18604107
185949407,Hermitage,,1440180157000.0,36.19,-86.6,Derek,TN,1504019270000.0,18604107
207651230,Columbia,,1466666513000.0,35.61,-87.05,Derek Hammill,TN,1466666513000.0,18604107
233859133,Spring Hill,,1502512816000.0,35.76,-86.88,Devin Smith,TN,1502512816000.0,18604107
202845291,Nashville,,1459947753000.0,36.17,-86.78,Devon,TN,1463487967000.0,18604107
237123058,Franklin,,1508729708000.0,35.92,-86.89,Devon Lopez,TN,1508729708000.0,18604107
201298123,Mount Juliet,,1457693036000.0,36.22,-86.52,Devonne Barker,TN,1459702309000.0,18604107
189851402,Nashville,nashville,1477247798000.0,36.16,-86.79,Dhaval Poladia,TN,1499454993000.0,18604107
236825752,Nashville,,1505743780000.0,36.15,-86.86,Diana Dorris,TN,1505743780000.0,18604107
226306624,Manchester,,1493052196000.0,35.49,-86.14,Diane,TN,1501546973000.0,18604107
198038191,Old Hickory,,1457277208000.0,36.25,-86.63,Diane Rankin,TN,1504789961000.0,18604107
189166874,Spring Hill,,1435378256000.0,35.76,-86.88,DJ Martin,TN,1435432124000.0,18604107
215972966,Nolensville,,1505820729000.0,35.94,-86.67,DL74,TN,1505820729000.0,18604107
212191797,Hendersonville,,1472886057000.0,36.32,-86.61,Dominic Camany,TN,1472886057000.0,18604107
204655705,Nashville,,1462558542000.0,36.08,-86.72,Dominique,TN,1463675222000.0,18604107
230581457,Nashville,,1498562131000.0,36.08,-86.72,Don C.,TN,1498562131000.0,18604107
212294808,Murfreesboro,,1473025592000.0,35.87,-86.44,Don Sledge,TN,1473107272000.0,18604107
213127888,Lebanon,,1474126765000.0,36.21,-86.29,Donna,TN,1474126765000.0,18604107
194158006,Nashville,,1444940456000.0,36.17,-86.78,Donna McCall Hudson,TN,1444940456000.0,18604107
3545189,Mount Juliet,,1495583209000.0,36.21,-86.52,Donna Wells,TN,1495583209000.0,18604107
223560646,Nashville,,1489245951000.0,36.17,-86.78,Donovan Smith,TN,1489245951000.0,18604107
72952262,Hendersonville,,1480258973000.0,36.32,-86.61,Doug Fitzgerald,TN,1493421880000.0,18604107
217952018,Nashville,,1497343992000.0,36.17,-86.78,Doug Rhodes,TN,1499451811000.0,18604107
182570117,Antioch,,1491182780000.0,36.17,-86.88,doyi,TN,1491182780000.0,18604107
205822921,Nashville,Nashville,1495122849000.0,36.17,-86.72,Dr Tank,TN,1501590889000.0,18604107
184198669,Murfreesboro,,1452637922000.0,35.87,-86.34,Dr. Christina Pisanello,TN,1452637922000.0,18604107
205819559,Hendersonville,,1464152420000.0,36.32,-86.61,dragos cornea,TN,1464152420000.0,18604107
221619522,Mount Juliet,,1486523611000.0,36.21,-86.52,Drew Brown,TN,1486523611000.0,18604107
118758712,Nashville,,1499400202000.0,36.17,-86.78,Duane Stephenson,TN,1504843522000.0,18604107
201389984,Nashville,,1457822783000.0,36.17,-86.78,Dude,TN,1457822783000.0,18604107
187770873,Mount Juliet,,1432557547000.0,36.21,-86.52,Dustin Bain,TN,1499201693000.0,18604107
230064309,Clarksville,,1497935576000.0,36.56,-87.41,Dustyn Fisher,TN,1500223587000.0,18604107
218093333,Murfreesboro,,1481554068000.0,35.85,-86.36,Dylan B Starr,TN,1481554068000.0,18604107
216121771,Nashville,,1478265489000.0,36.17,-86.78,Dylan Lauer,TN,1478265489000.0,18604107
190356236,Nashville,,1437756355000.0,36.17,-86.78,Dylan Shropshire,TN,1437833003000.0,18604107
203131543,Woodlawn,"Woodlawn, TN",1460354124000.0,36.5,-87.54,Ed Hamlin,TN,1461526629000.0,18604107
192792326,Nashville,,1442373596000.0,36.17,-86.78,Edessa Yousefzadeh,TN,1442392540000.0,18604107
21287551,Brentwood,BRENTWOOD,1441717585000.0,36.0,-86.79,Edgard Arenas,TN,1495720142000.0,18604107
207318155,Madison,,1466213934000.0,36.26,-86.71,Ehrlich,TN,1466213934000.0,18604107
220028394,Gladeville,,1484536730000.0,36.19,-86.28,eiliaine riley,TN,1484536730000.0,18604107
231850910,Nashville,,1500088176000.0,36.17,-86.78,Elaine 'Stormy' Gribbins,TN,1500185724000.0,18604107
10074530,Chattanooga,,1477100388000.0,35.0,-85.23,Elaine Hoff,TN,1497014974000.0,18604107
220595441,Nashville,,1485243268000.0,36.17,-86.78,ELHILALY  EHIMIR,TN,1485243268000.0,18604107
225260808,Nashville,,1493409693000.0,36.17,-86.78,Elinor H,TN,1493409693000.0,18604107
11493851,Nashville,,1432399332000.0,36.17,-86.78,elizabeth,TN,1432399332000.0,18604107
206522312,Hermitage,,1465146632000.0,36.19,-86.6,Elizabeth,TN,1465146632000.0,18604107
228579559,Nashville,Nashville,1496073155000.0,36.11,-86.86,Elizabeth ,TN,1498231055000.0,18604107
67990982,Murfreesboro,,1458568779000.0,35.78,-86.33,Elizabeth F,TN,1461417887000.0,18604107
235271790,Murfreesboro,,1504130193000.0,35.85,-86.36,Elizabeth Hook,TN,1504130193000.0,18604107
191149214,Nashville,,1443472383000.0,36.17,-86.72,Elizabeth Jackson,TN,1468743740000.0,18604107
205642514,Nashville,,1463922117000.0,36.18,-86.74,Elizabeth Lauren Tomlinson-Stark,TN,1463922117000.0,18604107
229437561,Spring Hill,,1497153687000.0,35.76,-86.88,Elizabeth N.,TN,1497209496000.0,18604107
226240646,Franklin,,1492966880000.0,35.92,-86.89,Elizabeth Smith,TN,1497230074000.0,18604107
188276601,Franklin,,1433564361000.0,35.92,-86.89,Elizabeth Temple,TN,1433564361000.0,18604107
85665532,Nashville,,1445166694000.0,36.17,-86.78,Elizabeth TeSelle,TN,1445166694000.0,18604107
225729295,Nashville,,1492268907000.0,36.17,-86.78,Elizabeth Walston,TN,1492268907000.0,18604107
68121142,Nashville,,1448070058000.0,36.14,-86.74,Elizabeth(Tootie)Hagan,TN,1448070058000.0,18604107
98379402,Thompsons Station,,1494386842000.0,35.8,-86.9,Ellen Browne,TN,1495443228000.0,18604107
188306868,Nashville,,1478469781000.0,36.14,-86.74,Ellen Larson,TN,1478469781000.0,18604107
188008848,Nashville,,1493561900000.0,36.13,-86.8,Ellen Roskin,TN,1493561900000.0,18604107
211913498,Lebanon,"Eureka, MT",1472502326000.0,36.21,-86.31,Ellena,TN,1499647315000.0,18604107
191757339,Nashville,,1440445791000.0,36.11,-86.86,ellenpn,TN,1440445791000.0,18604107
192349588,Hendersonville,,1441568153000.0,36.32,-86.61,Ellesquared,TN,1441568153000.0,18604107
191091391,Nashville,"Quincy, IL",1439139413000.0,36.06,-86.74,Elliot Haider,TN,1439139413000.0,18604107
192223971,Christiana,,1441321455000.0,35.71,-86.36,Elyse Hood,TN,1441321455000.0,18604107
232447122,Smyrna,,1500833940000.0,35.97,-86.51,Em Britton,TN,1500833940000.0,18604107
188563907,Nashville,,1434148063000.0,36.1,-86.66,Emad Abdalla,TN,1434148063000.0,18604107
190985802,Nashville,,1438917383000.0,36.17,-86.78,Emilia Waszkielewicz,TN,1441672863000.0,18604107
200123649,Mount Juliet,,1456017550000.0,36.21,-86.52,Emily,TN,1466699594000.0,18604107
231052896,Dickson,,1499141298000.0,36.08,-87.43,Emily,TN,1499141298000.0,18604107
195053512,Springfield,,1460487020000.0,36.52,-86.87,Emily,TN,1460487020000.0,18604107
193839771,Nashville,,1450539459000.0,36.09,-86.82,emily,TN,1450539459000.0,18604107
203405501,Nashville,,1460744855000.0,36.17,-86.78,Emily,TN,1460744855000.0,18604107
222835485,Nashville,,1488217222000.0,36.08,-86.72,Emily Horton,TN,1488217222000.0,18604107
75866242,Nashville,,1457274853000.0,36.16,-86.79,Emily Lauritson,TN,1459718358000.0,18604107
190756551,Nashville,,1438485692000.0,36.08,-86.72,Emily Logsdon,TN,1469100297000.0,18604107
13553126,Nashville,,1439341535000.0,36.17,-86.78,Emily Mansfield,TN,1439470513000.0,18604107
191379120,Nashville,,1439697710000.0,36.17,-86.72,Emily Moore,TN,1447528273000.0,18604107
93060442,Nashville,,1446941322000.0,36.17,-86.78,Emily Muro,TN,1468545012000.0,18604107
190055062,Nashville,,1437176375000.0,36.08,-86.72,Emily Nash,TN,1437176375000.0,18604107
231485603,Nashville,,1499662379000.0,36.15,-86.86,Emily Olds,TN,1499662379000.0,18604107
220859635,Nashville,,1485576489000.0,36.06,-86.96,Emily White,TN,1485576489000.0,18604107
197880182,Clarksville,,1452386671000.0,36.53,-87.35,EmilyGregVela,TN,1452574620000.0,18604107
214973487,Nashville,,1476558423000.0,36.17,-86.78,Emmanuel Ogunkoya,TN,1476558423000.0,18604107
186045687,Nashville,,1434027338000.0,36.08,-86.72,Emrith Hodge,TN,1454185834000.0,18604107
130715062,Nashville,,1483749413000.0,36.17,-86.78,eric,TN,1499729242000.0,18604107
184353266,Nashville,,1492973596000.0,36.17,-86.78,Eric A. ,TN,1492973596000.0,18604107
203229902,Hendersonville,,1460487366000.0,36.32,-86.61,Eric Dill,TN,1460487366000.0,18604107
209637148,Nashville,,1469324510000.0,36.17,-86.78,Erick Kigen,TN,1469324510000.0,18604107
210783231,Nashville,,1470899819000.0,36.17,-86.78,Erika P,TN,1471913538000.0,18604107
211684278,Nashville,,1472180153000.0,36.21,-86.72,Erika Urbanic,TN,1472180153000.0,18604107
193007750,Nolensville,,1442785457000.0,35.94,-86.67,Erin,TN,1443402997000.0,18604107
204606147,Nashville,,1462481372000.0,36.11,-86.86,Erin,TN,1503841628000.0,18604107
197626153,Thompsons Station,,1451926743000.0,35.8,-86.9,Erin J,TN,1451926743000.0,18604107
198375995,Nashville,,1453303527000.0,36.13,-86.8,Erin steinwedel,TN,1453303527000.0,18604107
212178512,Memphis,,1472864534000.0,35.02,-89.87,Erlinda Barrios,TN,1491869063000.0,18604107
220435869,Clarksville,,1485572959000.0,36.53,-87.35,Erne Aicilap,TN,1485572959000.0,18604107
188173176,Nashville,,1433352875000.0,36.08,-86.72,Essence Beauty,TN,1433352875000.0,18604107
207171346,Nashville,,1466008604000.0,36.17,-86.78,Esther casstevens,TN,1501512744000.0,18604107
209624517,Nashville,,1469310124000.0,36.06,-86.96,Ethan,TN,1469571862000.0,18604107
6786365,Nashville,No such thing!,1462101396000.0,36.16,-86.79,Eva,TN,1495763901000.0,18604107
190461714,Eagleville,,1437945691000.0,35.75,-86.64,Evan Coley,TN,1437950320000.0,18604107
228092489,Nashville,,1495433829000.0,36.17,-86.78,Eve Sundeen,TN,1495433829000.0,18604107
100079962,Murfreesboro,Murfreesboro ,1465928128000.0,35.82,-86.45,Faith,TN,1476591051000.0,18604107
222281094,Nashville,,1487443391000.0,36.16,-86.66,Fen Aisling,TN,1487443391000.0,18604107
208394477,Murfreesboro,,1467691402000.0,35.78,-86.33,Fernando,TN,1467691402000.0,18604107
190974344,Nashville,,1438897068000.0,36.08,-86.72,Fernando Avalos,TN,1442770572000.0,18604107
148713572,Murfreesboro,,1448006667000.0,35.78,-86.33,Fiorella Lunita,TN,1468185868000.0,18604107
198376840,Kingsport,,1453304584000.0,36.55,-82.55,Fishing4life,TN,1453304584000.0,18604107
107626512,Austin,,1461306115000.0,30.27,-97.74,Fletcher Mann,TX,1461306115000.0,18604107
158074372,Smyrna,,1507387777000.0,35.97,-86.51,Florence,TN,1507387777000.0,18604107
214584631,Antioch,,1475947862000.0,36.04,-86.64,Francisco Domingues,TN,1475947862000.0,18604107
195328753,Hermitage,,1447088035000.0,36.19,-86.6,Freda North,TN,1447088035000.0,18604107
231006792,Southside,,1499091855000.0,36.36,-87.3,Gabi Lesher,TN,1499091855000.0,18604107
233089457,Pleasant View,,1502509728000.0,36.38,-87.04,Gabriel Chastain,TN,1502509728000.0,18604107
233295843,Hermitage,,1501880844000.0,36.19,-86.6,Gabriela Apolinario,TN,1501880844000.0,18604107
231715038,Nashville,,1499921057000.0,36.17,-86.72,Gail Riley Phelps,TN,1499921057000.0,18604107
195802069,Spring Hill,,1447969825000.0,35.76,-86.88,Gailen M Rowland-Wiltz,TN,1466731530000.0,18604107
231211172,Hermitage,,1499341114000.0,36.19,-86.6,GamerWithFlow,TN,1499341114000.0,18604107
208122697,Franklin,,1467318818000.0,35.92,-86.89,Gary,TN,1467318818000.0,18604107
137425392,Franklin,,1487955146000.0,35.92,-86.89,Gaurav,TN,1493862047000.0,18604107
231059352,Nashville,,1499150988000.0,36.17,-86.78,Gene Robinson,TN,1499150988000.0,18604107
229418539,Nashville,,1497106977000.0,36.08,-86.72,George,TN,1504964818000.0,18604107
138690252,Franklin,Franklin,1462055619000.0,35.92,-86.89,Georgia Mascali,TN,1462055619000.0,18604107
201836223,Portland,,1458453182000.0,36.57,-86.49,Gerri Shehane,TN,1458453182000.0,18604107
226510444,Nashville,,1497209905000.0,36.06,-86.96,Gina Renee,TN,1497209905000.0,18604107
195083024,Nashville,,1446625580000.0,36.17,-86.78,Ginny Shaffer,TN,1496843331000.0,18604107
229921473,Franklin,,1497749116000.0,35.92,-86.87,Giuliana Nigro,TN,1498659318000.0,18604107
25921272,Nashville,,1499533067000.0,36.16,-86.79,Glen Fassinger,TN,1504025964000.0,18604107
226247119,Greenbrier,,1492973010000.0,36.43,-86.8,Glenda Stephens,TN,1492973010000.0,18604107
233384570,Nashville,,1501982906000.0,36.16,-86.66,Glenn Bailey,TN,1501982906000.0,18604107
216082734,Madison,,1478200459000.0,36.19,-86.74,Glory C,TN,1478200459000.0,18604107
227695951,Nashville,,1494940715000.0,36.08,-86.72,Goldi_locks,TN,1495396280000.0,18604107
236618869,Old Hickory,,1505519957000.0,36.25,-86.63,Gordy Valcarcel,TN,1505519957000.0,18604107
211594974,New York,,1472059335000.0,40.75,-73.99,Grace E. Chase,NY,1472059335000.0,18604107
188105393,Wartrace,,1433211972000.0,35.5,-86.34,Grant Foster Raybourne,TN,1433211972000.0,18604107
214709842,Nashville,,1476134772000.0,36.17,-86.79,Grant Holder,TN,1476134772000.0,18604107
211772264,Clarksville,,1472325014000.0,36.49,-87.23,Greg,TN,1472325014000.0,18604107
208874160,Nashville,,1468327216000.0,36.17,-86.78,Greg Hogan,TN,1468327216000.0,18604107
10635706,Folsom,,1468391995000.0,38.68,-121.16,Greg Rankin,CA,1468391995000.0,18604107
208689759,Nashville,,1468090453000.0,36.17,-86.78,Gus Macdonald,TN,1468090453000.0,18604107
216078520,Nashville,,1478195040000.0,36.08,-86.72,Gwen Hornberger,TN,1478195040000.0,18604107
223967860,Nashville,,1489809261000.0,36.1,-86.66,Haley Boggs,TN,1489809261000.0,18604107
214283308,Nashville,,1475547675000.0,36.08,-86.72,Haluk Alk??,TN,1475547675000.0,18604107
108367872,Nashville,,1469808753000.0,36.16,-86.79,Hamed,TN,1469808753000.0,18604107
212571015,Nashville,,1473384897000.0,36.17,-86.78,Hannah Kai Page,TN,1473384897000.0,18604107
201017480,New York,,,40.75,-73.99,,NY,,18604107
196237376,College Grove,,1448856070000.0,35.77,-86.71,Hannah McCurdy,TN,1448856070000.0,18604107
190224939,Nashville,,1474228582000.0,36.15,-86.86,Hannah Younger,TN,1506455005000.0,18604107
205679523,Nashville,,1463964651000.0,36.17,-86.78,Harper Ganick,TN,1464731907000.0,18604107
188569068,Nashville,,1437262278000.0,36.11,-86.78,Harvey ,TN,1437262278000.0,18604107
30687102,Nashville,"London, England",1459908555000.0,36.17,-86.78,Hassan,TN,1498836906000.0,18604107
206230171,Franklin,,1464739207000.0,35.99,-86.9,Hayley,TN,1464739207000.0,18604107
211435150,Nashville,,1471840676000.0,36.09,-86.82,Hayley Clifford,TN,1471840676000.0,18604107
237469985,Nashville,,1506438569000.0,36.16,-86.79,Hayley Justinak,TN,1506438569000.0,18604107
199806810,Lebanon,,1455583436000.0,36.21,-86.29,Hayli,TN,1456107562000.0,18604107
202465481,Lebanon,,1459394306000.0,36.21,-86.29,Heather,TN,1459394306000.0,18604107
210008653,La Vergne,,1469817536000.0,36.01,-86.57,Heather H,TN,1473269930000.0,18604107
189761502,Goodlettsville,,1436594232000.0,36.33,-86.74,Heather Marie,TN,1436594232000.0,18604107
200187499,Nashville,,1456102036000.0,36.17,-86.78,Heather Rayko,TN,1456102036000.0,18604107
213219141,Joelton,,1474235151000.0,36.33,-86.91,Heather Satterfield,TN,1474235151000.0,18604107
221286307,Nashville,,1486102376000.0,36.17,-86.78,Heather White,TN,1486102376000.0,18604107
235766088,Hendersonville,,1504669049000.0,36.32,-86.61,Heidi Redenius,TN,1504984107000.0,18604107
205599332,Dickson,,1463857774000.0,36.08,-87.43,Heidi Stucky,TN,1463857774000.0,18604107
202967027,Nashville,,1460126109000.0,36.18,-86.74,Hi There,TN,1492713409000.0,18604107
156221372,Nashville,,1463847245000.0,36.17,-86.78,Hilary Neblett,TN,1463847245000.0,18604107
238911479,Nashville,,1508033744000.0,36.16,-86.77,Hillary Knudson,TN,1508033744000.0,18604107
196808585,Nashville,,1450021044000.0,36.17,-86.72,Hillary S Altaqi,TN,1450021044000.0,18604107
217572070,Nashville,,1480638784000.0,36.11,-86.86,Hollie Ann,TN,1480638784000.0,18604107
211467941,Nashville,,1471950724000.0,36.17,-86.78,Holly,TN,1471950724000.0,18604107
212043415,Nashville,,1488504574000.0,36.07,-86.73,Holly molly,TN,1488504574000.0,18604107
191374437,Franklin,,1439701901000.0,35.92,-86.89,Holt,TN,1451869112000.0,18604107
199382699,Lithia Springs,,1454965513000.0,33.77,-84.64,Hugo N,GA,1454965513000.0,18604107
194958550,Nashville,,1458756662000.0,36.08,-86.72,Hunter H. Williams,TN,1459713212000.0,18604107
232381768,Franklin,,1500749742000.0,35.93,-86.84,Ian Parker,TN,1500749742000.0,18604107
204055830,Nashville,,1461676332000.0,36.17,-86.78,Ian Preston,TN,1461676332000.0,18604107
210146184,Nashville,,1470003184000.0,36.17,-86.78,Iboro,TN,1471897658000.0,18604107
238263121,Knoxville,,1507313181000.0,35.95,-83.94,Imani Chambers,TN,1507313181000.0,18604107
231253444,Nashville,,1499386667000.0,36.17,-86.78,Infinity Essence,TN,1505135005000.0,18604107
59543352,Nashville,,1469391181000.0,36.13,-86.8,Irene Popa,TN,1471476257000.0,18604107
219094671,Franklin,,1483394195000.0,35.93,-86.81,Irma De Leon,TN,1495150035000.0,18604107
210013317,Nashville,,1470162313000.0,36.17,-86.78,Issam Bahour,TN,1470162313000.0,18604107
213002314,Nashville,,1473959131000.0,36.17,-86.78,Ivy Dean,TN,1473959131000.0,18604107
233164242,Franklin,,1501719232000.0,35.93,-86.81,Ivy Kuzminsky Gabele,TN,1501719232000.0,18604107
214418310,Hermitage,,1475700916000.0,36.19,-86.6,J Allen,TN,1475700916000.0,18604107
230873941,Nashville,,1498928546000.0,36.15,-86.8,Jabari,TN,1498928546000.0,18604107
232468214,Fort Campbell,,1500857220000.0,36.65,-87.46,Jack Blaedow,KY,1500857220000.0,18604107
202103723,Mount Juliet,,1458852698000.0,36.21,-86.52,JACK C.,TN,1461454395000.0,18604107
217028045,Nashville,,1479693077000.0,36.17,-86.78,Jacky Akbari,TN,1479693077000.0,18604107
230973773,Fort Campbell,,1499046155000.0,36.65,-87.46,Jacob,KY,1499046155000.0,18604107
189181116,Clarksville,Clarksville,1435415431000.0,36.53,-87.35,Jacob Lewis,TN,1453159107000.0,18604107
221747475,Brentwood,,1486692934000.0,36.0,-86.79,Jacque,TN,1486692934000.0,18604107
206726322,Nashville,,1465403776000.0,36.07,-86.73,Jacqueline Miller,TN,1465403776000.0,18604107
208007477,Hendersonville,,1467156894000.0,36.32,-86.61,Jade Doubleday,TN,1467156894000.0,18604107
207265048,Nashville,,1466135006000.0,36.17,-86.78,Jake Novick,TN,1466135006000.0,18604107
129085262,La Vergne,Alpharetta,1451573870000.0,36.01,-86.57,Jake Richards,TN,1451573870000.0,18604107
233833511,Mount Juliet,,1502483533000.0,36.22,-86.52,Jake Withers,TN,1502483533000.0,18604107
188684958,Nashville,,1468327621000.0,36.17,-86.78,James Alexander Louk Nieves,TN,1468327621000.0,18604107
231720516,Murfreesboro,,1499926604000.0,35.85,-86.36,James Amacher,TN,1500611977000.0,18604107
208348383,Hopkinsville,,1467638399000.0,36.87,-87.48,James B,KY,1468257568000.0,18604107
227601117,Murfreesboro,,1494816200000.0,35.87,-86.44,James Barnett,TN,1496678489000.0,18604107
230628921,Goodlettsville,,1498611136000.0,36.32,-86.72,James C,TN,1498611136000.0,18604107
232924546,Clarksville,,1501429145000.0,36.53,-87.34,James Daniel McGrath,TN,1501429145000.0,18604107
200963976,Murfreesboro,,1457210469000.0,35.78,-86.33,JAMES RAY DAVENPORT JR,TN,1457210469000.0,18604107
215397477,Castalian Springs,,1477183463000.0,36.38,-86.32,James Tant,TN,1501717530000.0,18604107
201047269,Nashville,,1459870858000.0,36.08,-86.72,Jamie,TN,1459870858000.0,18604107
203610976,Nashville,,1461031127000.0,36.13,-86.8,Jamie Scheer,TN,1461031127000.0,18604107
209101344,Murfreesboro,,1468624704000.0,35.78,-86.33,Jan,TN,1491165317000.0,18604107
206424231,Lebanon,,1472555241000.0,36.21,-86.31,Jan,TN,1495712683000.0,18604107
205622298,Nashville,,1463887349000.0,36.18,-86.74,Jane Santiago,TN,1463887349000.0,18604107
200859870,Gallatin,,1457053322000.0,36.39,-86.45,Janice B,TN,1470169381000.0,18604107
209830097,Franklin,,1469584247000.0,35.92,-86.89,Janice Howell,TN,1471452960000.0,18604107
213899415,Nashville,,1477862959000.0,36.14,-86.81,Janie Faulkner,TN,1505016319000.0,18604107
227598901,Hendersonville,,1494813884000.0,36.32,-86.61,Jared Moore,TN,1494813884000.0,18604107
219013169,Murfreesboro,,1483276635000.0,35.85,-86.36,Jared Shepler,TN,1483276635000.0,18604107
187252292,Bruceton,"Bruceton, TN",1444051390000.0,36.04,-88.25,Jason Fields,TN,1455206109000.0,18604107
212732139,Nashville,,1473611396000.0,36.16,-86.79,Jason H.,TN,1473611396000.0,18604107
204631915,Antioch,,1462520567000.0,36.04,-86.64,Jason House,TN,1462520567000.0,18604107
96885092,Nashville,Phoenix,1434421115000.0,36.08,-86.72,Jason Rhodes,TN,1434421115000.0,18604107
225536707,Nashville,,1492034576000.0,36.14,-86.8,Jason Williams,TN,1492034576000.0,18604107
183897231,Nashville,,1489663908000.0,36.17,-86.78,Jaton,TN,1490639187000.0,18604107
228737755,Nashville,,1496260268000.0,36.17,-86.78,Jay Nevill,TN,1499815822000.0,18604107
102270012,Bowling Green,"Bowling Green, KY",1494816314000.0,36.96,-86.37,jbj4321,KY,1495114539000.0,18604107
221181978,Chapmansboro,,1485983094000.0,36.37,-87.14,Jc Martinez,TN,1504025185000.0,18604107
188926501,Nolensville,,1434893215000.0,35.94,-86.67,Jean,TN,1471041098000.0,18604107
233200743,Hermitage,,1501771043000.0,36.19,-86.6,Jeanie Yates,TN,1501771043000.0,18604107
184999379,Old Hickory,,1493612105000.0,36.25,-86.63,Jeannie Timberlake,TN,1494117754000.0,18604107
81279952,Nashville,,1457409504000.0,36.17,-86.78,Jeff Collins,TN,1457409504000.0,18604107
227009510,Nashville,,1495577139000.0,36.06,-86.96,Jeff Hill,TN,1495577139000.0,18604107
225301297,Brentwood,,1491687719000.0,36.0,-86.79,Jeff McCance,TN,1491687719000.0,18604107
219023549,Murfreesboro,,1483374386000.0,35.78,-86.33,Jeff shales,TN,1496548419000.0,18604107
100756392,Nashville,,1436149627000.0,36.05,-86.74,Jeffrey,TN,1468564571000.0,18604107
206471729,Nashville,,1469732761000.0,36.17,-86.78,Jeffrey Garrison,TN,1470162585000.0,18604107
183158922,Nashville,,1496494094000.0,36.06,-86.96,Jeffrey Leon Frye,TN,1498404218000.0,18604107
211597933,Nashville,,1472062102000.0,36.17,-86.78,Jefreey Torres,TN,1472132390000.0,18604107
218988882,Hendersonville,,1496155974000.0,36.32,-86.61,Jen,TN,1496758236000.0,18604107
230746399,Nashville,,1498759768000.0,36.17,-86.72,Jen,TN,1498759768000.0,18604107
206758553,Brentwood,,1465439551000.0,36.0,-86.79,Jen,TN,1465439551000.0,18604107
233365854,Nashville,,1501963561000.0,36.18,-86.74,Jen Burns,TN,1505182263000.0,18604107
210631553,Nashville,,1470687339000.0,36.06,-86.96,Jen Simon,TN,1473620030000.0,18604107
237248736,Nashville,,1506192996000.0,36.14,-86.74,Jen-Jen Kapfhammer,TN,1506192996000.0,18604107
218346515,Gallatin,,1482031774000.0,36.39,-86.45,Jenita Hughes,TN,1482767370000.0,18604107
217759088,Murfreesboro,,1480965664000.0,35.85,-86.36,Jenna Lucente,TN,1480965664000.0,18604107
226580298,Columbia,Columbia,1499087374000.0,35.61,-87.05,Jenna Smith,TN,1499087374000.0,18604107
192696692,Lebanon,,1503192836000.0,36.21,-86.31,Jennifer,TN,1503192836000.0,18604107
190527240,Hermitage,,1438050955000.0,36.19,-86.6,Jennifer,TN,1438050955000.0,18604107
197647448,Mount Juliet,,1467839268000.0,36.21,-86.52,Jennifer,TN,1467997864000.0,18604107
189485513,Nashville,,1436053959000.0,36.17,-86.78,Jennifer,TN,1474408096000.0,18604107
214492790,Murdock,,1475803608000.0,27.01,-82.16,Jennifer Bell,FL,1475803608000.0,18604107
213376187,Franklin,,1474423850000.0,35.92,-86.89,Jennifer Collis,TN,1478796924000.0,18604107
221738457,Madison,,1486680747000.0,36.26,-86.71,Jennifer Masterson,TN,1486680747000.0,18604107
223644262,Nashville,,1489359758000.0,36.17,-86.78,Jennifer McCarty,TN,1497964592000.0,18604107
206035465,Nashville,,1464472225000.0,36.07,-86.73,Jennifer Rodgers,TN,1464472225000.0,18604107
220625787,Paducah,,1486140450000.0,37.04,-88.71,Jennifer Rose,KY,1500913057000.0,18604107
207265038,Gallatin,,1466135153000.0,36.39,-86.45,Jennifer Sharpe,TN,1474137767000.0,18604107
219398440,Murfreesboro,,1483737168000.0,35.82,-86.45,Jennifer Shirey,TN,1483737168000.0,18604107
222307866,Hendersonville,Nashville,1487478031000.0,36.32,-86.61,Jennifer Starkey,TN,1487478031000.0,18604107
210679165,Nashville,,1470755618000.0,36.17,-86.78,Jennifer Starks,TN,1470755618000.0,18604107
188431313,Estill Springs,,1433879701000.0,35.27,-86.13,Jennifer Towry,TN,1433879701000.0,18604107
205489314,Murfreesboro,,1463697999000.0,35.87,-86.44,Jennifer Wood,TN,1463697999000.0,18604107
95599772,Nashville,,1471957654000.0,36.1,-86.66,Jenny,TN,1471957654000.0,18604107
191383775,Columbia,,1470844425000.0,35.61,-87.05,Jenny Kay,TN,1470844425000.0,18604107
227785419,Lebanon,,1495046456000.0,36.21,-86.31,Jenny Ware,TN,1495046456000.0,18604107
224444823,Mount Juliet,,1490470750000.0,36.22,-86.52,Jeremy Burns,TN,1499648150000.0,18604107
218623282,Nashville,,1482590474000.0,36.18,-86.74,Jeremy Christopher,TN,1482590474000.0,18604107
189519875,Madison,,1436128868000.0,36.26,-86.71,Jess T,TN,1436128868000.0,18604107
186189582,Murfreesboro,,1459215957000.0,35.87,-86.34,Jesse Hollaway,TN,1468066769000.0,18604107
204123170,Franklin,,1461774075000.0,35.99,-86.9,Jessica,TN,1461774075000.0,18604107
49294972,Nashville,,1451799071000.0,36.17,-86.78,Jessica,TN,1490113421000.0,18604107
232500794,Nashville,,1500902698000.0,36.17,-86.78,Jessica Adair,TN,1500902698000.0,18604107
231180727,Smyrna,,1499297983000.0,35.97,-86.51,Jessica Christine Gedeon,TN,1499297983000.0,18604107
202269585,Nashville,,1459116435000.0,36.17,-86.78,Jessica Doss,TN,1461603841000.0,18604107
209914589,Nashville,,1469682833000.0,36.18,-86.74,Jessica Ferguson,TN,1469682833000.0,18604107
232864668,Murfreesboro,,1501349851000.0,35.82,-86.45,Jessica Foster,TN,1501349851000.0,18604107
226267458,Hendersonville,,1492997216000.0,36.32,-86.61,Jessica Fuller-Murphy,TN,1492997216000.0,18604107
195919431,Mount Juliet,,1448209842000.0,36.21,-86.52,Jessica Louise Deyoung,TN,1448209842000.0,18604107
205620892,Nashville,,1463885110000.0,36.09,-86.82,Jessica Ralston,TN,1463891927000.0,18604107
185535531,Nashville,,1455895372000.0,36.13,-86.63,Jessica Rice,TN,1459222861000.0,18604107
200350113,Knoxville,,1456325767000.0,35.92,-84.1,Jessica Rodriguez,TN,1456325767000.0,18604107
222403103,Nashville,,1487613720000.0,36.17,-86.78,Jessica Shutt,TN,1487613720000.0,18604107
49060972,Nashville,,1444004757000.0,36.17,-86.78,Jessica Smith,TN,1444004757000.0,18604107
236699373,Hermitage,,1505607599000.0,36.19,-86.6,Jessica Wright,TN,1505607599000.0,18604107
9546353,Hendersonville,Hendersonville,1445129351000.0,36.32,-86.61,Jessie *DAS BOAT 2* Girl,TN,1485278471000.0,18604107
207857047,Clarksville,,1466962795000.0,36.49,-87.23,Jessie Booker,TN,1471878515000.0,18604107
232516840,Mount Juliet,,1500918683000.0,36.21,-86.52,Jeyadevi Bathejanardhanan,TN,1500918683000.0,18604107
238739562,Nashville,,1507832434000.0,36.21,-86.75,Jharna Barapatrey,TN,1507832434000.0,18604107
223357531,Nashville,,1493432765000.0,36.17,-86.78,Jill,TN,1493814989000.0,18604107
216629609,Portland,,1479074987000.0,36.57,-86.49,Jill Marie Overton,TN,1479074987000.0,18604107
216811342,Nashville,,1479345288000.0,36.16,-86.79,Jill Stockton,TN,1479345288000.0,18604107
190831991,Nashville,,1438626058000.0,36.17,-86.78,Jim Hall,TN,1441330696000.0,18604107
193436948,Nashville,,1443581831000.0,36.09,-86.82,Jim Jirjis,TN,1443581831000.0,18604107
209414689,Brentwood,,1469028391000.0,36.0,-86.79,Jim Roberts,TN,1471963200000.0,18604107
191049120,Clarksville,Clarksville,1439054056000.0,36.49,-87.23,Jim Turrisi,TN,1439054056000.0,18604107
231661235,Mount Juliet,,1499869377000.0,36.22,-86.52,Jimi Sanders,TN,1499869377000.0,18604107
192375231,Nashville,,1441618483000.0,36.08,-86.72,Jimmy,TN,1442029080000.0,18604107
6170422,Nashville,,1504663723000.0,36.17,-86.78,jimmy brown,TN,1504663723000.0,18604107
226013961,Hendersonville,,1492652607000.0,36.32,-86.61,Jimmy Dale,TN,1492652607000.0,18604107
218910289,Nashville,,1483118072000.0,36.17,-86.78,Jimmy Horton,TN,1483118072000.0,18604107
189046287,Smyrna,,1435125272000.0,35.97,-86.51,Jinglin,TN,1436721491000.0,18604107
212287293,Nashville,,1473020263000.0,36.17,-86.78,Jingyi Yan,TN,1473020263000.0,18604107
191794133,Nashville,,1440511682000.0,36.08,-86.72,JJ,TN,1441608627000.0,18604107
233240193,Bigfork,,1501812840000.0,47.88,-113.97,JO,MT,1501812840000.0,18604107
218054797,Nashville,,1481484937000.0,36.16,-86.79,Joann Young,TN,1481484937000.0,18604107
54865042,Nashville,,1472216456000.0,36.16,-86.79,Joanne G.,TN,1508599762000.0,18604107
225078210,Nashville,,1491355415000.0,36.08,-86.72,Jody Maples Moser,TN,1491355415000.0,18604107
208101679,Nashville,,1467292265000.0,36.17,-86.78,Joe,TN,1468385626000.0,18604107
207030903,Nashville,,1465822661000.0,36.17,-86.78,Joe Engstrom,TN,1465822661000.0,18604107
218342216,Nashville,,1482024025000.0,36.08,-86.72,Joe Flynn,TN,1482024025000.0,18604107
30983632,Nashville,Nashville,1500049624000.0,36.18,-86.74,Joe Gray,TN,1500049624000.0,18604107
198903379,Franklin,,1454208699000.0,35.92,-86.89,Joe Ireland,TN,1454208699000.0,18604107
209990000,Nashville,,1469793227000.0,36.17,-86.78,Joe LaManna ,TN,1469793227000.0,18604107
230682473,Nashville,,1498679288000.0,36.08,-86.72,Joel,TN,1498679288000.0,18604107
209407174,Franklin,,1469035991000.0,35.92,-86.89,Joel Coady,TN,1499545639000.0,18604107
8610830,Nashville,,1502507290000.0,36.17,-86.78,Joey,TN,1502507290000.0,18604107
208785611,Charleston,,1468211483000.0,38.35,-81.63,John Bird,WV,1491761903000.0,18604107
225736515,Nashville,,1492277646000.0,36.07,-86.73,John Blackwell,TN,1492277646000.0,18604107
202041259,Whites Creek,,1461632676000.0,36.27,-86.83,John Hamilton (Jack),TN,1470879986000.0,18604107
208316957,Hermitage,,1467590548000.0,36.19,-86.6,John Harvill,TN,1467590548000.0,18604107
191155450,Franklin,,1461415341000.0,35.92,-86.89,john Hays,TN,1461415341000.0,18604107
209264213,Nashville,,1468837563000.0,36.17,-86.78,John Mothershed,TN,1468837563000.0,18604107
196613925,Saint Louis,St Louis,1449602198000.0,38.64,-90.19,John Riggins,MO,1449602198000.0,18604107
218855958,Nashville,,1483030889000.0,36.17,-86.72,Jon,TN,1483030889000.0,18604107
237747930,Nashville,,1506744373000.0,36.15,-86.86,Jon Acevedo,TN,1506744373000.0,18604107
224220927,Nashville,,1490152105000.0,36.16,-86.77,Jon Anderson,TN,1490152105000.0,18604107
219211126,Goodlettsville,,1483496988000.0,36.32,-86.72,Jon Sheppard,TN,1483496988000.0,18604107
83508362,Nashville,,1501509856000.0,36.17,-86.78,Jonathan,TN,1502225694000.0,18604107
197042031,Nashville,,1450564895000.0,36.17,-86.78,Jonathan,TN,1450564895000.0,18604107
198385300,Nashville,"Hinesville, GA",1453317488000.0,36.17,-86.78,Jonathan Boyd,TN,1453731434000.0,18604107
199629864,Hendersonville,,1455332217000.0,36.32,-86.61,Jonathan Cortner,TN,1455332217000.0,18604107
217314507,Fosterville,,1480211292000.0,35.75,-86.39,Jonathan Morgan,TN,1480211292000.0,18604107
234954423,Mount Juliet,,1503775892000.0,36.22,-86.52,Jonathan Paddon,TN,1503775892000.0,18604107
225830646,Nashville,,1493740779000.0,36.16,-86.72,Jordan Freer,TN,1493750131000.0,18604107
238440208,Murfreesboro,,1507504975000.0,35.78,-86.33,Jordan Hollingsworth,TN,1507504975000.0,18604107
223498921,Nashville,,1489158125000.0,36.17,-86.78,Jordan Todd ,TN,1489158125000.0,18604107
238342658,Springfield,,1507399247000.0,36.52,-86.87,Joseph Bright,TN,1507399247000.0,18604107
227662334,Spring Hill,,1494897935000.0,35.76,-86.88,Joseph Van Deusen,TN,1494979820000.0,18604107
231264992,Murfreesboro,,1499398999000.0,35.82,-86.45,Josh Adams,TN,1499398999000.0,18604107
211684830,Nashville,,1472182166000.0,36.13,-86.8,Josh Bueno,TN,1472182166000.0,18604107
177988892,Hendersonville,,1464402052000.0,36.32,-86.61,Josh Cain Stewart,TN,1464402052000.0,18604107
203195192,Franklin,,1460436485000.0,35.92,-86.89,Josh Fralix,TN,1500675703000.0,18604107
234676455,Nashville,,1503454355000.0,36.17,-86.78,Josh Gull,TN,1503454355000.0,18604107
234428355,Nashville,,1503170365000.0,36.16,-86.66,Josh K,TN,1503170365000.0,18604107
209381189,Nashville,,1468982434000.0,36.17,-86.78,Josh Mac,TN,1468982434000.0,18604107
229605346,Mount Juliet,,1497328374000.0,36.22,-86.52,Josh Reive,TN,1497571667000.0,18604107
197245429,La Vergne,,1451117853000.0,36.01,-86.57,Josh Stockton,TN,1451117853000.0,18604107
199918370,Nashville,,1455732143000.0,36.08,-86.72,Joshand Wilson,TN,1455738958000.0,18604107
231084235,Lebanon,,1499183876000.0,36.21,-86.31,Joshua,TN,1499183876000.0,18604107
200256647,Nashville,,1456195544000.0,36.06,-86.96,Joshua Klith,TN,1456195544000.0,18604107
189875835,Cleveland,,,41.49,-81.67,,OH,,18604107
221063321,Hendersonville,,1485831163000.0,36.32,-86.61,Joshua Thomas,TN,1485831163000.0,18604107
192878370,Nashville,,1442538952000.0,36.17,-86.72,Joy,TN,1443387680000.0,18604107
203488457,Nashville,,1460861413000.0,36.17,-86.78,Jude,TN,1460861413000.0,18604107
220482593,Nashville,,1485111343000.0,36.13,-86.8,Judith Hill,TN,1485111343000.0,18604107
198898900,Nashville,,1454201884000.0,36.17,-86.78,Judy,TN,1454201884000.0,18604107
103810512,Clarksville,"Zephyrhills, FL",1461607234000.0,36.51,-87.28,Judy Keppeler,TN,1505946794000.0,18604107
211933176,Hendersonville,,1472524382000.0,36.32,-86.61,Judy Manalastas,TN,1472681459000.0,18604107
3562568,Montréal,"Lowell, MA",1470364683000.0,45.65,-73.5,Julia,QC,1470364683000.0,18604107
203315584,Merced,,1460606372000.0,37.3,-120.47,Julia,CA,1460993080000.0,18604107
225172748,Horki,,1491845533000.0,56.32,44.0,Julia,,1497691759000.0,18604107
229804753,Nashville,,1497623901000.0,36.17,-86.78,Julia,TN,1497623901000.0,18604107
206542417,Chattanooga,,1465168332000.0,35.04,-85.31,Julia,TN,1465168332000.0,18604107
194717391,Nashville,,1464742985000.0,36.13,-86.8,Julia Claudy,TN,1466234544000.0,18604107
203279073,Madison,,1460559319000.0,36.19,-86.74,Julia Crowe,TN,1460559319000.0,18604107
197814104,Nashville,,1452269806000.0,36.06,-86.96,Julianna,TN,1452269806000.0,18604107
188938632,Hendersonville,,1434916453000.0,36.32,-86.61,Julie ,TN,1434916453000.0,18604107
192809596,Hilham,,1442414275000.0,36.4,-85.44,Julie,TN,1444832598000.0,18604107
199748015,Nashville,,1455558455000.0,36.13,-86.8,Julie,TN,1455740588000.0,18604107
203067166,Nashville,,1460261809000.0,36.13,-86.8,Julie Powers,TN,1460261809000.0,18604107
212495047,Hollywood,,1473283312000.0,26.02,-80.2,Julie Rose,FL,1473283312000.0,18604107
9415032,Nashville,,1465876104000.0,36.13,-86.8,Justin,TN,1469309729000.0,18604107
194265908,Mount Juliet,,1445148441000.0,36.21,-86.52,Justin,TN,1465252224000.0,18604107
183975778,Colonial Heights,"Knoxville, TN",1481518969000.0,37.29,-77.39,Justin Childress,VA,1481518969000.0,18604107
190219094,Murfreesboro,,1437497018000.0,35.87,-86.44,Justin Everhardt,TN,1437823692000.0,18604107
189954106,Portland,,1467855581000.0,36.57,-86.49,Justin Frech,TN,1468511730000.0,18604107
231842539,Nashville,,1500080142000.0,36.17,-86.78,Justin Hester,TN,1500080142000.0,18604107
189349302,Nashville,,1501117515000.0,36.18,-86.74,Justin Sadler,TN,1502889061000.0,18604107
207802827,Brentwood,,1466887522000.0,36.0,-86.79,Justin W ,TN,1466887522000.0,18604107
199573710,Clarksville,,1455246358000.0,36.49,-87.23,K Bee,TN,1455246358000.0,18604107
203645962,Hendersonville,,1461082775000.0,36.32,-86.61,K.C Kephart,TN,1461082775000.0,18604107
210381003,Antioch,,1470339775000.0,36.17,-86.88,Kacee Davis,TN,1470720197000.0,18604107
221294024,Nashville,,1486116458000.0,36.17,-86.78,Kaden White,TN,1486168995000.0,18604107
229251364,Nashville,,1496885406000.0,36.16,-86.78,Kait Riggle,TN,1496885406000.0,18604107
201866310,Clarksville,,1458499988000.0,36.53,-87.35,Kaitlyn Rae Largent,TN,1458499988000.0,18604107
227744019,Shelbyville,,1494992131000.0,35.48,-86.47,Kaitlyn Williford,TN,1498832228000.0,18604107
206401764,Nashville,,1464981482000.0,36.17,-86.78,Kaley Wypyszynski,TN,1464981482000.0,18604107
118617152,Cleveland,,1466024933000.0,35.16,-84.87,KALIA Sardarni,TN,1496253989000.0,18604107
215176538,Brentwood,,1476813549000.0,36.0,-86.79,kamelia zaman,TN,1476813549000.0,18604107
128254422,Nashville,,1447221060000.0,36.17,-86.78,Kaneisha Sims,TN,1447221060000.0,18604107
194400305,Arrington,,1445388451000.0,35.86,-86.66,Kara,TN,1445388451000.0,18604107
209776131,Franklin,,1469499222000.0,35.92,-86.89,Kara,TN,1492657606000.0,18604107
195479654,Nashville,,1451879645000.0,36.08,-86.72,Kara Anderson-Roush,TN,1451879645000.0,18604107
228583742,Nashville,,1496072293000.0,36.1,-86.66,Kara Armstrong,TN,1496072293000.0,18604107
216386888,Madison,,1478679763000.0,36.26,-86.71,kara gordon,TN,1478679763000.0,18604107
220971826,Nashville,,1485724337000.0,36.17,-86.78,Kara Sanders,TN,1486228347000.0,18604107
203090324,Murfreesboro,,1460300588000.0,35.78,-86.33,Karen,TN,1496099384000.0,18604107
231635484,Murfreesboro,,1499832522000.0,35.78,-86.33,Karen,TN,1501611321000.0,18604107
5655924,Nashville,,1434467910000.0,36.17,-86.78,karen,TN,1497036471000.0,18604107
186766022,Nashville,Sewanee,1459179173000.0,36.13,-86.8,Karen A,TN,1459179173000.0,18604107
208353670,Gallatin,,1467644476000.0,36.39,-86.45,Karen Casey,TN,1467644476000.0,18604107
225126935,College Grove,,1491427166000.0,35.77,-86.71,Karen Collier,TN,1495421937000.0,18604107
212956787,Nashville,,1473891168000.0,36.08,-86.72,Karen H,TN,1473891168000.0,18604107
201156737,Lebanon,,1471907170000.0,36.21,-86.31,Karen Sangster,TN,1471907170000.0,18604107
233024665,Oak Grove,,1501605415000.0,36.68,-87.45,Karica Zeeb,KY,1501605415000.0,18604107
193051777,Cornersville,,1442864506000.0,35.36,-86.84,Karin Poffenberger,TN,1454006509000.0,18604107
221378384,Antioch,,1486223770000.0,36.04,-86.64,Karina Diaz,TN,1487348093000.0,18604107
210664229,Franklin,,1470733046000.0,35.92,-86.89,Kas,TN,1470733046000.0,18604107
214285499,Nashville,,1475550768000.0,36.17,-86.78,Kasia Scherr,TN,1488115744000.0,18604107
202392824,Beechgrove,,1459289354000.0,35.62,-86.17,Kat,TN,1459289354000.0,18604107
200965059,Nashville,,1457211250000.0,36.09,-86.82,Kate,TN,1465578260000.0,18604107
230219048,Hermitage,,1498102771000.0,36.19,-86.6,Kate Childress,TN,1501039881000.0,18604107
224208749,Nashville,,1490136891000.0,36.11,-86.78,Kate Evans,TN,1490136891000.0,18604107
26592722,Nashville,"Nashville, TN",1475360523000.0,36.09,-86.82,Kate Ramsaur,TN,1491868404000.0,18604107
144843312,Jacksonville,,1499176962000.0,30.33,-81.77,Katee Elizabeth,FL,1500051287000.0,18604107
66944752,Columbia,"Morgan Hill, CA",1456169816000.0,35.61,-87.05,Katerra Martin,TN,1473882082000.0,18604107
232860787,Franklin,,1501345697000.0,35.92,-86.89,Katherine Hard,TN,1507577931000.0,18604107
206351586,Nashville,,1464908627000.0,36.11,-86.78,Katherine Marena Munoz,TN,1464908627000.0,18604107
190878191,Nashville,,1438711360000.0,36.18,-86.74,Kathi,TN,1438711360000.0,18604107
214998978,Nashville,,1476562212000.0,36.17,-86.78,Kathleen,TN,1483292007000.0,18604107
8859638,Brentwood,,1480813414000.0,36.0,-86.79,Kathleen,TN,1480813414000.0,18604107
212225415,Nashville,,1472933146000.0,36.17,-86.78,Kathryn Newman,TN,1473696828000.0,18604107
193614633,Brentwood,,1443933316000.0,36.0,-86.79,Kathryn Peacock McKnight,TN,1443933316000.0,18604107
209018194,Madisonville,,1507484058000.0,37.33,-87.49,Kathy,KY,1507484058000.0,18604107
196851227,Nashville,,1450110560000.0,36.17,-86.78,Kathy,TN,1450110560000.0,18604107
238177306,Nashville,,1507226726000.0,36.17,-86.72,Kathy Burton Rogers,TN,1507226726000.0,18604107
108352392,Nashville,,1432657253000.0,36.06,-86.96,Kathy Kimbro,TN,1467980364000.0,18604107
86478742,Nashville,,1464196208000.0,36.15,-86.86,Kathy Ranalli,TN,1506270926000.0,18604107
200188927,Nashville,,1456104850000.0,36.18,-86.74,Katie,TN,1456104850000.0,18604107
227214166,Goodlettsville,,1494280534000.0,36.32,-86.72,Katie,TN,1494280534000.0,18604107
203406629,Nashville,,1460811020000.0,36.17,-86.78,Katie,TN,1473696935000.0,18604107
209945213,Nashville,,1469729026000.0,36.06,-86.96,Katie,TN,1474688469000.0,18604107
231219563,Franklin,,1499351512000.0,35.92,-86.89,Katie,TN,1499351512000.0,18604107
198638151,Nashville,,1453783563000.0,36.17,-86.78,Katie Alyssa,TN,1453783563000.0,18604107
199524638,Brentwood,,1455172038000.0,36.0,-86.79,Katie Beth ,TN,1455172038000.0,18604107
101518442,Nashville,,1440707514000.0,36.13,-86.8,Katie carver,TN,1440707514000.0,18604107
205234154,Nashville,,1463363294000.0,36.06,-86.96,Katie Koewler,TN,1463363294000.0,18604107
226629783,Nolensville,,1493491650000.0,35.94,-86.67,Katie Majka,TN,1493491650000.0,18604107
229591830,Nashville,,1497311861000.0,36.14,-86.8,Katie Schimmel,TN,1497311861000.0,18604107
197657497,Hendersonville,Corbin,1451974170000.0,36.32,-86.61,Katlyn Spears,TN,1494375225000.0,18604107
205254561,Nashville,,1463395400000.0,36.1,-86.66,Katy Ziebell,TN,1464490415000.0,18604107
208884915,Hendersonville,"Salem, IN",1468339234000.0,36.32,-86.61,Kay IAm,TN,1468339234000.0,18604107
214135722,Nashville,,1475360481000.0,36.17,-86.78,Kay Jaynes,TN,1476044785000.0,18604107
205733411,Nashville,,1464038598000.0,36.17,-86.72,Kayakdave,TN,1468262496000.0,18604107
201377260,La Vergne,La Vergne,1457806870000.0,36.01,-86.57,Kayla,TN,1467896275000.0,18604107
199111726,Goodlettsville,,1454529158000.0,36.33,-86.74,Kayla Culp,TN,1454529158000.0,18604107
192500388,Nashville,,1441833727000.0,36.17,-86.78,Kayla Ramos,TN,1441833727000.0,18604107
236314268,Dickson,,1505234553000.0,36.08,-87.38,Kayla Reeves,TN,1505234553000.0,18604107
227031121,Nashville,,1494025619000.0,36.17,-86.78,Kayla Weber,TN,1494025619000.0,18604107
202440108,Grapevine,,1459361089000.0,32.93,-97.1,Keeley Maroney,TX,1459361089000.0,18604107
208189715,Pflugerville,,1487639437000.0,30.44,-97.63,Keirra Ewah,TX,1487639437000.0,18604107
191342643,Ashland City,"Nashville, TN",1439626426000.0,36.28,-87.07,Keith,TN,1499234852000.0,18604107
10579442,Lebanon,"Lebanon, TN",1496450533000.0,36.15,-86.32,Keith Manning,TN,1496450533000.0,18604107
183523574,Nashville,,1460420422000.0,36.17,-86.78,Kelley,TN,1460420422000.0,18604107
235742701,Murfreesboro,,1504646079000.0,35.86,-86.44,Kelley Davidson,TN,1504646079000.0,18604107
23825172,Nashville,,1460908334000.0,36.17,-86.78,Kellie Davie,TN,1460908334000.0,18604107
199491149,Nashville,,1499394744000.0,36.22,-86.71,Kelly B.,TN,1499394744000.0,18604107
201257487,Nashville,,1457633177000.0,36.06,-86.96,Kelly Burns,TN,1467726873000.0,18604107
13510482,Nashville,Jacksonville,1433879266000.0,36.17,-86.78,Kelly Dragiff,TN,1433879266000.0,18604107
206558927,Murfreesboro,,1465188051000.0,35.87,-86.34,Kelly Finlay,TN,1471915543000.0,18604107
194248680,Mount Juliet,,1445114608000.0,36.21,-86.52,Kelly Hertzel,TN,1445114608000.0,18604107
61410712,Nashville,,1500357109000.0,36.08,-86.72,Kelly Hinojosa,TN,1501810636000.0,18604107
212284382,Nashville,,1473013995000.0,36.17,-86.78,Kelly Rion,TN,1473187529000.0,18604107
204307684,Murfreesboro,,1462051357000.0,35.78,-86.33,Kelsey Kovar,TN,1462051357000.0,18604107
230340497,Nashville,,1498258071000.0,36.07,-86.73,Kelsey Reiner,TN,1498258071000.0,18604107
231967533,Antioch,,1500238741000.0,36.04,-86.64,Kelsey Wilsher,TN,1500238741000.0,18604107
194839148,Murfreesboro,,1446172955000.0,35.87,-86.34,Ken,TN,1446172955000.0,18604107
193695669,Thompsons Station,,1444085583000.0,35.8,-86.9,Ken Ashlin,TN,1444085583000.0,18604107
205651126,Camden,,1465860268000.0,36.06,-88.1,Ken Childres,TN,1465860268000.0,18604107
220465944,Camden,,1485213808000.0,36.06,-88.1,Ken Childres,TN,1498665887000.0,18604107
206681509,Clarksville,,1465342995000.0,36.53,-87.35,Ken Neeley,TN,1465342995000.0,18604107
190255538,Monterey,,1437568426000.0,36.14,-85.27,Kendra Danielle Beeler,TN,1437568426000.0,18604107
189981758,Nashville,,1437020791000.0,36.17,-86.78,Kendra W,TN,1437020791000.0,18604107
206268229,Hendersonville,,1464797311000.0,36.32,-86.61,Kendrick Esiason,TN,1464797311000.0,18604107
219626753,Nashville,,1484016229000.0,36.14,-86.8,Kenna Jing,TN,1484016229000.0,18604107
150370402,Nashville,,1461779968000.0,36.22,-86.77,kennedy,TN,1461779968000.0,18604107
210561881,Nashville,,1470594431000.0,36.17,-86.78,Kenneth,TN,1470594431000.0,18604107
223723308,Nashville,,1489462116000.0,36.18,-86.74,Kenneth Keierleber,TN,1505760573000.0,18604107
200512114,Murfreesboro,,1456553930000.0,35.78,-86.33,Kenneth Sulkosky,TN,1456553930000.0,18604107
215441361,Hermitage,,1477214647000.0,36.19,-86.6,Kerianna Fleming,TN,1477214647000.0,18604107
204157085,Nashville,,1461816739000.0,36.17,-86.72,Kerra Bennett,TN,1492606188000.0,18604107
192689592,Murfreesboro,,1442190348000.0,35.82,-86.45,Kerschdog,TN,1442190348000.0,18604107
200790915,Nashville,,1456950834000.0,36.16,-86.86,Kesley Page,TN,1456950834000.0,18604107
130240242,Wartrace,"Shelbyville, TN",1438457962000.0,35.5,-86.34,Kevin,TN,1438457962000.0,18604107
214644389,Antioch,,1476038779000.0,36.04,-86.64,Kevin Bergsmith,TN,1476038779000.0,18604107
207222178,Spring Hill,,1466080945000.0,35.76,-86.88,Kevin Boatman,TN,1467205535000.0,18604107
206632578,Nashville,,1465286337000.0,36.17,-86.78,Kevin Cavey,TN,1465286337000.0,18604107
111933162,Ashland City,Cromwell,1477797994000.0,36.28,-87.07,Kevin Gedenberg,TN,1477797994000.0,18604107
232388675,Nashville,,1500757539000.0,36.17,-86.78,Kevin Glatt,TN,1500757539000.0,18604107
224639855,Nashville,,1490734180000.0,36.22,-86.74,Kevin P,TN,1490734180000.0,18604107
192648512,Eagleville,,1442112262000.0,35.75,-86.64,Kevin Raftery,TN,1442112262000.0,18604107
234217991,Nashville,,1502939368000.0,36.17,-86.78,Kevin Regira,TN,1502939368000.0,18604107
195661482,Murfreesboro,,1447711792000.0,35.78,-86.33,Kevin S. Nowell,TN,1452780795000.0,18604107
195420727,Tracy City,,1447256875000.0,35.28,-85.73,Kim,TN,1447256875000.0,18604107
192314876,Lebanon,,1441656895000.0,36.21,-86.31,Kim,TN,1441656895000.0,18604107
231603324,Springfield,,1499798570000.0,36.52,-86.87,Kim Baldwin,TN,1499798570000.0,18604107
224343876,Nashville,,1490324058000.0,36.21,-86.72,Kim Flory,TN,1490324058000.0,18604107
229188569,Franklin,,1496805502000.0,35.93,-86.84,Kim Gorsuch,TN,1496805502000.0,18604107
224186709,Columbia,Columbia,1490112499000.0,35.61,-87.05,Kim O.,TN,1497196604000.0,18604107
224577109,Mount Juliet,,1490652892000.0,36.22,-86.52,Kim Turner,TN,1490652892000.0,18604107
12724283,Nashville,"Sacramento, CA",1463358916000.0,36.17,-86.72,Kimber,TN,1463358916000.0,18604107
201891220,Hendersonville,,1458530240000.0,36.32,-86.61,Kimberly,TN,1458530240000.0,18604107
222369692,Nashville,,1487565270000.0,36.07,-86.78,Kimberly ,TN,1487565270000.0,18604107
216780197,Nashville,,1479303556000.0,36.17,-86.72,Kimberly Thomas,TN,1497960263000.0,18604107
204300885,Gallatin,,1462064200000.0,36.39,-86.45,Kirsten Krause,TN,1462064200000.0,18604107
189398052,Eagleville,,1435863940000.0,35.75,-86.64,Kirstin,TN,1435863940000.0,18604107
193181095,Murfreesboro,,1443109117000.0,35.82,-86.45,Kris Feber Miller,TN,1443109117000.0,18604107
206735625,Nashville,,1465422327000.0,36.08,-86.71,Krish,TN,1473615257000.0,18604107
236698607,Clarksville,,1505607227000.0,36.53,-87.34,krista barber,TN,1505607227000.0,18604107
202735915,Nashville,,1459794722000.0,36.17,-86.72,Krista Coulter,TN,1459794722000.0,18604107
227378316,Nashville,,1494513334000.0,36.15,-86.86,Kristen,TN,1494513334000.0,18604107
232523612,Nashville,,1501637144000.0,36.08,-86.72,Kristen Murray,TN,1501637144000.0,18604107
223636023,Antioch,,1489351423000.0,36.04,-86.64,Kristen Rodgers,TN,1490388246000.0,18604107
227969727,Antioch,,1495295200000.0,36.04,-86.64,Kristen Workley,TN,1495295200000.0,18604107
200154109,Nashville,,1456064533000.0,36.1,-86.66,Kristie Holder,TN,1456064533000.0,18604107
236701865,Nashville,,1505610786000.0,36.15,-86.81,Kristin Granier,TN,1505610786000.0,18604107
225498014,Nashville,,1491955768000.0,36.08,-86.72,Kristin Viscione,TN,1491955768000.0,18604107
79701252,Antioch,,1504841012000.0,36.04,-86.64,Kristina,TN,1504841012000.0,18604107
234728480,Cross Plains,,1503511513000.0,36.56,-86.68,Krystal Donovan,TN,1503511513000.0,18604107
188341573,Nashville,,1433706014000.0,36.08,-86.72,Krystalyn Maddox,TN,1433706014000.0,18604107
197726256,Thompsons Station,,1452108134000.0,35.8,-86.9,Krystle Cain,TN,1452108134000.0,18604107
219557269,Mount Juliet,,1483932011000.0,36.21,-86.52,Kyle Gamberini,TN,1483932011000.0,18604107
229584064,Nashville,,1497303578000.0,36.11,-86.86,Kyle O'Leary,TN,1497303578000.0,18604107
221371296,Murfreesboro,,1486215696000.0,35.82,-86.45,Kyle Varzino,TN,1486215696000.0,18604107
227032191,Nashville,,1494026944000.0,36.07,-86.78,Kyle Weber,TN,1494026944000.0,18604107
209062292,Antioch,,1468570155000.0,36.04,-86.64,kyng George,TN,1468570155000.0,18604107
227222547,Nashville,,1494290552000.0,36.17,-86.78,Kyra Simmons,TN,1494290552000.0,18604107
231309280,Nashville,,1499455799000.0,36.17,-86.72,L.B. Scott,TN,1499455799000.0,18604107
203784930,Smyrna,,1461280813000.0,35.97,-86.51,Lacy,TN,1461280813000.0,18604107
115765052,Madison,,1500449894000.0,36.25,-86.71,LaLa ,TN,1500449894000.0,18604107
237382622,Nashville,,1506347592000.0,36.22,-86.86,Lalie Hyde,TN,1506347592000.0,18604107
192790056,Jersey City,,1499055310000.0,40.7,-74.1,Lalita,NJ,1499610756000.0,18604107
203491193,Shelbyville,,1460865014000.0,35.48,-86.47,Lamont,TN,1462194005000.0,18604107
203000297,Murfreesboro,,1460168804000.0,35.78,-86.33,Lana Augusta Smith,TN,1465240327000.0,18604107
229734696,Thompsons Station,,1497494837000.0,35.8,-86.9,Lana Roberts,TN,1499181653000.0,18604107
233517323,Hendersonville,,1502135820000.0,36.32,-86.61,Larry,TN,1502135820000.0,18604107
203549487,Spring Hill,,1460947056000.0,35.76,-86.88,Larry Webster,TN,1460947056000.0,18604107
230440580,Franklin,,1498390052000.0,35.93,-86.81,Latha Huttanna,TN,1499271512000.0,18604107
192002072,Nashville,,1440898402000.0,36.17,-86.72,Laura,TN,1440898402000.0,18604107
205367504,Nashville,,1463533698000.0,36.17,-86.72,Laura ,TN,1464383555000.0,18604107
183176566,Murfreesboro,,1458396403000.0,35.87,-86.34,Laura,TN,1501416170000.0,18604107
90808822,Old Hickory,,1480955587000.0,36.25,-86.63,Laura,TN,1480955587000.0,18604107
62851092,Mc Kenzie,McKenzie,1492998283000.0,36.13,-88.52,Laura,TN,1493095032000.0,18604107
221182072,Nashville,,1502575487000.0,36.17,-86.78,Laura,TN,1502622252000.0,18604107
228032468,Nashville,,1495380687000.0,36.17,-86.78,Laura Bland,TN,1495380687000.0,18604107
231043702,La Vergne,,1499130167000.0,36.0,-86.57,Laura Davis,TN,1507125448000.0,18604107
233514386,Nashville,,1502132114000.0,36.16,-86.78,Laura Evans,TN,1504539632000.0,18604107
219042311,Hendersonville,,1484770315000.0,36.32,-86.61,Laura Hunt,TN,1489876974000.0,18604107
235930217,Brentwood,,1504837008000.0,36.0,-86.79,Laura Kelsey Bartlett,TN,1504837008000.0,18604107
190347535,Franklin,,1437743006000.0,35.92,-86.89,Laura Leuty,TN,1437743006000.0,18604107
229799515,Nashville,,1497581416000.0,36.16,-86.77,Laura Provost,TN,1497581416000.0,18604107
215171408,Nashville,,1476807819000.0,36.17,-86.78,Laura Sharpe,TN,1476807819000.0,18604107
218470947,Hendersonville,,1482274277000.0,36.32,-86.61,laura.rambles.on,TN,1482274277000.0,18604107
78141932,Nashville,,1455068533000.0,36.17,-86.78,Lauren,TN,1463678618000.0,18604107
194645596,Nashville,,1449693382000.0,36.16,-86.79,Lauren,TN,1449693382000.0,18604107
201251504,Antioch,,1457625724000.0,36.04,-86.64,Lauren,TN,1461344334000.0,18604107
222806574,Nashville,,1488171879000.0,36.17,-86.78,Lauren,TN,1488171879000.0,18604107
190840881,Woodbury,,1438638483000.0,35.81,-86.07,Lauren,TN,1438638483000.0,18604107
207067912,Hermitage,,1465864638000.0,36.19,-86.6,Lauren,TN,1465864638000.0,18604107
199433243,Franklin,,1455040532000.0,35.92,-86.89,Lauren Bellar,TN,1493210863000.0,18604107
208953627,Clarksville,,1472718120000.0,36.53,-87.35,Lauren Jade Pierce,TN,1472718120000.0,18604107
201280164,Nashville,,1457662345000.0,36.17,-86.72,Lauren Joelle,TN,1457662345000.0,18604107
221193915,Nashville,,1486043877000.0,36.15,-86.86,Lauren Ledbetter,TN,1486659676000.0,18604107
196940792,Brentwood,,1450311746000.0,36.0,-86.79,Lauren Underwood,TN,1465223040000.0,18604107
13389422,Franklin,,1436663440000.0,35.92,-86.89,Lauren Whitworth,TN,1436663440000.0,18604107
190522068,Thompsons Station,,,35.8,-86.9,,TN,,18604107
229900974,Nashville,,1497723625000.0,36.17,-86.72,Laurie Sturzenbecker McIntyre,TN,1499103283000.0,18604107
188249759,Nashville,,1433513192000.0,36.17,-86.78,Laurieal,TN,1443469519000.0,18604107
215591384,Brentwood,,1477445196000.0,36.0,-86.79,Laverne Alexcee,TN,1477445196000.0,18604107
238803051,Nashville,,1507910325000.0,36.15,-86.86,Laverne Alexi,TN,1507910325000.0,18604107
199878788,Nashville,,1455674109000.0,36.16,-86.79,Lawton Rhodes,TN,1455674109000.0,18604107
222487532,Nashville,,1487720092000.0,36.17,-86.78,Laya B,TN,1487720092000.0,18604107
208062828,Nashville,,1467233856000.0,36.17,-86.78,Layne Turner,TN,1467233856000.0,18604107
204015865,Nashville,,1461616835000.0,36.17,-86.78,Leah,TN,1466005314000.0,18604107
199677819,Nashville,"Nashville, TN",1455401468000.0,36.06,-86.96,Leah H,TN,1467996051000.0,18604107
232137196,Columbia,,1500440802000.0,35.61,-87.05,Leah Hayward,TN,1502519632000.0,18604107
212450430,Nashville,,1473223607000.0,36.17,-86.78,LeAnn Puente,TN,1473223607000.0,18604107
231144933,Nashville,,1499260841000.0,36.17,-86.78,Leanne Cassell Malone,TN,1499260841000.0,18604107
214329634,Nashville,,1475604593000.0,36.14,-86.8,Leena Hobbs,TN,1475604593000.0,18604107
226741162,Hendersonville,,1493642756000.0,36.32,-86.61,Leigh Sims,TN,1493642756000.0,18604107
191592653,Nashville,,1489512231000.0,36.16,-86.79,LeighAnn Lockwood,TN,1489512231000.0,18604107
218829868,Nashville,,1482982005000.0,36.21,-86.77,Lenore Ellsworth,TN,1482982005000.0,18604107
222267335,Clarksville,,1487427164000.0,36.49,-87.23,Leon Walsh,TN,1487427164000.0,18604107
7286646,La Vergne,Nashville,1448147113000.0,36.01,-86.57,Leslie,TN,1464723849000.0,18604107
214586614,Nashville,,1475950578000.0,36.17,-86.78,Leslie Harris,TN,1475950578000.0,18604107
237924358,Murfreesboro,,1506952371000.0,35.87,-86.44,Leslie Marrie Scroggs Lasater,TN,1506952371000.0,18604107
232721850,Nashville,,1501167246000.0,36.17,-86.78,Leslie Mayo,TN,1501510311000.0,18604107
238125078,Franklin,,1507165325000.0,35.92,-86.89,Leslie Stamper,TN,1507165325000.0,18604107
214253208,Nashville,,1475515059000.0,36.09,-86.82,Leslie Toth,TN,1475515059000.0,18604107
203036028,Nashville,,1460224891000.0,36.16,-86.66,Levente,TN,1460377240000.0,18604107
207337270,Castalian Springs,"Nashville, TN",1466246119000.0,36.38,-86.32,Lex  Sawyers,TN,1466246119000.0,18604107
217418236,Nashville,,1480378810000.0,36.13,-86.8,Lia Bella,TN,1480378810000.0,18604107
197234536,Nashville,,1451086810000.0,36.08,-86.72,Lily,TN,1451086810000.0,18604107
5977066,Mount Juliet,Mt Juliet,1453039697000.0,36.22,-86.52,Linda,TN,1462187852000.0,18604107
214724158,Franklin,,1476155798000.0,36.73,-86.57,Linda,KY,1497674606000.0,18604107
93000472,Nolensville,"Wilmington, MA",1473379817000.0,35.94,-86.67,Linda,TN,1473379817000.0,18604107
202376771,College Grove,Spring Hill,1459269966000.0,35.77,-86.71,Linda Watts,TN,1471465499000.0,18604107
208554125,Lebanon,,1467906999000.0,36.21,-86.29,Lindsay,TN,1467906999000.0,18604107
193969739,Brentwood,,1465786569000.0,36.0,-86.79,Lindsay Taylor Gaskins,TN,1465786569000.0,18604107
236100399,Nashville,,1505021633000.0,36.14,-86.8,Lindsey Capone,TN,1505021633000.0,18604107
201680900,Nashville,,1461075904000.0,36.15,-86.86,Lindsey F,TN,1461075904000.0,18604107
200916746,Nashville,,1457139513000.0,36.11,-86.86,Lindsey Powell,TN,1461015729000.0,18604107
5206178,Brentwood,,1483943230000.0,36.0,-86.79,Lisa,TN,1494441760000.0,18604107
178852782,Franklin,,1461328274000.0,35.92,-86.89,Lisa Bass,TN,1465873281000.0,18604107
12609578,Huntsville,,1443484561000.0,34.73,-86.57,Lisa Duncan,AL,1443484561000.0,18604107
224088432,Crockett Mills,,1491020166000.0,35.91,-89.19,Lisa Harper,TN,1493698423000.0,18604107
70223892,Murfreesboro,Atlanta,1474228637000.0,35.78,-86.33,Lisa L,TN,1474228637000.0,18604107
101030972,Liberty,,1461440621000.0,35.93,-85.96,Lisa Lewis,TN,1464965322000.0,18604107
222865383,Thompsons Station,,1488251287000.0,35.8,-86.9,Lisa Michelle,TN,1488251287000.0,18604107
188140405,Hermitage,,1433282504000.0,36.19,-86.6,Lisa Reeder,TN,1471351690000.0,18604107
153548422,Nashville,,1465860110000.0,36.17,-86.78,Lisa Riassetto,TN,1467255886000.0,18604107
189797652,Clarksville,,1436777189000.0,36.56,-87.41,Lisa Shelton,TN,1439543429000.0,18604107
207630353,Murfreesboro,,1466709905000.0,35.78,-86.33,Lisa Zeisloft,TN,1469462022000.0,18604107
212502445,Nashville,,1483493878000.0,36.08,-86.72,Lisa63,TN,1483493878000.0,18604107
67112612,Lebanon,Saint Louis ,1491185344000.0,36.21,-86.31,Liz,TN,1504933778000.0,18604107
236715254,Nashville,,1505627009000.0,36.17,-86.78,Liz Anderson,TN,1505627009000.0,18604107
199177087,Nashville,,1454629750000.0,36.17,-86.72,Liz Sievers ,TN,1454629750000.0,18604107
212804959,Nashville,,1473701865000.0,36.17,-86.78,Lizzi Gordon,TN,1473701865000.0,18604107
219527099,Nashville,,1483902728000.0,36.08,-86.72,LJ,TN,1483902728000.0,18604107
191139930,Hermitage,,1439231345000.0,36.19,-86.6,LJ,TN,1440635577000.0,18604107
184842362,Nashville,,1495019782000.0,36.17,-86.78,Lolita Medina,TN,1505663891000.0,18604107
231478737,Nashville,,1499653797000.0,36.07,-86.78,Loren Fleishman,TN,1499710483000.0,18604107
10184307,Goodlettsville,Middle Tennessee,1469684250000.0,36.33,-86.74,Lori,TN,1469684250000.0,18604107
2436918,Fosterville,,1458208666000.0,35.75,-86.39,lori,TN,1458208666000.0,18604107
65566542,Nashville,,1483463908000.0,36.14,-86.74,Lori Jenkins,TN,1487702217000.0,18604107
55462572,Franklin,,1466270936000.0,35.93,-86.81,Lorraine Barnett,TN,1468176155000.0,18604107
223562713,Nashville,,1489249377000.0,36.07,-86.73,Louis Semernezski,TN,1489249377000.0,18604107
230481790,Nashville,,1498437074000.0,36.15,-86.86,love exists,TN,1498437074000.0,18604107
187700521,Nashville,,1461447172000.0,36.08,-86.72,Lu Xiong,TN,1469245477000.0,18604107
198212824,Nashville,,1459303574000.0,36.11,-86.86,Lucy H.,TN,1461556549000.0,18604107
214814607,Dickson,,1476293336000.0,36.08,-87.43,Luke Milbrand,TN,1476293336000.0,18604107
197120580,Hermitage,,1450752814000.0,36.19,-86.6,Luz Belleza,TN,1487992311000.0,18604107
193437762,Nashville,,1456716976000.0,36.17,-86.78,Luz Belleza-Binns,TN,1474852127000.0,18604107
204266054,Nashville,,1461986530000.0,36.18,-86.74,LV,TN,1461986530000.0,18604107
230250513,Franklin,,1498152411000.0,35.93,-86.81,Lynde,TN,1508642860000.0,18604107
231320357,Nashville,,1499466489000.0,36.14,-86.81,Lyndsy Hatfield,TN,1499466489000.0,18604107
192119143,Antioch,,1441126420000.0,36.04,-86.64,Lynn Burns,TN,1441724289000.0,18604107
225124117,Nashville,,1491423423000.0,36.17,-86.78,Lynn Hatcher,TN,1491423423000.0,18604107
210232269,Nashville,,1470114625000.0,36.17,-86.78,Lynn Jackson Conklin,TN,1470114625000.0,18604107
208288498,Nashville,,1467558408000.0,36.17,-86.78,Lynne Robertson,TN,1467558408000.0,18604107
227677814,Midland,,1494913418000.0,43.63,-84.27,Mackenzie,MI,1495046577000.0,18604107
209899181,Nashville,,1470163862000.0,36.13,-86.8,Maddie Massey,TN,1470163862000.0,18604107
217031974,Nashville,,1479699069000.0,36.15,-86.8,Maddie Rich,TN,1479699069000.0,18604107
212632243,Nashville,,1473470633000.0,36.13,-86.8,Madeline Bule,TN,1473470633000.0,18604107
204543152,Dickson,,1462389218000.0,36.08,-87.43,Madi,TN,1462389218000.0,18604107
35284672,Old Hickory,"Wauwatosa, WI",1461163798000.0,36.16,-86.51,Madison Olson,TN,1475960603000.0,18604107
189819844,Nashville,,1436718417000.0,36.17,-86.78,Maggie ,TN,1436718417000.0,18604107
203556925,Nashville,,1460957925000.0,36.13,-86.8,Maggie Cusick,TN,1460957925000.0,18604107
216509820,Nashville,Nashville,1478899665000.0,36.11,-86.78,Maggie McDaniel,TN,1496884914000.0,18604107
202513551,Nashville,,1459475246000.0,36.07,-86.73,Maggie Pomy,TN,1459475246000.0,18604107
201646366,Nashville,,1458171812000.0,36.17,-86.72,Maggie Possel,TN,1458171812000.0,18604107
195832321,Nashville,,1448033490000.0,36.17,-86.79,Malinda Rose,TN,1448033490000.0,18604107
192378122,Nashville,,1441623932000.0,36.18,-86.74,Malissa Gem Lawson,TN,1498705808000.0,18604107
232476595,Nashville,,1500866784000.0,36.18,-86.74,Mallory Hacker,TN,1508517219000.0,18604107
195375107,La Vergne,,1447171594000.0,36.01,-86.57,Mandi Patterson,TN,1447171594000.0,18604107
188987705,Mount Juliet,,1435011663000.0,36.21,-86.52,Mandy Murguia,TN,1435011663000.0,18604107
205993266,Nashville,,1464407625000.0,36.16,-86.79,Marcia Kastovich Larsen,TN,1468720486000.0,18604107
210430643,Nashville,,1470407466000.0,36.11,-86.78,Marco,TN,1470407466000.0,18604107
206423756,Mount Juliet,,1465008038000.0,36.22,-86.52,Marcus Kasel,TN,1465008038000.0,18604107
201797298,Nashville,,1458402106000.0,36.15,-86.86,Margaret Hietanen,TN,1458402106000.0,18604107
16453561,Nashville,,1492688707000.0,36.21,-86.72,Margaret Littman,TN,1499482778000.0,18604107
94718632,Nashville,,1464006466000.0,36.08,-86.72,Margaret Miles,TN,1493260403000.0,18604107
191324919,Nashville,,1439589758000.0,36.17,-86.78,Maria Ramos,TN,1440088073000.0,18604107
211785155,Thompsons Station,,1472326784000.0,35.8,-86.9,Mariah,TN,1472426103000.0,18604107
224647097,Nashville,,1495997835000.0,36.06,-86.96,Mariah Wilson,TN,1495997835000.0,18604107
197772408,Cookeville,,1452193960000.0,36.2,-85.52,Marianna Ballard,TN,1454608904000.0,18604107
188552289,Mount Juliet,,1434268283000.0,36.21,-86.52,Marie,TN,1434268283000.0,18604107
212605987,Nashville,,1473438479000.0,36.22,-86.86,Marie Hughes,TN,1473438479000.0,18604107
202197418,Columbia,,1459004859000.0,35.61,-87.05,Marie Scales Davis,TN,1459004859000.0,18604107
211055622,Murfreesboro,,1472058713000.0,35.85,-86.36,Mario Lorenzana,TN,1472058713000.0,18604107
190740919,Sevierville,,1438458128000.0,35.86,-83.58,Marisa,TN,1438458128000.0,18604107
206493348,Murfreesboro,,1465102455000.0,35.85,-86.4,Marisela,TN,1465102455000.0,18604107
197353404,Columbia,,1467397769000.0,35.61,-87.05,Marissa King,TN,1467397769000.0,18604107
225522105,Nashville,,1493172733000.0,36.13,-86.8,Maritza Williams,TN,1494677378000.0,18604107
226724638,Nashville,,1493614958000.0,36.14,-86.74,Mark,TN,1493614958000.0,18604107
11013940,Nashville,Nashville,1498005214000.0,36.15,-86.86,Mark,TN,1499040642000.0,18604107
184565993,Franklin,,1486804681000.0,35.92,-86.89,Mark,TN,1486834588000.0,18604107
226738612,Beechgrove,,1493639011000.0,35.62,-86.17,Mark C,TN,1493639011000.0,18604107
208283058,Ashland City,"Nashville, TN",1467551230000.0,36.28,-87.07,Mark Henry,TN,1467551230000.0,18604107
206729103,Nashville,,1465405857000.0,36.17,-86.78,Mark Reineke,TN,1465405857000.0,18604107
188863617,Hendersonville,,1434751650000.0,36.32,-86.61,Mark Wanke,TN,1434751650000.0,18604107
191720758,Nashville,,1440365010000.0,36.17,-86.78,Marlo,TN,1440365010000.0,18604107
221212756,Nashville,,1486023398000.0,36.17,-86.78,Martynas ustavi?ius,TN,1486023398000.0,18604107
192465320,Nashville,,1441766780000.0,36.17,-86.78,Mary Ann Sobczak Chisholm,TN,1441766780000.0,18604107
201170135,Mount Juliet,,1457499623000.0,36.21,-86.52,Mary Anne,TN,1462600179000.0,18604107
17592031,Brentwood,,1435707148000.0,36.0,-86.79,Mary Beth Easler,TN,1435795856000.0,18604107
205362835,Portland,,1463528170000.0,36.57,-86.49,Mary Budd,TN,1498244089000.0,18604107
233073476,Nashville,,1501611748000.0,36.16,-86.66,Mary Corbitt Smith,TN,1501611748000.0,18604107
207575307,Nashville,,1466562166000.0,36.17,-86.78,Mary Eckersley,TN,1466562166000.0,18604107
153813452,Nashville,"Fontana, CA",1463355572000.0,36.04,-86.97,Mary Elizabeth,TN,1471359668000.0,18604107
83618252,Clarksville,,1441690696000.0,36.53,-87.35,Mary Espy McCoy,TN,1443477496000.0,18604107
209170260,Harrisonburg,,1468753243000.0,38.44,-78.87,Mary Faulkner,VA,1470405262000.0,18604107
225483657,Thompsons Station,,1491938665000.0,35.8,-86.9,Mary Lou Bradley Casey,TN,1491938665000.0,18604107
69568352,Nashville,Oakmont,1450493467000.0,36.1,-86.87,Mary Lou Moewe,TN,1450493467000.0,18604107
231665276,Nashville,,1499871905000.0,36.17,-86.72,Mary Schaefer,TN,1499871905000.0,18604107
202753654,Brentwood,,1459815618000.0,36.0,-86.79,Maryam,TN,1459815618000.0,18604107
231429736,Nashville,,1499603687000.0,36.11,-86.86,Marybeth Schultz Reed,TN,1499603687000.0,18604107
235815790,Murfreesboro,,1504722119000.0,35.85,-86.36,Mason Mamoun,TN,1504722119000.0,18604107
199189061,Hopkinsville,,1454647550000.0,36.87,-87.49,Matt Burnell,KY,1454647550000.0,18604107
191543184,Nashville,,1440015046000.0,36.17,-86.78,Matt Fleming,TN,1440015046000.0,18604107
219448626,Franklin,,1483805368000.0,35.92,-86.89,Matt Foster,TN,1483805368000.0,18604107
228200153,Nashville,,1495559065000.0,36.17,-86.72,Matt Meade Goode,TN,1495559065000.0,18604107
222086921,Nashville,,1487171731000.0,36.11,-86.78,Matt Miller,TN,1487520550000.0,18604107
225309300,Nashville,,1491695968000.0,36.16,-86.78,Matt Swinea,TN,1491695968000.0,18604107
199656089,Nashville,,1455375491000.0,36.1,-86.66,Matt Watts,TN,1455375491000.0,18604107
191607517,Brentwood,,1440349272000.0,36.0,-86.79,Matthew Brajkovich,TN,1440349272000.0,18604107
10093685,Nashville,NYC,1469831410000.0,36.09,-86.82,Maura C,TN,1469831410000.0,18604107
215575363,Smyrna,,1477411117000.0,35.97,-86.51,Mauricio Nova,TN,1477411117000.0,18604107
197135773,Nashville,,1454510254000.0,36.17,-86.78,Max Gurley,TN,1468770742000.0,18604107
220252348,Nashville,,1484799631000.0,36.11,-86.86,Mayuko  Matsuda,TN,1494790337000.0,18604107
206887128,Murfreesboro,,1465620508000.0,35.78,-86.33,McKennah,TN,1465620508000.0,18604107
228721477,Hermitage,,1496242498000.0,36.19,-86.6,McKinzie Lilly,TN,1496242498000.0,18604107
191219895,Nashville,Nashville,1464993483000.0,36.14,-86.74,Meaghan Hudson,TN,1464993483000.0,18604107
202150787,Goodlettsville,,1458928052000.0,36.33,-86.74,Mechelle,TN,1458928052000.0,18604107
210208789,Nashville,,1470088997000.0,36.17,-86.78,med N.,TN,1473707889000.0,18604107
222611893,Nashville,,1487891084000.0,36.21,-86.72,Megan Canty,TN,1487891084000.0,18604107
216077243,Nashville,,1478193923000.0,36.22,-86.77,Megan Davis,TN,1478193923000.0,18604107
206086920,New York,,1464577198000.0,40.75,-73.99,Megan Davis Yon,NY,1464577198000.0,18604107
222310509,Franklin,,1487482228000.0,35.92,-86.89,Megan Furnish,TN,1487482228000.0,18604107
199464148,Nashville,,1457652964000.0,36.11,-86.86,Meghan,TN,1457652964000.0,18604107
191626192,Nashville,,1440182532000.0,36.17,-86.78,Meghan,TN,1440182532000.0,18604107
221469278,Nashville,,1486336905000.0,36.17,-86.72,Meghan Marvinny,TN,1488748678000.0,18604107
208259475,Nashville,,1467512964000.0,36.15,-86.86,Meghan Norris,TN,1470681365000.0,18604107
199582618,Chattanooga,Chattanooga,1458796680000.0,35.07,-85.31,Meghan Renee,TN,1468744852000.0,18604107
203794696,Nashville,"Los Angeles, CA",1461294632000.0,36.17,-86.78,MéKyle,TN,1472065540000.0,18604107
191349774,Spring Hill,,1439645293000.0,35.76,-86.88,Mel Crowley,TN,1439645293000.0,18604107
197687674,Nashville,,1452033533000.0,36.08,-86.72,Melanie,TN,1452033533000.0,18604107
199824064,Nashville,,1455601094000.0,36.1,-86.66,Melissa,TN,1471041774000.0,18604107
229828869,Nashville,,1497627387000.0,36.17,-86.78,Melissa Bledsoe,TN,1497627387000.0,18604107
204676986,Murfreesboro,,1462587817000.0,35.82,-86.45,Melissa C,TN,1462587817000.0,18604107
235673106,Fort Campbell,,1504577381000.0,36.65,-87.46,Melissa Hoffman,KY,1504577381000.0,18604107
188664044,Murfreesboro,,1434353334000.0,35.82,-86.45,Melissa Marcus,TN,1434353334000.0,18604107
229512175,Nashville,,1497218261000.0,36.17,-86.78,Melissa Raines,TN,1504897329000.0,18604107
219391834,Nashville,,1483729868000.0,36.16,-86.66,Melissa Sanders,TN,1484109308000.0,18604107
185304478,Nashville,,1475852900000.0,36.17,-86.79,Melissa Wheatley,TN,1486737367000.0,18604107
206126941,Madison,Madison,1464608712000.0,36.26,-86.71,Melissa Wilson,TN,1469075816000.0,18604107
221846904,Nashville,,1486840584000.0,36.08,-86.72,Melody Martinez,TN,1486840584000.0,18604107
210596951,Clarksville,,1470639118000.0,36.56,-87.41,Melony Johnson,TN,1470639118000.0,18604107
187417486,Nashville,,1489890120000.0,36.11,-86.78,Mena Estany ,TN,1490455354000.0,18604107
192190773,Nashville,,1441255830000.0,36.17,-86.78,Meranda,TN,1441255830000.0,18604107
204707576,Nashville,,1462637142000.0,36.07,-86.73,Merk,TN,1462637142000.0,18604107
205001737,Lebanon,,1463057901000.0,36.21,-86.31,Merrie McAfoos,TN,1463057901000.0,18604107
202312639,Wingate,,1459181451000.0,34.99,-80.45,Meta Lake,NC,1459181451000.0,18604107
73549852,Murfreesboro,,1499044346000.0,35.82,-86.45,Mia,TN,1499476868000.0,18604107
211227851,Nashville,,1471546176000.0,36.08,-86.72,Micah C,TN,1471546176000.0,18604107
217355171,Spring Hill,,1480277591000.0,35.76,-86.88,Michael,TN,1505132994000.0,18604107
209819935,Smyrna,,1469558334000.0,35.97,-86.51,Michael,TN,1469558334000.0,18604107
8939765,Nashville,Harlan Kentucky,1465829920000.0,36.17,-86.78,Michael,TN,1494593572000.0,18604107
197532865,Unionville,,1451791627000.0,35.62,-86.57,Michael Brannon,TN,1451791627000.0,18604107
205841841,Gallatin,,1464188890000.0,36.39,-86.45,Michael Dean Meador,TN,1464188890000.0,18604107
231186159,Nashville,"Brooklyn, NY",1499304582000.0,36.17,-86.72,Michael Garcia,TN,1499304582000.0,18604107
215870007,Mount Juliet,,1477872415000.0,36.21,-86.52,Michael Garrison,TN,1477872415000.0,18604107
227657986,Franklin,,1494888411000.0,35.93,-86.81,Michael Honig,TN,1494888411000.0,18604107
235651753,Nashville,,1504557855000.0,36.17,-86.78,Michael Horne,TN,1504723394000.0,18604107
16452261,Hermitage,,1452166668000.0,36.19,-86.6,Michael McKinney,TN,1452166668000.0,18604107
212499537,Nashville,,1473288408000.0,36.17,-86.78,Michael Mulloy,TN,1473288408000.0,18604107
191497484,Nashville,,1439926817000.0,36.17,-86.79,Michael Ralph,TN,1439926817000.0,18604107
196271495,Nashville,,1448927817000.0,36.17,-86.78,Michael Ratz,TN,1448927817000.0,18604107
236148672,La Vergne,,1505073860000.0,36.01,-86.57,Michael Roder,TN,1505073860000.0,18604107
227809463,Franklin,,1495073361000.0,35.99,-86.9,Michael Rudowski,TN,1495073361000.0,18604107
207440361,Carthage,,1466387029000.0,36.26,-85.99,Michael Snyder,TN,1467855598000.0,18604107
230022596,Nashville,,1497893572000.0,36.17,-86.78,Michael Svarda,TN,1497893572000.0,18604107
220922648,Hermitage,,1485658492000.0,36.19,-86.6,Michael Tanguay,TN,1485658492000.0,18604107
219178700,Nashville,,1483467602000.0,36.13,-86.67,Michael Walker,TN,1483467602000.0,18604107
209818651,La Vergne,,1469560914000.0,36.01,-86.57,Michaelangelo Ruiz,TN,1469560914000.0,18604107
11684571,Mount Juliet,"Athens, GA",1481942279000.0,36.21,-86.52,Michaele,TN,1505856296000.0,18604107
153818932,Fort Campbell,,1450364817000.0,36.65,-87.46,Michaele Alter,KY,1450364817000.0,18604107
196677945,Nashville,,1449722204000.0,36.17,-86.78,Michele Crater,TN,1449722204000.0,18604107
9933290,Nashville,,1469544855000.0,36.17,-86.78,Michelle,TN,1469544855000.0,18604107
202631762,Nashville,,1459645456000.0,36.13,-86.8,Michelle,TN,1471936642000.0,18604107
197340569,Brentwood,,1451331230000.0,36.0,-86.79,Michelle,TN,1464716802000.0,18604107
208565476,Nashville,,1467920069000.0,36.17,-86.78,Michelle,TN,1468188688000.0,18604107
211393593,Smyrna,,1471793026000.0,35.97,-86.51,Michelle,TN,1471793026000.0,18604107
208891203,Greensburg,,1468345818000.0,40.3,-79.54,Michelle Brandon,PA,1468345818000.0,18604107
43994802,Hendersonville,,1472141291000.0,36.32,-86.61,Michelle C,TN,1472141291000.0,18604107
183201251,Nashville,,1451660546000.0,36.11,-86.78,Michelle Goulding ,TN,1503694861000.0,18604107
191125326,Nashville,,1439205259000.0,36.17,-86.78,Michelle Johnson,TN,1466454177000.0,18604107
217159433,Antioch,,1479909333000.0,36.04,-86.64,Michelle Kilgore,TN,1479909333000.0,18604107
46486792,Nashville,,1497146241000.0,36.17,-86.78,Michelle McManus,TN,1497146241000.0,18604107
208954551,Nashville,,1468430083000.0,36.17,-86.72,Michelle Meyers,TN,1468430083000.0,18604107
77093352,Nashville,,1493821592000.0,36.14,-86.74,Michelle murphy,TN,1495570885000.0,18604107
223103141,Nashville,,1488585267000.0,36.17,-86.78,Michelle weaver,TN,1488585267000.0,18604107
203590010,Bradyville,,1461005937000.0,35.7,-86.1,MichelleNextDoor,TN,1461005937000.0,18604107
221937116,Nashville,,1486962304000.0,36.17,-86.78,Mike,TN,1486962304000.0,18604107
191042061,Nashville,,1443582661000.0,36.17,-86.72,Mike,TN,1468625630000.0,18604107
210290703,La Vergne,,1470194415000.0,36.01,-86.57,Mike,TN,1470194415000.0,18604107
59465382,Franklin,Franklin,1472180682000.0,35.93,-86.81,Mike Costa,TN,1505959477000.0,18604107
231946816,Franklin,,1500221723000.0,35.99,-86.9,Mike Hoover,TN,1500221723000.0,18604107
229158831,Nashville,,1496774022000.0,36.14,-86.81,Mike Iavarone III,TN,1496774022000.0,18604107
8836270,Clarksville,Tennessee,1438032937000.0,36.56,-87.41,mike mcdonough,TN,1438046193000.0,18604107
209541912,Nashville,,1469237961000.0,36.17,-86.78,Mike N Michelle Hines,TN,1469237961000.0,18604107
228276344,Antioch,,1495652824000.0,36.04,-86.64,Mike Porter,TN,1495652824000.0,18604107
197747639,Lebanon,,1452142018000.0,36.21,-86.31,Mike Schmitz ,TN,1455198464000.0,18604107
193513104,Euless,,1443732284000.0,32.85,-97.09,Mikie Thornton,TX,1443732284000.0,18604107
197767434,Murfreesboro,,1452185747000.0,35.82,-86.45,Milania Susi,TN,1452185747000.0,18604107
16024281,Bowling Green,Bowling Green,1467675237000.0,36.93,-86.45,Millie,KY,1506171183000.0,18604107
207759257,Nashville,,1466823198000.0,36.17,-86.78,Mindy Telfer,TN,1469288828000.0,18604107
194875027,Nashville,,1446245969000.0,36.08,-86.72,Minh Le,TN,1463279392000.0,18604107
7785575,Clarksville,"Salem, NJ",1432857875000.0,36.58,-87.42,Miranda,TN,1498835831000.0,18604107
204020469,Nashville,,1461621759000.0,36.13,-86.8,Miranda Burr,TN,1461621759000.0,18604107
222545777,Nashville,,1487799326000.0,36.17,-86.78,Miranda Rich,TN,1487799326000.0,18604107
190166587,Nashville,,1437403954000.0,36.06,-86.96,Miranda Todd,TN,1438622695000.0,18604107
212613349,Franklin,,1473787111000.0,35.92,-86.89,Missy Ione Benoit,TN,1492018468000.0,18604107
224528913,Murfreesboro,,1490587068000.0,35.82,-86.45,Missy Lay,TN,1500864717000.0,18604107
105522682,Nashville,,1432639128000.0,36.17,-86.78,misty,TN,1462276840000.0,18604107
205925930,Nashville,,1464304745000.0,36.17,-86.78,Misty Freeman,TN,1464304745000.0,18604107
60257262,Nashville,,1433084684000.0,36.08,-86.72,Misty Watson,TN,1433380945000.0,18604107
211851474,Antioch,,1472417382000.0,36.17,-86.88,Mizani Mrinquisitive Mysteree,TN,1472417382000.0,18604107
189385358,Murfreesboro,,1435839838000.0,35.87,-86.34,Mj Stephens,TN,1435839838000.0,18604107
207499677,Nashville,,1467572238000.0,36.14,-86.74,MOE,TN,1467988661000.0,18604107
210266590,Clarksville,,1470164400000.0,36.53,-87.35,mohamed ahmed,TN,1470164400000.0,18604107
231333498,Franklin,,1499482771000.0,35.93,-86.81,Molly Nuenke,TN,1499482771000.0,18604107
236143352,Nashville,,1505070481000.0,36.11,-86.78,Molly Schatz,TN,1505070481000.0,18604107
81953712,Salt Lake City,"Nashville, TN",1482841717000.0,40.62,-111.82,Monie Sloan,UT,1482841717000.0,18604107
220545183,Franklin,,1485187764000.0,35.92,-86.89,Monique Jefferson,TN,1485187764000.0,18604107
198688456,Nashville,,1453867135000.0,36.17,-86.72,Morgaine,TN,1493824898000.0,18604107
193330150,Nashville,,1443393283000.0,36.08,-86.72,Morgan Caldwell,TN,1443393283000.0,18604107
233911212,Nashville,,1502578238000.0,36.17,-86.78,Mr. Mack,TN,1504096992000.0,18604107
221971544,Nashville,,1487013222000.0,36.17,-86.72,Musiccitykayak,TN,1489459589000.0,18604107
192311236,Nashville,,1441494689000.0,36.08,-86.72,Mutaz Shahin,TN,1441494689000.0,18604107
214840074,Nashville,,1488712159000.0,36.17,-86.72,mynameis mud,TN,1488712159000.0,18604107
219727514,Spring Hill,,1484149405000.0,35.76,-86.88,nancy,TN,1484149405000.0,18604107
224408683,Nashville,,1491623721000.0,36.08,-86.72,Nancy H.,TN,1495995410000.0,18604107
230106937,Nashville,,1497986723000.0,36.17,-86.72,Nancy Tucker DeGennaro,TN,1497986723000.0,18604107
4389320,Nashville,Charlotte,1484271911000.0,36.17,-86.78,Nat,TN,1484271911000.0,18604107
142417362,Nashville,,1459465107000.0,36.17,-86.78,Natalie,TN,1469367203000.0,18604107
238102882,Thompsons Station,,1507144222000.0,35.8,-86.9,Natalie,TN,1507144222000.0,18604107
222843296,Nashville,,1488226150000.0,36.17,-86.78,Natalie Buzzelli,TN,1488226150000.0,18604107
192368310,Bowling Green,,1441600118000.0,37.02,-86.46,Natalie Embry-Cardwell,KY,1501378025000.0,18604107
147215602,Hendersonville,,1488502515000.0,36.32,-86.61,Natalie Mcdonald,TN,1492779240000.0,18604107
221208385,Nashville,,1486015685000.0,36.21,-86.72,Natalie Montano,TN,1486015685000.0,18604107
189958173,Nashville,,1494966347000.0,36.17,-86.78,Natasha,TN,1495202908000.0,18604107
84397362,Nashville,,1475068650000.0,36.17,-86.78,Nate Phillips,TN,1476461250000.0,18604107
56285232,La Vergne,,1498963510000.0,36.01,-86.57,Nathan Bridges,TN,1500041191000.0,18604107
190467751,Nashville,,1437954186000.0,36.22,-86.77,Nathan Fellows,TN,1438099920000.0,18604107
212899294,Nashville,,1473815221000.0,36.1,-86.66,Nathan Harden,TN,1473815221000.0,18604107
223580959,Nashville,,1489275095000.0,36.17,-86.79,nathan lopez,TN,1489275095000.0,18604107
215340998,Brentwood,,1477060503000.0,36.0,-86.79,nathan prajzner,TN,1477060503000.0,18604107
223947407,Nashville,,1489780829000.0,36.08,-86.72,Nay_Neon,TN,1490035314000.0,18604107
202319096,Nashville,,1459188929000.0,36.17,-86.78,Neal,TN,1470926540000.0,18604107
229634985,Nashville,,1497370504000.0,36.17,-86.78,Neal C,TN,1497370504000.0,18604107
192394999,Nashville,,1441754582000.0,36.08,-86.72,Neali,TN,1498768798000.0,18604107
229026621,Hermitage,,1496617434000.0,36.19,-86.6,Nealy,TN,1498602232000.0,18604107
215502931,Hermitage,,1477308148000.0,36.19,-86.6,Nic Leftrick,TN,1477308148000.0,18604107
232052195,Portland,,1500339481000.0,36.57,-86.49,Nicholas Alan Roberts,TN,1500739283000.0,18604107
203584954,Brentwood,,1461000467000.0,36.0,-86.79,Nicholas Calvin,TN,1461000467000.0,18604107
224497884,Clarksville,,1490550419000.0,36.53,-87.35,Nick,TN,1490635268000.0,18604107
222148390,Nashville,,1487255431000.0,36.17,-86.78,nick hayes,TN,1487255431000.0,18604107
209931135,Hendersonville,,1469710716000.0,36.32,-86.61,Nick Morgan,TN,1469710716000.0,18604107
214757095,Nashville,,1476323766000.0,36.15,-86.86,Nicki Rumanek,TN,1497529664000.0,18604107
190685109,Nashville,,1438347073000.0,36.17,-86.78,Nicole,TN,1438347073000.0,18604107
213128831,Nashville,,1474127381000.0,36.17,-86.78,Nicole,TN,1474127381000.0,18604107
31428162,Clarksville,Tacoma,1505093121000.0,36.53,-87.35,Nicole,TN,1507430301000.0,18604107
208307840,Nashville,,1467579543000.0,36.08,-86.72,Nicole Angelina Bolog,TN,1467579543000.0,18604107
227866911,Hermitage,,1495147283000.0,36.19,-86.6,Nicole Jones,TN,1495195650000.0,18604107
200691527,Nashville,,1471401415000.0,36.17,-86.78,Niki Eisgruber,TN,1506360511000.0,18604107
235591298,Nashville,,1504496085000.0,36.16,-86.79,Niki Norton Reese,TN,1504496085000.0,18604107
201760041,Columbia,"Buffalo, NY",1458343349000.0,35.61,-87.05,Nikki,TN,1461769484000.0,18604107
88968862,Oak Grove,Detroit,1472914321000.0,36.68,-87.45,Nikki Staples,KY,1473166056000.0,18604107
224562634,Nashville,,1490638271000.0,36.13,-86.8,Nina Fowler,TN,1490638271000.0,18604107
210033618,Hendersonville,,1469848294000.0,36.32,-86.61,Noah Mance,TN,1469848294000.0,18604107
207925050,White House,,1467053580000.0,36.48,-86.69,Norma Gardner,TN,1467053580000.0,18604107
226805879,Nashville,,1493727336000.0,36.1,-86.66,Norma Weber,TN,1493727336000.0,18604107
196346675,Antioch,,1449076459000.0,36.04,-86.64,Oghenevwogaga Bomadi,TN,1449076459000.0,18604107
1738473,Nashville,"Nashville, Tennessee",1484605857000.0,36.11,-86.78,oh_me,TN,1484605857000.0,18604107
13501170,Franklin,Franklin,1496523612000.0,35.92,-86.89,Olga ,TN,1498441203000.0,18604107
70791262,Murfreesboro,,1462664590000.0,35.87,-86.44,Oliver,TN,1466698457000.0,18604107
231786471,Hendersonville,,1500005959000.0,36.32,-86.61,Olivia Buschkotter,TN,1500005959000.0,18604107
234168251,Franklin,,1502888031000.0,35.93,-86.81,Olivia Oetjens,TN,1502888031000.0,18604107
235159191,Nashville,,1504017457000.0,36.11,-86.78,Olivia Zemer,TN,1504017457000.0,18604107
82285272,Clarksville,"Clarksville, TN",1451353815000.0,36.53,-87.35,Oscar,TN,1466302232000.0,18604107
205193250,Brentwood,,1463317711000.0,36.0,-86.79,Otilia Bilauca,TN,1463317711000.0,18604107
223397572,Nashville,,1490398392000.0,36.17,-86.78,Owen Melissa,TN,1490398392000.0,18604107
211885518,Antioch,,1472468486000.0,36.04,-86.64,Pa'Shua Mayo,TN,1474657780000.0,18604107
218939039,Murfreesboro,,1483141383000.0,35.84,-86.39,Pablo Camareno,TN,1483141383000.0,18604107
195148131,Nashville,,1446749155000.0,36.17,-86.78,Pablo Scruggs,TN,1490131992000.0,18604107
160061782,Nashville,,1464739866000.0,36.17,-86.78,Page S,TN,1474174722000.0,18604107
198908432,Nashville,,1454216199000.0,36.1,-86.91,Paige ,TN,1454376594000.0,18604107
188220401,Spring Hill,,1433447262000.0,35.76,-86.88,Paige,TN,1433447262000.0,18604107
11696972,Nashville,,1483802510000.0,36.11,-86.86,Pam ,TN,1492258052000.0,18604107
234933073,Old Hickory,,1508370080000.0,36.25,-86.63,Pam Gibson,TN,1508370080000.0,18604107
231006862,Clarksville,,1499092075000.0,36.56,-87.41,Pamela Barry,TN,1499092075000.0,18604107
9991728,Alvaton,,1501673572000.0,36.87,-86.36,Pat,KY,1507483303000.0,18604107
192856805,Murfreesboro,Murfreesboro,1496584493000.0,35.82,-86.45,Patrick,TN,1496693002000.0,18604107
234409961,Murfreesboro,,1503152803000.0,35.82,-86.45,Patrick Malone,TN,1503152803000.0,18604107
223575948,Murfreesboro,,1489265805000.0,35.82,-86.45,Patty Gray,TN,1489265805000.0,18604107
207929169,Nashville,,1467124883000.0,36.17,-86.78,PattyLee,TN,1468618973000.0,18604107
195534898,Nashville,,1447463529000.0,36.08,-86.72,Paul,TN,1447463529000.0,18604107
210795221,Watertown,,1470935876000.0,36.11,-86.14,Paul Hill,TN,1487184763000.0,18604107
200533346,Culleoka,Culleoka,1457746469000.0,35.46,-86.99,Paula,TN,1484922920000.0,18604107
201679832,Springfield,,1458226717000.0,36.52,-86.87,Paula,TN,1458226717000.0,18604107
222142396,Columbia,,1487246491000.0,35.61,-87.05,Paula Bean,TN,1487246491000.0,18604107
190717209,Nashville,,1464016321000.0,36.17,-86.78,Pendry,TN,1467844489000.0,18604107
191318974,Franklin,,1439579263000.0,35.92,-86.89,Penny Bartow Goldberg,TN,1439579263000.0,18604107
207221919,Hermitage,,1466080135000.0,36.19,-86.6,Perry Dunkling,TN,1466134677000.0,18604107
212378653,Nashville,,1473131229000.0,36.17,-86.78,Persephanie Celiene Rogers,TN,1473131229000.0,18604107
223363210,Nashville,,1488957612000.0,36.07,-86.73,Petra Moreno-Frasca,TN,1488957612000.0,18604107
193804901,Goodlettsville,"Nashville, TN ",1444285435000.0,36.33,-86.74,Peyton Campbell,TN,1444356827000.0,18604107
27939802,Nashville,,1480872173000.0,36.17,-86.78,Philip Steen,TN,1480872173000.0,18604107
224322052,Nashville,,1490297761000.0,36.07,-86.78,Pragati MP,TN,1490297761000.0,18604107
185985224,Nashville,,1472446642000.0,36.09,-86.7,Prashant Jain,TN,1498332107000.0,18604107
195153985,Brentwood,,1501707466000.0,36.0,-86.79,Preeti,TN,1501707466000.0,18604107
234644140,Nashville,,,36.15,-86.82,,TN,,18604107
219796492,Franklin,,,35.92,-86.89,,TN,,18604107
34877692,Nashville,,1433250364000.0,36.16,-86.79,Pu,TN,1442618281000.0,18604107
211698318,Gordonsville,,1472205435000.0,36.17,-85.93,Pud Evans,TN,1472205435000.0,18604107
216810568,Clarksville,,1479343847000.0,36.49,-87.23,Qidd Leoné,TN,1479343847000.0,18604107
205735599,Nashville,,1466504420000.0,36.08,-86.72,Queen Amidala,TN,1467119662000.0,18604107
166550712,Los Angeles,Arizona,1465649935000.0,33.97,-118.24,R Harris,CA,1472870486000.0,18604107
191248389,Hendersonville,,1439430478000.0,36.32,-86.61,R W,TN,1439465906000.0,18604107
213197220,Nashville,,1474213259000.0,36.17,-86.72,Rach Marie,TN,1474213259000.0,18604107
202625996,Nashville,,1459637847000.0,36.16,-86.66,Rach423,TN,1459637847000.0,18604107
225883673,Nashville,,1496168218000.0,36.2,-86.68,Rachael Gibbs,TN,1496168218000.0,18604107
173895962,Hermitage,"Detroit, MI",1464198476000.0,36.19,-86.6,Rachael Joy,TN,1467942635000.0,18604107
194968405,Murfreesboro,,1446424032000.0,35.87,-86.44,Rachel,TN,1484453803000.0,18604107
13660939,Nashville,Nashville,1501519338000.0,36.06,-86.96,Rachel,TN,1501799996000.0,18604107
184106582,Nashville,,1485027605000.0,36.17,-86.78,Rachel,TN,1485027605000.0,18604107
192449206,Nashville,,1441743086000.0,36.07,-86.73,Rachel,TN,1441743086000.0,18604107
203951589,Nashville,,1461529138000.0,36.17,-86.78,Rachel Beckley,TN,1468765274000.0,18604107
196813125,Christiana,,1450030043000.0,35.71,-86.36,Rachel Brockman,TN,1497136383000.0,18604107
207545249,Cleveland,,1466527579000.0,35.16,-84.88,Rachel Frey,TN,1466527579000.0,18604107
211679980,Nashville,,1472174648000.0,36.17,-86.78,Rachel Giese,TN,1472174648000.0,18604107
215124979,Nashville,,1476739452000.0,36.19,-86.8,Rachel Harville,TN,1476739452000.0,18604107
213263984,Hendersonville,,1474294770000.0,36.32,-86.61,Rachel Hunt ,TN,1474294770000.0,18604107
229015643,Nashville,,1496606336000.0,36.17,-86.78,Rachel J,TN,1496606336000.0,18604107
230942958,Smyrna,,1499012116000.0,35.98,-86.5,rachel laing,TN,1500475409000.0,18604107
32707172,Nashville,,1459978766000.0,36.17,-86.78,Rachel Miller,TN,1466018118000.0,18604107
236782030,Clarksville,,1505695656000.0,36.53,-87.34,Rachel Wheaton,TN,1505695656000.0,18604107
231983954,Nashville,,1500256966000.0,36.08,-86.72,Rafael Jimenez,TN,1500256966000.0,18604107
226635416,Nashville,,1493493195000.0,36.06,-86.96,rafiq,TN,1493493195000.0,18604107
203228398,Houston,,1460485512000.0,29.72,-95.22,Raja,TX,1460920435000.0,18604107
92069902,Nashville,,1472484341000.0,36.17,-86.78,Raja,TN,1500041098000.0,18604107
224457330,Nashville,,1490486807000.0,36.17,-86.79,Rana Coffey,TN,1490486807000.0,18604107
227934922,Murfreesboro,,1495239431000.0,35.82,-86.45,Randy Shaw,TN,1495239431000.0,18604107
224563017,Nashville,,1490637456000.0,36.08,-86.72,Ravi Teja,TN,1490637456000.0,18604107
214079627,Nashville,,1475289450000.0,36.17,-86.72,Ray W,TN,1475289450000.0,18604107
190569062,Nashville,,1438124162000.0,36.17,-86.78,Reaghan Rickards,TN,1438124162000.0,18604107
189025953,Clarksville,,1459561667000.0,36.56,-87.35,Reba Lynn,TN,1459561667000.0,18604107
9532275,Nashville,,1476380851000.0,36.18,-86.74,Rebecca ,TN,1476380851000.0,18604107
196822887,Nashville,,1467478168000.0,36.17,-86.78,Rebecca,TN,1489284874000.0,18604107
185291666,Goodlettsville,,1434167368000.0,36.32,-86.72,Rebecca,TN,1464293177000.0,18604107
81043102,Cookeville,Cookeville,1439235969000.0,36.2,-85.52,Rebecca Brown,TN,1439235969000.0,18604107
8442926,Nashville,,1495218545000.0,36.16,-86.79,Rebecca Domm,TN,1501444470000.0,18604107
213961223,Clarksville,,1475174560000.0,36.53,-87.35,Rebecca Stevens,TN,1475174560000.0,18604107
8947251,Nashville,,1463739483000.0,36.15,-86.86,Rebekah Cothran,TN,1468464264000.0,18604107
25077732,Franklin,,1468032108000.0,35.92,-86.89,Reed Mitchell,TN,1468032108000.0,18604107
232542032,Springfield,,1500944109000.0,36.52,-86.87,Regina Ervin Clark,TN,1500944109000.0,18604107
226754180,Nashville,,1493657489000.0,36.17,-86.78,Rena Conley,TN,1494100002000.0,18604107
203643344,Dickson,,1461080301000.0,36.08,-87.43,René Blaylock Porter,TN,1473272366000.0,18604107
226268765,Nashville,,1492999198000.0,36.13,-86.8,Renee,TN,1493648995000.0,18604107
10358025,Mount Juliet,"Long Beach, CA.",1431876809000.0,36.22,-86.52,Renee,TN,1507587528000.0,18604107
236151556,Nashville,,1505076802000.0,36.17,-86.78,Renee D,TN,1505076802000.0,18604107
221161925,Clarksville,,1485961172000.0,36.56,-87.41,Renee Palicia,TN,1485961172000.0,18604107
129944172,Murfreesboro,Edmonds,1496111650000.0,35.78,-86.33,Renee Walker,TN,1500482038000.0,18604107
230706781,Smyrna,,1498705683000.0,35.97,-86.51,Renee Wasser,TN,1498705683000.0,18604107
207953498,Nashville,,1467085276000.0,36.17,-86.78,Rhianne Roustom,TN,1467085276000.0,18604107
61190212,White House,"White House,TN",1432746606000.0,36.48,-86.69,Rhonda South,TN,1505677251000.0,18604107
230966474,Hendersonville,,1499037544000.0,36.3,-86.62,Rhonda Waggoner,TN,1499037544000.0,18604107
10411195,Saint Louis,,1469024618000.0,38.63,-90.19,Riana,MO,1469024618000.0,18604107
193982461,Fort Campbell,,1444619144000.0,36.65,-87.46,Ricardo Luna,KY,1444619144000.0,18604107
237903907,Nashville,,1506925086000.0,36.17,-86.78,Rich,TN,1506925086000.0,18604107
199137111,Hendersonville,,1454563058000.0,36.32,-86.61,Rich Jones,TN,1454608648000.0,18604107
197468154,Clarksville,,1451608311000.0,36.53,-87.35,Richard Teasley,TN,1451608311000.0,18604107
222153378,Nashville,,1487261754000.0,36.17,-86.78,Rick,TN,1492462495000.0,18604107
183067044,Nashville,,1432617931000.0,36.17,-86.78,Rick,TN,1461433719000.0,18604107
234599113,Nashville,,1503366579000.0,36.15,-86.86,Rickco Forbes,TN,1504791573000.0,18604107
233161849,Nashville,,1501985476000.0,36.15,-86.81,Rina,TN,1507263225000.0,18604107
202261966,Nashville,,1459105941000.0,36.17,-86.78,Rio Kakehashi,TN,1459532751000.0,18604107
211226303,Nashville,,1471542342000.0,36.18,-86.81,Rita Robertson,TN,1471542342000.0,18604107
203361151,Nashville,,1495994533000.0,36.16,-86.79,Ritu,TN,1496835105000.0,18604107
218782366,Nashville,,1482901535000.0,36.15,-86.81,Ro Whi,TN,1482901535000.0,18604107
48312532,Nashville,"Fort Lauderdale, FL",1500821151000.0,36.08,-86.72,Rob,TN,1500821151000.0,18604107
189326749,Portland,,1435708295000.0,45.5,-122.69,Rob,OR,1435708295000.0,18604107
197541591,Nashville,,1451769038000.0,36.17,-86.78,Rob Jones,TN,1451769038000.0,18604107
222786996,Nashville,,1488144925000.0,36.16,-86.79,Rob Prentice,TN,1495489783000.0,18604107
224440831,Nashville,,1490466653000.0,36.14,-86.74,Robert,TN,1490466653000.0,18604107
225788324,Gallatin,,1492361117000.0,36.39,-86.45,Robert Castro III,TN,1492361117000.0,18604107
227254814,Nashville,,1494339571000.0,36.14,-86.74,Robert Dehmer,TN,1494339571000.0,18604107
62480732,Murfreesboro,,1466107836000.0,35.78,-86.33,Robert Duckhorn,TN,1466107836000.0,18604107
206045842,Murfreesboro,,1464486508000.0,35.87,-86.34,Robert E Sweeney III,TN,1471482200000.0,18604107
232195588,Nashville,,1500509583000.0,36.11,-86.78,Robert James Abatteng,TN,1500509583000.0,18604107
200714647,Clarksville,,1456845868000.0,36.53,-87.35,Robert Sample,TN,1466804363000.0,18604107
188482194,Madison,,1433977601000.0,36.26,-86.71,Robert Whiteman,TN,1434027153000.0,18604107
227787125,Nashville,,1495048075000.0,36.17,-86.78,Robin,TN,1495048075000.0,18604107
121945932,Nashville,,1473116332000.0,36.17,-86.78,Robin,TN,1504488379000.0,18604107
239503801,Murfreesboro,,1508713485000.0,35.82,-86.44,Robin,TN,1508713485000.0,18604107
200664765,Nashville,,1456771498000.0,36.17,-86.78,Robin H Haynes,TN,1456771498000.0,18604107
231180568,Nashville,,1499301861000.0,36.11,-86.78,Robin Martin,TN,1499301861000.0,18604107
185183310,Murfreesboro,,1493751532000.0,35.87,-86.34,Robin Patty,TN,1499267715000.0,18604107
206464818,Franklin,,1465068276000.0,35.92,-86.89,Robin Turner Hawkins,TN,1465214823000.0,18604107
84512892,Joelton,,1463695723000.0,36.33,-86.91,Robin-Lynn Snow,TN,1463695723000.0,18604107
12807186,Nashville,,1465902096000.0,36.16,-86.79,Robyn ,TN,1468027569000.0,18604107
188717147,Nashville,,1434465081000.0,36.17,-86.72,Rodney Jones ,TN,1463826565000.0,18604107
10775895,Nashville,,1448037720000.0,36.18,-86.81,Ron Ledford Jr,TN,1448037720000.0,18604107
234997832,Carthage,,1503831452000.0,36.26,-85.99,Ron Meredith,TN,1506049292000.0,18604107
193460814,Nashville,,1443632599000.0,36.08,-86.72,Ronel Harms,TN,1443807900000.0,18604107
218214313,Nashville,,1481767564000.0,36.15,-86.86,Ronnie Thomas,TN,1489693046000.0,18604107
226967477,Clarksville,,1493943370000.0,36.56,-87.41,Ronny Pool,TN,1493943370000.0,18604107
109769452,Mount Juliet,"Antioch, TN",1463081101000.0,36.21,-86.69,Roseanna,TN,1492118475000.0,18604107
113362402,Nashville,Detroit,1483880279000.0,36.17,-86.78,Roselyn,TN,1497758860000.0,18604107
209416391,Nashville,,1469030450000.0,36.17,-86.78,Ross Welch,TN,1469030450000.0,18604107
203958093,Joelton,,1461536316000.0,36.33,-86.91,Rox C,TN,1461536316000.0,18604107
222350414,Murfreesboro,Murfreesboro,1487540473000.0,35.87,-86.34,rtm,TN,1493856864000.0,18604107
213428645,Mount Juliet,,1474496616000.0,36.21,-86.52,russell brown,TN,1474496616000.0,18604107
233088804,Nashville,,1501631139000.0,36.07,-86.73,Ruth Cante,TN,1501631139000.0,18604107
214207348,Clarksville,,1475451450000.0,36.56,-87.35,Ruth Coats,TN,1475451450000.0,18604107
190320150,Pleasant View,,1440259893000.0,36.38,-87.04,Rya Jasmine Grimes,TN,1440259893000.0,18604107
192897953,Nashville,,1495414449000.0,36.11,-86.86,Ryan,TN,1497664654000.0,18604107
209162587,Nashville,,1468706586000.0,36.17,-86.78,Ryan Lynch,TN,1468706586000.0,18604107
183024603,Nashville,,1436468421000.0,36.16,-86.71,Ryan Phillips,TN,1436468421000.0,18604107
225635074,Nashville,,1492127959000.0,36.14,-86.8,Ryan Selvaggio,TN,1492127959000.0,18604107
226241618,Clarksville,,1492966917000.0,36.53,-87.35,S.O'Donnell,TN,1492966917000.0,18604107
200802841,Nashville,,1456966208000.0,36.17,-86.78,Sa'ad L. Sh,TN,1456966208000.0,18604107
138673662,Madison,,1457978138000.0,36.26,-86.71,sabrina,TN,1464559084000.0,18604107
10499160,White House,Austin,1476594154000.0,36.48,-86.69,Sabrina,TN,1476653769000.0,18604107
188792648,Mount Juliet,"Augusta, GA",1434598576000.0,36.22,-86.52,Sabrina Goins,TN,1434598576000.0,18604107
235516378,Nashville,,1504410857000.0,36.17,-86.78,Sabrina Weasley,TN,1504410857000.0,18604107
191116064,Franklin,,1439181427000.0,35.92,-86.89,Sadi Eggers,TN,1439181427000.0,18604107
210546334,Nashville,,1470575295000.0,36.17,-86.78,Sadie,TN,1494098868000.0,18604107
225769272,Nashville,,1492329787000.0,36.15,-86.86,Saeed Alzahrani,TN,1492329787000.0,18604107
166082312,Nashville,Franklin,1453328963000.0,36.13,-86.86,Sagar,TN,1459959580000.0,18604107
197820255,Nashville,,1452279264000.0,36.17,-86.78,Saghi Asgarifar,TN,1452279264000.0,18604107
222284609,Cookeville,,1487983525000.0,36.16,-85.51,Sai Chand,TN,1494019779000.0,18604107
203951302,Nashville,,1461528992000.0,36.08,-86.72,Sally,TN,1461548345000.0,18604107
214537182,Nashville,,1475872757000.0,36.15,-86.81,Salwa Badr,TN,1475872757000.0,18604107
204309846,Nashville,,1462054494000.0,36.17,-86.78,Sam,TN,1462054494000.0,18604107
228213759,Brentwood,,1495573600000.0,36.0,-86.79,Sam Bowers,TN,1495573600000.0,18604107
225738326,Nashville,,1492280534000.0,36.15,-86.8,Sam Brammer,TN,1496515296000.0,18604107
199073282,Smyrna,,1454465962000.0,35.97,-86.51,Sam Hamlin,TN,1455418973000.0,18604107
200414355,Cleveland,,1456415112000.0,35.16,-84.87,Sam Noble,TN,1468341611000.0,18604107
229259590,Rockvale,,1496896189000.0,35.76,-86.55,Samantha,TN,1499136383000.0,18604107
209338806,Nashville,,1468931522000.0,36.17,-86.78,Samantha,TN,1468931522000.0,18604107
191684415,Clarksville,,1440292840000.0,36.53,-87.35,Samantha Bridenbaker,TN,1440292840000.0,18604107
226010619,Nashville,,1492648617000.0,36.17,-86.72,Samantha Duso,TN,1494716591000.0,18604107
197969682,Nashville,,1452548922000.0,36.16,-86.79,Samantha Knox,TN,1452548922000.0,18604107
189445025,Nashville,,1435963248000.0,36.15,-86.86,Samantha Marley,TN,1435963248000.0,18604107
233404896,Nashville,,1502009221000.0,36.14,-86.8,Samantha Rohman,TN,1504255261000.0,18604107
232096116,Mount Juliet,,1500397547000.0,36.22,-86.52,Samantha Sawyer,TN,1500397547000.0,18604107
200940195,Goodlettsville,,1457179441000.0,36.33,-86.74,Samantha Schroeder ,TN,1470249034000.0,18604107
226409711,Clarksville,,1493924242000.0,36.49,-87.23,Samjeanmccordjohnson,TN,1493924242000.0,18604107
193262365,San Antonio,,1443365976000.0,29.5,-98.61,Samuel Díaz,TX,1443365976000.0,18604107
221128997,Nashville,,1485913064000.0,36.17,-86.78,Sandeep Reddy,TN,1504140125000.0,18604107
212305931,Hendersonville,,,36.32,-86.61,,TN,,18604107
125095902,Nashville,,1433166324000.0,36.16,-86.79,Sandra,TN,1488763251000.0,18604107
226226126,Murfreesboro,,1492947753000.0,35.85,-86.4,Sandra Williams,TN,1492947753000.0,18604107
200550249,Nashville,,1456610512000.0,36.15,-86.79,Sandy,TN,1470032764000.0,18604107
221482535,Nashville,,1486355149000.0,36.21,-86.72,Sandy Hughes Bradley,TN,1501364257000.0,18604107
211928032,Nashville,,1472517928000.0,36.17,-86.78,Sangeetha Ram,TN,1473436793000.0,18604107
188698934,Nashville,,1434421231000.0,36.08,-86.72,Sara ,TN,1434421231000.0,18604107
189570992,New York,,,40.75,-73.99,,NY,,18604107
201683948,Franklin,,1458232159000.0,35.92,-86.89,Sara Hooker,TN,1499615337000.0,18604107
191823767,Dimock,,1476765285000.0,41.74,-75.9,Sara Kistner,PA,1476765285000.0,18604107
208807516,Mount Juliet,,1468246777000.0,36.21,-86.52,Sarah,TN,1474640609000.0,18604107
209224665,Nashville,,1468786651000.0,36.08,-86.72,Sarah Ashley Christian,TN,1486740655000.0,18604107
204902820,Brentwood,,1462912615000.0,36.0,-86.79,Sarah Burke,TN,1462912615000.0,18604107
225940719,Old Hickory,,1492557159000.0,36.25,-86.63,Sarah Corum,TN,1492627343000.0,18604107
225124086,Murfreesboro,,1491423767000.0,35.87,-86.34,Sarah Doolittle,TN,1491758929000.0,18604107
192259462,Mc Minnville,,1441464596000.0,35.68,-85.78,sarah ford,TN,1441464596000.0,18604107
231809999,Nashville,,1500042669000.0,36.11,-86.86,Sarah Gilliam,TN,1500042669000.0,18604107
189092259,Nashville,,1447400602000.0,36.17,-86.78,Sarah Guest,TN,1447400602000.0,18604107
189223714,Nashville,,1435507042000.0,36.06,-86.96,Sarah Hagood,TN,1435507042000.0,18604107
201163225,Hendersonville,,1457489597000.0,36.32,-86.61,Sarah Jackson,TN,1457489597000.0,18604107
218087568,Pegram,,1481549603000.0,36.12,-87.03,Sarah Ross,TN,1481549603000.0,18604107
228726272,Nashville,,1496248121000.0,36.16,-86.78,Saria Shannon,TN,1496248121000.0,18604107
197743064,Nashville,,1452135400000.0,36.17,-86.78,Sasha,TN,1452135400000.0,18604107
194397680,Nashville,,1445385630000.0,36.17,-86.78,Saska,TN,1445385630000.0,18604107
206582438,Nashville,,1465226002000.0,36.15,-86.78,Savannah Walters,TN,1496160190000.0,18604107
199213612,Nashville,,1454696375000.0,36.06,-86.96,sawyerdsmom,TN,1454696375000.0,18604107
218513858,Nashville,,1482353460000.0,36.17,-86.78,Schan,TN,1482353460000.0,18604107
205132868,Spring Hill,,1498873263000.0,35.76,-86.88,Scott,TN,1498873263000.0,18604107
190144330,Franklin,,1437358418000.0,35.92,-86.89,Scott Bostian,TN,1453825550000.0,18604107
221033289,Madison,,1485800431000.0,36.19,-86.74,Scott Cone,TN,1490202962000.0,18604107
104678412,La Vergne,La Vergne,1432741048000.0,36.01,-86.57,Scott Dalrymple ,TN,1432741048000.0,18604107
163814322,Fort Campbell,"Key West, FL",1450035814000.0,36.66,-87.48,Scott Donahue,KY,1500677255000.0,18604107
199603769,Ashland City,Muncie,1498906938000.0,36.28,-87.07,Scott G,TN,1498906938000.0,18604107
218101454,Nashville,,1481566405000.0,36.16,-86.78,Scott Hafley,TN,1481566405000.0,18604107
209384979,Brentwood,,1488045922000.0,36.0,-86.79,Scott O'Neill,TN,1507475982000.0,18604107
219745067,Nashville,,1484168326000.0,36.17,-86.78,Scott Oldham,TN,1484168326000.0,18604107
218333857,Nashville,,1482009975000.0,36.14,-86.74,Scott Webster,TN,1482009975000.0,18604107
224418836,White River Junction,,1490437390000.0,43.63,-72.31,Sean DeStephanis,VT,1490437390000.0,18604107
196401017,Baxter,,1449182069000.0,36.16,-85.64,Sean Keller,TN,1452523401000.0,18604107
204297176,Nashville,,1462038055000.0,36.08,-86.72,Sebastian Motola,TN,1462419379000.0,18604107
217207377,Nashville,,1486867065000.0,36.17,-86.78,Senen Yrad Marcano Gonzalez,TN,1495678840000.0,18604107
215293716,Nashville,,1476985691000.0,36.09,-86.82,Sete Zare,TN,1476985691000.0,18604107
203244502,Antioch,,1460505850000.0,36.17,-86.88,Shannon ,TN,1461623259000.0,18604107
195803647,Nashville,,1447972105000.0,36.1,-86.66,Shannon C.,TN,1505108111000.0,18604107
198495036,Murfreesboro,,1453520198000.0,35.87,-86.34,Shannon Conklin,TN,1457648375000.0,18604107
190868245,Nashville,,1438694518000.0,36.06,-86.96,Shannon Hannigan,TN,1466299048000.0,18604107
185997095,Brentwood,,1473390511000.0,36.0,-86.79,Shannon Marie,TN,1490624114000.0,18604107
232663913,Nashville,,1501092382000.0,36.17,-86.79,Shannon Sander,TN,1501092382000.0,18604107
214127933,Nashville,,1475381646000.0,36.11,-86.86,Shannon Smith,TN,1497136102000.0,18604107
184279207,Nashville,,1488508467000.0,36.17,-86.78,Shara Murphy,TN,1488508467000.0,18604107
191437667,Smyrna,,1494636138000.0,35.97,-86.51,Sharon,TN,1494680370000.0,18604107
233966572,Hendersonville,,1502648858000.0,36.32,-86.61,Sharon,TN,1502648858000.0,18604107
207418109,Nashville,,1466358840000.0,36.17,-86.78,Sharon Freeman,TN,1494040135000.0,18604107
173986732,Smyrna,,1439819468000.0,35.97,-86.51,Sharon Hayden,TN,1492525431000.0,18604107
209467205,Columbia,,1469529045000.0,35.61,-87.05,Sharon P.,TN,1473696773000.0,18604107
208084368,Fort Campbell,,1467260167000.0,36.65,-87.46,Shauna Wedderburn,KY,1467260167000.0,18604107
61863362,Nashville,,1448331275000.0,36.21,-86.72,Shawn Lee,TN,1466564588000.0,18604107
54471322,Nashville,,1467690216000.0,36.16,-86.79,Shawn Mcnerney,TN,1468003206000.0,18604107
206528152,Clarksville,,1465153688000.0,36.56,-87.41,Shay Allen,TN,1465153688000.0,18604107
212094707,Nashville,,1472749585000.0,36.15,-86.86,Shea Wages,TN,1472749585000.0,18604107
235675134,Nashville,,1504579189000.0,36.13,-86.82,Shea Wilson,TN,1504579189000.0,18604107
41903142,Atlanta,Atlanta,1435202185000.0,33.93,-84.39,sheila,GA,1435202185000.0,18604107
233352996,La Vergne,,1501951254000.0,36.0,-86.57,Sheila Hackett,TN,1501951254000.0,18604107
203822539,Smyrna,,1461342884000.0,35.97,-86.51,Sheila Smith,TN,1461342884000.0,18604107
231083258,Nashville,,1499182455000.0,36.17,-86.72,Shekinah Christian,TN,1499182455000.0,18604107
151199082,Nashville,,1494261781000.0,36.17,-86.78,Shelby,TN,1494261781000.0,18604107
237979624,Nashville,,1507007114000.0,36.17,-86.78,Shelby ,TN,1507007114000.0,18604107
63584502,Clarksville,,1473276201000.0,36.53,-87.35,Shelby,TN,1473276201000.0,18604107
236063875,Nashville,,1504982821000.0,36.21,-86.72,Shelby Button,TN,1504982821000.0,18604107
203760739,Springfield,,1461248993000.0,36.52,-86.87,Shelby Marie Jones,TN,1461248993000.0,18604107
198072300,Murfreesboro,,1452735158000.0,35.82,-86.45,Shelia ,TN,1452735158000.0,18604107
18943841,Gallatin,Gallatin,1460214261000.0,36.39,-86.45,Shelia P,TN,1494614729000.0,18604107
198719299,Clarksville,,1454955887000.0,36.53,-87.35,Shelley,TN,1470244750000.0,18604107
199550597,Nashville,,1455215539000.0,36.16,-86.79,shelley mays,TN,1455215539000.0,18604107
81947422,Watertown,,1457403877000.0,36.11,-86.14,Shelley Whitfield Cloutier,TN,1489969485000.0,18604107
9065591,White House,White House,1462063402000.0,36.48,-86.69,sherrie,TN,1496687569000.0,18604107
200882851,La Vergne,,1457093567000.0,36.01,-86.57,Sheryl Hungerford,TN,1457093567000.0,18604107
10792449,Murfreesboro,"Amelia Island, FL ",1448073676000.0,35.82,-86.45,Shirley ,TN,1492189675000.0,18604107
222214601,Murfreesboro,,1487348373000.0,35.78,-86.33,Shoira S,TN,1489243777000.0,18604107
197667163,College Grove,,1452000140000.0,35.77,-86.71,Sidney Lowery,TN,1452000140000.0,18604107
234954667,Nashville,,1503776437000.0,36.14,-86.74,Simina Moldovan,TN,1503776437000.0,18604107
233343800,Franklin,,1501942445000.0,35.93,-86.81,Simon,TN,1506128413000.0,18604107
236642977,Nashville,,1505548766000.0,36.15,-86.8,Simon Nilsson,TN,1505548766000.0,18604107
219985470,Thompsons Station,,1484489465000.0,35.8,-86.9,Simone,TN,1507493256000.0,18604107
46928672,Hermitage,,1461578496000.0,36.19,-86.6,Siobhan,TN,1471011806000.0,18604107
210200708,Nashville,,1470078359000.0,36.17,-86.78,Slam,TN,1470078359000.0,18604107
209292183,Manchester,,1468870261000.0,35.47,-86.08,Smooth Rapids Outfitters,TN,1468870261000.0,18604107
226049956,Dickson,,1492707650000.0,36.08,-87.38,Soleena Gaskin,TN,1492707650000.0,18604107
232956266,Nashville,,1501464287000.0,36.06,-86.96,Sonia Alam,TN,1501464287000.0,18604107
149080852,Hendersonville,,1459252903000.0,36.32,-86.61,Sonja,TN,1501601883000.0,18604107
216524014,Nashville,,1478907596000.0,36.17,-86.78,Sonja,TN,1486755994000.0,18604107
208173959,Madison,"Collierville, TN",1467394731000.0,36.26,-86.71,Sonya Anthony McGhee,TN,1467394731000.0,18604107
224645214,Nashville,,1490740371000.0,36.17,-86.78,Sophia O,TN,1490740371000.0,18604107
236030601,Nashville,,1504948867000.0,36.17,-86.79,Spencer Kappelman,TN,1504948867000.0,18604107
194564371,La Vergne,,1445690836000.0,36.01,-86.57,Stacey Heinen-Cole,TN,1445690836000.0,18604107
195477088,Nashville,,1447355747000.0,36.17,-86.78,Stacey Schauer,TN,1447355747000.0,18604107
8921426,Hermitage,"Nashville, TN",1474125830000.0,36.0,-86.46,Stacy Cline,TN,1496062866000.0,18604107
234252700,Miami,,1506998382000.0,25.75,-80.27,Stacy Lee,FL,1507030193000.0,18604107
215017566,Nashville,,1476586599000.0,36.15,-86.86,Stacy Rector,TN,1476586599000.0,18604107
210573781,Nashville,,1470628931000.0,36.09,-86.82,Stacy Williams,TN,1487637108000.0,18604107
220731917,Nashville,,1485407671000.0,36.21,-86.72,Stalios Cantose,TN,1485407671000.0,18604107
202033508,Spring Hill,,1458743282000.0,35.76,-86.88,Stan Honett,TN,1460132835000.0,18604107
222618140,Murfreesboro,,1487898987000.0,35.87,-86.44,Stef,TN,1487898987000.0,18604107
209426592,Nashville,,1469042564000.0,36.17,-86.78,Stefani Leigh,TN,1469652680000.0,18604107
199231699,Franklin,,1454721547000.0,35.99,-86.9,Steph,TN,1460750187000.0,18604107
70340222,Nashville,Nashville,1501173319000.0,36.16,-86.79,Stephanie,TN,1501173319000.0,18604107
184165700,Nashville,Los Angeles,1438023326000.0,36.15,-86.86,Stephanie,TN,1438023326000.0,18604107
3935410,Goodlettsville,"Hazard, KY",1500907857000.0,36.33,-86.74,Stephanie,TN,1504972780000.0,18604107
192887954,Mc Minnville,,1442558086000.0,35.68,-85.78,Stephanie,TN,1442558086000.0,18604107
209950408,Smyrna,,1469733841000.0,35.97,-86.51,Stephanie,TN,1469733841000.0,18604107
211643211,Franklin,,1472140756000.0,35.92,-86.89,Stephanie Clare,TN,1472140756000.0,18604107
210156882,Goodlettsville,,1470015730000.0,36.32,-86.72,Stephanie Crawford,TN,1470015730000.0,18604107
194573109,Nashville,,1445705936000.0,36.17,-86.78,Stephanie Kendrick,TN,1445705936000.0,18604107
13303434,Hendersonville,,1498191960000.0,36.32,-86.61,Stephanie Lee,TN,1498191960000.0,18604107
212297787,Ward,,1473028994000.0,35.02,-91.95,Stephanie Owen,AR,1473028994000.0,18604107
187713031,Joelton,,1434672212000.0,36.33,-86.94,Stephanie Puckett,TN,1492565576000.0,18604107
209160301,Nashville,,1468705080000.0,36.09,-86.82,Stephanie Rossberger,TN,1468705080000.0,18604107
203737167,Nashville,,1461207651000.0,36.08,-86.72,Stephanie Spellman,TN,1461207651000.0,18604107
175147172,Nashville,,1436454815000.0,36.17,-86.78,Sterling Rogers,TN,1436454815000.0,18604107
210859258,Franklin,,1471017449000.0,35.92,-86.89,Steve Carden,TN,1471017449000.0,18604107
192158468,Nashville,,1441202313000.0,36.1,-86.66,Steve Disser,TN,1441785438000.0,18604107
239296621,Murfreesboro,,1508472891000.0,35.82,-86.45,Steve F,TN,1508472891000.0,18604107
208858954,Mount Juliet,,1468301340000.0,36.21,-86.52,Steve Green,TN,1468301340000.0,18604107
195421601,Nashville,,1451576038000.0,36.13,-86.8,Steve Shane,TN,1451576038000.0,18604107
192411409,Suwanee,,1441673652000.0,34.06,-84.08,Steven Michael Anderson,GA,1441673652000.0,18604107
229114345,Franklin,,1496716657000.0,35.92,-86.89,Sue Manley Lombardo,TN,1496716657000.0,18604107
229529069,Clarksville,,1497237860000.0,36.49,-87.23,Sue Slawson,TN,1499100711000.0,18604107
189199370,Nashville,,1435449877000.0,36.06,-86.96,Summer Sims,TN,1435449877000.0,18604107
232018049,Nashville,,1500304698000.0,36.14,-86.74,Sumter Barbour,TN,1500304698000.0,18604107
206170876,Nashville,,1464659330000.0,36.17,-86.78,Susan,TN,1464659330000.0,18604107
224680060,White House,,1490796587000.0,36.48,-86.69,Susan,TN,1490796587000.0,18604107
178667012,Franklin,,1433284081000.0,35.93,-86.81,susan,TN,1498998791000.0,18604107
182914062,Nashville,,1504294837000.0,36.08,-86.72,Susan C.,TN,1506315737000.0,18604107
230596187,Gallatin,,1498578343000.0,36.39,-86.45,Susan Hunter,TN,1499288268000.0,18604107
221838783,Clarksville,,1498928536000.0,36.56,-87.41,Susan Walker,TN,1501604596000.0,18604107
197904585,Nashville,,1452439373000.0,36.11,-86.78,Susanna Maria Gattoni,TN,1461012497000.0,18604107
211926506,Nashville,,1472517040000.0,36.17,-86.72,Sushant,TN,1472517040000.0,18604107
8717661,Nashville,"Rochester, NY",1467245905000.0,36.21,-86.72,Suzanne,TN,1473795564000.0,18604107
206628059,Nolensville,,1465278505000.0,35.94,-86.67,Suzanne Horne,TN,1496924154000.0,18604107
212602554,Murfreesboro,,1473435079000.0,35.78,-86.33,Syd,TN,1473435079000.0,18604107
236615600,Nashville,,1505518908000.0,36.15,-86.86,T.J.,TN,1505518908000.0,18604107
210520916,Antioch,,1470534489000.0,36.04,-86.64,Taku Kataura,TN,1470534489000.0,18604107
207732337,Nashville,,1466806988000.0,36.17,-86.78,Tamara,TN,1466806988000.0,18604107
204783360,Murfreesboro,,1462748337000.0,35.78,-86.33,Tamara,TN,1466034912000.0,18604107
101363462,Spring Hill,,1435511524000.0,35.76,-86.88,Tami,TN,1468328720000.0,18604107
194485906,Ashland City,,1445548376000.0,36.28,-87.07,Tammie Engelhardt,TN,1445548376000.0,18604107
207746389,Kingston Springs,,1466807120000.0,36.09,-87.12,Tammy Day,TN,1467669080000.0,18604107
229187378,Clarksville,,1496804496000.0,36.49,-87.23,Tammy L,TN,1504795600000.0,18604107
202847427,Pleasant View,,1459950662000.0,36.38,-87.04,Tammy Nash,TN,1461524837000.0,18604107
199474376,Nashville,,1455101275000.0,36.06,-86.96,Tamra Rainey,TN,1455101275000.0,18604107
222745771,Hermitage,,1488123811000.0,36.21,-86.59,Tara ,TN,1503543884000.0,18604107
226778406,Fairview,,1493684042000.0,35.97,-87.13,Tara bowman,TN,1493684042000.0,18604107
237026716,Antioch,,1505939462000.0,36.17,-86.88,Tara Russell,TN,1506014885000.0,18604107
213768028,Oak Grove,,1474935803000.0,36.68,-87.45,Tarshena Rodriguez,KY,1474935803000.0,18604107
185139711,Sterling,,1493759206000.0,39.01,-77.39,Tatiana,VA,1504634459000.0,18604107
202663947,Clarksville,,1459697146000.0,36.53,-87.35,Taylor TayloredServices,TN,1459697146000.0,18604107
202499734,Goodlettsville,Boynton Beach,1459449797000.0,36.33,-86.74,taylor white,TN,1459449797000.0,18604107
213392064,Smyrna,,1474450074000.0,35.97,-86.51,Tc,TN,1474450074000.0,18604107
211861206,Nashville,,1472430043000.0,36.11,-86.86,Teal,TN,1472430043000.0,18604107
171363482,Whites Creek,"Cardington, Ohio",1489332130000.0,36.27,-86.83,Teddilynn Greene,TN,1489666344000.0,18604107
236365873,Nashville,,1505276204000.0,36.15,-86.86,Tekari Kelley,TN,1505276204000.0,18604107
180770782,Nashville,,1485484486000.0,36.18,-86.74,Tena,TN,1492050743000.0,18604107
231101258,Hendersonville,,1500988349000.0,36.32,-86.61,Teresa Pearson,TN,1501171142000.0,18604107
224124298,Nashville,,1490029815000.0,36.17,-86.78,Teresa Welch Burke,TN,1490029815000.0,18604107
222052657,Nashville,,1487116641000.0,36.22,-86.86,Terrance Campbell,TN,1487116641000.0,18604107
199400435,Hendersonville,,1454987623000.0,36.32,-86.61,Terri,TN,1470143063000.0,18604107
225699722,Nashville,,1492216886000.0,36.17,-86.78,Terri g,TN,1492216886000.0,18604107
192206428,Antioch,,1441295432000.0,36.04,-86.64,terri manlove,TN,1442032074000.0,18604107
137381312,Nashville,Nashville,1467506428000.0,36.18,-86.74,Terri Swann,TN,1468253621000.0,18604107
190478403,Bowling Green,,1437969597000.0,37.02,-86.46,Terry,KY,1437969597000.0,18604107
226209587,Nashville,,1492918809000.0,36.17,-86.78,Terry Barlow,TN,1492918809000.0,18604107
131160642,Madison,Madison,1488507805000.0,36.26,-86.71,Terry Smith,TN,1505156799000.0,18604107
232337469,La Vergne,,1500688754000.0,36.01,-86.57,Terysa Tandara,TN,1500688754000.0,18604107
213998998,Nashville,,1475201237000.0,36.15,-86.79,Tess Wilson,TN,1475201237000.0,18604107
190740445,Union Grove,,1438457426000.0,34.42,-86.47,Tevin L. Cobb,AL,1439242336000.0,18604107
206207288,Franklin,,1464712875000.0,35.93,-86.81,The Tierney's,TN,1466546091000.0,18604107
146298212,Murfreesboro,"Reedley, CA",1489336393000.0,35.78,-86.33,Theaj,TN,1501818347000.0,18604107
229065335,White House,,1496667406000.0,36.48,-86.69,Theresa Dixon,TN,1496667406000.0,18604107
218173548,Nashville,,1481689258000.0,36.17,-86.78,Theresa Miller Douglas,TN,1481689258000.0,18604107
202858187,Hendersonville,,1459968505000.0,36.32,-86.61,Thom Golden,TN,1465951586000.0,18604107
193874989,Nashville,,1465323479000.0,36.08,-86.72,Thomas Brown,TN,1465323479000.0,18604107
223940458,Nashville,,1489772074000.0,36.16,-86.79,Thomas O'Brien,TN,1489772074000.0,18604107
209538746,Nashville,,1469198596000.0,36.11,-86.78,Tia Ray,TN,1469198596000.0,18604107
205863805,Fort Campbell,,1464214924000.0,36.65,-87.46,Tiberius,KY,1464214924000.0,18604107
184504283,Murfreesboro,,1432737405000.0,35.78,-86.33,Tiffany,TN,1435628112000.0,18604107
197357660,Clarksville,,1451360687000.0,36.53,-87.35,Tiffany,TN,1451360687000.0,18604107
231184784,Nashville,,1499305023000.0,36.17,-86.78,Tiffany Erwin,TN,1499305023000.0,18604107
222437742,Hopkinsville,,1487654278000.0,36.87,-87.49,Tiffany Teague,KY,1487654278000.0,18604107
201213616,Tigerville,,1457571558000.0,35.06,-82.35,Tim,SC,1469110117000.0,18604107
202573339,Nashville,,1459560742000.0,36.17,-86.78,Tim Cloninger ,TN,1465073687000.0,18604107
188586373,Brentwood,,1458160245000.0,36.0,-86.79,Tim Steed,TN,1458160245000.0,18604107
201567747,Madison,,1458063611000.0,36.26,-86.71,Tima Imari Smith,TN,1458063611000.0,18604107
198470600,Franklin,,1453478729000.0,35.93,-86.81,Timothy,TN,1453478729000.0,18604107
205864890,Nashville,"Nashville, TN",1464216813000.0,36.08,-86.72,Timothy Loayza,TN,1464216813000.0,18604107
186997316,New York,,1465920238000.0,40.75,-73.99,Timothy O'Leary,NY,1469218620000.0,18604107
53999432,Savannah,"Savannah, TN",1479664756000.0,35.23,-88.23,Timothy Smith,TN,1479664756000.0,18604107
188196453,Hermitage,,1433391829000.0,36.19,-86.6,Tina Evans,TN,1434343540000.0,18604107
225777543,Joelton,,1492345988000.0,36.33,-86.91,Tina Pugh,TN,1494697093000.0,18604107
207425773,Fairview,,1466514833000.0,35.97,-87.13,Tina stewart,TN,1501543310000.0,18604107
222614256,Nashville,,1487893848000.0,36.16,-86.78,Todd,TN,1487893848000.0,18604107
216624793,Nashville,,1479069414000.0,36.15,-86.79,Todd Veach,TN,1479069414000.0,18604107
235665166,Goodlettsville,,1504569687000.0,36.32,-86.72,Tom Dulley,TN,1504569687000.0,18604107
191870279,Atlanta,,1458505371000.0,33.86,-84.4,Tom Embry,GA,1458505371000.0,18604107
194811734,Nashville,Nashville,1456018699000.0,36.11,-86.86,tom hanks,TN,1461721997000.0,18604107
209182680,Nashville,,1468729716000.0,36.17,-86.78,Tom Mork,TN,1468849094000.0,18604107
235855197,Lebanon,,1504759949000.0,36.21,-86.31,Tommy B,TN,1504759949000.0,18604107
235572033,Nashville,,1504474312000.0,36.16,-86.78,Toney Greer,TN,1504474312000.0,18604107
191535888,Chattanooga,,1440003245000.0,35.07,-85.31,Toni,TN,1444156317000.0,18604107
161847002,Old Hickory,,1463931714000.0,36.25,-86.64,Toni,TN,1501603224000.0,18604107
185546026,Cookeville,,1484509368000.0,36.2,-85.52,Tony,TN,1484832808000.0,18604107
225301911,Nashville,,1491686542000.0,36.17,-86.78,Tony Hughes,TN,1491686542000.0,18604107
233402553,Nashville,,1502005838000.0,36.16,-86.66,Tony Pozsgay,TN,1502005838000.0,18604107
1889955,Murfreesboro,Hong Kong,1460090294000.0,35.82,-86.44,Tony Wan,TN,1468857846000.0,18604107
206965359,Fairview,,1465734035000.0,35.97,-87.13,Tony Wheeler,TN,1466785751000.0,18604107
225935828,Nashville,,1492553428000.0,36.07,-86.73,Tori Shaw,TN,1492553428000.0,18604107
189608065,Nashville,,1436293663000.0,36.18,-86.81,Torie Groswirth,TN,1489249304000.0,18604107
209533227,Nashville,,1469190040000.0,36.07,-86.93,Tosh,TN,1471807860000.0,18604107
190176704,Murfreesboro,,1454207858000.0,35.85,-86.36,Traci Fultz Anderson,TN,1456978714000.0,18604107
95581062,Brentwood,,1444839631000.0,36.0,-86.79,Tracy Phillips,TN,1444839631000.0,18604107
184669479,Nashville,,1447550542000.0,36.14,-86.74,Tracy Webb,TN,1447560724000.0,18604107
190808238,Franklin,,1438578957000.0,35.92,-86.89,Travis Ball,TN,1438578957000.0,18604107
224606368,Nashville,,1490692852000.0,36.21,-86.72,travis braud,TN,1490955790000.0,18604107
227382202,Nashville,,1494509318000.0,36.08,-86.72,Travis Green,TN,1494509318000.0,18604107
220953680,Nashville,,1485704333000.0,36.17,-86.78,Trena Vargas,TN,1492604601000.0,18604107
217118229,Nashville,,1479837349000.0,36.15,-86.86,Trent Pagel,TN,1479837349000.0,18604107
210657744,Clarksville,,1497667195000.0,36.56,-87.41,Trever Webb,TN,1497667195000.0,18604107
205232163,Orland,,1467146264000.0,39.75,-122.19,Tricia Milne,CA,1468864502000.0,18604107
186552914,Nashville,,1432669387000.0,36.08,-86.72,Tricia Wilson,TN,1432669387000.0,18604107
206303435,Lebanon,,1474460423000.0,36.21,-86.31,Trina Michelle Clancy,TN,1474585547000.0,18604107
225923443,Nashville,,1492539898000.0,36.15,-86.81,Triunn Maeginbiarnarson,TN,1492539898000.0,18604107
201445156,Nashville,"Nashville, TN",1457899680000.0,36.17,-86.78,Ty Gilliam,TN,1457899680000.0,18604107
237324193,Madison,,1506280321000.0,36.26,-86.71,Tyler 'Cotton' Johns,TN,1506280321000.0,18604107
105250112,Murfreesboro,,1480040366000.0,35.82,-86.45,Tyler Woodbridge,TN,1480040366000.0,18604107
201192305,Collins,,1457537167000.0,41.9,-93.31,Uyou Hong,IA,1457537167000.0,18604107
195569654,Hermitage,,1448410228000.0,36.19,-86.6,V. Lauren Fass,TN,1486913345000.0,18604107
215546199,Nashville,,1477366741000.0,36.17,-86.78,Vaibhav Srivastava,TN,1506138050000.0,18604107
235551188,Nashville,,1504454825000.0,36.14,-86.8,Valliene Shelton,TN,1504454825000.0,18604107
201930849,Nashville,,1484451924000.0,36.17,-86.77,Vane Quiroz,TN,1484487222000.0,18604107
159239302,Nashville,,1465704592000.0,36.16,-86.79,Vanessa,TN,1471450063000.0,18604107
193092390,Nashville,,1442938963000.0,36.17,-86.78,Vanessa Borja,TN,1442938963000.0,18604107
235368725,Mount Juliet,,1506995066000.0,36.21,-86.52,Vanessa Niu,TN,1507915671000.0,18604107
198779157,Nashville,,1454014288000.0,36.15,-86.86,Vedanth,TN,1454014288000.0,18604107
134396682,Nashville,Nashville,1461115311000.0,36.13,-86.8,Veronica,TN,1488244375000.0,18604107
205315229,Nashville,,1463467271000.0,36.09,-86.82,Veronica,TN,1463467271000.0,18604107
128238402,Nashville,Ga,1451787776000.0,36.18,-86.74,Veronica Maldonado,TN,1476563205000.0,18604107
194347021,Gallatin,"Columbus, OH",1445293544000.0,36.39,-86.45,Veronika,TN,1464112398000.0,18604107
199534885,Columbia,,1455193967000.0,35.61,-87.05,Vicky Bassett,TN,1455193967000.0,18604107
188206758,Franklin,,1433421748000.0,35.92,-86.89,Victor Bush,TN,1433421748000.0,18604107
215224901,Fort Campbell,,,36.65,-87.46,,KY,,18604107
204129305,Nashville,,1461781565000.0,36.11,-86.86,Victoria Hill,TN,1463619179000.0,18604107
200946236,Franklin,,1457191108000.0,35.92,-86.89,Vincentzenno Cappelli,TN,1457191108000.0,18604107
215050917,Nashville,,1476641973000.0,36.11,-86.78,Vincenzeno,TN,1476641973000.0,18604107
213662941,Nashville,,1474811736000.0,36.17,-86.78,Vinéecia Buchanan,TN,1474811736000.0,18604107
233280736,Nashville,,1501865464000.0,36.17,-86.78,Walt Bell,TN,1504117504000.0,18604107
204729625,Nashville,,1462665518000.0,36.17,-86.78,Wayne Scott,TN,1462665518000.0,18604107
227270146,Nashville,,1497026665000.0,36.17,-86.78,Wendy Baker,TN,1497026665000.0,18604107
232863892,Nashville,,1501349679000.0,36.08,-86.72,Wendy Hesselman,TN,1501349679000.0,18604107
203945731,Clarksville,,1461522483000.0,36.56,-87.41,Wendy Wagler Gordon,TN,1494983985000.0,18604107
182072982,Smyrna,Nashville,1468871620000.0,35.97,-86.51,Wes,TN,1468871620000.0,18604107
210822363,Nashville,,1470956424000.0,36.17,-86.78,Wes Burrell,TN,1470956424000.0,18604107
143010152,Hermitage,,1499632618000.0,36.19,-86.6,Whitney,TN,1499632618000.0,18604107
206037388,Nashville,,1464474393000.0,36.17,-86.78,Whitney Basselen,TN,1464474393000.0,18604107
229498167,Nashville,,1497202704000.0,36.15,-86.86,Whitney Newton,TN,1497637772000.0,18604107
224551729,Franklin,,1490625109000.0,35.92,-86.89,Whitney Waddell,TN,1498662312000.0,18604107
187929215,Nashville,Detroit,1474051933000.0,36.17,-86.78,Will,TN,1474653767000.0,18604107
192386500,Clarksville,,1441637895000.0,36.56,-87.41,William ,TN,1441637895000.0,18604107
218756718,Hermitage,,1482864085000.0,36.19,-86.6,William Duke,TN,1482864085000.0,18604107
199324039,Clarksville,,1454873868000.0,36.53,-87.35,William Hatfield,TN,1457569706000.0,18604107
208248095,Goodlettsville,,1467498317000.0,36.32,-86.72,William Lawrence,TN,1468367471000.0,18604107
234451911,Hermitage,,1503196060000.0,36.19,-86.6,William Leasy Hall,TN,1503196060000.0,18604107
220504311,Spring Hill,,1485132187000.0,35.76,-86.88,William Smith,TN,1485132187000.0,18604107
222928536,Nashville,,1488338188000.0,36.22,-86.86,William Webb III,TN,1488338188000.0,18604107
230190838,Mount Juliet,,1498080871000.0,36.22,-86.52,Willie Winningham,TN,1498080871000.0,18604107
231374462,Antioch,,1499535463000.0,36.04,-86.64,Woody Havener,TN,1499535463000.0,18604107
232736632,Fort Campbell,,1501183268000.0,36.65,-87.46,Xavier Valdenegro,KY,1501183268000.0,18604107
203991955,Franklin,,1461588558000.0,35.92,-86.89,Xing Jin,TN,1461588558000.0,18604107
206663495,Antioch,,1465327159000.0,36.17,-86.88,Yana,TN,1466019070000.0,18604107
197590105,Nashville,,1451858970000.0,36.17,-86.78,Yaneth Hargis,TN,1451858970000.0,18604107
231103049,Nashville,,1499202723000.0,36.17,-86.78,Yeraldy Marcano,TN,1499202723000.0,18604107
222268763,Nashville,,1487429219000.0,36.17,-86.78,Ying Fu,TN,1489813092000.0,18604107
206890322,Nashville,,1465625847000.0,36.17,-86.78,Ymorales,TN,1468384009000.0,18604107
210866896,Nashville,,1471027277000.0,36.11,-86.78,Yuchen Han,TN,1471971085000.0,18604107
205816960,Nashville,,1464148211000.0,36.16,-86.79,Yulia Romanchuk,TN,1474634159000.0,18604107
209296950,Portland,,1468875657000.0,36.57,-86.49,Yulizza,TN,1468875657000.0,18604107
13499550,Memphis,"Memphis, TN",1487688649000.0,35.09,-89.9,Yvonne ,TN,1492006224000.0,18604107
188945672,Murfreesboro,,1441197655000.0,35.87,-86.44,Yvonne Horn,TN,1504231188000.0,18604107
217621495,Nashville,,1480723710000.0,36.08,-86.72,Zach Amason,TN,1480723710000.0,18604107
206088797,Murfreesboro,,1464551389000.0,35.78,-86.33,Zach Hutcherson,TN,1471828711000.0,18604107
224407177,Fort Campbell,,1490415168000.0,36.65,-87.46,Zach Zimel,KY,1490415168000.0,18604107
233271571,Nashville,,1501856254000.0,36.17,-86.78,Zachary,TN,1501856254000.0,18604107
218340290,Hermitage,,1482020547000.0,36.19,-86.6,Zachary Hamilton,TN,1482020547000.0,18604107
11149295,Nashville,Delphos,1490731433000.0,36.17,-86.72,Zack Benner,TN,1490731433000.0,18604107
192549128,Hermitage,,1441924878000.0,36.19,-86.6,Zack Clevenger,TN,1442687459000.0,18604107
208735126,Nashville,,1468154683000.0,36.17,-86.78,zee,TN,1468154683000.0,18604107
194259743,Woodbury,,1445134123000.0,35.81,-86.07,Zoe,TN,1445134123000.0,18604107
203002050,Hendersonville,,1460170288000.0,36.32,-86.61,Zoe Lopez,TN,1460170288000.0,18604107
