id,city,hometown,joined,lat,lon,name,state,visited,group_id
195074855,Old Hickory,,1446607409000,36.25,-86.63,Aaron,TN,1446607409000,18767335
198919304,Charlotte,,1454238555000,36.24,-87.26,Aaron Hiler,TN,1454238555000,18767335
200468018,Antioch,,1456494648000,36.04,-86.64,Adrian Neal Cartledge,TN,1456494648000,18767335
194399533,Pegram,,1445386816000,36.12,-87.03,Adrienne Szinger,TN,1445386816000,18767335
201853103,Murfreesboro,,1458485400000,35.82,-86.45,Alea Whitfield,TN,1458485400000,18767335
207583772,Lebanon,,1466574627000,36.21,-86.31,alice anderson,TN,1466574627000,18767335
223569254,Franklin,,1489259321000,35.92,-86.89,Amy Castle,TN,1489259321000,18767335
192964619,Lebanon,,1442705472000,36.21,-86.31,Amy collins,TN,1442705472000,18767335
235910104,Hendersonville,,1504856425000,36.32,-86.61,Amy Page,TN,1504856425000,18767335
204871578,Clarksville,,1462874286000,36.49,-87.23,AnaKatarina Lalonde,TN,1462874286000,18767335
28245362,Franklin,"Greenville, OH",1451954685000,35.91,-86.84,Angela,TN,1454156504000,18767335
198188049,Franklin,,1452965016000,35.93,-86.81,Annette,TN,1452965016000,18767335
200686557,Nashville,,1456798926000,36.09,-86.82,Ashley,TN,1456798926000,18767335
199120033,Arrington,,1454539459000,35.86,-86.66,Ashley Morgan Seagle,TN,1454539459000,18767335
193879309,Manchester,,1444426861000,35.47,-86.11,Augie Vargas,TN,1445000966000,18767335
201422020,Lynchburg,,1460776244000,35.26,-86.38,Beth Ervin,TN,1462677692000,18767335
226836672,Gallatin,,1493763379000,36.39,-86.45,Bobby,TN,1493763379000,18767335
191373257,Spring Hill,,1439686084000,35.76,-86.88,Brandon Coleman,TN,1439686084000,18767335
192835777,Hermitage,,1442455546000,36.19,-86.6,Brandon Reilly,TN,1442455546000,18767335
184866002,Antioch,,1441661108000,36.04,-86.64,Brenda Nobling,TN,1441661108000,18767335
11899008,Columbia,,1454986722000,35.61,-87.05,Brett Adkins,TN,1454986722000,18767335
215875831,Nashville,,1477879623000,36.17,-86.78,Brooke,TN,1477879623000,18767335
62051382,Murfreesboro,Murfreesboro,1442009068000,35.82,-86.45,Brooke W,TN,1442009068000,18767335
196157693,Summitville,,1448697965000,35.56,-85.99,Cadie Lynn Davis,TN,1448697965000,18767335
184297941,Nashville,,1447294562000,36.17,-86.78,Carl D. Cullen,TN,1452459253000,18767335
230245013,Leoma,,1498145237000,35.23,-87.34,Carla Jo Hereford,TN,1498145237000,18767335
194382291,Nashville,,1445360492000,36.17,-86.78,Carson Helton,TN,1445360492000,18767335
226345715,Nashville,,1493099782000,36.17,-86.78,Cason Grace,TN,1493099782000,18767335
194151747,Clarksville,,1444931111000,36.53,-87.35,Chelsea Perez,TN,1444931111000,18767335
222000686,Nashville,,1487043617000,36.17,-86.78,Chelsie Walker,TN,1487043617000,18767335
197179091,Nashville,,1450911121000,36.17,-86.78,Chris Attaway,TN,1450911121000,18767335
153600002,Nashville,,1496518183000,36.17,-86.78,Chris Bailey,TN,1496518183000,18767335
219669006,Shelbyville,,1484074353000,35.48,-86.47,Chris Phillips,TN,1484074353000,18767335
195370860,Huntsville,"Huntsville, AL.",1447165786000,34.78,-86.61,Chris Watson,AL,1456002194000,18767335
199667275,Smyrna,,1455389289000,35.97,-86.51,Christen Hughes,TN,1455389289000,18767335
225094876,Franklin,,1491384966000,35.93,-86.81,Christine Bergbigler Kaltenbaugh,TN,1491384966000,18767335
196785186,Nashville,,1449962093000,36.17,-86.78,Christopher Michael Fisher,TN,1449962093000,18767335
211166994,Franklin,,1471465385000,35.92,-86.89,Cindy Kircher,TN,1471465385000,18767335
212117165,Nashville,,1472779404000,36.13,-86.8,Courtney Tidwell,TN,1472779404000,18767335
196897296,Nashville,,1450209226000,36.08,-86.72,Cynthia Griffin,TN,1450209226000,18767335
199685371,Murfreesboro,,1455410895000,35.78,-86.33,Daniel Wimberley,TN,1455410895000,18767335
11631868,Antioch,,1438657810000,36.04,-86.64,dariel,TN,1480869017000,18767335
196840066,Nashville,,1450083563000,36.17,-86.78,Darren,TN,1450083563000,18767335
192962067,Huntsville,Huntsville,1442701400000,34.74,-86.62,Darryl,AL,1442701400000,18767335
198062537,Murfreesboro,,1452824886000,35.87,-86.34,David  Mcdowell,TN,1452824886000,18767335
193283470,Dickson,,1443305837000,36.08,-87.43,David Finney,TN,1484627953000,18767335
150356042,Smyrna,,1456111424000,35.97,-86.51,Debbie,TN,1456535256000,18767335
49647392,Franklin,Franklin,1501203803000,35.92,-86.89,Deborah Harris,TN,1501203803000,18767335
190489697,Spring Hill,,1487462020000,35.76,-86.88,Denise,TN,1487929865000,18767335
199621380,Murfreesboro,,1455321261000,35.87,-86.44,Diana Abernathy Haas,TN,1474045081000,18767335
200179889,Murfreesboro,,1456093487000,35.82,-86.45,Doug Barrett,TN,1456093487000,18767335
186312393,Nashville,,1437765344000,36.07,-86.73,Doug Qualls,TN,1470587687000,18767335
206277038,New York,,1464807507000,40.75,-73.99,Dovie Renee Milstead,NY,1464807507000,18767335
210235648,Hermitage,,1470121085000,36.19,-86.6,Dwayne Roberts,TN,1470121085000,18767335
32591252,Winchester,"Shelbyville,Tn",1443843638000,35.19,-86.11,Elizabeth Cottle Taylor,TN,1443843638000,18767335
199792460,Brentwood,,1455565363000,36.0,-86.79,Elizabeth Rhea,TN,1455565363000,18767335
169743132,Nashville,,1483458806000,36.06,-86.96,Eloka,TN,1501819270000,18767335
206305938,Franklin,,1464843402000,35.92,-86.89,Erin Ashley Dolman,TN,1464843402000,18767335
221625355,Nashville,,1486533258000,36.17,-86.72,Eva Smith,TN,1486533258000,18767335
229696707,Nashville,,1497450508000,36.17,-86.78,Gee  Rivera,TN,1497450508000,18767335
195713426,Franklin,,1447801885000,35.92,-86.89,Genee McRath,TN,1447801885000,18767335
220674347,Franklin,,1485339648000,35.93,-86.81,GILBERT GBEDAWO,TN,1485339648000,18767335
194404192,Spring Hill,,1453758094000,35.76,-86.88,Greg Bounds,TN,1453758094000,18767335
124003012,Brentwood,"Brentwood, TN",1438001459000,36.0,-86.79,hifiibanker123,TN,1464353621000,18767335
222025898,Brentwood,Nashville,1487085203000,36.0,-86.79,Holly Van Grinsven,TN,1487085203000,18767335
235088735,Nashville,Y.S.,1503945085000,36.16,-86.78,hopesdreams,TN,1508453838000,18767335
192758995,Nashville,,1442321317000,36.07,-86.73,Jaimie Homan,TN,1442321317000,18767335
186297580,Bowling Green,,1448364434000,37.02,-86.46,Jamie powell,KY,1448364434000,18767335
222356613,Nashville,,1487548994000,36.17,-86.78,Jay Combs ,TN,1487548994000,18767335
208678123,Springfield,"San Angelo, TX",1468078286000,36.52,-86.87,Jennifer JT,TN,1468078286000,18767335
198212573,Franklin,,1453005259000,35.92,-86.89,Jesse Anderson,TN,1453005259000,18767335
38690452,Nashville,Cypress,1452752464000,36.11,-86.8,Jessica,TN,1452752464000,18767335
82507752,Franklin,,1447167804000,35.93,-86.81,Jim,TN,1447704366000,18767335
198283613,Murfreesboro,,1453139338000,35.87,-86.44,Jina Van,TN,1453139338000,18767335
199134656,Thompsons Station,,1454559023000,35.8,-86.9,jon moore,TN,1454559023000,18767335
222549041,Nashville,,1495325791000,36.13,-86.8,Jose,TN,1498160915000,18767335
199008828,Nashville,,1454367404000,36.07,-86.73,Kaitlyn,TN,1454367404000,18767335
200498013,Nashville,,1456533345000,36.17,-86.72,Kaley ,TN,1456533345000,18767335
193051777,Cornersville,,1442864506000,35.36,-86.84,Karin Poffenberger,TN,1442864506000,18767335
192135635,Franklin,Franklin,1441152607000,35.92,-86.89,Karli Mauldin,TN,1441152607000,18767335
190468949,Murfreesboro,,1437956506000,35.82,-86.45,Katie Jordan,TN,1500052166000,18767335
193195535,Eagleville,,1443132420000,35.75,-86.64,Katie Soyring,TN,1443322448000,18767335
199273151,Murfreesboro,,1454790817000,35.87,-86.44,Katrina Mckissick ,TN,1454806875000,18767335
195973455,Murfreesboro,,1448307704000,35.82,-86.45,Katya Amosova,TN,1448307704000,18767335
201377260,La Vergne,La Vergne,1457807830000,36.01,-86.57,Kayla,TN,1457807830000,18767335
196500865,Clarksville,Clarksville,1449489595000,36.56,-87.41,Kellymarie Ann-Orange Rose,TN,1449489595000,18767335
195561339,Antioch,,1447522672000,36.04,-86.64,Kevin Plaster,TN,1447522672000,18767335
196155311,Brentwood,,1448691546000,36.0,-86.79,Kevin Wilhite,TN,1448691546000,18767335
196776596,Franklin,,1449945860000,35.93,-86.81,Kimosphere,TN,1471187161000,18767335
197256918,Antioch,,1451192652000,36.04,-86.64,Kiva Carroll,TN,1451192652000,18767335
200066960,Nashville,,1455937062000,36.17,-86.72,Lacy Branch,TN,1455937062000,18767335
197467830,Nashville,,1451608607000,36.17,-86.78,Lanesha Becton,TN,1467660923000,18767335
192313175,Antioch,,1441496230000,36.04,-86.64,Lauren Whitaker,TN,1441496230000,18767335
238803051,Nashville,,1508037900000,36.15,-86.86,Laverne Alexi,TN,1508037900000,18767335
108663652,Hermitage,,1452959436000,36.19,-86.6,Lela Pinkard,TN,1482620449000,18767335
171644682,New Market,,1442284043000,34.9,-86.45,Leslie,AL,1442284043000,18767335
198117708,Madison,,1452821910000,36.26,-86.71,Leslie,TN,1460235306000,18767335
14255626,Nashville,Schaumburg,1438826809000,36.17,-86.78,Leslie M,TN,1438826809000,18767335
200351998,Clarksville,,1456328535000,36.49,-87.23,Linda,TN,1456328535000,18767335
142638762,Nashville,,1470540823000,36.17,-86.78,Lorraine Silva,TN,1470540823000,18767335
210552298,Nashville,,1470584389000,36.08,-86.72,Lyn A Kyrc,TN,1470584389000,18767335
183901653,Clarksville,,1445199643000,36.53,-87.35,lynn,TN,1470699707000,18767335
198382553,Clarksville,,1453316114000,36.49,-87.23,marcia chaney,TN,1472404708000,18767335
200808016,Franklin,,1456973414000,35.93,-86.81,Marcus Jones,TN,1456973414000,18767335
234500939,Nashville,,1503255418000,36.17,-86.78,Marian Ramirez,TN,1503255418000,18767335
198069024,Canton,,1452729575000,34.25,-84.52,Marisa Hinton,GA,1471184245000,18767335
69069522,Antioch,,1446172727000,36.04,-86.64,Mary Jane Muenich Parker,TN,1446172727000,18767335
225483657,Thompsons Station,,1491939746000,35.8,-86.9,Mary Lou Bradley Casey,TN,1491939746000,18767335
196499311,Murfreesboro,,1449385835000,35.82,-86.45,Mary Saldamarco Gordon,TN,1449385835000,18767335
204475587,Nashville,,1462371162000,36.15,-86.86,Meaghan Ford,TN,1462371162000,18767335
196592463,Corinth,,1449570710000,34.94,-88.51,Meg Stutts,MS,1449570710000,18767335
197156045,Spring Hill,,1450844739000,35.76,-86.88,Meme,TN,1451579599000,18767335
194795149,Murfreesboro,,1446088426000,35.87,-86.34,Michelle Marie Betts,TN,1446088426000,18767335
22510781,Franklin,Suwanee,1450383417000,35.95,-86.82,Mike,TN,1450383417000,18767335
192311236,Nashville,,1441494923000,36.08,-86.72,Mutaz Shahin,TN,1441494923000,18767335
13824081,Lewisburg,,1452175272000,35.45,-86.8,Nadine Birge,TN,1452175272000,18767335
198143123,Hartsville,,1452877354000,36.39,-86.16,Nancy Richmond,TN,1452877354000,18767335
196879824,Nashville,,1450167204000,36.07,-86.73,Nichole,TN,1450167204000,18767335
227843931,Nashville,,1506457224000,36.17,-86.78,Nicole Miller,TN,1506457224000,18767335
198900450,Gallatin,,1454204747000,36.39,-86.45,Nicole Robinson,TN,1454204747000,18767335
194991584,Columbia,,1446471333000,35.61,-87.05,Nineveh,TN,1446471333000,18767335
186155786,La Vergne,,1455751702000,36.01,-86.57,Paula Cropper,TN,1455751702000,18767335
191456000,Hermitage,,1439852867000,36.19,-86.6,Paula Stargel Lannom,TN,1439852867000,18767335
213304949,Nashville,,1474338078000,36.17,-86.78,Rachel Anderson,TN,1474338078000,18767335
194587023,Clarksville,,1445726627000,36.56,-87.41,Raechel J. Inbody,TN,1445726627000,18767335
13533889,Smyrna,,1451342719000,35.97,-86.51,Rene,TN,1451342719000,18767335
197468154,Clarksville,,1451608311000,36.53,-87.35,Richard Teasley,TN,1451608311000,18767335
232259583,Murfreesboro,,1500591049000,35.78,-86.33,Ron Bronson,TN,1500591049000,18767335
213044479,Nashville,,1474030624000,36.17,-86.72,Sara,TN,1474030624000,18767335
202486699,Hermitage,,1459434102000,36.19,-86.6,Sara,TN,1459434102000,18767335
201007670,Lebanon,,1497943894000,36.21,-86.31,Sarah Douglass,TN,1498052335000,18767335
197362892,Portland,,1451370612000,36.57,-86.49,SD Owens,TN,1451370612000,18767335
195490436,Murfreesboro,,1447377335000,35.87,-86.44,Shar,TN,1447377335000,18767335
195889576,Smyrna,,1448149278000,35.97,-86.51,Sharon Ness,TN,1448149278000,18767335
200870271,Nashville,,1457071649000,36.11,-86.86,sharon pomeroy,TN,1457071649000,18767335
193422883,Fairview,,1443558416000,35.97,-87.13,Sharon Troxell,TN,1443558416000,18767335
208084368,Fort Campbell,,1467260770000,36.65,-87.46,Shauna Wedderburn,KY,1467260770000,18767335
197700705,Antioch,,1452055077000,36.04,-86.64,Shunta M. Curry,TN,1452055077000,18767335
194977596,Franklin,,1448843002000,35.92,-86.89,Sid (Siddharth),TN,1500964211000,18767335
190598602,Nashville,,1438182375000,36.08,-86.72,Silas Phillips,TN,1438182375000,18767335
194573109,Nashville,,1445705936000,36.17,-86.78,Stephanie Kendrick,TN,1445705936000,18767335
213886575,Nashville,,1475089748000,36.17,-86.78,Stephen Rudge,TN,1475089748000,18767335
192079189,Franklin,,1441050118000,35.93,-86.81,Steve S,TN,1441403185000,18767335
204841630,Spring Hill,,1462830501000,35.76,-86.88,Steven Paske,TN,1462830501000,18767335
195207638,Clarksville,,1446860876000,36.53,-87.35,Susan Manchester,TN,1446860876000,18767335
12134295,Nashville,,1477722965000,36.15,-86.86,Suzanne,TN,1478820320000,18767335
153728952,Spring Hill,Lake Monticello ,1443584770000,35.76,-86.88,Suzanne Farris Loutsenhizer,TN,1443584770000,18767335
204360367,Nashville,,1462403959000,36.22,-86.77,Takisha A.,TN,1463238569000,18767335
208312509,Nashville,,1467587763000,36.07,-86.73,Tammie G. Stephens-Blades,TN,1467587763000,18767335
194262645,Nashville,,1450047425000,36.13,-86.8,Tammy Thomas,TN,1450047425000,18767335
197004293,Nashville,,1453535738000,36.17,-86.78,Tara,TN,1453535738000,18767335
199349184,Greer,,1454911177000,34.97,-82.26,Taylor Marie Dillehay,SC,1454911177000,18767335
76694952,Nashville,,1452700623000,36.17,-86.78,TeeGymRatt,TN,1453748959000,18767335
157866762,Nashville,,1453902871000,36.06,-86.96,Teri,TN,1453902871000,18767335
198791487,Murfreesboro,,1454031205000,35.82,-86.45,Terri Tucker,TN,1455807042000,18767335
197509532,Brentwood,,1451702034000,36.0,-86.79,Tessa Irwin,TN,1451702034000,18767335
193382922,Smyrna,,1443484332000,35.97,-86.51,Theresa,TN,1443484332000,18767335
193708987,Mount Juliet,,1444105834000,36.22,-86.52,Thomas,TN,1444105834000,18767335
231076424,Franklin,,1499175601000,35.92,-86.87,Tiffanie Mcdonald,TN,1499175601000,18767335
200862670,Nashville,,1457059361000,36.16,-86.79,Tiffany,TN,1457059361000,18767335
198246818,Spring Hill,,1453070786000,35.76,-86.88,Tim,TN,1453070786000,18767335
197181071,Spring Hill,,1450968929000,35.76,-86.88,Tim Reed,TN,1450968929000,18767335
196967834,Franklin,Franklin,1450385650000,35.92,-86.89,Timothy Sirkoi,TN,1450385650000,18767335
212567186,Clarksville,,1473387858000,36.49,-87.23,Tina,TN,1473387858000,18767335
205793271,Centerville,,1464119902000,35.67,-87.7,Tina Worrell,TN,1464119902000,18767335
6841431,Ephrata,"hazelcrest,Il",1438059946000,47.29,-119.57,Todd moore,WA,1464049669000,18767335
225864502,Lebanon,,1492466926000,36.21,-86.31,Tressie Johnson,TN,1492466926000,18767335
192276057,Hendersonville,,1441423419000,36.32,-86.61,Troy ,TN,1441423419000,18767335
211687812,Nashville,,1472186271000,36.17,-86.78,Vera Streeter,TN,1499660721000,18767335
181665732,Nashville,,1451929224000,36.17,-86.78,vfrancis1992,TN,1451929224000,18767335
199534885,Columbia,,1455194081000,35.61,-87.05,Vicky Bassett,TN,1455194081000,18767335
