id,city,hometown,joined,lat,lon,name,state,visited,group_id
197337342,Melbourne,,1461131332000.0,-37.81,144.96,A.K.A VerSky,,1461131332000.0,18882523
219701744,Nashville,,1484109018000.0,36.13,-86.8,Aanish Raees,TN,1484109018000.0,18882523
195331384,Nashville,,1462121949000.0,36.15,-86.86,Aaron Milligan,TN,1462121949000.0,18882523
198435772,Nashville,,1497816094000.0,36.1,-86.66,Aaron Warren Howard,TN,1507829100000.0,18882523
209929200,Nashville,,1469707686000.0,36.17,-86.78,Abby,TN,1469707686000.0,18882523
198899767,Nashville,,1454203512000.0,36.07,-86.73,Abhishek Khanal,TN,1455131424000.0,18882523
191424191,Madison,,1496508838000.0,36.26,-86.71,Achan Munroe,TN,1496508838000.0,18882523
192257680,Madison,,1441390824000.0,36.26,-86.71,Adam Rodgers,TN,1442770394000.0,18882523
223941149,Nashville,,1489772393000.0,36.17,-86.78,Adam Settle,TN,1489772393000.0,18882523
203186855,Gallatin,,1493336016000.0,36.39,-86.45,Adam Thomas,TN,1493336016000.0,18882523
232211480,Nashville,,1500529913000.0,36.07,-86.73,Adaora Oguno,TN,1500529913000.0,18882523
191444845,Culver City,,1443539973000.0,34.0,-118.39,Alana Sweetwater,CA,1443539973000.0,18882523
199040972,Nashville,,1454423831000.0,36.17,-86.78,Aldo A Lopez,TN,1454423831000.0,18882523
204447629,Nashville,,1462249084000.0,36.09,-86.82,Alejandra Colorado,TN,1480806564000.0,18882523
199297953,Nashville,,1454827886000.0,36.08,-86.72,Alejandro Andres,TN,1454827886000.0,18882523
218279714,Nashville,,1481903398000.0,36.17,-86.78,Alex,TN,1484439345000.0,18882523
200766227,New York,,1456916667000.0,40.75,-73.99,Alex DeVor,NY,1456916667000.0,18882523
201413136,Murfreesboro,,1457854997000.0,35.85,-86.36,Alex Richardson,TN,1457854997000.0,18882523
207288980,New York,,1466176415000.0,40.75,-73.99,Alex Wilhelm,NY,1466176415000.0,18882523
210704554,Tampa,,1470785412000.0,27.98,-82.34,Alex Zimmerman,FL,1470785412000.0,18882523
232964564,Nashville,,1501474367000.0,36.08,-86.72,Alina M Torres,TN,1501474367000.0,18882523
226791775,Nashville,,1493703422000.0,36.14,-86.74,Allison Russell,TN,1493703422000.0,18882523
199131400,Nashville,,1454555225000.0,36.17,-86.78,Amber Dutton,TN,1454555225000.0,18882523
204871578,Clarksville,,1462873994000.0,36.49,-87.23,AnaKatarina Lalonde,TN,1462873994000.0,18882523
216243473,Atlanta,,1478455017000.0,33.86,-84.4,Anna,GA,1478455017000.0,18882523
230216065,Nashville,,1498099653000.0,36.08,-86.72,Araz Amedy,TN,1498099653000.0,18882523
211770956,Nashville,,1472311371000.0,36.17,-86.78,Ashley Rose,TN,1472311371000.0,18882523
230777315,Atlanta,,1508616800000.0,33.79,-84.39,Bart Sharp,GA,1508616800000.0,18882523
67315132,Nashville,,1441940875000.0,36.17,-86.79,Beat Zenerino,TN,1457445910000.0,18882523
195823540,Nashville,,1448011551000.0,36.18,-86.81,Bed Picnic,TN,1449861228000.0,18882523
207185905,Nashville,,1466025957000.0,36.09,-86.82,Ben,TN,1466025957000.0,18882523
205798116,Nashville,Nashville,1464840296000.0,36.08,-86.72,Ben,TN,1506174189000.0,18882523
200845964,Nolensville,,1457034562000.0,35.94,-86.67,Ben Loftis,TN,1506452115000.0,18882523
127815452,Nashville,,1489430141000.0,36.18,-86.74,Betsy Harris,TN,1506452079000.0,18882523
10779699,Bradenton,"Bradenton, FL",1440951293000.0,27.47,-82.41,Bill Vincent,FL,1504460976000.0,18882523
193211098,Franklin,,1450478211000.0,35.92,-86.89,Billy Prosise,TN,1460575453000.0,18882523
226836672,Gallatin,,1493762826000.0,36.39,-86.45,Bobby,TN,1493762826000.0,18882523
223627798,Madison,,1489364913000.0,36.26,-86.71,Boston Bill,TN,1494948321000.0,18882523
135055382,Nashville,,1457697836000.0,36.13,-86.8,Brad Zeffren,TN,1457697836000.0,18882523
204101174,Nashville,,1461742872000.0,36.16,-86.66,Brandon,TN,1461742872000.0,18882523
224956308,Springfield,,1491279356000.0,36.52,-86.87,Brandon LaRoque,TN,1491279356000.0,18882523
202166507,Youngstown,,1458963553000.0,41.04,-80.69,Brandon Serfozo,OH,1459243601000.0,18882523
219277661,Murfreesboro,,1483576960000.0,35.85,-86.4,Brandon Short,TN,1483576960000.0,18882523
62418442,Nashville,,1472221387000.0,36.16,-86.79,Brenda Dillard,TN,1472221387000.0,18882523
214554892,Reynoldsburg,,1502094344000.0,39.96,-82.78,Brennan Wills,OH,1505246957000.0,18882523
224264063,Nashville,,1490215412000.0,36.11,-86.78,Brian Beauchamp,TN,1490215412000.0,18882523
225431589,Nashville,,1491869085000.0,36.17,-86.78,Brian Fenix,TN,1491869085000.0,18882523
194013316,Goodlettsville,,1453832063000.0,36.32,-86.72,Brooke Elrod,TN,1453832063000.0,18882523
236533198,Nashville,,1505431671000.0,36.17,-86.78,Buist Rivers,TN,1505431671000.0,18882523
13220560,Madison,,1504227338000.0,34.58,-86.82,c_andres,AL,1507557226000.0,18882523
221029357,Franklin,,1485798781000.0,35.92,-86.89,Cailin Manning,TN,1485798781000.0,18882523
205361768,Nashville,,1463526430000.0,36.06,-86.96,Cait Cole,TN,1463526430000.0,18882523
174245272,Columbia,,1465403587000.0,35.61,-87.05,Caleb,TN,1465403587000.0,18882523
215653152,Goodlettsville,,1477523090000.0,36.32,-86.72,CameronHussey,TN,1477523090000.0,18882523
95124332,Nashville,winnipeg,1506867437000.0,36.13,-86.8,CanadaGoneCali,TN,1506867437000.0,18882523
215124798,Smyrna,,1476738943000.0,35.97,-86.51,Cari Javius,TN,1476738943000.0,18882523
198665212,Goodlettsville,,1453834765000.0,36.33,-86.74,Carlos,TN,1453834765000.0,18882523
203201181,Hermitage,,1460447585000.0,36.19,-86.6,Carlton Jenkins,TN,1460447585000.0,18882523
12848437,Nashville,,1486056808000.0,36.13,-86.84,Carolina,TN,1486056808000.0,18882523
228626923,Nashville,,1496285767000.0,36.18,-86.74,Chad Kim,TN,1497162805000.0,18882523
193551683,Nashville,,1443811060000.0,36.17,-86.78,Chad Lennert,TN,1443811060000.0,18882523
197335444,Goodlettsville,,1451322555000.0,36.33,-86.74,Charles Howard,TN,1451322555000.0,18882523
183854811,Nashville,,1469729117000.0,36.17,-86.72,Chase M,TN,1469729117000.0,18882523
10315636,Nashville,,1480516176000.0,36.17,-86.78,"Chris ""Van"" Deventer",TN,1480516176000.0,18882523
201993820,Franklin,,1458678776000.0,35.92,-86.89,Chris Bevins,TN,1483610929000.0,18882523
225047915,Nashville,Nashville,1497887571000.0,36.15,-86.86,Chris Clancy,TN,1498145786000.0,18882523
30780722,Nashville,,1441812044000.0,36.18,-86.81,Chris Dilday,TN,1452871279000.0,18882523
75355752,Nashville,Nashville,1444075106000.0,36.11,-86.86,Chris Ellingsworth,TN,1476290109000.0,18882523
201467846,Nashville,,1458086704000.0,36.19,-86.8,Chris J,TN,1458086704000.0,18882523
116103792,Nashville,,1455238125000.0,36.16,-86.79,Chris Kline,TN,1475594293000.0,18882523
212702006,Nashville,,1473564697000.0,36.17,-86.79,Chris O,TN,1473911314000.0,18882523
192137679,La Vergne,,1441155846000.0,36.01,-86.57,Chris Ousley,TN,1457793410000.0,18882523
224069450,Goodlettsville,,1489959994000.0,36.32,-86.72,Chris R.,TN,1494334243000.0,18882523
197733414,Nashville,,1452138174000.0,36.16,-86.79,Christian Redl,TN,1452138174000.0,18882523
209600773,Nashville,,1469282243000.0,36.17,-86.78,Christian Tabarez,TN,1469282243000.0,18882523
230680960,Nashville,,1498677871000.0,36.17,-86.72,Christy Dever,TN,1498677871000.0,18882523
210155025,Nashville,,1487621795000.0,36.17,-86.78,Chrsoyso,TN,1506452235000.0,18882523
222215242,Nashville,,1487348773000.0,36.17,-86.78,chuck wofford,TN,1487348773000.0,18882523
201992373,Nashville,,1458677348000.0,36.18,-86.74,Cindy Pageler,TN,1461805809000.0,18882523
208855609,Nashville,,1479603675000.0,36.17,-86.78,Cody Hutchins,TN,1493343737000.0,18882523
202440863,Nashville,,1459362003000.0,36.17,-86.78,Cortney Webb,TN,1459362003000.0,18882523
224616735,Nashville,,1490708220000.0,36.11,-86.78,Cory Cothron,TN,1490708220000.0,18882523
228618567,Nashville,,1496109209000.0,36.17,-86.78,Craig ,TN,1496109209000.0,18882523
226938907,Nashville,,1493904210000.0,36.17,-86.78,Cristina Martínez de Carrasco,TN,1493904210000.0,18882523
197835826,Mount Pleasant,,1452303391000.0,35.54,-87.21,Curtis Corazao,TN,1452303391000.0,18882523
202757450,Franklin,,1459819419000.0,35.93,-86.81,D,TN,1459819419000.0,18882523
231273004,Nashville,,1499411525000.0,36.17,-86.78,Daniel,TN,1499411525000.0,18882523
36384622,Clarksville,,1458456441000.0,36.53,-87.35,Daniel Cortez,TN,1458456441000.0,18882523
232879628,Nashville,,1501366202000.0,36.17,-86.78,Daniel Formidoni,TN,1501366202000.0,18882523
1939496,Antioch,,1460402919000.0,36.04,-86.64,Daniel Newman,TN,1460402919000.0,18882523
194768312,Nashville,,1446051228000.0,36.17,-86.78,Darin Rajabian,TN,1446051228000.0,18882523
189285630,Nashville,,1441313453000.0,36.14,-86.74,Darren M.,TN,1444621459000.0,18882523
226890077,Nashville,,1493835857000.0,36.17,-86.78,Dashawn Davis,TN,1493835857000.0,18882523
220963725,Nashville,,1486968826000.0,36.11,-86.78,David ,TN,1486968826000.0,18882523
229102995,Madison,,1496704174000.0,36.26,-86.71,David Jay,TN,1496704174000.0,18882523
216092618,Murfreesboro,,1484109171000.0,35.85,-86.36,David Palomeque,TN,1484109171000.0,18882523
192770373,Brentwood,Nashville,1442338484000.0,36.0,-86.79,David S.,TN,1486576000000.0,18882523
192373501,Hendersonville,,1446868005000.0,36.32,-86.61,Davis Jackson,TN,1446868005000.0,18882523
227234646,Spring Hill,,1494308211000.0,35.76,-86.88,De'Andre Davis,TN,1494308211000.0,18882523
190983789,Nashville,St. Louis,1456957517000.0,36.11,-86.86,Deane,TN,1460732946000.0,18882523
11049744,Dupont,,1485394594000.0,47.09,-122.64,Dee,WA,1485394594000.0,18882523
186148103,Springfield,,1494153688000.0,36.52,-86.87,Demika Smith,TN,1494153688000.0,18882523
222625364,Nashville,,1487908969000.0,36.06,-86.96,Derbin Baldi,TN,1494736813000.0,18882523
185275990,Nashville,,1443107521000.0,36.17,-86.78,Derek Cocomo,TN,1478748358000.0,18882523
211216826,Opa Locka,"Opa Locka, FL",1471533822000.0,25.91,-80.26,DeRon Washington,FL,1471533822000.0,18882523
229713005,Nashville,,1498432208000.0,36.17,-86.78,Devin Campbell,TN,1498432208000.0,18882523
162591182,Nashville,,1446184827000.0,36.17,-86.78,Diana Sinziana Neculcea,TN,1446184827000.0,18882523
127601602,Nashville,,1468339713000.0,36.08,-86.72,DL,TN,1483764818000.0,18882523
2201276,Nashville,Indianapolis,1473083312000.0,36.1,-86.66,Doug,TN,1473388371000.0,18882523
226700517,Nashville,,1493583541000.0,36.17,-86.78,Douglas Romanow,TN,1494330281000.0,18882523
182570117,Antioch,,1491182780000.0,36.17,-86.88,doyi,TN,1491182780000.0,18882523
39416422,Nashville,,1503680764000.0,36.17,-86.79,Drew Bourke,TN,1503680764000.0,18882523
200299394,Gallatin,,1456264169000.0,36.39,-86.45,Drunken Sage Productions,TN,1456264169000.0,18882523
215195507,Nashville,,1476835441000.0,36.1,-86.66,Dvonte Wallace,TN,1476835441000.0,18882523
17106811,Nashville,,1491422179000.0,36.17,-86.72,Dylan,TN,1491422179000.0,18882523
204855932,Nashville,,1489158101000.0,36.06,-86.96,Earnest Cole ,TN,1489158101000.0,18882523
200506070,Nashville,,1456544164000.0,36.17,-86.78,Ebony Arnett,TN,1456544164000.0,18882523
111701512,Nashville,,1441723750000.0,36.16,-86.79,Ed Jones,TN,1502712979000.0,18882523
226525108,Nashville,,1493332436000.0,36.17,-86.78,Edward Rust,TN,1493332436000.0,18882523
195714942,Huntsville,,1447804846000.0,34.73,-86.57,Eko,AL,1447804846000.0,18882523
4859797,Nashville,"Branford, CT",1486183314000.0,36.18,-86.74,Elena,TN,1493507419000.0,18882523
148073452,Smyrna,,1453075431000.0,33.89,-84.54,Elizabeth C. Bernardini,GA,1453075431000.0,18882523
205796911,Smyrna,,1464123602000.0,35.97,-86.51,elizabeth corcoran,TN,1464123602000.0,18882523
193597526,Woodbury,,1450896344000.0,35.81,-86.07,Ellicia Bailey,TN,1459696555000.0,18882523
197636491,Nashville,,1451963166000.0,36.16,-86.66,Eric Mallon,TN,1451966792000.0,18882523
197458724,Nashville,,1451587255000.0,36.22,-86.86,Eric Qualls,TN,1451596784000.0,18882523
197118677,Nashville,,1450748817000.0,36.07,-86.73,Eric W,TN,1455119301000.0,18882523
68483282,Orlando,,1491068582000.0,28.56,-81.36,Erin Anne,FL,1491068582000.0,18882523
209624517,Nashville,,1469310125000.0,36.06,-86.96,Ethan,TN,1469389391000.0,18882523
201992890,Nashville,,1458677606000.0,36.13,-86.8,Evan Michael Coniglio,TN,1458677606000.0,18882523
219151199,Nashville,,1483446415000.0,36.06,-86.96,Evan Scherer,TN,1483446415000.0,18882523
210019835,Nashville,,1469831022000.0,36.17,-86.78,Everett Schuster,TN,1473352889000.0,18882523
59187032,Brooklyn,Nashville,1480738088000.0,40.67,-73.99,F.A.,NY,1494887525000.0,18882523
133147842,Nashville,,1474645235000.0,36.17,-86.78,Fabian Elias Reyna,TN,1474645235000.0,18882523
226243590,Clarksville,,1492968610000.0,36.49,-87.23,Fatal Foxtrot,TN,1492968610000.0,18882523
208426796,Nashville,,1467739879000.0,36.17,-86.78,Fletcher,TN,1467739879000.0,18882523
195808038,Nashville,,1447978472000.0,36.17,-86.78,Fred Eisele,TN,1447978472000.0,18882523
215947278,Clarksville,,1477998535000.0,36.56,-87.41,Garland Cain,TN,1477998535000.0,18882523
205795282,Franklin,,1464122622000.0,35.93,-86.81,Garrett,TN,1464122622000.0,18882523
213104966,Nashville,,1474092336000.0,36.18,-86.74,Garrett Carr,TN,1474092336000.0,18882523
202462664,Spring Hill,,1459389812000.0,35.76,-86.88,Gary Mc,TN,1459389812000.0,18882523
229696707,Nashville,,1497451695000.0,36.17,-86.78,Gee  Rivera,TN,1497451695000.0,18882523
5969625,Nashville,,1455834362000.0,36.15,-86.86,Gerrit,TN,1488383365000.0,18882523
196694851,Nashville,,1458305401000.0,36.17,-86.78,Grace,TN,1458305401000.0,18882523
163558932,Nashville,,1462744700000.0,36.17,-86.78,Grayson Miller,TN,1462744700000.0,18882523
220581376,Nashville,,1485224979000.0,36.06,-86.96,Greg,TN,1486690145000.0,18882523
227588227,Nashville,,1495320873000.0,36.17,-86.78,Greg H,TN,1503509816000.0,18882523
212286347,Nashville,,1473016213000.0,36.17,-86.78,Greg Hobgood,TN,1475595613000.0,18882523
106814302,Nashville,,1468690098000.0,36.17,-86.78,Guy,TN,1491491682000.0,18882523
223967860,Nashville,,1489809261000.0,36.1,-86.66,Haley Boggs,TN,1489809261000.0,18882523
198026056,Nashville,,1480973383000.0,36.17,-86.72,Haley Wright,TN,1480973383000.0,18882523
191073192,Nashville,,1444965825000.0,36.18,-86.74,Hans Lorei,TN,1496626657000.0,18882523
193825984,Nashville,,1483693938000.0,36.17,-86.78,Harrison P,TN,1495432201000.0,18882523
213516211,Nashville,,1474610717000.0,36.17,-86.78,Hunt Hearin,TN,1474610717000.0,18882523
194580437,Nashville,,1445716481000.0,36.22,-86.86,Hunter Estes,TN,1445716481000.0,18882523
222336648,Nashville,,1487524301000.0,36.11,-86.86,Ibra,TN,1487524301000.0,18882523
230465992,Nashville,,1498419781000.0,36.15,-86.8,Infiniti,TN,1498419781000.0,18882523
106173432,La Vergne,,1497791908000.0,36.01,-86.57,Iulia,TN,1497791908000.0,18882523
2782830,Indianapolis,,1442322178000.0,39.77,-86.11,J,IN,1442322178000.0,18882523
214418310,Hermitage,,1475700916000.0,36.19,-86.6,J Allen,TN,1475700916000.0,18882523
7915902,Nashville,Nashville,1501231492000.0,36.22,-86.77,Jacque Lewis,TN,1501231492000.0,18882523
224226103,Clarksville,,1490159859000.0,36.53,-87.35,Jacqueline Hendrie,TN,1490159859000.0,18882523
200338265,Madison,,1456308346000.0,34.68,-86.79,Jake J,AL,1456308346000.0,18882523
199103073,Nashville,,1454618291000.0,36.17,-86.72,Jake Meyer,TN,1454618291000.0,18882523
122522672,Atlanta,,1460380225000.0,33.98,-84.33,jamera,GA,1460380225000.0,18882523
188684958,Nashville,,1468327621000.0,36.17,-86.78,James Alexander Louk Nieves,TN,1468327621000.0,18882523
217719290,Nashville,,1480897441000.0,36.17,-86.78,James Fain,TN,1480897441000.0,18882523
6423945,Huntsville,,1472184363000.0,34.73,-86.57,Janaye,AL,1472184363000.0,18882523
103159622,Nashville,nashville,1466280169000.0,36.08,-86.72,jared,TN,1483334741000.0,18882523
188100470,Nashville,,1443912566000.0,36.17,-86.78,Jared Fishman,TN,1455201571000.0,18882523
199825015,Franklin,,1455602262000.0,35.92,-86.89,Jared Wardlaw,TN,1455602262000.0,18882523
194063497,Gallatin,,1444765793000.0,36.39,-86.45,Jarrett McCall,TN,1444765793000.0,18882523
215821418,Nashville,,1477794127000.0,36.14,-86.74,Jarvis B. Puckett,TN,1477794127000.0,18882523
192879826,Nashville,,1442542157000.0,36.17,-86.78,Jason,TN,1455132542000.0,18882523
205424920,Nashville,,1463610477000.0,36.17,-86.78,Jason Alan,TN,1463610477000.0,18882523
12795479,Franklin,,1498537602000.0,35.88,-86.81,Jason McClary,TN,1498537602000.0,18882523
228737755,Nashville,,1496260330000.0,36.17,-86.78,Jay Nevill,TN,1496260330000.0,18882523
102270012,Bowling Green,"Bowling Green, KY",1500557712000.0,36.96,-86.37,jbj4321,KY,1500557712000.0,18882523
4569828,Nashville,,1470087758000.0,36.15,-86.86,JCN,TN,1470087758000.0,18882523
52765212,Bonita Springs,,1441647561000.0,26.39,-81.74,JD Burleson,FL,1441647561000.0,18882523
141101812,Nashville,"Nashville, TN",1449686822000.0,36.17,-86.78,Jeff,TN,1452313789000.0,18882523
217710404,Hermitage,,1480884735000.0,36.19,-86.6,Jeff Minnick,TN,1490828377000.0,18882523
220219935,Nashville,,1484766809000.0,36.17,-86.78,Jeff Ross,TN,1484766809000.0,18882523
194295128,Nashville,,1445214516000.0,36.06,-86.96,Jeff Ross,TN,1496992872000.0,18882523
224647937,Nashville,,1490772075000.0,36.17,-86.78,Jeff West,TN,1494453004000.0,18882523
214527220,Nashville,,1475860621000.0,36.17,-86.78,Jenn Wiemann,TN,1475860621000.0,18882523
217759088,Murfreesboro,,1480965664000.0,35.85,-86.36,Jenna Lucente,TN,1480965664000.0,18882523
205489314,Murfreesboro,,1463698043000.0,35.87,-86.44,Jennifer Wood,TN,1463698043000.0,18882523
205447135,Nashville,,1463638502000.0,36.06,-86.96,Jenny,TN,1463638502000.0,18882523
126165342,North Grafton,,1475550000000.0,42.23,-71.7,Jeremiah Goodwin,MA,1475550000000.0,18882523
116842472,Nashville,,1489338230000.0,36.17,-86.78,Jeremy Grondahl,TN,1489338230000.0,18882523
218259166,Nashville,,1481855499000.0,36.17,-86.78,Jess Chambers,TN,1481855499000.0,18882523
222768144,Nashville,,1488122663000.0,36.17,-86.78,Jeuneybear20,TN,1488122663000.0,18882523
233252136,Nashville,,1501829055000.0,36.21,-86.72,Jill Townsend,TN,1503282566000.0,18882523
217576445,Nashville,,1480642260000.0,36.17,-86.78,Jim,TN,1480642260000.0,18882523
202889258,Hendersonville,,1460004233000.0,36.32,-86.61,Jimmy H.,TN,1460004233000.0,18882523
215556084,Nashville,,1482936265000.0,36.17,-86.78,Jimmy McElravy,TN,1486680474000.0,18882523
166054,Nashville,,1491929496000.0,36.17,-86.78,JJ,TN,1506167988000.0,18882523
229376208,Nashville,,1497047121000.0,36.17,-86.72,Joel David Lauver,TN,1497047121000.0,18882523
5878404,Nashville,Around,1501707187000.0,36.09,-86.82,joey,TN,1501707187000.0,18882523
192292677,Nashville,,1441462477000.0,36.17,-86.78,John Ferrante,TN,1441462477000.0,18882523
209874571,Nashville,,1471390057000.0,36.17,-86.78,John Fuller,TN,1471390057000.0,18882523
209546510,Nashville,,1469206395000.0,36.17,-86.78,John MacCallum,TN,1469206395000.0,18882523
218855958,Nashville,,1483030889000.0,36.17,-86.72,Jon,TN,1483030889000.0,18882523
193975067,Lebanon,,1444606222000.0,36.21,-86.29,Jonathan Edwards,TN,1444606222000.0,18882523
220818716,Hendersonville,Hendersonville,1485530238000.0,36.32,-86.61,Joseph,TN,1500906193000.0,18882523
193437550,Murfreesboro,,1443582429000.0,35.87,-86.34,Joseph Akins,TN,1443582429000.0,18882523
192127840,Antioch,,1441139480000.0,36.04,-86.64,Joseph Heckle,TN,1441774508000.0,18882523
221310777,Nashville,,1486135392000.0,36.17,-86.78,Joseph Lekkas,TN,1486135392000.0,18882523
232369089,Nashville,,1506988061000.0,36.09,-86.82,Josh Cottrill,TN,1506988061000.0,18882523
225255052,Nashville,,1491616655000.0,36.17,-86.78,Joshua Avery,TN,1491616655000.0,18882523
205332268,Murfreesboro,,1463494305000.0,35.78,-86.33,Justin Smith,TN,1463494305000.0,18882523
168638562,Nashville,,1454800957000.0,36.17,-86.78,Kam,TN,1455226437000.0,18882523
175285202,Nashville,,1441656204000.0,36.16,-86.79,Katelin,TN,1456937419000.0,18882523
228420439,Murfreesboro,,1495843712000.0,35.82,-86.45,Katelin Smith,TN,1495843712000.0,18882523
53944782,Nashville,,1471301373000.0,36.14,-86.74,Kathy,TN,1483769488000.0,18882523
56997982,Nashville,"Springfield, IL",1478844299000.0,36.08,-86.72,Keegan Singh,TN,1492434527000.0,18882523
89620372,Nashville,,1495105150000.0,36.17,-86.78,Kelleigh Matteson,TN,1495105150000.0,18882523
210561881,Nashville,,1470594431000.0,36.17,-86.78,Kenneth,TN,1470594431000.0,18882523
44025552,Nashville,,1475876711000.0,36.17,-86.79,Kenya,TN,1475876711000.0,18882523
182982296,Washington,,1450494699000.0,38.91,-77.02,Kevin,DC,1452796189000.0,18882523
142444202,Nashville,,1494207076000.0,36.17,-86.78,Kevin Cox,TN,1506434572000.0,18882523
193338681,Nashville,,1443445537000.0,36.11,-86.78,KevinE,TN,1452876900000.0,18882523
194455219,La Vergne,,1445495388000.0,36.01,-86.57,Khalil Hyppolite,TN,1445495388000.0,18882523
207191509,New York,,1466031999000.0,40.75,-73.99,Kossie Gardner,NY,1466031999000.0,18882523
226135246,Nashville,,1492821566000.0,36.17,-86.78,Kristian,TN,1492821566000.0,18882523
227210681,Nashville,,1494276454000.0,36.09,-86.82,Kyle Mills,TN,1494276454000.0,18882523
73218882,Mount Juliet,,1473824295000.0,36.22,-86.52,Kyle Z,TN,1476396031000.0,18882523
230045485,Nashville,,1497916473000.0,36.17,-86.78,L,TN,1497916473000.0,18882523
217974636,Austin,"Austin, TX",1485388977000.0,30.29,-97.63,L. G.,TX,1499558930000.0,18882523
221762931,Nashville,,1486718756000.0,36.17,-86.78,Larry McDonald,TN,1486718756000.0,18882523
195200600,Madison,,1446849023000.0,36.26,-86.71,Laura Dawn,TN,1446849023000.0,18882523
196241045,Gallatin,,1448863424000.0,36.39,-86.45,Lauren Cozart,TN,1448863424000.0,18882523
201812570,White House,,1458420687000.0,36.48,-86.69,Lauren Kemp,TN,1458420687000.0,18882523
82883662,Nashville,,1453568209000.0,36.13,-86.8,Lauryn P.,TN,1483805530000.0,18882523
101443692,Nashville,"Ebenezer, Mississippi",1491176283000.0,36.11,-86.86,Leo Paul,TN,1491176283000.0,18882523
192741959,Hermitage,,1442283088000.0,36.19,-86.6,Lilliann Ganis,TN,1442283088000.0,18882523
124752992,Los Angeles,,1457650422000.0,34.1,-118.33,lizzy cruz,CA,1457713882000.0,18882523
83914062,London,,1494706995000.0,51.53,-0.2,Louise,17,1494706995000.0,18882523
52488,Nashville,,1463111288000.0,36.17,-86.78,lucky13terra,TN,1463111288000.0,18882523
7467758,Nashville,,1473640031000.0,36.08,-86.72,lynn manderson,TN,1473640031000.0,18882523
223132715,Nashville,,1488635738000.0,36.22,-86.77,Mads Dalsgaard,TN,1488635738000.0,18882523
214899808,Nashville,,1476410539000.0,36.13,-86.67,Manoj,TN,1476410539000.0,18882523
199104094,Albany,,1454519039000.0,42.65,-73.75,Manoj,NY,1460672786000.0,18882523
7188353,Nashville,,1452134603000.0,36.17,-86.78,Marcus & Sarah,TN,1457142825000.0,18882523
218953195,Nashville,,1485226851000.0,36.16,-86.77,Marcus Fakler,TN,1497305707000.0,18882523
198772889,Murfreesboro,,1454004560000.0,35.78,-86.33,Mark Pine,TN,1454004560000.0,18882523
160256152,Nashville,,1465217158000.0,36.17,-86.78,Mark Underwood,TN,1470580471000.0,18882523
219249774,Nashville,,1483549138000.0,36.17,-86.78,Marshal ,TN,1484189899000.0,18882523
204271712,Clarksville,Clarksville,1493789754000.0,36.56,-87.41,Marshall Hackworth,TN,1493789754000.0,18882523
208912302,Nashville,,1468368940000.0,36.08,-86.72,Marty Baughman,TN,1468368940000.0,18882523
206639176,Clarksville,,1465299721000.0,36.56,-87.41,Mason Delatour,TN,1465299721000.0,18882523
8491393,Nashville,,1445214516000.0,36.08,-86.72,Matt,TN,1445188860000.0,18882523
196224135,Nashville,,1448833134000.0,36.06,-86.96,Matt,TN,1472002684000.0,18882523
192731624,Nashville,,1442266346000.0,36.11,-86.78,Matt Greer,TN,1494255853000.0,18882523
199324248,Nashville,,1454874344000.0,36.11,-86.86,Matt M,TN,1456511824000.0,18882523
230778029,Nashville,,1498797189000.0,36.18,-86.74,Matt P,TN,1498797189000.0,18882523
193506043,Franklin,,1443721425000.0,35.99,-86.9,Matt Wilder,TN,1460570232000.0,18882523
196894583,Spring Hill,,1450223639000.0,35.76,-86.88,Matthew Till,TN,1455397344000.0,18882523
230426184,Nashville,,1498366686000.0,36.17,-86.78,Max Shredder,TN,1498366686000.0,18882523
192746067,Goodlettsville,,1457652428000.0,36.33,-86.74,Meagan ,TN,1457652428000.0,18882523
203794696,Nashville,"Los Angeles, CA",1461294632000.0,36.17,-86.78,MéKyle,TN,1463084221000.0,18882523
193299636,Eagleville,,1443336408000.0,35.75,-86.64,Melanie Elizabeth,TN,1443336408000.0,18882523
152836082,Prescott,,1451936096000.0,34.59,-112.46,Melissa Carone,AZ,1455231695000.0,18882523
225006503,Hopkinsville,,1491257043000.0,36.87,-87.49,Meredith Grace ,KY,1491257043000.0,18882523
214694132,Nashville,,1476116268000.0,36.17,-86.78,MF Tech,TN,1476143666000.0,18882523
198688618,Hopkinsville,,1453868654000.0,36.87,-87.48,Michael,KY,1453868654000.0,18882523
203301369,Nashville,,1460584950000.0,36.17,-86.78,Michael Hill,TN,1460584950000.0,18882523
192119532,Mount Juliet,,1441126596000.0,36.22,-86.52,Michael J.,TN,1441126596000.0,18882523
221553263,Nashville,,1487886887000.0,36.09,-86.82,Michael Kennedy,TN,1487886887000.0,18882523
197652087,Nashville,,1452008362000.0,36.17,-86.78,Michael Mechling,TN,1452008362000.0,18882523
228764733,La Vergne,,1496291511000.0,36.01,-86.57,Michael Pagan,TN,1496291511000.0,18882523
195145042,Franklin,,1446744654000.0,35.92,-86.89,Michael Roberts,TN,1446744654000.0,18882523
198460641,Nashville,,1453457411000.0,36.11,-86.86,Michael Roden,TN,1455181271000.0,18882523
196823177,Columbia,,1450047202000.0,35.61,-87.05,Michel Saucier,TN,1450047202000.0,18882523
204086025,Nashville,,1461713585000.0,36.17,-86.78,Mickey Sanker,TN,1461713585000.0,18882523
222905255,Nashville,,1488310359000.0,36.21,-86.72,Mike B.,TN,1488310359000.0,18882523
193599447,Nashville,,1443904192000.0,36.13,-86.8,Mike Hiegemann,TN,1465090916000.0,18882523
229158831,Nashville,,1496780593000.0,36.14,-86.81,Mike Iavarone III,TN,1496780593000.0,18882523
203606143,Thompsons Station,,1461029559000.0,35.8,-86.9,Mike Jones - For my son Kyle,TN,1461118205000.0,18882523
12993439,Madison,Global,1455814174000.0,36.26,-86.71,Mike S,TN,1470327970000.0,18882523
193513104,Euless,,1443732284000.0,32.85,-97.09,Mikie Thornton,TX,1443732284000.0,18882523
219457510,Clarksville,,1483814675000.0,36.53,-87.35,Miles R. Harris,TN,1483814675000.0,18882523
217332807,Nashville,,1480240511000.0,36.08,-86.72,Minnie Murphy,TN,1480240511000.0,18882523
200596166,Nashville,,1456677601000.0,36.17,-86.78,Mitchell Flournoy,TN,1456677601000.0,18882523
199574006,Hermitage,,1455247628000.0,36.19,-86.6,Montana Gardner ,TN,1455247628000.0,18882523
200033473,Nashville,,1455894509000.0,36.17,-86.72,Morgan Aldy,TN,1455894509000.0,18882523
199881659,Antioch,,1455677207000.0,36.04,-86.64,Myke Walker,TN,1455677207000.0,18882523
182997659,Murfreesboro,San Antonio,1471384040000.0,35.87,-86.44,mztkmusic,TN,1471384040000.0,18882523
219036316,Nashville,,1483306557000.0,36.15,-86.86,Na Ture,TN,1483306557000.0,18882523
168595732,Decatur,,1486402848000.0,33.77,-84.3,Natalie Dill,GA,1486402848000.0,18882523
53071102,Nashville,Nashville ,1480556901000.0,36.17,-86.72,Natalya,TN,1480556901000.0,18882523
128117352,Nashville,Nashville,1465321110000.0,36.18,-86.74,Nathan Butler,TN,1482902577000.0,18882523
47239262,Nashville,,1458150573000.0,36.17,-86.78,Nathan Skirvin,TN,1476296477000.0,18882523
229979437,Nashville,,1497832775000.0,36.15,-86.86,Nawaf Mulafikh,TN,1497832775000.0,18882523
206412149,Hermitage,,1464993673000.0,36.19,-86.6,Nichelle Ishmon,TN,1464993673000.0,18882523
224921490,Nashville,,1491145567000.0,36.15,-86.81,Nicole ,TN,1491145567000.0,18882523
237546194,Nashville,,1506520666000.0,36.17,-86.78,Nikolaus Gullotta,TN,1506520666000.0,18882523
218071628,Nashville,,1481510139000.0,36.08,-86.72,Noah Wilkinson,TN,1481510139000.0,18882523
234168251,Franklin,,1502888365000.0,35.93,-86.81,Olivia Oetjens,TN,1502888365000.0,18882523
186344541,Thompsons Station,,1470492896000.0,35.8,-86.9,Omar Olvera,TN,1498429726000.0,18882523
195479579,Nashville,,1447359533000.0,36.17,-86.78,Parker Roush,TN,1447359533000.0,18882523
205095793,Nashville,,1463183353000.0,36.08,-86.72,Patrick Duteau,TN,1463183353000.0,18882523
221259259,Nashville,,1486074778000.0,36.18,-86.74,Patrick Norris,TN,1494538548000.0,18882523
32044662,Nashville,"Bryan, TX",1440976480000.0,36.1,-86.66,Patrick Saxon,TN,1496877350000.0,18882523
207255733,Chicago,,1467238990000.0,41.81,-87.71,Paul Frieh,IL,1467238990000.0,18882523
9800543,Nashville,,1499881221000.0,36.08,-86.72,Paul Shearer,TN,1499881221000.0,18882523
145915072,Antioch,,1443144724000.0,36.16,-86.83,Pete,TN,1443144724000.0,18882523
203167991,Nashville,,1460404542000.0,36.09,-86.82,Peter Madden,TN,1460404542000.0,18882523
226347211,Nashville,,1493100574000.0,36.13,-86.67,Phil Beasley,TN,1493100574000.0,18882523
200858208,Nashville,,1457050517000.0,36.13,-86.8,Phil Knock,TN,1457050517000.0,18882523
223421595,Nashville,,1489039918000.0,36.14,-86.74,Phil Varela,TN,1489039918000.0,18882523
48809482,Nashville,,1441319952000.0,36.18,-86.81,Phill Kirby,TN,1449523515000.0,18882523
124143742,Nashville,Nashville,1506878685000.0,36.08,-86.72,Preston Holland,TN,1507150893000.0,18882523
229238477,Nashville,,1496870428000.0,36.17,-86.78,Prince Li,TN,1496870428000.0,18882523
214548728,Clarksville,,1475889545000.0,36.53,-87.35,RA Blair,TN,1475889545000.0,18882523
183730604,Nashville,,1501785757000.0,36.17,-86.78,Rachael Gressitt,TN,1501785757000.0,18882523
215124979,Nashville,,1476739452000.0,36.19,-86.8,Rachel Harville,TN,1476739452000.0,18882523
220789347,White House,,1485482832000.0,36.48,-86.69,Rafah Muhammad,TN,1485482832000.0,18882523
175300482,Nashville,,1459107267000.0,36.16,-86.79,Rav,TN,1478644521000.0,18882523
229049863,Nashville,,1496645036000.0,36.15,-86.8,Ray Li,TN,1496645036000.0,18882523
225557389,San Francisco,,1492041366000.0,37.79,-122.43,Rebecca,CA,1492041366000.0,18882523
204965506,Nashville,,1463001863000.0,36.08,-86.72,Reese,TN,1463001863000.0,18882523
196838090,San Francisco,San Francisco,1461432071000.0,37.8,-122.41,Richard,CA,1478104042000.0,18882523
199054471,Murfreesboro,"Orlando, FL",1454441177000.0,35.78,-86.33,Rick Bennett,TN,1454441177000.0,18882523
216297968,Hendersonville,,1478538649000.0,36.32,-86.61,Rikki Jo,TN,1484157603000.0,18882523
217350178,Nashville,,1483844818000.0,36.15,-86.81,Rob Brantley,TN,1490017204000.0,18882523
197629637,Nashville,,1451931485000.0,36.08,-86.72,Rob Melso,TN,1452881357000.0,18882523
80278962,Nashville,Nashville,1457856273000.0,36.17,-86.72,Roger Ball,TN,1457856273000.0,18882523
205437540,Franklin,,1463625591000.0,35.92,-86.89,Rosemary,TN,1463625591000.0,18882523
59908162,Nashville,,1462472171000.0,36.17,-86.78,Russ,TN,1463004172000.0,18882523
217665993,Nashville,,1480804400000.0,36.14,-86.74,Russ Humensky,TN,1480804400000.0,18882523
198871788,Minneapolis,,1454164875000.0,44.98,-93.27,Russ Parrish,MN,1454164875000.0,18882523
234896248,Nashville,,1503703869000.0,36.17,-86.78,Ryan Evans,TN,1503703869000.0,18882523
9178731,Nashville,,1498188293000.0,36.13,-86.8,Ryan Koriya,TN,1498188293000.0,18882523
233627588,Nashville,,1502253340000.0,36.17,-86.78,Sachaz Ramirez,TN,1502253340000.0,18882523
189910252,Nashville,,1491444786000.0,36.11,-86.86,Sam H,TN,1501954377000.0,18882523
222617819,Franklin,,1487898562000.0,35.92,-86.89,Sam Lax,TN,1487898562000.0,18882523
192084338,Hendersonville,,1441057613000.0,36.32,-86.61,Samantha Newark,TN,1441057613000.0,18882523
191823767,Dimock,,1476765285000.0,41.74,-75.9,Sara Kistner,PA,1476765285000.0,18882523
178585042,Nashville,,1470409783000.0,36.17,-86.78,Sarah Chilton,TN,1485460531000.0,18882523
1730798,Nashville,Nashville,1458307133000.0,36.08,-86.72,Sarin,TN,1458323134000.0,18882523
156721042,Nashville,,1454358270000.0,36.18,-86.81,Scott Massey,TN,1455229621000.0,18882523
184224662,Nashville,Los Angeles,1489643134000.0,36.15,-86.69,Sean,TN,1489783141000.0,18882523
34038882,Nashville,,1443702330000.0,36.17,-86.78,Sergei Shor,TN,1444442535000.0,18882523
206664418,Hermitage,,1465327660000.0,36.19,-86.6,Seth Baxter Ratcliffe,TN,1465327660000.0,18882523
5516122,Hendersonville,Hendersonville,1441156481000.0,36.32,-86.61,Seth Graves,TN,1444582077000.0,18882523
195142247,Nashville,,1446739335000.0,36.18,-86.74,Shane Sanders,TN,1446999815000.0,18882523
195797408,Nashville,,1447962303000.0,36.17,-86.78,Shannon,TN,1447962303000.0,18882523
225425077,Nashville,,1491860762000.0,36.16,-86.79,Shant Thomassian,TN,1506170029000.0,18882523
115944712,Nashville,,1491708533000.0,36.17,-86.78,Shawn,TN,1494336841000.0,18882523
231516251,Murfreesboro,,1499702956000.0,35.87,-86.34,Shelby Lowe,TN,1499702956000.0,18882523
201252743,Hermitage,,1457626733000.0,36.19,-86.6,Shell Kirk,TN,1464030898000.0,18882523
214892996,Nashville,"Nashville, TN",1476401201000.0,36.15,-86.79,Shelly,TN,1493682281000.0,18882523
195397846,Murfreesboro,,1447536615000.0,35.78,-86.33,Simone,TN,1447536615000.0,18882523
193602885,Nashville,,1443910357000.0,36.08,-86.72,Skyler,TN,1443910357000.0,18882523
28246202,Chicago,,1501870911000.0,41.89,-87.64,soup,IL,1508276378000.0,18882523
150431992,Clarksville,,1490724436000.0,36.49,-87.23,Starberries,TN,1490724436000.0,18882523
230886298,Nashville,,1498937008000.0,36.15,-86.81,Stefan Zavalin,TN,1498937008000.0,18882523
221246111,Nashville,,1486061034000.0,36.17,-86.78,Stefanie Percival,TN,1486061034000.0,18882523
214419992,Hopkinsville,,1477741310000.0,36.87,-87.48,Stephen,KY,1506169453000.0,18882523
205493649,Brentwood,,1463702851000.0,36.0,-86.79,Stephen Matthew,TN,1463702851000.0,18882523
9683224,La Vergne,,1446048129000.0,36.01,-86.57,Stephen Seifert,TN,1506262623000.0,18882523
212593454,Nashville,,1473422413000.0,36.17,-86.78,Sterling,TN,1473422413000.0,18882523
235422472,Murfreesboro,,1504302213000.0,35.82,-86.45,Steven Brothers Tobi,TN,1504302213000.0,18882523
126066112,Nashville,Nashville,1484030794000.0,36.17,-86.78,Taylor Michael Matson,TN,1484245083000.0,18882523
16318981,Nashville,Ann Arbor,1492188407000.0,36.17,-86.78,Thai,TN,1492188407000.0,18882523
214903585,Murfreesboro,,1476416059000.0,35.87,-86.44,Thomas Helm,TN,1476416059000.0,18882523
202702514,Nashville,,1459744760000.0,36.17,-86.78,Thulani Nzimande,TN,1494954151000.0,18882523
230402038,Nashville,,1498337438000.0,36.17,-86.78,Tim,TN,1506456806000.0,18882523
8386,Nashville,Nashville,1441217738000.0,36.07,-86.78,Tim,TN,1507325402000.0,18882523
196458650,Fairview,,1449342217000.0,35.97,-87.13,Tim Farmer,TN,1451683447000.0,18882523
227400254,Nashville,,1496251619000.0,36.17,-86.78,timoteo hernandez,TN,1496251619000.0,18882523
231686941,Nashville,,1499892430000.0,36.17,-86.78,Timothy Woods,TN,1499892430000.0,18882523
207799483,Nashville,,1466882568000.0,36.17,-86.78,Todd Matthew Nicholas Hoote,TN,1466882568000.0,18882523
204840680,Madison,,1462828668000.0,36.26,-86.71,Tom Hobrock,TN,1475930844000.0,18882523
228091531,Nashville,,,36.17,-86.78,,TN,,18882523
3920320,Nashville,,1441392563000.0,36.21,-86.72,Tony,TN,1444708762000.0,18882523
225209150,Nashville,,1491550713000.0,36.17,-86.78,Tosh Mccoy,TN,1491550713000.0,18882523
215596079,Clarksville,,1477435599000.0,36.56,-87.35,Travis William,TN,1477435599000.0,18882523
220579486,Nashville,,1485225091000.0,36.18,-86.81,Trevyn Stsy Stegall,TN,1485225091000.0,18882523
183369630,Atlanta,,1468792227000.0,33.86,-84.4,Trey Eddington,GA,1468792227000.0,18882523
78232562,Nashville,,1479678581000.0,36.17,-86.78,Trish Noe,TN,1480699809000.0,18882523
129101322,Seattle,Nashville,1449100138000.0,47.61,-122.33,Tyler,WA,1449100138000.0,18882523
205034568,Nashville,,1463098537000.0,36.17,-86.78,Valeria Hickman,TN,1463098537000.0,18882523
175891512,Nashville,,1451346293000.0,36.17,-86.78,Vanessa,TN,1478295593000.0,18882523
200946236,Franklin,,1457191083000.0,35.92,-86.89,Vincentzenno Cappelli,TN,1457191083000.0,18882523
215050917,Nashville,,1476641843000.0,36.11,-86.78,Vincenzeno,TN,1476641843000.0,18882523
231471383,Hermitage,,1499645326000.0,36.19,-86.6,Wendy Jeup,TN,1499645326000.0,18882523
230612519,Nashville,,1498601901000.0,36.11,-86.78,Wesley Young,TN,1498601901000.0,18882523
9852711,Nashville,Nashville,1448215650000.0,36.11,-86.86,Weston Hunter,TN,1475702086000.0,18882523
224282779,Nashville,,1490238122000.0,36.21,-86.72,Weston Sparks,TN,1507642899000.0,18882523
12248783,San Francisco,"Churchville, VA",1456366222000.0,37.77,-122.44,Whit Morriss,CA,1456414138000.0,18882523
105865382,Nashville,,1483983547000.0,36.18,-86.81,Wil Cantrell,TN,1486673690000.0,18882523
189912135,Miami,,1504337833000.0,25.78,-80.2,Will,FL,1504337833000.0,18882523
197146205,Brentwood,,1450821616000.0,36.0,-86.79,Will Rost Hooper,TN,1450821616000.0,18882523
124682442,Nashville,"Brentwood, TN",1447706219000.0,36.11,-86.97,William Arnold,TN,1484097692000.0,18882523
219352436,Nashville,,1483675478000.0,36.18,-86.74,William Somerville Hooker Jr.,TN,1483675478000.0,18882523
207994183,Nashville,,1467146174000.0,36.17,-86.78,Woody Evins,TN,1467146174000.0,18882523
217652167,Nashville,,1480784299000.0,36.07,-86.73,Yadira Vizcaya,TN,1506462170000.0,18882523
222268763,Nashville,,1487429219000.0,36.17,-86.78,Ying Fu,TN,1487429219000.0,18882523
195030614,Hendersonville,,1482004771000.0,36.32,-86.61,Zach Heyde,TN,1487924663000.0,18882523
213237301,Nashville,,1475173166000.0,36.17,-86.78,Zach Morse,TN,1491490277000.0,18882523
97356192,Nashville,Nashville,1457567265000.0,36.13,-86.8,Zach Schimenz,TN,1457567265000.0,18882523
238567950,Los Angeles,,1508556496000.0,34.03,-118.35,Zack Ward,CA,1508556496000.0,18882523
