id,city,hometown,joined,lat,lon,name,state,visited,group_id
186067832,Brentwood,,1451092387000.0,36.0,-86.79,Abhishek Arohi,TN,1475527932000.0,18999473
199164918,Brentwood,,1454618073000.0,36.0,-86.79,Adrienne,TN,1454618073000.0,18999473
217030249,Franklin,,1479697468000.0,35.93,-86.81,Ajaa,TN,1479697468000.0,18999473
222780410,Nashville,,1488137359000.0,36.15,-86.86,Akbar Nazirov,TN,1488137359000.0,18999473
6867023,Nashville,Nashville,1444949485000.0,36.08,-86.72,Alison,TN,1444949485000.0,18999473
208228410,Nashville,,1467476563000.0,36.06,-86.96,Amy H,TN,1467476563000.0,18999473
215094245,Greenbrier,,1476702333000.0,36.43,-86.8,AmyC,TN,1476702333000.0,18999473
204871578,Clarksville,,1462874076000.0,36.49,-87.23,AnaKatarina Lalonde,TN,1462874076000.0,18999473
201043595,Nashville,,1457321165000.0,36.09,-86.82,Anastasia Burton,TN,1457321165000.0,18999473
192170589,Nashville,,1486419676000.0,36.17,-86.78,Andre Knox,TN,1486419676000.0,18999473
202755142,Nashville,,1461993066000.0,36.18,-86.74,Angela Gail Buffkin,TN,1461993066000.0,18999473
196816107,Murfreesboro,,1450034384000.0,35.82,-86.45,Ann,TN,1450034384000.0,18999473
201038197,Murfreesboro,,1457320653000.0,35.82,-86.45,April Howard,TN,1499539577000.0,18999473
198527598,Franklin,,1453585201000.0,35.92,-86.89,Ariana Greene,TN,1453585201000.0,18999473
201095628,Nashville,,1457393610000.0,36.16,-86.79,Arthur Switzer,TN,1457448272000.0,18999473
205576520,Antioch,,1484590794000.0,36.04,-86.64,Ashley Little,TN,1484590794000.0,18999473
201972592,Nashville,,1458654620000.0,36.08,-86.72,Ayana Adams,TN,1458654620000.0,18999473
73554192,Nashville,,1483474455000.0,36.17,-86.78,Ayreej Kanathil,TN,1498183186000.0,18999473
191457218,Nashville,,1451833485000.0,36.18,-86.74,Betsy,TN,1472645518000.0,18999473
237553990,Nashville,,1506529743000.0,36.17,-86.78,Bianca Grant,TN,1506529743000.0,18999473
204156801,Nashville,,1462116575000.0,36.17,-86.78,Blessing Oruma,TN,1462116575000.0,18999473
200303216,Spring Hill,Spring Hill,1477365440000.0,35.76,-86.88,BMShake,TN,1477365440000.0,18999473
199209356,Hendersonville,"Port Huron, MI",1457061287000.0,36.32,-86.61,Bobbi DeLisle,TN,1457061287000.0,18999473
203189915,Boston,Boston,1465050566000.0,42.37,-71.05,Bret McDaniel,MA,1465050566000.0,18999473
202398555,Nashville,,1459296443000.0,36.18,-86.74,Brock Curtis,TN,1459296443000.0,18999473
201031197,Brentwood,,1457305100000.0,36.0,-86.79,Brock Short Jr,TN,1457305100000.0,18999473
3547377,Nashville,Nashville Tn,1450664957000.0,36.1,-86.66,bryce,TN,1450664957000.0,18999473
198937460,Nashville,,1454265707000.0,36.1,-86.66,Caitlyn,TN,1454265707000.0,18999473
198863047,College Park,,1454149171000.0,39.0,-76.93,Cal,MD,1454149171000.0,18999473
209712490,Nashville,,1469420534000.0,36.17,-86.78,Caroline,TN,1469420534000.0,18999473
196892203,Nashville,,1450198941000.0,36.06,-86.96,Caroline Bollinger,TN,1450232302000.0,18999473
197364291,Nashville,,1451375416000.0,36.06,-86.96,Cesar Rojano,TN,1451375416000.0,18999473
108283632,Nashville,,1468063806000.0,36.17,-86.78,Chad,TN,1507491296000.0,18999473
208270091,Nashville,,1467530228000.0,36.08,-86.72,Charray Kennedy,TN,1467530228000.0,18999473
183453340,Nashville,,1454646314000.0,36.07,-86.78,Chase Breland,TN,1454646314000.0,18999473
149979832,Nashville,,1477695296000.0,36.1,-86.8,Chris Dooney,TN,1477695296000.0,18999473
198148080,Nashville,,1452885421000.0,36.08,-86.72,Chris Kurtz,TN,1452885421000.0,18999473
17468791,Franklin,Sellersburg,1444709807000.0,35.93,-86.81,Christina,TN,1462554959000.0,18999473
194910537,Nashville,,1446316896000.0,36.17,-86.78,Colin Verlac,TN,1446316896000.0,18999473
201699067,New York,,1458251757000.0,40.75,-73.99,Constance McKee,NY,1458251757000.0,18999473
195523008,Smyrna,,1447443241000.0,35.97,-86.51,Crys,TN,1447443241000.0,18999473
200847281,Nashville,,1457036054000.0,36.17,-86.79,Crystal M.,TN,1457042590000.0,18999473
203593750,Hendersonville,,1461010179000.0,36.32,-86.61,Dana Nicole,TN,1461010179000.0,18999473
199878441,Los Angeles,Los Angeles,1455676610000.0,34.04,-118.42,Danijah Cassadi,CA,1455676610000.0,18999473
11017351,Smyrna,,1484170297000.0,35.97,-86.51,David,TN,1484948879000.0,18999473
200947632,Nashville,,1457189957000.0,36.11,-86.86,Deanna Loveland,TN,1457189957000.0,18999473
185535083,Franklin,,1486790450000.0,35.92,-86.89,Dee Ann ,TN,1486790450000.0,18999473
202275523,Franklin,,1459124952000.0,35.93,-86.81,Devanshi,TN,1459124952000.0,18999473
143133582,Nashville,"Nashville, Tn",1444437114000.0,36.17,-86.78,Di Hall,TN,1480090809000.0,18999473
196430977,Hermitage,,1449247164000.0,36.19,-86.6,Drew Williams,TN,1449247164000.0,18999473
97825272,Nashville,,1465833346000.0,36.16,-86.79,Ebony,TN,1465833346000.0,18999473
238620700,Nashville,,1507694146000.0,36.06,-86.96,Elobeth,TN,1507694146000.0,18999473
209637148,Nashville,,1469324511000.0,36.17,-86.78,Erick Kigen,TN,1469324511000.0,18999473
196036286,Nashville,,1448423995000.0,36.22,-86.86,Erin,TN,1448566635000.0,18999473
194292289,Brentwood,"Mobile, AL",1445200717000.0,36.0,-86.79,Francis,TN,1445200717000.0,18999473
184865557,Nashville,,1446505610000.0,36.1,-86.66,Galina,TN,1446505610000.0,18999473
202462664,Spring Hill,,1459390013000.0,35.76,-86.88,Gary Mc,TN,1459390013000.0,18999473
232371778,Arrington,,1500739536000.0,35.86,-86.66,george c,TN,1500739536000.0,18999473
200511886,Nashville,,1456553570000.0,36.17,-86.72,Gerda ,TN,1456553570000.0,18999473
75119422,Nashville,,1458957320000.0,36.18,-86.74,Grace,TN,1503498619000.0,18999473
199382699,Lithia Springs,,1454965514000.0,33.77,-84.64,Hugo N,GA,1454965514000.0,18999473
200987665,Nashville,"Nashville, TN",1457239604000.0,36.17,-86.78,Irene Underwood,TN,1457673548000.0,18999473
10870480,Nashville,"Jacksonville, FL",1458972307000.0,36.08,-86.72,J.G,TN,1458972307000.0,18999473
210681755,Nashville,,1470758463000.0,36.17,-86.78,Jana Thomas,TN,1470758463000.0,18999473
200486654,Nashville,,1456518853000.0,36.18,-86.74,Jane Turner-Denner,TN,1456518853000.0,18999473
197226847,Nashville,,1451065555000.0,36.11,-86.86,Janine K.,TN,1451065555000.0,18999473
194981856,Murfreesboro,,1446450184000.0,35.87,-86.44,JasMean,TN,1446450184000.0,18999473
198248802,Franklin,Franklin,1453075022000.0,35.92,-86.89,Jen,TN,1453075022000.0,18999473
195566034,Nashville,,1447530661000.0,36.06,-86.96,Jenny,TN,1447530661000.0,18999473
191113126,Shrewsbury,,1444238465000.0,42.29,-71.72,Jeri,MA,1446563590000.0,18999473
38690452,Nashville,Cypress,1444350555000.0,36.11,-86.8,Jessica,TN,1444350555000.0,18999473
197433245,Christiana,,1451522766000.0,35.71,-86.36,Jessica,TN,1451522766000.0,18999473
199703318,Nashville,,1455438781000.0,36.18,-86.81,Jessica Ayoub,TN,1477405532000.0,18999473
230014838,Nashville,,1497885248000.0,36.17,-86.78,Jill M,TN,1497885248000.0,18999473
162973622,Smyrna,,1455509266000.0,35.97,-86.51,Jim,TN,1464146459000.0,18999473
187672539,Nashville,,1444361547000.0,36.17,-86.72,JJ,TN,1444361547000.0,18999473
218054797,Nashville,,1481487132000.0,36.16,-86.79,Joann Young,TN,1481487132000.0,18999473
194404681,Nashville,,1445395436000.0,36.13,-86.8,Joanna Wagner,TN,1445395436000.0,18999473
202117766,Nashville,,1458871784000.0,36.17,-86.78,Jodi,TN,1458871784000.0,18999473
201778047,Sonora,,1458370117000.0,38.0,-120.33,John ,CA,1458370117000.0,18999473
56711872,Brentwood,,1464124950000.0,36.0,-86.79,Johnnie Butler,TN,1464124950000.0,18999473
192276121,Franklin,,1444350647000.0,35.92,-86.89,Jonathan German,TN,1446606027000.0,18999473
196948668,Milford,,1450329488000.0,42.59,-83.65,Jordan Seagraves,MI,1450329488000.0,18999473
184570624,Nashville,,1456898504000.0,36.16,-86.79,Josue Tapia,TN,1456898504000.0,18999473
5730581,Nashville,,1456436979000.0,36.15,-86.86,Julie,TN,1456706870000.0,18999473
199008828,Nashville,,1454367405000.0,36.07,-86.73,Kaitlyn,TN,1454367405000.0,18999473
200498013,Nashville,,1456533343000.0,36.17,-86.72,Kaley ,TN,1456533343000.0,18999473
76691132,Nashville,"Cumming, GA",1451013496000.0,36.17,-86.78,Kara,TN,1472818345000.0,18999473
186766022,Nashville,Sewanee,1459179030000.0,36.13,-86.8,Karen A,TN,1459179030000.0,18999473
200188927,Nashville,,1456104851000.0,36.18,-86.74,Katie,TN,1456104851000.0,18999473
194199582,Nashville,,1445019330000.0,36.17,-86.78,Kayla Swain,TN,1445019330000.0,18999473
212815877,Nashville,,1473712508000.0,36.17,-86.78,Keelin,TN,1473712508000.0,18999473
195110306,Nashville,,1446675605000.0,36.15,-86.86,Kelley Martin,TN,1446700620000.0,18999473
200443325,Murfreesboro,,1456452210000.0,35.78,-86.33,Kelly Horna,TN,1456452210000.0,18999473
195536349,Madison,,1447465884000.0,36.26,-86.71,Khadijah Deede King,TN,1449106111000.0,18999473
196568013,Nashville,,1449522485000.0,36.18,-86.74,Kirby Arloff,TN,1449522485000.0,18999473
200791298,Greenville,,1456951284000.0,34.85,-82.4,Kory Schalm,SC,1456951284000.0,18999473
198164368,Nashville,,1452913217000.0,36.15,-86.79,Kristi Reid,TN,1452913217000.0,18999473
34424482,Nashville,,1457476545000.0,36.09,-86.82,Kylie Rodriguez,TN,1457476545000.0,18999473
206050308,Nashville,,1464492650000.0,36.08,-86.72,LaCher T,TN,1464492650000.0,18999473
197648939,Nashville,,1451975921000.0,36.17,-86.78,LACOREYA,TN,1451975921000.0,18999473
192790056,Jersey City,,1499055583000.0,40.7,-74.1,Lalita,NJ,1499055583000.0,18999473
198253709,Nashville,,1453081891000.0,36.14,-86.74,Lance Young,TN,1453081891000.0,18999473
71501052,Hopkinsville,,1452761614000.0,36.87,-87.48,Lanore Robinson,KY,1452761614000.0,18999473
223104498,Murfreesboro,,1488590897000.0,35.78,-86.33,LaTonya Reed,TN,1488590897000.0,18999473
199261692,Franklin,,1454775350000.0,35.92,-86.89,Laura Caron Erby,TN,1454775350000.0,18999473
201812570,White House,,1458420687000.0,36.48,-86.69,Lauren Kemp,TN,1458420687000.0,18999473
12757769,Franklin,Franklin,1444351234000.0,35.92,-86.89,Laurie  E.,TN,1478888834000.0,18999473
113433992,Franklin,,1473207926000.0,35.93,-86.81,Lauryn Griffith,TN,1473207926000.0,18999473
199878788,Nashville,,1455674033000.0,36.16,-86.79,Lawton Rhodes,TN,1455674033000.0,18999473
190221976,Pleasantville,Pleasantville,1448487546000.0,41.13,-73.78,Leidy Marcela Lozano,NY,1448487546000.0,18999473
202374114,Nashville,,1459265910000.0,36.08,-86.72,Linda A Hodgdon,TN,1459265910000.0,18999473
197513735,Columbia,,1451711732000.0,35.61,-87.05,Lindsey Michelle Copeland,TN,1451711732000.0,18999473
198517361,Nashville,,1453570100000.0,36.08,-86.72,Liz,TN,1462662951000.0,18999473
236715254,Nashville,,1505627887000.0,36.17,-86.78,Liz Anderson,TN,1505627887000.0,18999473
197120580,Hermitage,,1450752814000.0,36.19,-86.6,Luz Belleza,TN,1450752814000.0,18999473
209899181,Nashville,,1470163862000.0,36.13,-86.8,Maddie Massey,TN,1470163862000.0,18999473
198307591,Nashville,,1453175824000.0,36.17,-86.78,Magie,TN,1453175824000.0,18999473
200857861,Nashville,,1457050070000.0,36.17,-86.78,Margaret Eckert Dunlap,TN,1457050070000.0,18999473
198545728,Christiana,,1453617152000.0,35.71,-86.36,Marina Provenzano,TN,1453617152000.0,18999473
193558516,Queensbury,,1444166750000.0,43.37,-73.68,Megan,NY,1444166750000.0,18999473
128418722,Memphis,Nashville,1451340921000.0,35.15,-89.94,Mehdi Chaib,TN,1451340921000.0,18999473
202346968,Lebanon,,1459222390000.0,36.21,-86.29,Melanie,TN,1459473038000.0,18999473
197903160,Gallatin,,1452438372000.0,36.39,-86.45,Melanie Gillingham,TN,1452616103000.0,18999473
194012164,Nashville,,1444675712000.0,36.07,-86.73,Meredith,TN,1444675712000.0,18999473
196501400,Nashville,,1449392435000.0,36.09,-86.82,Michele,TN,1450108943000.0,18999473
196677945,Nashville,,1449722205000.0,36.17,-86.78,Michele Crater,TN,1449722205000.0,18999473
195032069,Nashville,,1446533553000.0,36.15,-86.86,Najlaa Abdullah,TN,1447728597000.0,18999473
4389320,Nashville,Charlotte,1473573293000.0,36.17,-86.78,Nat,TN,1473573293000.0,18999473
215367038,Nashville,,1477095610000.0,36.08,-86.72,Nia,TN,1477095610000.0,18999473
198453230,Nashville,,1453470579000.0,36.17,-86.78,Nichole Young,TN,1453470579000.0,18999473
185174907,Nashville,,1482378077000.0,36.16,-86.79,Ola A,TN,1482378077000.0,18999473
234168251,Franklin,,1502887904000.0,35.93,-86.81,Olivia Oetjens,TN,1502887904000.0,18999473
192783654,Virginia Beach,Virginia Beach,1444085623000.0,36.86,-76.01,PlayYourCourt,VA,1469021411000.0,18999473
196827773,Nashville,Nashville,1451873333000.0,36.17,-86.78,R. Smith,TN,1468272525000.0,18999473
196813125,Christiana,,1450030044000.0,35.71,-86.36,Rachel Brockman,TN,1450030044000.0,18999473
149167622,Savannah,,1454594199000.0,32.07,-81.11,Randy,GA,1454594199000.0,18999473
204728555,Nashville,,1462715639000.0,36.16,-86.79,Richard Phelps,TN,1462715639000.0,18999473
138525112,Brentwood,,1444760793000.0,36.0,-86.79,Ricky Fletcher,TN,1499980671000.0,18999473
222786996,Nashville,,1488233954000.0,36.16,-86.79,Rob Prentice,TN,1499824964000.0,18999473
113362402,Nashville,Detroit,1485051921000.0,36.17,-86.78,Roselyn,TN,1485051921000.0,18999473
196082054,Nashville,,1448524249000.0,36.17,-86.78,Ruth,TN,1448909540000.0,18999473
195572788,Nashville,,1447541797000.0,36.22,-86.77,Ryan Newby,TN,1478407194000.0,18999473
193747475,Hermitage,,1444356460000.0,36.19,-86.6,Sabrina Harper,TN,1444356460000.0,18999473
126529282,Nashville,,1453692644000.0,36.17,-86.78,Samantha,TN,1453692644000.0,18999473
200550249,Nashville,,1456610512000.0,36.15,-86.79,Sandy,TN,1470032886000.0,18999473
200514299,Nashville,,1456557806000.0,36.16,-86.79,Sandy,TN,1456557806000.0,18999473
127757322,Mount Juliet,"Jackson, TN",1459127134000.0,36.22,-86.52,Sarah Kemp,TN,1459127134000.0,18999473
198492287,Bozeman,Bozeman,1453515235000.0,45.65,-111.2,Sarah Z,MT,1453515235000.0,18999473
198142135,Brentwood,,1452875617000.0,36.0,-86.79,Savannah Campbell ,TN,1452875617000.0,18999473
193791049,Nashville,,1444267540000.0,36.13,-86.8,Sebastian,TN,1445827591000.0,18999473
157531122,Nashville,,1497058458000.0,36.17,-86.78,Sena Aqeel Agbeko,TN,1497058458000.0,18999473
8539046,Nashville,,1487713684000.0,36.13,-86.8,Shalini,TN,1487713684000.0,18999473
193499931,Nashville,,1445789807000.0,36.21,-86.72,Shannon,TN,1445789807000.0,18999473
190868245,Nashville,,1465782362000.0,36.06,-86.96,Shannon Hannigan,TN,1473727654000.0,18999473
199017219,Nashville,,1454378952000.0,36.15,-86.86,Shannon Livewell,TN,1454378952000.0,18999473
185997095,Brentwood,,1488287980000.0,36.0,-86.79,Shannon Marie,TN,1488287980000.0,18999473
199815546,Madison,,1455590132000.0,36.26,-86.71,Shantel Moore,TN,1458597155000.0,18999473
208084368,Fort Campbell,,1467260855000.0,36.65,-87.46,Shauna Wedderburn,KY,1467260855000.0,18999473
198045295,Nashville,,1452693291000.0,36.13,-86.8,Shay,TN,1452693291000.0,18999473
54724552,Nashville,,1444481546000.0,36.22,-86.77,Sheka,TN,1444481546000.0,18999473
223601050,Nashville,,1489300016000.0,36.17,-86.78,Shelby,TN,1489300016000.0,18999473
201045841,Nashville,,1457323998000.0,36.13,-86.8,Shelby,TN,1457323998000.0,18999473
203978327,Madison,,1461565734000.0,36.26,-86.71,Sheree,TN,1461565734000.0,18999473
196075172,Nashville,,1448506928000.0,36.09,-86.82,Shirley,TN,1448506928000.0,18999473
206865240,Antioch,,1466128671000.0,36.17,-86.88,shweta ,TN,1466128671000.0,18999473
215572934,Nashville,,1478444536000.0,36.15,-86.86,Siyuan Yin,TN,1478444536000.0,18999473
199231699,Franklin,,1454721904000.0,35.99,-86.9,Steph,TN,1454721904000.0,18999473
194573109,Nashville,,1445705937000.0,36.17,-86.78,Stephanie Kendrick,TN,1453054347000.0,18999473
214260419,Nashville,,1475537904000.0,36.09,-86.82,Susan,TN,1497157673000.0,18999473
86015012,Nashville,,1462137452000.0,36.11,-86.78,Susan,TN,1462137452000.0,18999473
195075142,Nashville,,1446608424000.0,36.1,-86.66,Talandra Charles,TN,1446608424000.0,18999473
199340963,Brentwood,,,36.0,-86.79,,TN,,18999473
227263418,Nashville,,1501605194000.0,36.17,-86.78,Tanikka M,TN,1501605194000.0,18999473
222745771,Hermitage,,1488124548000.0,36.21,-86.59,Tara ,TN,1488124548000.0,18999473
215689453,Nashville,,1477585824000.0,36.16,-86.79,Terisa Thorpe,TN,1477585824000.0,18999473
196472762,Nashville,,1449334845000.0,36.17,-86.78,Tiasha Bhowmik,TN,1449334845000.0,18999473
10811862,Nashville,,1444438165000.0,36.11,-86.78,Tom,TN,1448677068000.0,18999473
194923584,Nashville,"Nashville, TN",1446339722000.0,36.17,-86.78,Toni,TN,1446339722000.0,18999473
124411752,Nashville,,1470178498000.0,36.17,-86.78,Ty,TN,1501526651000.0,18999473
188432995,Smyrna,Smyrna,1498956742000.0,35.97,-86.51,Veronica,TN,1498956742000.0,18999473
200946236,Franklin,,1457191006000.0,35.92,-86.89,Vincentzenno Cappelli,TN,1457191006000.0,18999473
