id,city,hometown,joined,lat,lon,name,state,visited,group_id
61596042,Antioch,,1452256413000,36.04,-86.64,Adrian Davis,TN,1452256413000,19267307
29589462,Nashville,,1478557427000,36.17,-86.78,Alexa Dimengo,TN,1478557427000,19267307
51225172,Nashville,"Mankato, MN",1452122415000,36.17,-86.78,Amanda,TN,1452122415000,19267307
108335802,Franklin,,1452206099000,35.92,-86.89,Amie Hamtil,TN,1454637448000,19267307
220568192,Franklin,,1485277017000,35.92,-86.89,Amy Bream,TN,1485277017000,19267307
204871578,Clarksville,,1462874161000,36.49,-87.23,AnaKatarina Lalonde,TN,1462874161000,19267307
219559152,Nashville,,1483934842000,36.18,-86.74,Ann Nguyen,TN,1483934842000,19267307
211907159,Nashville,,1473528427000,36.17,-86.78,Ashley Garth,TN,1475063638000,19267307
197691599,Fairview,,1452039164000,35.97,-87.13,Becky Ann,TN,1453428545000,19267307
223772945,Franklin,,1489530757000,35.92,-86.89,Ben Patient,TN,1489530757000,19267307
146001662,Franklin,,1497203051000,35.93,-86.81,Brian Boulden,TN,1506816452000,19267307
174245272,Columbia,,1465404082000,35.61,-87.05,Caleb,TN,1465404082000,19267307
185389062,Nashville,,1475700512000,36.09,-86.82,Courtney S. ,TN,1475700512000,19267307
191319483,Brentwood,,1480621344000,36.0,-86.79,David Goldberg,TN,1492618962000,19267307
144256692,Nashville,,1476412914000,36.15,-86.86,David VanWie,TN,1476412914000,19267307
197671297,Brentwood,,1452113969000,36.0,-86.79,Heather McKinney,TN,1452113969000,19267307
182681972,Franklin,,1452741578000,35.92,-86.89,John Joseph,TN,1462116682000,19267307
193031238,Nashville,,1478932232000,36.17,-86.78,Kaite Faulkner,TN,1478932232000,19267307
62679622,Franklin,,1491157412000,35.92,-86.89,Kathryn,TN,1491157412000,19267307
11334955,Franklin,"Columbus, GA",1452213318000,35.92,-86.89,Keonna,TN,1452213318000,19267307
196481749,Franklin,,1452114375000,35.92,-86.89,Kristen Blake,TN,1452114375000,19267307
942611,Franklin,,1489831415000,35.92,-86.89,Laura,TN,1489831415000,19267307
202383180,Nashville,,1459287908000,36.11,-86.86,Lauren Kiproff,TN,1463051732000,19267307
101671482,Franklin,"Nashville, TN",1452298269000,35.92,-86.89,Lisa Firestone,TN,1452298269000,19267307
203171938,Spring Hill,,1482814115000,35.76,-86.88,Matt Combs,TN,1482814115000,19267307
13500847,Nashville,,1468506907000,36.17,-86.72,Maxi,TN,1468506907000,19267307
193745334,Franklin,,1452975278000,35.93,-86.81,Megan ,TN,1453515952000,19267307
119541152,Nashville,,1452924991000,36.17,-86.78,Mewael,TN,1452924991000,19267307
192545168,Brentwood,,1452615227000,36.0,-86.79,Michael,TN,1452615227000,19267307
195145042,Franklin,,1452114178000,35.92,-86.89,Michael Roberts,TN,1452219350000,19267307
230493069,Spring Hill,,1498450739000,35.76,-86.88,Michelle Platt,TN,1498450739000,19267307
218560507,Antioch,,1482453738000,36.04,-86.64,Micouri Aranea Silva,TN,1482453738000,19267307
106449982,Franklin,,1452207691000,35.92,-86.89,Mindy Hoover,TN,1452207691000,19267307
4389320,Nashville,Charlotte,1484270931000,36.17,-86.78,Nat,TN,1484270931000,19267307
198714084,Nashville,,1479339185000,36.17,-86.72,Natasha MacDonald,TN,1479339185000,19267307
171542502,Murfreesboro,Murfreesboro ,1490030030000,35.87,-86.44,Nora Kernisant,TN,1490030030000,19267307
197691296,Nashville,,1452141705000,36.09,-86.82,Paige,TN,1452141705000,19267307
197559768,Franklin,,1451800003000,35.92,-86.89,Robert Bateman,TN,1451800003000,19267307
11729281,Saratoga Springs,Saratoga Springs,1452115729000,43.08,-73.77,Robert Braathe,NY,1452183034000,19267307
184134945,Nashville,,1454973784000,36.17,-86.78,Russ L,TN,1454973784000,19267307
226849257,Nashville,,1493778505000,36.18,-86.74,Sammie Marler,TN,1493778505000,19267307
92795252,Nashville,,1453388771000,36.17,-86.78,Sekou,TN,1453388771000,19267307
163518982,Brentwood,,1452114616000,36.0,-86.79,Shayleen,TN,1452114616000,19267307
212633438,Mount Juliet,,1473473504000,36.21,-86.52,Stephanie Scott,TN,1473473504000,19267307
195491616,Franklin,,1452117980000,35.92,-86.89,Tianna Lucas,TN,1462590417000,19267307
222894051,Franklin,,1488295967000,35.92,-86.89,Wendy S.,TN,1488384009000,19267307
