id,city,hometown,joined,lat,lon,name,state,visited,group_id
212191821,Memphis,,1472885635000.0,35.15,-90.05,Abby,TN,1472885635000.0,19556549
204325474,Nashville,,1462076521000.0,36.15,-86.86,Abby,TN,1466867422000.0,19556549
199294630,Nashville,,1476201584000.0,36.17,-86.79,Abella Sara,TN,1479084223000.0,19556549
213007713,Murfreesboro,Murfreesboro,1473968909000.0,35.87,-86.34,Abigail Elizabeth,TN,1476833892000.0,19556549
209911696,Hendersonville,,1469675889000.0,36.32,-86.61,Adam Shishin Lintz,TN,1469675889000.0,19556549
203186855,Gallatin,,1460425535000.0,36.39,-86.45,Adam Thomas,TN,1460425535000.0,19556549
206481851,Nashville,,1474436182000.0,36.17,-86.78,Adia Tigney,TN,1475192071000.0,19556549
217732725,Nashville,,1480920395000.0,36.1,-86.66,Adrian Garmendia,TN,1504264905000.0,19556549
204173902,Nashville,,1473700577000.0,36.08,-86.72,Afton Crumitie,TN,1473700577000.0,19556549
214359255,Nashville,,1475632031000.0,36.14,-86.81,Ailie Green,TN,1475632031000.0,19556549
188472204,Nashville,Nashville,1462895750000.0,36.16,-86.79,Aishwarya,TN,1507346397000.0,19556549
14905821,Huntsville,,1495947647000.0,34.76,-86.68,Ajinkya Kulkarni,AL,1495947647000.0,19556549
204949845,Nashville,,1462983767000.0,36.07,-86.73,Al,TN,1462983767000.0,19556549
200808241,Nashville,,1456974330000.0,36.17,-86.79,AL SAN,TN,1456974330000.0,19556549
208144494,Nashville,,1467346931000.0,36.17,-86.78,Alejandra Shah,TN,1467346931000.0,19556549
43573462,Nashville,chicago,1458800447000.0,36.17,-86.78,Alejo,TN,1458800447000.0,19556549
228653262,Carthage,,1496158081000.0,36.26,-85.99,Alex Bray,TN,1496158081000.0,19556549
235742118,Nashville,,1504650319000.0,36.17,-86.78,Alex S,TN,1504650319000.0,19556549
220751952,Nashville,,1485440956000.0,36.17,-86.78,Alex Wolfe,TN,1485440956000.0,19556549
111368632,Mount Juliet,,1507346394000.0,36.22,-86.52,Alexandra Gehin,TN,1507384460000.0,19556549
224348267,Nashville,,1490330447000.0,36.17,-86.78,Alexandra Kirby,TN,1490330447000.0,19556549
206301026,Greenville,,1464836698000.0,34.85,-82.4,Alexandria Skyler,SC,1466046470000.0,19556549
214068078,Nashville,,1475275443000.0,36.17,-86.78,Alexis,TN,1475275443000.0,19556549
74712332,Nashville,Nashville,1462735119000.0,36.1,-86.66,Ali C,TN,1462735119000.0,19556549
224513019,Kingston Springs,,1490567278000.0,36.09,-87.12,Alicia Glasgow Mayes,TN,1490567278000.0,19556549
14601025,Nashville,"Kohtla-Yarve, Estonia",1475519650000.0,36.06,-86.96,Alina ,TN,1475944317000.0,19556549
232964564,Nashville,,1501474367000.0,36.08,-86.72,Alina M Torres,TN,1501474367000.0,19556549
184535902,Murfreesboro,,1469147883000.0,35.82,-86.45,Alisha,TN,1472526307000.0,19556549
3466646,Oakland,Oakland,1478636430000.0,37.84,-122.22,Alison Gould,CA,1478636430000.0,19556549
209247227,Franklin,,1472433415000.0,35.92,-86.89,Allen,TN,1475981942000.0,19556549
229381615,Nashville,,1497053393000.0,36.15,-86.81,Alli Joanne,TN,1497053393000.0,19556549
234264254,Clarksville,,1502997925000.0,36.56,-87.41,Allie Sanchez,TN,1502997925000.0,19556549
222905651,Cleveland,,1488309631000.0,41.49,-81.67,Allison Hunter Kultaeva,OH,1488309631000.0,19556549
226791775,Nashville,,1493701930000.0,36.14,-86.74,Allison Russell,TN,1493701930000.0,19556549
185759968,Nashville,,1474848711000.0,36.18,-86.64,Allison Schmitz,TN,1474848711000.0,19556549
210834592,Nashville,,1470973069000.0,36.17,-86.78,Ally Michelle,TN,1472138410000.0,19556549
7481095,Nashville,Ponte Vedra,1504006117000.0,36.11,-86.86,Allyson,TN,1504006117000.0,19556549
205355425,Nashville,,1463519647000.0,36.17,-86.78,Aly,TN,1463519647000.0,19556549
42628092,Nashville,naples,1466551468000.0,36.17,-86.78,Alyse Flick,TN,1466551468000.0,19556549
220363069,Nashville,,1484948598000.0,36.21,-86.72,Alyson,TN,1484948598000.0,19556549
78862522,Nashville,,1467327597000.0,36.17,-86.78,Alyson Graham,TN,1467813539000.0,19556549
13838907,Nashville,,1458784794000.0,36.17,-86.78,Alyssa Dixon,TN,1459251969000.0,19556549
186137286,Nashville,,1456104022000.0,36.16,-86.79,Alyssa Favreau,TN,1456104022000.0,19556549
238736973,Nashville,,1507829813000.0,36.13,-86.8,Aman Mutha,TN,1507829813000.0,19556549
32644152,Nashville,,1473193345000.0,36.17,-86.78,Amanda,TN,1473615986000.0,19556549
182111312,Lebanon,,1468952532000.0,36.21,-86.31,Amanda,TN,1468952532000.0,19556549
191039936,Nashville,,1462569584000.0,36.06,-86.96,Amanda,TN,1480466514000.0,19556549
222416033,Lascassas,,1487628205000.0,35.94,-86.27,Amanda Cloyd,TN,1487628205000.0,19556549
201952046,Nashville,,1458613474000.0,36.08,-86.72,Amanda DeBelius,TN,1458613474000.0,19556549
223814176,Nashville,,1489594612000.0,36.13,-86.8,Amanda Kirby,TN,1489594612000.0,19556549
207811902,Nashville,,1466898221000.0,36.17,-86.78,Amanda LeGrand,TN,1471230549000.0,19556549
235359347,Hendersonville,,1504226929000.0,36.3,-86.62,Amanda Pederson,TN,1505082718000.0,19556549
217955705,Gilbert,,1481305772000.0,33.26,-111.72,amanda perez,AZ,1481305772000.0,19556549
183742617,Franklin,,1465392678000.0,35.99,-86.9,Amanda Romano,TN,1465483858000.0,19556549
212359545,Nashville,,1473728633000.0,36.17,-86.78,Amanda Westhelle,TN,1473728633000.0,19556549
234499782,Gladeville,,1503254220000.0,36.19,-86.28,Amani Loggins,TN,1503254220000.0,19556549
207129867,Nashville,,1465948641000.0,36.18,-86.74,Amber Spurlock,TN,1468402908000.0,19556549
207657823,Franklin,,1466680792000.0,35.92,-86.89,Amber Stormberg,TN,1466680792000.0,19556549
206226257,Nashville,,1464734340000.0,36.17,-86.78,Amber Toothman,TN,1464734340000.0,19556549
235269212,Nashville,,1504127745000.0,36.08,-86.72,Amber Walters,TN,1504217149000.0,19556549
211394978,Nashville,,1471792787000.0,36.09,-86.64,Ameena Ameen,TN,1476111970000.0,19556549
212099065,Nashville,,1472754921000.0,36.17,-86.78,Amelia Handshoe,TN,1472754921000.0,19556549
71020602,Franklin,Nashville ,1506260066000.0,35.92,-86.89,Amy,TN,1506260066000.0,19556549
232741884,Nashville,,1501188738000.0,36.17,-86.78,Amy A B.,TN,1501188738000.0,19556549
7981475,Smyrna,Nashville,1455737196000.0,35.97,-86.51,Amy Alder,TN,1475533230000.0,19556549
191284287,Burbank,,1457662344000.0,34.19,-118.3,Amy Barko,CA,1458812969000.0,19556549
210564586,Spring Hill,,1470596007000.0,35.76,-86.88,Amy Burns,TN,1470596007000.0,19556549
207721781,Clarksville,,1466775264000.0,36.56,-87.41,Amy Crowe,TN,1466775264000.0,19556549
33994092,Murfreesboro,"Fort Oglethorpe, GA",1468621888000.0,35.78,-86.33,Amy LeTellier,TN,1478038870000.0,19556549
226001166,Clarksville,,1492638414000.0,36.49,-87.23,Amy Richey,TN,1492638414000.0,19556549
208886795,Nashville,,1468777969000.0,36.17,-86.78,Amy Sue,TN,1507293558000.0,19556549
211711324,Nashville,,1476252591000.0,36.08,-86.72,Amy Watts,TN,1476326512000.0,19556549
209214717,Clarksville,,1468775976000.0,36.56,-87.41,Ana Carver,TN,1468775976000.0,19556549
204179000,Franklin,,1461856547000.0,35.92,-86.89,Ana Walden,TN,1461856547000.0,19556549
201043595,Nashville,,1457321165000.0,36.09,-86.82,Anastasia Burton,TN,1457321165000.0,19556549
206399399,Nashville,,1464978533000.0,36.17,-86.78,Anastasia Gedda-Shaheen,TN,1464978533000.0,19556549
155195962,Nashville,,1466708053000.0,36.13,-86.8,Andrea,TN,1477681053000.0,19556549
225882177,Nashville,,1492488356000.0,36.08,-86.72,Andrea P,TN,1492488356000.0,19556549
220147178,Nashville,,1484695868000.0,36.16,-86.79,Andrés Bustamante,TN,1484695868000.0,19556549
68234922,Nashville,,1472104451000.0,36.17,-86.78,Andrew,TN,1479492314000.0,19556549
206741636,Nashville,,1467827063000.0,36.17,-86.78,Andrew,TN,1467827063000.0,19556549
213474544,Brentwood,,1474559070000.0,36.0,-86.79,Andrey  Tutubalin,TN,1506788661000.0,19556549
1673629,Nashville,,1467933323000.0,36.12,-86.74,Andy Heath,TN,1467933323000.0,19556549
218873173,Nashville,,1483720301000.0,36.17,-86.78,Angel Iwanowski,TN,1484194447000.0,19556549
224569029,Nashville,,1490643558000.0,36.08,-86.72,Angela D,TN,1490643558000.0,19556549
225016712,Brentwood,,1496127825000.0,36.0,-86.79,Angela Hurt Gordon,TN,1506922957000.0,19556549
213028888,Nashville,,1488593457000.0,36.17,-86.78,Angela Ott,TN,1488593457000.0,19556549
217268917,Greenbrier,,1480122880000.0,36.43,-86.8,Angie Meyer,TN,1480122880000.0,19556549
207373353,Nashville,,1466292958000.0,36.17,-86.78,AnglinImage,TN,1466524208000.0,19556549
224749493,Nashville,,1490890175000.0,36.08,-86.72,Anita D,TN,1506892301000.0,19556549
202380875,Old Hickory,,1459274484000.0,36.25,-86.63,Anita Reed,TN,1476152713000.0,19556549
230489180,Nashville,,1498445668000.0,36.14,-86.81,Ann Tezak,TN,1498528430000.0,19556549
191512916,Hendersonville,,1506447319000.0,36.31,-86.66,Anne Evans,TN,1506447319000.0,19556549
121996852,Nashville,,1455597013000.0,36.09,-86.82,Anne Walker ,TN,1455597013000.0,19556549
200876709,Smyrna,,1457080439000.0,35.97,-86.51,Anneadria C. Greer  (Anne),TN,1457080439000.0,19556549
67254112,Smyrna,,1462484771000.0,35.97,-86.51,Annette,TN,1462484771000.0,19556549
201588011,Spring Hill,,1458089427000.0,35.76,-86.88,Annie,TN,1458089427000.0,19556549
195145131,Nashville,,1506718018000.0,36.17,-86.72,Annie,TN,1506718018000.0,19556549
222498565,Nashville,,1487735343000.0,36.08,-86.72,Annie Hallquist,TN,1487735343000.0,19556549
230280808,Hendersonville,,1498183536000.0,36.32,-86.61,Anthony,TN,1498183536000.0,19556549
227901641,Nashville,,1506976218000.0,36.15,-86.81,Anuz Razthala,TN,1506976218000.0,19556549
192501596,Murfreesboro,,1507873610000.0,35.82,-86.45,April Faircloth Collier,TN,1507873610000.0,19556549
225895863,Clarksville,,1492512084000.0,36.53,-87.34,April Lewis,TN,1492512084000.0,19556549
208453489,Nashville,,1467770114000.0,36.17,-86.78,April Meador,TN,1467770114000.0,19556549
227496236,Nashville,,1494668571000.0,36.08,-86.72,ARi Lyon,TN,1494668571000.0,19556549
223182167,Nashville,,1488721988000.0,36.1,-86.66,Arumai Zayas,TN,1488721988000.0,19556549
233305742,Hermitage,,1504740780000.0,36.19,-86.6,Ash Yenamandra,TN,1504740780000.0,19556549
204294527,Nashville,,1462034357000.0,36.17,-86.78,Ashish,TN,1463531077000.0,19556549
205361764,Madison,,1498539560000.0,36.26,-86.71,Ashleigh,TN,1498539560000.0,19556549
102037312,Nashville,,1470409010000.0,36.17,-86.78,Ashley,TN,1471915147000.0,19556549
205576520,Antioch,,1484588252000.0,36.04,-86.64,Ashley Little,TN,1484588252000.0,19556549
214804758,Portland,,1476281192000.0,36.57,-86.49,Ashley Lund,TN,1476281192000.0,19556549
201674723,Nashville,,1458219565000.0,36.06,-86.96,Ashley Moore ,TN,1460425010000.0,19556549
206714130,Nashville,,1465388969000.0,36.11,-86.86,Ashley Nicole Marshall,TN,1465388969000.0,19556549
206858217,Spring Hill,,1465583734000.0,35.76,-86.88,Ashley Pierre,TN,1465583734000.0,19556549
211770956,Nashville,,1472311370000.0,36.17,-86.78,Ashley Rose,TN,1472311370000.0,19556549
183163500,Unadilla,,1497833235000.0,32.26,-83.75,Ashley Sinyard,GA,1497833235000.0,19556549
205235974,Nashville,,1463365885000.0,36.08,-86.72,Ashlie Jeter,TN,1463365885000.0,19556549
207392336,Nashville,,1466319231000.0,36.17,-86.78,Ashton Harris,TN,1466319231000.0,19556549
229573848,Nashville,,1497294393000.0,36.11,-86.78,aubrey d,TN,1497294393000.0,19556549
216892447,Nashville,,1479480998000.0,36.13,-86.8,Ausra,TN,1498075898000.0,19556549
8313377,Nolensville,,1471756294000.0,35.94,-86.67,Autumn Key,TN,1471756294000.0,19556549
201972592,Nashville,,1458654104000.0,36.08,-86.72,Ayana Adams,TN,1458654104000.0,19556549
217516382,Nashville,,1480541754000.0,36.17,-86.78,Ayla Townsend,TN,1480632670000.0,19556549
3772015,Burkesville,"Boulder, CO",1503004718000.0,36.81,-85.41,Bansi,KY,1503004718000.0,19556549
202494032,Murfreesboro,,1459442918000.0,35.87,-86.34,Barbara,TN,1459442918000.0,19556549
231865789,Adolphus,,1500112620000.0,36.67,-86.28,BARTORICO,KY,1500112620000.0,19556549
182123182,Franklin,,1470449924000.0,35.92,-86.89,Bassem Maurice,TN,1502241595000.0,19556549
202920568,Nashville,,1460054506000.0,36.17,-86.78,Bebo,TN,1460054506000.0,19556549
9964353,Nashville,,1473286646000.0,36.16,-86.79,Beck,TN,1494305168000.0,19556549
228396794,Nashville,,1495818410000.0,36.17,-86.78,Belen Padilla,TN,1495818410000.0,19556549
132316772,Murfreesboro,,1483445496000.0,35.87,-86.34,Bella Estrella,TN,1483445496000.0,19556549
216255534,Nashville,,1486679344000.0,36.07,-86.73,Ben blue,TN,1486679344000.0,19556549
197851564,Nashville,,1474161533000.0,36.17,-86.78,Benita Sheriff Maddox,TN,1485139536000.0,19556549
237872603,Nashville,,1506890221000.0,36.14,-86.81,Benjamin Christian,TN,1506890221000.0,19556549
10699793,New York,,1493985930000.0,40.76,-73.99,Bethany,NY,1493985930000.0,19556549
118100402,Hendersonville,Huntsville,1499907237000.0,36.32,-86.61,Bethany Boyer,TN,1499907237000.0,19556549
12911557,Nashville,nashville tn,1499655983000.0,36.17,-86.78,Bev Emrath Gearhart,TN,1499655983000.0,19556549
189117798,Nashville,,1493348416000.0,36.17,-86.78,Billy Brookshire,TN,1504235270000.0,19556549
208070232,Franklin,,1467243542000.0,35.92,-86.89,Bina Shukla,TN,1470687914000.0,19556549
212447013,Nashville,,1473218666000.0,36.14,-86.74,Blake Arledge,TN,1473218666000.0,19556549
204156801,Nashville,,1462116574000.0,36.17,-86.78,Blessing Oruma,TN,1462116574000.0,19556549
10477850,Nashville,,1508265805000.0,36.18,-86.74,bnmeintn,TN,1508265805000.0,19556549
70216122,Nashville,Nashville,1463767856000.0,36.16,-86.79,Bob,TN,1464032069000.0,19556549
216494258,Nashville,,1479037116000.0,36.17,-86.78,boiaryntseva,TN,1480352590000.0,19556549
34423222,Nashville,,1477453121000.0,36.1,-86.66,Bonni Mccliss,TN,1480991530000.0,19556549
208454857,Nashville,,1467771307000.0,36.17,-86.78,Brandi Atkins,TN,1467771307000.0,19556549
230413267,Nashville,,1498352798000.0,36.17,-86.79,Brandon Ikeman,TN,1498352798000.0,19556549
228025718,Nashville,,1495372881000.0,36.08,-86.72,Brandon Tucker,TN,1495372881000.0,19556549
207295484,Nashville,,1466184829000.0,36.17,-86.78,Brandy ,TN,1466184829000.0,19556549
223839735,Nashville,,1489625300000.0,36.15,-86.86,Brandy Jones,TN,1489625300000.0,19556549
226984291,Hermitage,,1493960538000.0,36.19,-86.6,Breanna Zapata,TN,1493960538000.0,19556549
133355872,Nashville,,1473978301000.0,36.17,-86.78,Bree,TN,1473978301000.0,19556549
237945957,Nashville,,1506972154000.0,36.16,-86.66,Brenda Hayes,TN,1506972154000.0,19556549
214554892,Reynoldsburg,,1503003272000.0,39.96,-82.78,Brennan Wills,OH,1504293363000.0,19556549
209963734,Nashville,,1469749987000.0,36.17,-86.78,Brian,TN,1469749987000.0,19556549
230522449,Nashville,,1502736742000.0,36.17,-86.78,Brian Patterson,TN,1502736742000.0,19556549
214360047,Murfreesboro,,1475636662000.0,35.87,-86.34,Brian Patterson,TN,1476227880000.0,19556549
212028545,Nashville,,1472657564000.0,36.06,-86.96,Brian Scott Jones,TN,1472657564000.0,19556549
209539298,Gallatin,,1469198354000.0,36.39,-86.45,Bridget,TN,1469198354000.0,19556549
220084945,Goodlettsville,"Lawrenceburg, TN",1500333981000.0,36.32,-86.72,Bridgette Wallace,TN,1500568560000.0,19556549
122666992,Nashville,,1503018712000.0,36.15,-86.68,Brieanna Davis-Little,TN,1506437566000.0,19556549
223858171,Nashville,,1489655331000.0,36.16,-86.79,Brijesh Patel,TN,1495026196000.0,19556549
233991262,Nashville,,1502675387000.0,36.17,-86.78,Brit Van Laeken,TN,1502675387000.0,19556549
189813772,Nashville,,1458796932000.0,36.13,-86.8,Britni,TN,1507418420000.0,19556549
230220310,Nashville,,1498104041000.0,36.08,-86.72,Britt Todd,TN,1498104041000.0,19556549
181369272,Hermitage,"Paris, TN",1508805681000.0,36.19,-86.6,Brittany,TN,1508805681000.0,19556549
155028052,La Vergne,jasper tn,1478081409000.0,36.01,-86.57,Brittany Pickett,TN,1478081409000.0,19556549
238098973,Nashville,,1507139978000.0,36.11,-86.86,Brittany Wyville,TN,1507139978000.0,19556549
207130412,Nashville,Detroit,1465948738000.0,36.17,-86.78,Brittney,TN,1488668344000.0,19556549
218200194,Hermitage,Mount Juliet,1481744859000.0,36.19,-86.6,Bryan Saums,TN,1481744859000.0,19556549
196777936,Hermitage,,1484174837000.0,36.19,-86.6,c ushry,TN,1506301364000.0,19556549
205361768,Nashville,,1463526430000.0,36.06,-86.96,Cait Cole,TN,1463526430000.0,19556549
225402801,Nashville,,1491839636000.0,36.1,-86.66,Caitlin ,TN,1491839636000.0,19556549
229824484,Nashville,,1497622217000.0,36.17,-86.78,Caitlin Carlson,TN,1497622217000.0,19556549
232805369,Nashville,,1501271335000.0,36.17,-86.78,Caitlin Mudd,TN,1501271335000.0,19556549
215144900,Nashville,,1476764821000.0,36.14,-86.81,Caitlin Peterson,TN,1476764821000.0,19556549
205939586,Westmoreland,,1464323195000.0,36.57,-86.22,Caleigh Graves,TN,1464323195000.0,19556549
20079631,Washington,East Lansing,1460684446000.0,38.91,-77.02,Candace Hines,DC,1460918067000.0,19556549
227924568,Nashville,,1495226683000.0,36.06,-86.96,Candace M Winters ,TN,1495226683000.0,19556549
233426938,Nashville,,1505963643000.0,36.15,-86.81,Candice Ardoin,TN,1507387919000.0,19556549
821311,Nashville,,1501727571000.0,36.17,-86.78,candiceraines,TN,1501727571000.0,19556549
229608325,Madison,,1497332994000.0,36.26,-86.71,Carey Wilson,TN,1497332994000.0,19556549
94963002,Nashville,,1465009304000.0,36.17,-86.78,Caridad Tapia,TN,1465009304000.0,19556549
205776213,Lebanon,,1464099400000.0,36.21,-86.31,Carina Sawyer,TN,1464099400000.0,19556549
212537923,Nashville,,1473351037000.0,36.21,-86.69,Carissa,TN,1473351037000.0,19556549
206507631,Nashville,,1465128209000.0,36.05,-86.67,Carl D ,TN,1466112232000.0,19556549
221136540,Nashville,,1485921384000.0,36.09,-86.82,Carrie Berry,TN,1485921384000.0,19556549
47740002,Nashville,,1467644506000.0,36.21,-86.72,carrie carlton,TN,1467644506000.0,19556549
228605401,Nashville,,1496096536000.0,36.19,-86.8,Casey Funtal,TN,1496096536000.0,19556549
238594431,Nashville,,1507667152000.0,36.07,-86.78,Cassandra Renee French,TN,1507667152000.0,19556549
213951450,Nashville,,1475581756000.0,36.17,-86.78,Cassidy Mitchiner,TN,1484064339000.0,19556549
12128207,Franklin,"Columbia, SC",1508023726000.0,35.93,-86.81,Catherine,TN,1508023726000.0,19556549
230736743,Nashville,,1498749603000.0,36.06,-86.96,Catherine Claire Gatzimos,TN,1498749603000.0,19556549
233482283,Barcelona,,1508086367000.0,41.4,2.17,Catherine K.,,1508086367000.0,19556549
210643261,Niota,,1470701049000.0,35.51,-84.55,Catherine Thomas,TN,1470722248000.0,19556549
164969292,Nashville,,1455538609000.0,36.08,-86.72,Catheryn Barber,TN,1455538609000.0,19556549
238131828,Nashville,,1507174108000.0,36.08,-86.72,CathyLee,TN,1507174108000.0,19556549
48990822,Nashville,,1455496122000.0,36.16,-86.79,Cayce Harlow,TN,1466945500000.0,19556549
211614560,Murfreesboro,,1472081934000.0,35.78,-86.33,Cbell,TN,1472081934000.0,19556549
206844200,Franklin,,1465565318000.0,35.92,-86.89,Chad H,TN,1465565318000.0,19556549
224452988,Murfreesboro,,1490481199000.0,35.82,-86.45,Chad Holt,TN,1490481199000.0,19556549
218668159,Franklin,,1482701405000.0,35.93,-86.81,Chaitanya Pawar,TN,1482705530000.0,19556549
208821038,Murray,,1468261209000.0,36.62,-88.25,Chaney Beth,KY,1468261209000.0,19556549
222836738,Nashville,,1488243840000.0,36.13,-86.8,Charissa Ulrich,TN,1498788914000.0,19556549
5129031,Nashville,Nashville,1474424548000.0,36.11,-86.86,Charles,TN,1474424548000.0,19556549
5216038,Hendersonville,Hendersonville,1504113344000.0,36.32,-86.61,Charles,TN,1506880453000.0,19556549
185609845,Nashville,Oakfield,1502639833000.0,36.13,-86.67,Charli Crocker,TN,1502639833000.0,19556549
178319092,Nashville,,1457837771000.0,36.18,-86.74,Charlie Garcia,TN,1507305099000.0,19556549
207413812,Antioch,,,36.04,-86.64,,TN,,19556549
208270091,Nashville,,1467529569000.0,36.08,-86.72,Charray Kennedy,TN,1467529569000.0,19556549
215818556,Rockvale,,1477789468000.0,35.76,-86.55,Chelsea Telebrico,TN,1477789468000.0,19556549
210093392,Hermitage,,1469930462000.0,36.19,-86.6,Cherith,TN,1469930462000.0,19556549
9676649,Smyrna,"Smyrna, TN",1473553063000.0,35.97,-86.51,Cheryl,TN,1478260321000.0,19556549
193777510,Nashville,,1498061073000.0,36.16,-86.78,Chris,TN,1498248730000.0,19556549
201504491,Nashville,,1457979761000.0,36.17,-86.78,Chris Baldwin,TN,1457979761000.0,19556549
14277790,Brentwood,"Westminster, MD",1483374789000.0,36.0,-86.79,Chris Dancy,TN,1484879474000.0,19556549
215899104,Nashville,,1477928880000.0,36.11,-86.78,Chris Keshian,TN,1477928880000.0,19556549
232191396,Nashville,,1500506361000.0,36.22,-86.86,Chris Michaels,TN,1500506361000.0,19556549
231487378,Mount Juliet,,1508220207000.0,36.21,-86.52,Chris Powell,TN,1508220207000.0,19556549
210257704,Nashville,,1483931254000.0,36.17,-86.72,Chris Sipe,TN,1484270562000.0,19556549
210587090,Nashville,,1472235046000.0,36.17,-86.78,Chris W.,TN,1472235046000.0,19556549
6440691,Nashville,"Anaheim, CA",1458508038000.0,36.18,-86.74,Chrissy_Kirkwood_37206,TN,1507011127000.0,19556549
205341549,Nashville,,1469232555000.0,36.08,-86.72,Christie,TN,1469232555000.0,19556549
211130804,Dickson,,1471401665000.0,36.08,-87.43,christie phillips,TN,1471401665000.0,19556549
183166107,Brentwood,,1507902427000.0,36.0,-86.79,Christine,TN,1507902427000.0,19556549
226207184,Nashville,,1492915715000.0,36.17,-86.78,Christine Wilcox,TN,1492915715000.0,19556549
13630522,Nashville,,1474860453000.0,36.17,-86.78,Christopher,TN,1474860453000.0,19556549
212544424,Antioch,,1473353844000.0,36.17,-86.88,Christopher Greed,TN,1498081593000.0,19556549
200769567,Nashville,,1456948127000.0,36.06,-86.96,Christopher Pennell,TN,1457980895000.0,19556549
205416908,Nashville,,1463601344000.0,36.13,-86.8,Christy,TN,1464036437000.0,19556549
225983640,Manchester,,1492618151000.0,35.47,-86.08,Christy Hart,TN,1492618151000.0,19556549
229672964,Hermitage,,1497412078000.0,36.19,-86.6,Christy Whitworth,TN,1497412078000.0,19556549
189295688,Nashville,,1469312725000.0,36.17,-86.78,Chuck,TN,1469312725000.0,19556549
126757222,Nashville,,1479404900000.0,36.17,-86.78,Chuck Pfaff,TN,1483744924000.0,19556549
222215242,Nashville,,1487348773000.0,36.17,-86.78,chuck wofford,TN,1487348773000.0,19556549
4579315,Nashville,"Nashville, Tennessee",1504552357000.0,36.21,-86.72,Cindy,TN,1507073029000.0,19556549
231320697,Nashville,,1499466921000.0,36.08,-86.72,Claire Draghi,TN,1499466921000.0,19556549
209545853,Nashville,,1469205972000.0,36.17,-86.78,Clarisse Durnell,TN,1469205972000.0,19556549
209423268,Nashville,,1469038129000.0,36.17,-86.78,Clay Hodges,TN,1475850271000.0,19556549
237287107,Nashville,,1506238813000.0,36.17,-86.72,Clayton Watts,TN,1506566269000.0,19556549
236586790,Nashville,,1505490925000.0,36.16,-86.79,CNB,TN,1505490925000.0,19556549
82937792,Nashville,"Nashville, TN",1479174732000.0,36.08,-86.72,Colleen Craddock,TN,1481672180000.0,19556549
206628724,Gallatin,,1465280087000.0,36.39,-86.45,Colleen Lloyd,TN,1465280087000.0,19556549
128030252,Nashville,,1469581318000.0,36.17,-86.78,Colleen Plummer,TN,1469581318000.0,19556549
206457912,Nashville,,1465059445000.0,36.08,-86.72,Collin Honeycutt,TN,1465059445000.0,19556549
202176434,Nashville,,1458964142000.0,36.15,-86.86,Conner Haidle,TN,1458964142000.0,19556549
139341012,Woodlawn,,1508680686000.0,36.5,-87.54,Connie Pillow,TN,1508680686000.0,19556549
201699067,New York,,1458251756000.0,40.75,-73.99,Constance McKee,NY,1458251756000.0,19556549
195335106,Smyrna,,1455587150000.0,35.97,-86.51,CoreFlow,TN,1465134132000.0,19556549
186394449,Nashville,Brentwood,1459648696000.0,36.08,-86.72,Courtney,TN,1475988381000.0,19556549
206232337,Hendersonville,,1464742216000.0,36.32,-86.61,Courtney,TN,1468074135000.0,19556549
208853895,Nashville,,1468294928000.0,36.17,-86.78,Courtney Jones,TN,1468294928000.0,19556549
203585243,Hermitage,,1461000257000.0,36.19,-86.6,Courtney Sample,TN,1461000257000.0,19556549
217176537,Franklin,,1479940806000.0,35.93,-86.81,Craig Parker,TN,1483720093000.0,19556549
224621080,Nashville,,1490713531000.0,36.21,-86.72,Crystal Brown,TN,1490713531000.0,19556549
211050959,Nashville,,1471292709000.0,36.17,-86.78,Cyrus Graham Peterson,TN,1471292709000.0,19556549
185474763,Nashville,,1473312298000.0,36.17,-86.78,D,TN,1473312298000.0,19556549
208920118,Nashville,,1468378339000.0,36.17,-86.78,Dan Wilson,TN,1482344167000.0,19556549
13273531,Smyrna,,1473524218000.0,35.97,-86.51,Dana,TN,1475070988000.0,19556549
222489061,Nashville,,1487721803000.0,36.17,-86.78,Dana,TN,1487721803000.0,19556549
236066631,Nashville,,1504985419000.0,36.06,-86.96,Dana Bomgardner,TN,1504985419000.0,19556549
237602657,Nashville,,1506577304000.0,36.17,-86.78,Dana Laine ,TN,1506577304000.0,19556549
214288417,Toronto,,1475554119000.0,43.74,-79.36,Daniel Bishara,ON,1504232287000.0,19556549
132806762,Nashville,"Grant, AL",1494633496000.0,36.14,-86.74,Daniel Sutphin,TN,1494633496000.0,19556549
233582279,Nashville,,1502209982000.0,36.17,-86.78,Danielle Gilbert,TN,1504780316000.0,19556549
194435923,Nashville,,1461509600000.0,36.18,-86.74,Dara Downs,TN,1461509600000.0,19556549
209136519,Nashville,,1468678187000.0,36.08,-86.72,darla jackson,TN,1468678187000.0,19556549
239324409,Nashville,,1508554405000.0,36.18,-86.74,Daton Hall,TN,1508554405000.0,19556549
235207377,Hermitage,,1504067991000.0,36.19,-86.6,davanh,TN,1504067991000.0,19556549
12925095,Nashville,Knoxville,1474832853000.0,36.21,-86.72,David Drake,TN,1474832853000.0,19556549
229102995,Madison,,1496705235000.0,36.26,-86.71,David Jay,TN,1496705235000.0,19556549
216092618,Murfreesboro,,1478213451000.0,35.85,-86.36,David Palomeque,TN,1478213451000.0,19556549
203961095,Woodbury,,1463613977000.0,35.81,-86.07,David Piper,TN,1463613977000.0,19556549
134073882,Nashville,,1467865705000.0,36.17,-86.78,David Prochaska,TN,1475604484000.0,19556549
208923971,Christiana,,1468382684000.0,35.71,-86.36,David Wood,TN,1470703981000.0,19556549
26444852,Brentwood,Nashville,1455993167000.0,36.0,-86.79,Dawn,TN,1482277029000.0,19556549
229743553,White Bluff,,1497519075000.0,36.12,-87.23,Dawn Carr,TN,1497519075000.0,19556549
234363081,Nashville,,1503093864000.0,36.15,-86.79,Dawn Griffith,TN,1503093864000.0,19556549
12837584,Nashville,,1459807314000.0,36.1,-86.66,Dawn Pasha,TN,1459807314000.0,19556549
158848622,Nashville,,1498445783000.0,36.11,-86.78,Daynise,TN,1498445783000.0,19556549
9099804,Antioch,"Louisville, KY",1501024112000.0,36.04,-86.64,DC,TN,1501024112000.0,19556549
126860232,Nashville,Nashville,1460687014000.0,36.22,-86.77,De'Angela Alexander,TN,1460687014000.0,19556549
239129976,Nashville,,1508280091000.0,36.14,-86.81,Deanna Smith,TN,1508280091000.0,19556549
8234184,Nashville,Nashville,1463925320000.0,36.16,-86.79,Deb,TN,1494945345000.0,19556549
4873654,Nashville,Altoona,1455844589000.0,36.17,-86.72,Debbie,TN,1473386896000.0,19556549
233323542,Nashville,,1501914352000.0,36.17,-86.78,Debbie G,TN,1504364014000.0,19556549
192638317,Murfreesboro,,1475712856000.0,35.82,-86.45,Deborah ,TN,1482354299000.0,19556549
126051592,Nashville,,1467507556000.0,36.11,-86.72,Deborah Berrelleza,TN,1467507556000.0,19556549
234299767,Nashville,,1505083253000.0,36.17,-86.78,Deborah Walker,TN,1505083253000.0,19556549
202312442,Mount Juliet,,,36.17,-86.49,,TN,,19556549
186148103,Springfield,,1494153688000.0,36.52,-86.87,Demika Smith,TN,1494153688000.0,19556549
197779792,Nashville,,1475078604000.0,36.06,-86.96,Denis S,TN,1475078604000.0,19556549
208282034,Smyrna,Smyrna,1467550342000.0,35.97,-86.51,Denise C,TN,1468095000000.0,19556549
224881576,Nolensville,,1491081446000.0,35.94,-86.67,Denise Siegel,TN,1491081446000.0,19556549
202986500,Nashville,,1460150097000.0,36.11,-86.78,Denisse,TN,1460150097000.0,19556549
212337400,Goodlettsville,,1473086978000.0,36.32,-86.72,dennis,TN,1477709438000.0,19556549
200525163,Woodbourne,,1472334267000.0,41.81,-74.61,Derek,NY,1472334267000.0,19556549
206240795,Nashville,,1464752599000.0,36.11,-86.86,Derek Charles,TN,1464752599000.0,19556549
201298123,Mount Juliet,,1457693037000.0,36.22,-86.52,Devonne Barker,TN,1457693037000.0,19556549
202317635,Nashville,"Chickamauga, GA",1459909081000.0,36.17,-86.78,Dewayne,TN,1459909081000.0,19556549
231437637,Nashville,,1499612954000.0,36.17,-86.78,Dez-gemini Peace,TN,1499612954000.0,19556549
225630677,Nashville,,1492122136000.0,36.17,-86.78,Diana,TN,1492122136000.0,19556549
162591182,Nashville,,1468252020000.0,36.17,-86.78,Diana Sinziana Neculcea,TN,1483102937000.0,19556549
212511248,Mount Juliet,,1473303155000.0,36.21,-86.52,dianna arnold,TN,1475881164000.0,19556549
192268978,Nashville,,1471144884000.0,36.17,-86.78,Diego Castellon,TN,1471144884000.0,19556549
215122778,White House,,1476739923000.0,36.48,-86.69,Divina Hernandez,TN,1476739923000.0,19556549
233535972,Murfreesboro,,1502155268000.0,35.87,-86.44,Dolly Kumari,TN,1505249924000.0,19556549
214615945,Nashville,,1475993433000.0,36.18,-86.74,domi henderson,TN,1475993433000.0,19556549
204655705,Nashville,,1462558542000.0,36.08,-86.72,Dominique,TN,1462558542000.0,19556549
212294808,Murfreesboro,,1473025591000.0,35.87,-86.44,Don Sledge,TN,1473915060000.0,19556549
207263492,La Vergne,,1466212101000.0,36.01,-86.57,Donald Jones,TN,1472825231000.0,19556549
227488510,Nashville,,1494654935000.0,36.16,-86.79,donita oliver,TN,1494654935000.0,19556549
10389475,Nashville,Nashville,1455588437000.0,36.15,-86.86,Donna ,TN,1466202857000.0,19556549
78326902,Las Vegas,,1504883749000.0,36.14,-115.35,Donna Vazquez,NV,1504883749000.0,19556549
235355045,Goodlettsville,Nashville TN,1506645909000.0,36.33,-86.74,donna williams,TN,1506645909000.0,19556549
178951512,Dallas,,1468251101000.0,32.86,-96.75,Doran Senat,TX,1468251101000.0,19556549
230481260,Nashville,,1498436348000.0,36.19,-86.8,Douglas Hogan,TN,1498436348000.0,19556549
231185563,Hendersonville,,1500152036000.0,36.32,-86.61,Drew Williams,TN,1502492438000.0,19556549
201389984,Nashville,,1457822783000.0,36.17,-86.78,Dude,TN,1457822783000.0,19556549
207602606,Nashville,"Nashville, TN",1466607116000.0,36.17,-86.78,Dustin B,TN,1466607116000.0,19556549
212246335,Nashville,,1472959862000.0,36.17,-86.78,Dustin Riggle,TN,1472959862000.0,19556549
176720642,Nashville,,1496710516000.0,36.16,-86.79,dwen guydon,TN,1496710516000.0,19556549
203222490,Antioch,,1460479497000.0,36.04,-86.64,Dylan Buc,TN,1460479497000.0,19556549
208309222,Madison,,1467581585000.0,36.26,-86.71,E,TN,1476551998000.0,19556549
200506070,Nashville,,1456544164000.0,36.17,-86.78,Ebony Arnett,TN,1457199344000.0,19556549
6190232,Nashville,Nashville,1455582872000.0,36.11,-86.86,ed hogg,TN,1455582872000.0,19556549
192792326,Nashville,,1470748504000.0,36.17,-86.78,Edessa Yousefzadeh,TN,1470748504000.0,19556549
207826613,Nashville,,1466918220000.0,36.17,-86.78,Edna kemz,TN,1483569565000.0,19556549
204945437,Nashville,,1462976862000.0,36.17,-86.78,El Waters,TN,1462976862000.0,19556549
178676442,Nashville,,1460205808000.0,36.22,-86.77,Elaine,TN,1460205808000.0,19556549
220595441,Nashville,,1485243268000.0,36.17,-86.78,ELHILALY  EHIMIR,TN,1485243268000.0,19556549
208312378,Nashville,,1467585370000.0,36.17,-86.78,Eli,TN,1482368515000.0,19556549
81951732,Nashville,,1500058413000.0,36.17,-86.78,Elisa Beagle,TN,1500058413000.0,19556549
215137849,Brentwood,,1476755231000.0,36.0,-86.79,Elizabeth Ortlieb,TN,1476755231000.0,19556549
206108469,Franklin,,1464577934000.0,35.92,-86.89,Elizabeth Styron,TN,1464577934000.0,19556549
194719509,Nashville,,1497489352000.0,36.17,-86.78,Ellen Bailey,TN,1498135022000.0,19556549
208943190,Woodbury,,1468417244000.0,35.81,-86.07,Ellen Mckeon,TN,1468417244000.0,19556549
192967818,Nashville,"Atlanta, GA",1492702237000.0,36.08,-86.72,Ellie Hamilton,TN,1492702237000.0,19556549
186915844,Nashville,,1483067673000.0,36.17,-86.78,Elza Helena Soares,TN,1483067673000.0,19556549
206864951,Antioch,,1465591358000.0,36.17,-86.88,Emerald Mitchell,TN,1465591358000.0,19556549
239375126,Nashville,,1508564346000.0,36.17,-86.77,Emily,TN,1508564346000.0,19556549
203405501,Nashville,,1460744855000.0,36.17,-86.78,Emily,TN,1460744855000.0,19556549
209094762,Murfreesboro,,1468616688000.0,35.78,-86.33,Emily,TN,1477862715000.0,19556549
3796927,Hermitage,,1464061220000.0,36.19,-86.6,Emily,TN,1472634021000.0,19556549
219359431,Murfreesboro,,1483682985000.0,35.85,-86.36,Emily Darcy,TN,1483682985000.0,19556549
231686574,Nashville,,1499892149000.0,36.12,-86.82,Emily H,TN,1499892149000.0,19556549
212306666,Nashville,,1473040298000.0,36.13,-86.8,Emily Rose,TN,1473040298000.0,19556549
214973487,Nashville,,1476558596000.0,36.17,-86.78,Emmanuel Ogunkoya,TN,1476558596000.0,19556549
107960352,Brentwood,Brentwood,1501619214000.0,36.03,-86.77,Enam Haque,TN,1505423449000.0,19556549
214934204,Nashville,,1478280203000.0,36.08,-86.72,Enis Cirak,TN,1478280203000.0,19556549
130715062,Nashville,,1505951324000.0,36.17,-86.78,eric,TN,1507021329000.0,19556549
154445832,Nashville,"Nashville, tn",1456354018000.0,36.08,-86.72,Eric Johnson,TN,1456354018000.0,19556549
235472141,Nashville,,1504364420000.0,36.15,-86.86,Erica Johnson,TN,1504364420000.0,19556549
215366898,Nashville,,1477095263000.0,36.15,-86.79,Erica Smikes,TN,1477095263000.0,19556549
41985802,Brentwood,,1463321275000.0,36.0,-86.79,Erich Mahnke,TN,1477850247000.0,19556549
233168572,Mount Juliet,,1501724552000.0,36.21,-86.52,Erika,TN,1503837280000.0,19556549
202085695,Clarksville,,1461635310000.0,36.49,-87.23,Erin Bennett,TN,1468155844000.0,19556549
234876674,Nashville,,1503683391000.0,36.17,-86.78,Erin Lewis,TN,1503683391000.0,19556549
125022232,Nashville,,1491354379000.0,36.17,-86.78,Erin McIntyre,TN,1491354379000.0,19556549
220435869,Clarksville,,1485572919000.0,36.53,-87.35,Erne Aicilap,TN,1485572919000.0,19556549
218965320,Clarksville,,1483191185000.0,36.53,-87.35,Erwin Echavo,TN,1483191185000.0,19556549
218206029,Nashville,,1503689737000.0,36.11,-86.86,Eryn Haber,TN,1503689737000.0,19556549
204686178,Brandon,,1462602657000.0,32.28,-90.01,Evan Buford,MS,1463447339000.0,19556549
218940464,Nashville,,1483143671000.0,36.09,-86.82,Everett Torpey,TN,1483143671000.0,19556549
233809138,Nashville,,1502458589000.0,36.17,-86.78,Eye'am Kandake,TN,1504263140000.0,19556549
201830315,Smyrna,,1458444146000.0,35.97,-86.51,Fahim,TN,1458444146000.0,19556549
203749137,Murfreesboro,,1466407193000.0,35.87,-86.34,Faith,TN,1478221495000.0,19556549
222281094,Nashville,,1487443391000.0,36.16,-86.66,Fen Aisling,TN,1487443391000.0,19556549
237392263,Nashville,,1506356237000.0,36.16,-86.79,Fernanda Eliott,TN,1506356237000.0,19556549
147792012,Murfreesboro,,1471645626000.0,35.82,-86.45,Fonda Carpenter,TN,1471645626000.0,19556549
205104317,Madison,,1463193305000.0,36.26,-86.71,Funguy84,TN,1463193305000.0,19556549
207880143,Franklin,,1466989406000.0,35.92,-86.89,Ganesamoorthy,TN,1466989406000.0,19556549
218395158,Clarksville,,1482124758000.0,36.53,-87.34,Garland Cain,TN,1482124758000.0,19556549
205795282,Franklin,,1464122702000.0,35.93,-86.81,Garrett,TN,1470868215000.0,19556549
112928312,Hendersonville,Hendersonville,1493580511000.0,36.32,-86.61,Gary,TN,1493580511000.0,19556549
162468582,Nashville,,1487733019000.0,36.17,-86.78,Gau,TN,1487733019000.0,19556549
220422771,Nashville,,1485154162000.0,36.17,-86.78,Gem Davis,TN,1489119280000.0,19556549
187993859,Nashville,,1480418465000.0,36.18,-86.74,Gerald Pitts,TN,1502239536000.0,19556549
224519925,Clarksville,,1490576502000.0,36.53,-87.35,Gi Class,TN,1490576502000.0,19556549
237984856,Nashville,,1507014069000.0,36.18,-86.81,Gina,TN,1507014069000.0,19556549
204006929,Austin,,1461606270000.0,30.22,-97.75,Ginger Latham,TX,1464723392000.0,19556549
209362932,Nashville,,1468959026000.0,36.11,-86.78,Ginny Welsch,TN,1468959026000.0,19556549
223465784,Hermitage,,1489105006000.0,36.19,-86.6,Giulia Vernaschi,TN,1489105006000.0,19556549
226247119,Greenbrier,,1492973010000.0,36.43,-86.8,Glenda Stephens,TN,1504323401000.0,19556549
94776102,Indianapolis,,1472489128000.0,39.66,-86.1,Grace,IN,1472489128000.0,19556549
219696007,Nashville,,1484102260000.0,36.17,-86.78,Graham,TN,1484102260000.0,19556549
184651664,Brentwood,,1489025807000.0,36.0,-86.79,Greg Hick,TN,1489025807000.0,19556549
208689759,Nashville,,1468090452000.0,36.17,-86.78,Gus Macdonald,TN,1468090452000.0,19556549
200904231,Nashville,,1457186114000.0,36.16,-86.79,Hal Mitch,TN,1457186114000.0,19556549
191811830,Dickson,,1456759410000.0,36.08,-87.43,Haleigh Sadler,TN,1479260806000.0,19556549
217090867,Nashville,,1479790097000.0,36.22,-86.86,Haley Stone,TN,1479790097000.0,19556549
214283308,Nashville,,1475547674000.0,36.08,-86.72,Haluk Alk??,TN,1475547674000.0,19556549
209105164,Nashville,,1468629106000.0,36.17,-86.78,Hampton,TN,1477597866000.0,19556549
224779738,Nashville,,1490928036000.0,36.09,-86.82,Hanah Papp,TN,1490928036000.0,19556549
213367885,Nashville,,1474423033000.0,36.13,-86.8,Hannah,TN,1475707261000.0,19556549
206869851,Nashville,,1465597380000.0,36.17,-86.78,Hannah Glenn,TN,1493837838000.0,19556549
201017480,New York,,,40.75,-73.99,,NY,,19556549
230133166,Franklin,,1498012394000.0,35.93,-86.84,Hannah Lovejoy,TN,1499808495000.0,19556549
210058571,Nashville,,1482353057000.0,36.17,-86.78,Hannah Potts,TN,1482353057000.0,19556549
230553503,Nashville,,1498523958000.0,36.14,-86.74,Hannah Robison,TN,1498523958000.0,19556549
206997201,Nashville,Nashville,1465771694000.0,36.11,-86.86,Harding McCall,TN,1477576914000.0,19556549
228355034,Nashville,,1495754402000.0,36.08,-86.72,Harikumar Challa,TN,1507122665000.0,19556549
205679523,Nashville,,1463964651000.0,36.17,-86.78,Harper Ganick,TN,1463964651000.0,19556549
233872016,Thompsons Station,,1502534213000.0,35.8,-86.9,Hayley,TN,1502534213000.0,19556549
208190662,Franklin,,1467417623000.0,35.93,-86.81,heather,TN,1476061146000.0,19556549
217933284,Hendersonville,,1481258996000.0,36.32,-86.61,Heather Lea,TN,1481258996000.0,19556549
215482346,Nashville,,1477271432000.0,36.17,-86.78,Heather Roe,TN,1477271432000.0,19556549
148239312,Old Hickory,Nashville,1497148527000.0,36.25,-86.63,Heidi,TN,1497148527000.0,19556549
221626990,Madison,,1486534892000.0,36.19,-86.74,Helen Russell,TN,1486534892000.0,19556549
199371759,Nashville,,1473482982000.0,36.16,-86.79,Herdi Rahman,TN,1474389364000.0,19556549
202967027,Nashville,,1460126109000.0,36.18,-86.74,Hi There,TN,1487506241000.0,19556549
217572070,Nashville,,1480638784000.0,36.11,-86.86,Hollie Ann,TN,1480638784000.0,19556549
212043415,Nashville,,1488504573000.0,36.07,-86.73,Holly molly,TN,1488504573000.0,19556549
234590863,Nashville,,1503357129000.0,36.15,-86.86,Hope Gant,TN,1503357129000.0,19556549
174889032,Nashville,,1457258937000.0,36.17,-86.78,Howard Jones,TN,1466163196000.0,19556549
235999225,Nashville,,1504911063000.0,36.08,-86.72,Ileana Marie,TN,1504911063000.0,19556549
220366940,Nashville,,1484952827000.0,36.17,-86.78,Indigo Harris,TN,1484952827000.0,19556549
230309457,Nashville,,1498224405000.0,36.15,-86.81,Indu Bal,TN,1498224405000.0,19556549
231253444,Nashville,,1499386666000.0,36.17,-86.78,Infinity Essence,TN,1499386666000.0,19556549
184777575,Mc Minnville,,1455227407000.0,35.68,-85.78,Inner Engineering,TN,1504274217000.0,19556549
59543352,Nashville,,1469391180000.0,36.13,-86.8,Irene Popa,TN,1469391180000.0,19556549
206781372,Nashville,,1465485651000.0,36.17,-86.78,Isabel,TN,1465485651000.0,19556549
236343325,Nashville,,1505254819000.0,36.17,-86.78,Isabel Barnett,TN,1505306624000.0,19556549
210013317,Nashville,,1470162301000.0,36.17,-86.78,Issam Bahour,TN,1470763976000.0,19556549
220887460,Franklin,,1485620561000.0,35.92,-86.89,J Brinker,TN,1485620561000.0,19556549
208169599,Hermitage,,1467388901000.0,36.19,-86.6,J Slade Hurd,TN,1467388901000.0,19556549
229859189,Franklin,,1497662407000.0,35.93,-86.81,Jaahnavi,TN,1497662407000.0,19556549
230873941,Nashville,,1498928545000.0,36.15,-86.8,Jabari,TN,1498928545000.0,19556549
234343748,Nashville,,1503084187000.0,36.17,-86.78,Jackie Lazzaro,TN,1503975525000.0,19556549
211732106,Flagstaff,,1472264871000.0,35.14,-111.63,Jacob Gibson,AZ,1472264871000.0,19556549
13912713,Nashville,Nashville,1469461605000.0,36.17,-86.78,Jacqueline Scully,TN,1469461605000.0,19556549
225614374,Nashville,,1492112964000.0,36.14,-86.81,Jada Bryan,TN,1492112964000.0,19556549
204019315,Nashville,,1461620989000.0,36.09,-86.82,Jake Barnes,TN,1461620989000.0,19556549
206910892,Johnstown,,1465658720000.0,40.34,-104.96,Jake Tomlinson,CO,1465658720000.0,19556549
227875181,Nashville,,1495156491000.0,36.08,-86.72,Jamaine Bell,TN,1495320534000.0,19556549
211869676,Nashville,,1508161649000.0,36.18,-86.74,James stevens,TN,1508601063000.0,19556549
210318886,Nashville,,1470240433000.0,36.17,-86.78,Jameyuh,TN,1470240433000.0,19556549
203192846,Murfreesboro,,1460433535000.0,35.87,-86.34,Jami Creel,TN,1460433535000.0,19556549
208736126,Nashville,,1468155759000.0,36.17,-86.78,Jami Hargrove,TN,1469540341000.0,19556549
237354879,Nashville,,1506311948000.0,36.17,-86.78,Jamica McGill,TN,1506311948000.0,19556549
203675687,Lafayette,,1461124903000.0,36.52,-86.02,Jamie,TN,1461124903000.0,19556549
203631629,Nashville,,1461068161000.0,36.15,-86.86,Jana,TN,1461068161000.0,19556549
184945474,Nashville,,1455501969000.0,36.16,-86.79,Janaye Williams,TN,1455510695000.0,19556549
181567662,Nashville,,1455633557000.0,36.19,-86.63,Jane,TN,1455844384000.0,19556549
236038853,Nashville,,1504968174000.0,36.17,-86.78,jane prizzi,TN,1506974853000.0,19556549
181531312,Nashville,Nashville,1476933880000.0,36.08,-86.72,Janet Wyatt,TN,1492737279000.0,19556549
203256623,Antioch,,1460520499000.0,36.04,-86.64,Janetta Williams,TN,1460520499000.0,19556549
205796318,Smyrna,,1464124026000.0,35.97,-86.51,Janice,TN,1466557302000.0,19556549
195183854,Pleasant View,,1455572602000.0,36.38,-87.04,Janna Phillips,TN,1506887640000.0,19556549
222899804,Nashville,,1488303241000.0,36.17,-86.78,Jaquelin,TN,1488303241000.0,19556549
33669812,Nashville,Los Angeles,1502522260000.0,36.16,-86.79,Jasmine,TN,1502522260000.0,19556549
208700564,Nashville,,1468103450000.0,36.07,-86.73,Jasmine,TN,1471792542000.0,19556549
205424920,Nashville,,1463610477000.0,36.17,-86.78,Jason Alan,TN,1463610477000.0,19556549
208440190,Nashville,Nashville,1467754540000.0,36.09,-86.82,Jason Bates,TN,1467754540000.0,19556549
144186562,Mount Juliet,,1466437551000.0,36.21,-86.52,Jason Minton,TN,1469018558000.0,19556549
11258314,Nashville,,1502719631000.0,36.16,-86.79,JC,TN,1502719631000.0,19556549
221181978,Chapmansboro,,1485983094000.0,36.37,-87.14,Jc Martinez,TN,1485983094000.0,19556549
184999379,Old Hickory,,1503774927000.0,36.25,-86.63,Jeannie Timberlake,TN,1506952205000.0,19556549
154986032,Nashville,,1455500362000.0,36.17,-86.78,JEAST49,TN,1463615643000.0,19556549
8655376,Nashville,,1505177188000.0,36.17,-86.78,Jeff,TN,1505177188000.0,19556549
217424606,Hermitage,,1480388643000.0,36.19,-86.6,Jeff Bjorklund (swedishjeff),TN,1480388643000.0,19556549
147518322,Nashville,,1485286556000.0,36.17,-86.78,Jeff Hardaway,TN,1485286556000.0,19556549
42021602,Nashville,,1457578455000.0,36.13,-86.8,Jeff Livak,TN,1457578455000.0,19556549
210631553,Nashville,,1470687339000.0,36.06,-86.96,Jen Simon,TN,1504289008000.0,19556549
69235212,Nashville,,1504295788000.0,36.17,-86.78,Jenna,TN,1504295788000.0,19556549
229963034,Clarksville,,1497813831000.0,36.49,-87.23,Jenna Davis,TN,1497813831000.0,19556549
217759088,Murfreesboro,,1480965664000.0,35.85,-86.36,Jenna Lucente,TN,1480965664000.0,19556549
7325785,Nashville,,1492813839000.0,36.11,-86.86,Jenna Rose,TN,1492819093000.0,19556549
212513642,Clarksville,,1473307328000.0,36.53,-87.35,Jennifer Barlow,TN,1473307328000.0,19556549
200917973,Nashville,,1457141073000.0,36.06,-86.96,Jennifer Bisio,TN,1457141073000.0,19556549
205967593,Hendersonville,,1464372596000.0,36.32,-86.61,Jennifer Hanna ,TN,1464372596000.0,19556549
208678123,Springfield,"San Angelo, TX",1468079646000.0,36.52,-86.87,Jennifer JT,TN,1468079646000.0,19556549
76722082,Nashville,Murfreesboro,1469829841000.0,36.22,-86.86,Jennifer K,TN,1475075084000.0,19556549
211060628,Nashville,,1471368570000.0,36.17,-86.78,Jennifer Knowles,TN,1471368570000.0,19556549
221738457,Madison,,1486680747000.0,36.26,-86.71,Jennifer Masterson,TN,1486680747000.0,19556549
210981078,Hendersonville,"Chino, CA",1471196806000.0,36.32,-86.61,Jennifer Meier,TN,1474125827000.0,19556549
113528122,Smyrna,Fort Worth ,1506878004000.0,35.94,-86.54,Jennifer Prien,TN,1506878004000.0,19556549
205815556,Buford,,1473204190000.0,34.12,-84.03,Jennifer Robinson,GA,1483912646000.0,19556549
200432045,Chattanooga,Chattanooga ,1475869687000.0,35.04,-85.31,Jenny,TN,1475869687000.0,19556549
95599772,Nashville,,1471957678000.0,36.1,-86.66,Jenny,TN,1471957678000.0,19556549
203231470,Spring Hill,,1460489562000.0,35.76,-86.88,Jenny Binkley,TN,1460489562000.0,19556549
183110694,Nashville,,1470623109000.0,36.17,-86.78,Jeremiah,TN,1470776134000.0,19556549
191709519,Nashville,,1455590853000.0,36.15,-86.86,Jerry,TN,1507511982000.0,19556549
214942857,Nashville,,1476478521000.0,36.17,-86.78,Jesalyn,TN,1476478521000.0,19556549
206759499,Joelton,,1465440404000.0,36.33,-86.91,Jess,TN,1465440404000.0,19556549
207895223,Nashville,,1467011221000.0,36.17,-86.72,Jessica,TN,1467011221000.0,19556549
206376091,Nashville,,1464946763000.0,36.17,-86.78,Jessica,TN,1464946763000.0,19556549
231379450,Hendersonville,,1499541523000.0,36.32,-86.61,Jessica ,TN,1499541523000.0,19556549
120698172,Nashville,,1494614933000.0,36.17,-86.72,Jessica Baldwin,TN,1494614933000.0,19556549
219051545,Nashville,,1483324043000.0,36.08,-86.72,Jessica Cagle,TN,1483324043000.0,19556549
231180727,Smyrna,,1499298250000.0,35.97,-86.51,Jessica Christine Gedeon,TN,1499298250000.0,19556549
225376526,Nashville,,1491793160000.0,36.22,-86.77,Jessica Daniels,TN,1491793160000.0,19556549
11615085,Hendersonville,,1464132618000.0,36.32,-86.61,Jessica Dollar,TN,1466519140000.0,19556549
232864668,Murfreesboro,,1501349851000.0,35.82,-86.45,Jessica Foster,TN,1506910960000.0,19556549
213894701,Nashville,,1475097194000.0,36.17,-86.78,Jessica Grace Drew,TN,1505542727000.0,19556549
59475472,Nashville,,1506611616000.0,36.08,-86.72,Jessica Jernigan,TN,1507644234000.0,19556549
232604353,Nashville,,1501018135000.0,36.17,-86.78,Jessica Jones,TN,1501018135000.0,19556549
193569128,Clarksville,,1482974076000.0,36.53,-87.35,Jessica Lowe,TN,1482974076000.0,19556549
14645431,Nashville,Boston,1459576183000.0,36.16,-86.79,Jessica Marchand,TN,1465072999000.0,19556549
213332598,Brentwood,,1474376733000.0,36.0,-86.79,Jessica Munford,TN,1474376733000.0,19556549
231687790,Nashville,,1499893642000.0,36.17,-86.78,Jessica Suchon,TN,1499893642000.0,19556549
67908072,Potwin,,1461147911000.0,37.94,-97.02,Jessica Wilson,KS,1461147911000.0,19556549
201166141,Franklin,,1457493983000.0,35.92,-86.89,Jessie,TN,1457493983000.0,19556549
7089652,Franklin,Franklin,1495890403000.0,35.93,-86.81,Jie,TN,1507412638000.0,19556549
232588625,Nashville,,1501002537000.0,36.18,-86.74,Jill Huckels,TN,1501002537000.0,19556549
209249350,Nashville,,1468890946000.0,36.11,-86.86,Jill Shrum,TN,1469584684000.0,19556549
235519264,Nashville,,1504414915000.0,36.17,-86.78,Jill Stephens,TN,1504414915000.0,19556549
216811342,Nashville,,1479345449000.0,36.16,-86.79,Jill Stockton,TN,1479345449000.0,19556549
196267339,Nashville,,1462827781000.0,36.08,-86.72,Jim Sippo Cipollini,TN,1480775490000.0,19556549
212287293,Nashville,,1473020263000.0,36.17,-86.78,Jingyi Yan,TN,1473020263000.0,19556549
9565551,Nashville,,1455509784000.0,36.17,-86.72,joann lagace,TN,1455509784000.0,19556549
218054797,Nashville,,1481485381000.0,36.16,-86.79,Joann Young,TN,1481485381000.0,19556549
207387957,Saint Louis,,1475967430000.0,38.63,-90.19,Joanne Song,MO,1475967430000.0,19556549
210884081,Smyrna,,1471050417000.0,35.97,-86.51,Jodie Stovall,TN,1471050417000.0,19556549
210633543,Nashville,,1470689629000.0,36.15,-86.8,Joe,TN,1470689629000.0,19556549
220226916,Nashville,,1484773300000.0,36.14,-86.74,Joe Wol,TN,1485410139000.0,19556549
8610830,Nashville,,1502506787000.0,36.17,-86.78,Joey,TN,1507219357000.0,19556549
14308592,Murfreesboro,Murfreesboro,1503315207000.0,35.87,-86.34,Joey McGuire,TN,1503315207000.0,19556549
223505674,Nashville,,1489167825000.0,36.15,-86.86,John Bohlinger,TN,1489596052000.0,19556549
49330332,Bowling Green,"Grand Canyon, AZ",1480362773000.0,37.02,-86.46,John Weatherbee,KY,1480362773000.0,19556549
224842788,Nashville,,1491023752000.0,36.07,-86.78,John Whittaker,TN,1491023752000.0,19556549
47084192,Nashville,,1508803221000.0,36.18,-86.74,Johnston Ayala,TN,1508803221000.0,19556549
193758415,Los Angeles,,1461290497000.0,33.97,-118.24,Joida Sarai,CA,1461290497000.0,19556549
207635397,Clarksville,,1466643315000.0,36.53,-87.35,Jojo,TN,1466648293000.0,19556549
225509283,Nashville,,1508472686000.0,36.08,-86.72,Jonathan Rogers,TN,1508472686000.0,19556549
203729867,Nashville,,1461198021000.0,36.17,-86.78,Jordan June Thompson,TN,1464181883000.0,19556549
195529583,Nashville,,1474217544000.0,36.17,-86.78,Joselyn,TN,1474217544000.0,19556549
184834815,Santa Monica,,1473794213000.0,34.02,-118.5,Josh,CA,1473794213000.0,19556549
234676455,Nashville,,1503454355000.0,36.17,-86.78,Josh Gull,TN,1504060981000.0,19556549
111792152,Linden,,1489063687000.0,38.02,-121.09,josh luck,CA,1489063687000.0,19556549
228647401,Franklin,,1496152467000.0,35.93,-86.84,Joshua Barbee,TN,1496152467000.0,19556549
226571338,Gallatin,,1493401381000.0,36.39,-86.45,Joshua Michael Sweatt,TN,1493401381000.0,19556549
183772703,Nashville,Brentwood,1462243050000.0,36.22,-86.77,JT,TN,1498690237000.0,19556549
220482593,Nashville,,1485111342000.0,36.13,-86.8,Judith Hill,TN,1485111342000.0,19556549
206542417,Chattanooga,,1465168332000.0,35.04,-85.31,Julia,TN,1465168332000.0,19556549
229804753,Nashville,,1507045473000.0,36.17,-86.78,Julia,TN,1508116693000.0,19556549
216633253,Nashville,,1479079834000.0,36.15,-86.79,Julia Racanelli,TN,1479079834000.0,19556549
209074193,Nashville,"Cleveland, OH ",1482231764000.0,36.17,-86.78,Julie,TN,1508675045000.0,19556549
203313430,Brentwood,,1460601629000.0,36.0,-86.79,Julie,TN,1460601629000.0,19556549
171635492,Nashville,,1477864742000.0,36.18,-86.81,Julie Anne,TN,1477864742000.0,19556549
37221402,Lebanon,Macon Ga,1455751042000.0,36.21,-86.31,Julie Grace,TN,1485319507000.0,19556549
131712502,Nashville,Reno ,1493732768000.0,36.14,-86.81,Julie Stavas,TN,1493732768000.0,19556549
52945962,Nashville,,1467656438000.0,36.17,-86.78,Julie Williams,TN,1467656438000.0,19556549
225335017,Antioch,Antioch,1491740175000.0,36.04,-86.64,Just Askme,TN,1491740175000.0,19556549
235435436,White House,,1504315812000.0,36.45,-86.68,Justin Greene,TN,1504315812000.0,19556549
230143696,Nashville,,1498026308000.0,36.09,-86.82,Justin Thompson,TN,1498026308000.0,19556549
108362432,Franklin,Michigan,1464027262000.0,35.93,-86.81,Justine,TN,1466190232000.0,19556549
177000932,Hermitage,,1496159970000.0,36.2,-86.61,JW,TN,1496159970000.0,19556549
227703106,Nashville,,1494949771000.0,36.17,-86.78,Kacie ,TN,1494949771000.0,19556549
222124762,Nashville,,1487217273000.0,36.13,-86.8,Kainani Littlejohn,TN,1487217273000.0,19556549
199008828,Nashville,,1455550676000.0,36.07,-86.73,Kaitlyn,TN,1457126497000.0,19556549
64190532,Nashville,,1467381544000.0,36.17,-86.78,Kalyn Kristoff,TN,1467381544000.0,19556549
209512723,Nashville,,1469154427000.0,36.17,-86.78,Kama Yvette Liberman,TN,1478092977000.0,19556549
229501200,Franklin,,1497206298000.0,35.93,-86.84,Kandace Ward,TN,1497206298000.0,19556549
80143102,Murfreesboro,,1498571073000.0,35.78,-86.33,Kara,TN,1498571073000.0,19556549
214273295,Nashville,,1477876122000.0,36.08,-86.72,Kara ,TN,1477876122000.0,19556549
215522657,Nashville,,1477334777000.0,36.11,-86.86,Kara Cooper,TN,1477334777000.0,19556549
5655924,Nashville,,1455539707000.0,36.17,-86.78,karen,TN,1507465553000.0,19556549
186766022,Nashville,Sewanee,1459179096000.0,36.13,-86.8,Karen A,TN,1462936531000.0,19556549
214054857,Nashville,,1475262534000.0,36.13,-86.67,Karen Burke,TN,1475262534000.0,19556549
212956787,Nashville,,1473891157000.0,36.08,-86.72,Karen H,TN,1473891157000.0,19556549
236263810,Chapmansboro,,1505183379000.0,36.37,-87.14,Karen Prichard Berglund,TN,1505183379000.0,19556549
106885952,Nashville,,1461248557000.0,36.06,-86.96,Karen Sliwowski,TN,1461248557000.0,19556549
214769824,Nashville,,1476222754000.0,36.13,-86.8,Kari Morse,TN,1476222754000.0,19556549
224208749,Nashville,,1490136891000.0,36.11,-86.78,Kate Evans,TN,1490136891000.0,19556549
66944752,Columbia,"Morgan Hill, CA",1484110580000.0,35.61,-87.05,Katerra Martin,TN,1484110580000.0,19556549
76421172,Nashville,,1506830541000.0,36.13,-86.78,Katherine Brick,TN,1508619924000.0,19556549
206351586,Nashville,,1464908626000.0,36.11,-86.78,Katherine Marena Munoz,TN,1464908626000.0,19556549
15362501,Franklin,,1464724350000.0,35.92,-86.89,Kathryn M,TN,1466220311000.0,19556549
206282306,Franklin,,1464815587000.0,35.92,-86.89,Kathy Greenberg,TN,1464880785000.0,19556549
198380237,Shelbyville,,1458857274000.0,35.48,-86.47,Kathy Perryman ,TN,1473693938000.0,19556549
227080817,Nashville,,1494164255000.0,36.15,-86.78,Katie Beth Miedaner,TN,1494164255000.0,19556549
188329840,Goodlettsville,,1462024906000.0,36.33,-86.74,Katie Lyons,TN,1476390167000.0,19556549
210218659,Clarksville,,1470097275000.0,36.56,-87.41,Katie Noles,TN,1478220511000.0,19556549
230635538,Nashville,,1498619173000.0,36.15,-86.86,Katie Quack,TN,1498619173000.0,19556549
224629422,Brentwood,,1491420950000.0,36.0,-86.79,Katie Rasmussen,TN,1491420950000.0,19556549
217037417,Nashville,,1479709646000.0,36.17,-86.78,Katie Schram,TN,1479709646000.0,19556549
199273151,Murfreesboro,,1489546866000.0,35.87,-86.44,Katrina Mckissick ,TN,1489546866000.0,19556549
208884915,Hendersonville,"Salem, IN",1468339234000.0,36.32,-86.61,Kay IAm,TN,1468339234000.0,19556549
204876193,Albany,,1468813518000.0,42.65,-73.75,Kay Lee,NY,1468813518000.0,19556549
59892862,Nashville,,1474007928000.0,36.13,-86.8,Kayla Bruyn,TN,1478359226000.0,19556549
202395347,Nashville,,1459292350000.0,36.16,-86.79,Kayla Rodgers,TN,1481482092000.0,19556549
108915282,Nashville,,1469912291000.0,36.17,-86.78,Kayla Thomas,TN,1469912291000.0,19556549
221887191,Murfreesboro,,1486900011000.0,35.87,-86.44,Kaylee Shania Bennett,TN,1486900011000.0,19556549
217108964,Nashville,,1479824206000.0,36.11,-86.78,Kaylee Urban,TN,1484325799000.0,19556549
189913930,Hermitage,,1487785797000.0,36.19,-86.6,Kayley Melton,TN,1487785797000.0,19556549
56997982,Nashville,"Springfield, IL",1479744608000.0,36.08,-86.72,Keegan Singh,TN,1480781326000.0,19556549
208189715,Pflugerville,,1487639436000.0,30.44,-97.63,Keirra Ewah,TX,1487639436000.0,19556549
210133063,Nashville,,1471223969000.0,36.17,-86.78,keith shields,TN,1471223969000.0,19556549
152877082,Nashville,,1463672358000.0,36.17,-86.78,Kelley,TN,1475593674000.0,19556549
232049979,Franklin,,1500337358000.0,35.93,-86.84,Kelley R,TN,1500337358000.0,19556549
7908284,Nashville,"nashville, tn",1498760950000.0,36.15,-86.86,kelly,TN,1499557401000.0,19556549
229873547,Nashville,,1497705146000.0,36.17,-86.78,Kelly Chaffin,TN,1497705146000.0,19556549
222236624,Mount Juliet,,1487887718000.0,36.22,-86.52,Kelly Walker,TN,1487887718000.0,19556549
202389001,Nashville,,1459284837000.0,36.16,-86.79,Kelsey Canfield,TN,1459284837000.0,19556549
210561881,Nashville,,1470594430000.0,36.17,-86.78,Kenneth,TN,1470634961000.0,19556549
189601160,Nashville,,,36.24,-86.74,,TN,,19556549
166572542,Nashville,,1464481725000.0,36.14,-86.74,Keri Ryan,TN,1507295197000.0,19556549
200790915,Nashville,,1456950834000.0,36.16,-86.86,Kesley Page,TN,1456950834000.0,19556549
3891728,Nashville,Nashville,1494431613000.0,36.19,-86.8,Kevin,TN,1494431613000.0,19556549
105094672,Nashville,,1507028304000.0,36.17,-86.78,Kevin,TN,1507028304000.0,19556549
214644389,Antioch,,1476038778000.0,36.04,-86.64,Kevin Bergsmith,TN,1476038778000.0,19556549
238163546,Nashville,,1508306737000.0,36.08,-86.72,Kevin Douglas,TN,1508306737000.0,19556549
197335395,Nashville,,1501708430000.0,36.09,-86.82,Kevin Pointer,TN,1501708430000.0,19556549
231089525,Nashville,,1499189240000.0,36.11,-86.78,Kevin Slattery,TN,1499189240000.0,19556549
216627343,Nashville,,1506952092000.0,36.22,-86.77,Khalia Taylor,TN,1506952092000.0,19556549
200812402,Ashland City,,1456979734000.0,36.28,-87.07,Khiara ,TN,1456979734000.0,19556549
224684372,Nashville,,1490800095000.0,36.06,-86.96,Kiely Brown,TN,1490800095000.0,19556549
201087582,Hendersonville,,1457384796000.0,36.32,-86.61,Kiesha Resha,TN,1457384796000.0,19556549
10856565,Nashville,,1466293146000.0,36.08,-86.72,Kim Cady,TN,1466293146000.0,19556549
208041192,Hendersonville,,1467209243000.0,36.32,-86.61,Kim Drogo Leacock,TN,1469398773000.0,19556549
224343876,Nashville,,1490324058000.0,36.21,-86.72,Kim Flory,TN,1490324058000.0,19556549
221101808,Nashville,,1486253693000.0,36.19,-86.8,Kimberly,TN,1486253693000.0,19556549
58539562,Nashville,"Nashville, TN",1459886811000.0,36.08,-86.72,Kimi  Urrutia,TN,1459886811000.0,19556549
210384129,Nashville,,1470431546000.0,36.17,-86.78,Kimi-Marie Mundell,TN,1471989439000.0,19556549
215524322,Nashville,,1477336016000.0,36.06,-86.96,Kirsten Siler,TN,1477336016000.0,19556549
220134814,Nashville,,1484668773000.0,36.17,-86.78,KK Cheek,TN,1484668773000.0,19556549
207191509,New York,,1466031999000.0,40.75,-73.99,Kossie Gardner,NY,1466031999000.0,19556549
212621817,Nashville,,1473621125000.0,36.17,-86.78,Krestofer,TN,1475327056000.0,19556549
23246451,Gallatin,"Sterling, IL",1457763490000.0,36.39,-86.45,Kris Wilson,TN,1457975942000.0,19556549
231948028,Murfreesboro,,1500218918000.0,35.78,-86.33,Krista,TN,1500218918000.0,19556549
235051806,Chapel Hill,,1503888215000.0,35.62,-86.62,Kristen,TN,1503888215000.0,19556549
213626839,Nashville,,1474758111000.0,36.17,-86.78,Kristi Wherry,TN,1474758111000.0,19556549
675332,Nashville,Nashville,1469652432000.0,36.17,-86.78,Kristie,TN,1479346514000.0,19556549
232306222,Nashville,,1503260893000.0,36.17,-86.78,Kristin,TN,1503260893000.0,19556549
234667357,Franklin,,1503441173000.0,35.92,-86.89,Kristin S,TN,1503441173000.0,19556549
146357642,Nashville,TN,1489447566000.0,36.09,-86.82,KT,TN,1504674962000.0,19556549
203426761,Nashville,,1461522701000.0,36.17,-86.78,KT Nelligan,TN,1461522701000.0,19556549
201083161,Nashville,,1459183789000.0,36.08,-86.72,Kumar,TN,1459183789000.0,19556549
220591128,Unionville,,1485236717000.0,35.62,-86.57,Kurt Blanton,TN,1485236717000.0,19556549
203516444,Mount Juliet,,1460906743000.0,36.21,-86.52,KW,TN,1460906743000.0,19556549
215005104,Fort Campbell,,1476570107000.0,36.65,-87.46,kwame FRIMPONG,KY,1476570107000.0,19556549
177758942,Nashville,"Apache, OK",1455634620000.0,36.22,-86.77,Kyla Cook,TN,1469026239000.0,19556549
227210681,Nashville,,1494276432000.0,36.09,-86.82,Kyle Mills,TN,1494276432000.0,19556549
233401363,Murfreesboro,,1502003786000.0,35.85,-86.4,Kylee Odom,TN,1502746837000.0,19556549
220220471,Nashville,,1484797278000.0,36.11,-86.78,Kylieanyce,TN,1488767292000.0,19556549
216867961,Antioch,,1479434283000.0,36.04,-86.64,L F,TN,1479434283000.0,19556549
204369511,Nashville,,1462143147000.0,36.18,-86.74,L Skylar Pochatko,TN,1462143147000.0,19556549
214832304,Nashville,,1476316679000.0,36.07,-86.73,Lacey Rudisill,TN,1476316679000.0,19556549
173879692,Nashville,Nashville,1461339191000.0,36.07,-86.78,Lacie Daye,TN,1461339191000.0,19556549
203784930,Smyrna,,1461280813000.0,35.97,-86.51,Lacy,TN,1461280813000.0,19556549
209226548,Franklin,,1468806492000.0,35.92,-86.89,Ladoska,TN,1481730131000.0,19556549
236854594,Nashville,,1505765384000.0,36.17,-86.72,Lakissha Taylor,TN,1505765384000.0,19556549
115765052,Madison,,1500446050000.0,36.25,-86.71,LaLa ,TN,1500446050000.0,19556549
203247062,Franklin,,1460508117000.0,35.92,-86.89,Lana Zivanovic,TN,1460508117000.0,19556549
3346031,Nashville,,1508570279000.0,36.11,-86.78,Lara Palmer,TN,1508570279000.0,19556549
226128410,Thompsons Station,thompson station,1492813115000.0,35.8,-86.9,Larry Gooden,TN,1493208182000.0,19556549
221762931,Nashville,,1486718756000.0,36.17,-86.78,Larry McDonald,TN,1486718756000.0,19556549
230440580,Franklin,,1498390051000.0,35.93,-86.81,Latha Huttanna,TN,1498390051000.0,19556549
222288505,Franklin,,1492382336000.0,35.93,-86.83,Latish Khubnani,TN,1504365847000.0,19556549
205367504,Nashville,,1464237909000.0,36.17,-86.72,Laura ,TN,1464237909000.0,19556549
90808822,Old Hickory,,1480955587000.0,36.25,-86.63,Laura,TN,1480955587000.0,19556549
210099988,Spring Hill,,1469939207000.0,35.76,-86.88,Laura Bieger Weeks,TN,1469939207000.0,19556549
235930217,Brentwood,,1504837008000.0,36.0,-86.79,Laura Kelsey Bartlett,TN,1504837008000.0,19556549
197648259,Nashville,,1485756497000.0,36.17,-86.78,Laura Scott,TN,1485756497000.0,19556549
201251504,Antioch,,1457625724000.0,36.04,-86.64,Lauren,TN,1459081755000.0,19556549
211956406,Nashville,,1472561797000.0,36.17,-86.78,Lauren,TN,1472561797000.0,19556549
230378546,Nashville,,1505673488000.0,36.17,-86.78,Lauren,TN,1505673488000.0,19556549
203782136,Nashville,,1461276774000.0,36.16,-86.79,Lauren Muscato,TN,1461276774000.0,19556549
203782934,Nashville,,1461278189000.0,36.15,-86.79,Lauren Muscato,TN,1461278189000.0,19556549
214988618,Nashville,,1476550606000.0,36.06,-86.96,Lauren Myers,TN,1476820110000.0,19556549
202874907,Hendersonville,,1459984484000.0,36.32,-86.61,Lauren P.,TN,1459984484000.0,19556549
220660160,Nashville,,1485317385000.0,36.08,-86.72,Lauren Van Daff,TN,1485317385000.0,19556549
227572269,Nashville,,1494778686000.0,36.17,-86.78,lavandermar,TN,1494778686000.0,19556549
210018340,Nashville,,1469829760000.0,36.17,-86.78,Layla,TN,1469829760000.0,19556549
214204915,Nashville,,1475448827000.0,36.17,-86.78,Leah Bluestone,TN,1475448827000.0,19556549
85282232,Honolulu,,1504203367000.0,21.35,-157.93,Leah DuBois,HI,1504203367000.0,19556549
232137196,Columbia,,1500440912000.0,35.61,-87.05,Leah Hayward,TN,1500440912000.0,19556549
7980746,Nashville,,1477606016000.0,36.18,-86.72,Leanne Ellington,TN,1503643982000.0,19556549
191666776,Nashville,,1462241221000.0,36.11,-86.86,Lee,TN,1496892627000.0,19556549
222589383,Nashville,,1487864469000.0,36.17,-86.78,Lee Ann ,TN,1487864469000.0,19556549
101443692,Nashville,"Ebenezer, Mississippi",1491235197000.0,36.11,-86.86,Leo Paul,TN,1491235197000.0,19556549
229802380,Nashville,,1497585073000.0,36.16,-86.77,Leshad Wilson,TN,1497585073000.0,19556549
217671241,Spring Hill,,1480813658000.0,35.76,-86.88,Lesli Franklin,TN,1480813658000.0,19556549
2838791,Nashville,,1467292666000.0,36.17,-86.78,Leslie,TN,1467292666000.0,19556549
214253208,Nashville,,1475515058000.0,36.09,-86.82,Leslie Toth,TN,1475515058000.0,19556549
9246344,Nashville,"Paterson, NJ",1504575273000.0,36.06,-86.96,Lilly Castro,TN,1504575273000.0,19556549
227856548,Franklin,,1495136775000.0,35.93,-86.81,Lily Nelsen,TN,1495136775000.0,19556549
214724158,Franklin,,1476155637000.0,36.73,-86.57,Linda,KY,1493000944000.0,19556549
187672210,Mount Juliet,,1465043187000.0,36.22,-86.52,Lindsey,TN,1465043187000.0,19556549
211131914,Nashville,,1471401361000.0,36.22,-86.77,Lindsey Thornton,TN,1483676144000.0,19556549
202234238,Lebanon,,1459058241000.0,36.15,-86.32,Lisa,TN,1459058241000.0,19556549
237395327,Nashville,,1506358740000.0,36.17,-86.78,Lisa,TN,1508671235000.0,19556549
221746937,Hermitage,,1486692303000.0,36.19,-86.6,Lisa Baeza,TN,1486692303000.0,19556549
39532322,Nashville,,1508021731000.0,36.18,-86.74,Lisa Connor,TN,1508021731000.0,19556549
101671482,Franklin,"Nashville, TN",1455771311000.0,35.92,-86.89,Lisa Firestone,TN,1455771311000.0,19556549
200865217,Spring Hill,,1457137630000.0,35.76,-86.88,lisa mac,TN,1468032596000.0,19556549
205359522,Nashville,,1463523826000.0,36.17,-86.78,Lisa Marie,TN,1463523826000.0,19556549
212502445,Nashville,,1483493877000.0,36.08,-86.72,Lisa63,TN,1483673590000.0,19556549
4883361,Nashville,,1506868220000.0,36.17,-86.78,Liz,TN,1506868220000.0,19556549
236715254,Nashville,,1505626863000.0,36.17,-86.78,Liz Anderson,TN,1505626863000.0,19556549
224064745,La Vergne,,1506893533000.0,36.01,-86.57,Liz Del Angel,TN,1506893533000.0,19556549
202398284,Nashville,,1459296256000.0,36.18,-86.74,Lizzy Campbell,TN,1459296256000.0,19556549
220849059,Hendersonville,,1485563050000.0,36.32,-86.61,Loanie Nguyen,TN,1485563050000.0,19556549
134883962,Nashville,,1470748482000.0,36.18,-86.81,Loreal ,TN,1470748482000.0,19556549
4182700,Nashville,Nashville,1503829748000.0,36.17,-86.78,Lori,TN,1507378394000.0,19556549
201161097,Nashville,,1457487284000.0,36.08,-86.72,LouAnne McBride,TN,1460488029000.0,19556549
206841150,Mount Juliet,,1465560764000.0,36.21,-86.52,Lucia Cunningham,TN,1465827534000.0,19556549
212722637,Nashville,,1473599887000.0,36.16,-86.79,Lynn,TN,1473599887000.0,19556549
237091692,Nashville,,1506014386000.0,36.08,-86.72,Lyric W,TN,1506014386000.0,19556549
200750517,Nashville,,1456887935000.0,36.16,-86.79,M Bri Wyatt,TN,1456887935000.0,19556549
227677814,Midland,,1494913418000.0,43.63,-84.27,Mackenzie,MI,1494913418000.0,19556549
218827167,Nashville,,1482977960000.0,36.17,-86.78,Mackenzie Evans,TN,1484085172000.0,19556549
226938943,Murfreesboro,,1497043072000.0,35.87,-86.44,Maddie Rose Taff,TN,1497043072000.0,19556549
198713566,Nashville,,1469465781000.0,36.17,-86.78,Madeline,TN,1470795310000.0,19556549
232860207,Franklin,,1501345214000.0,35.92,-86.89,Madison Ferguson,TN,1501345214000.0,19556549
201646366,Nashville,,1458171812000.0,36.17,-86.72,Maggie Possel,TN,1481946679000.0,19556549
210442292,Hartsville,,1470424257000.0,36.39,-86.16,Magon,TN,1470424257000.0,19556549
114771202,Nashville,"Birmingham, AL",1503768750000.0,36.09,-86.82,Mallie Froehlich,TN,1503768750000.0,19556549
206423901,Nashville,,1465008424000.0,36.17,-86.78,Mallory Granrath,TN,1468210007000.0,19556549
216371152,Nashville,,1478646863000.0,36.16,-86.79,Mandy Robinson Walley,TN,1478646863000.0,19556549
208383056,Vanleer,,1467677993000.0,36.22,-87.46,Manny ,TN,1467677993000.0,19556549
218879426,Nashville,,1483097093000.0,36.11,-86.78,Mari,TN,1483097093000.0,19556549
220002945,Pulaski,,1484507923000.0,35.19,-87.03,Maria M,TN,1484507923000.0,19556549
210096250,Fosterville,,1469933875000.0,35.75,-86.39,Mario Allen,TN,1469933875000.0,19556549
203155815,Hermitage,,1460390036000.0,36.19,-86.6,Marisa,TN,1463597745000.0,19556549
11013940,Nashville,Nashville,1503844509000.0,36.15,-86.86,Mark,TN,1503844509000.0,19556549
230888833,Antioch,,1498940400000.0,36.04,-86.64,Mark Fuqua,TN,1503977457000.0,19556549
216999681,Nashville,,1479655089000.0,36.15,-86.86,Mark Patterson,TN,1481479112000.0,19556549
221212756,Nashville,,1486023755000.0,36.17,-86.78,Martynas ustavi?ius,TN,1486023755000.0,19556549
230791641,Hendersonville,,1498821369000.0,36.32,-86.61,Mary Alton,TN,1498821369000.0,19556549
219744699,Nashville,,1484171464000.0,36.14,-86.81,Mary Elizabeth Pellett,TN,1484171464000.0,19556549
221839613,Nashville,,1486832736000.0,36.16,-86.78,Mary Kate Egelston,TN,1487189405000.0,19556549
202753654,Brentwood,,1459815617000.0,36.0,-86.79,Maryam,TN,1459815617000.0,19556549
221003664,Nashville,,1492053229000.0,36.06,-86.96,MaShon Fine,TN,1492053229000.0,19556549
234462720,Nashville,,1503210424000.0,36.21,-86.72,matt,TN,1503210424000.0,19556549
195807370,Springfield,,1506148332000.0,36.52,-86.87,Matthew Harder,TN,1508118730000.0,19556549
207653226,Nashville,,1466671435000.0,36.17,-86.78,Matthew Skelton,TN,1466671435000.0,19556549
13500847,Nashville,,1468506934000.0,36.17,-86.72,Maxi,TN,1472185447000.0,19556549
8501906,Brentwood,Miami,1475001511000.0,36.0,-86.79,Mayde,TN,1478042396000.0,19556549
182954494,Antioch,"Nashville, TN",1487808723000.0,36.04,-86.64,MD Black,TN,1487808723000.0,19556549
235346322,Nashville,,1504213904000.0,36.07,-86.78,Meagan & Eric ,TN,1504213904000.0,19556549
83016682,Nashville,"San Antonio, TX",1462363069000.0,36.22,-86.86,Megan Bee,TN,1473812786000.0,19556549
206086920,New York,,1464577198000.0,40.75,-73.99,Megan Davis Yon,NY,1464577198000.0,19556549
117257662,Nashville,,1459292751000.0,36.17,-86.78,Megan Mc,TN,1459292751000.0,19556549
210413965,Portland,,1470409784000.0,36.57,-86.49,Megan Paquin,TN,1470409784000.0,19556549
15090231,Nashville,Denver,1457877126000.0,36.15,-86.86,Meghan,TN,1459384253000.0,19556549
221894385,Nashville,,1486911392000.0,36.17,-86.78,Meghan Beebe,TN,1486911392000.0,19556549
125976452,Nashville,,1465161128000.0,36.13,-86.8,Meghan D. Rees,TN,1475627715000.0,19556549
2374106,Nashville,,1465872708000.0,36.13,-86.8,Meira,TN,1492955841000.0,19556549
203794696,Nashville,"Los Angeles, CA",1461294632000.0,36.17,-86.78,MéKyle,TN,1470237697000.0,19556549
100876852,Nashville,,1460432487000.0,36.18,-86.74,melinda sandy,TN,1492689215000.0,19556549
220103179,Nashville,,1484974961000.0,36.17,-86.78,Melissa,TN,1487311158000.0,19556549
229828869,Nashville,,1497627478000.0,36.17,-86.78,Melissa Bledsoe,TN,1497627478000.0,19556549
204676986,Murfreesboro,,1462587817000.0,35.82,-86.45,Melissa C,TN,1462587817000.0,19556549
62106992,Nashville,,1481689735000.0,36.14,-86.74,Melissa Harris,TN,1505330704000.0,19556549
221181213,Nashville,,1485982697000.0,36.11,-86.86,Melissa L.,TN,1502738706000.0,19556549
201819133,Nashville,,1502166578000.0,36.15,-86.86,Melissa Rafalko,TN,1502166578000.0,19556549
229512175,Nashville,,1498018260000.0,36.17,-86.78,Melissa Raines,TN,1500003233000.0,19556549
210165776,Nashville,,1470026649000.0,36.08,-86.72,Melissa Schmitz,TN,1475018626000.0,19556549
211172218,Nashville,,1471461885000.0,36.17,-86.78,Mellisa Saldanha,TN,1498538049000.0,19556549
205927493,Nashville,,1479351230000.0,36.17,-86.78,Mercedes Ocasio,TN,1479351230000.0,19556549
225534598,Sydney,,1507836505000.0,-33.87,151.21,Meredith Friskel,,1507836505000.0,19556549
183308762,Nashville,"Indianapolis, IN",1478311143000.0,36.18,-86.74,Meredith Howe,TN,1489065493000.0,19556549
235031040,Nashville,,1503866208000.0,36.13,-86.8,Micah Jaffe,TN,1503866208000.0,19556549
212065431,Nashville,,1472702922000.0,36.17,-86.72,Micfro,TN,1472702922000.0,19556549
108031892,Hermitage,,1463922410000.0,36.19,-86.6,Michael Arnold,TN,1463922410000.0,19556549
216054240,Nashville,,1478154778000.0,36.13,-86.8,Michael Baron,TN,1481866061000.0,19556549
208571752,Brentwood,,1467933890000.0,36.0,-86.79,Michael Frost ,TN,1467933890000.0,19556549
216733978,Nashville,,1479231549000.0,36.08,-86.72,Michael Golembiewski,TN,1479231549000.0,19556549
226437965,La Vergne,,1493221015000.0,36.0,-86.57,Michael Nefzger,TN,1506855094000.0,19556549
217249698,Spring Hill,,1503852693000.0,35.76,-86.88,Michael Taylor,TN,1505425195000.0,19556549
14313336,Nashville,Nashville,1455581583000.0,36.13,-86.8,Michele Cedzich,TN,1456369167000.0,19556549
13570602,Hermitage,Hermitage,1458512880000.0,36.19,-86.6,Michelle,TN,1465784314000.0,19556549
200954524,Hermitage,,1457198071000.0,36.19,-86.6,Michelle Browers,TN,1457198071000.0,19556549
14234768,Brentwood,,1506481741000.0,36.0,-86.79,Michelle Chalfant,TN,1506481741000.0,19556549
205700985,Nolensville,,1464013368000.0,35.94,-86.67,Michelle Dozier,TN,1464013368000.0,19556549
11866136,Nashville,Nashville,1484502852000.0,36.13,-86.8,Michelle Hodges,TN,1484502852000.0,19556549
225670642,Mount Juliet,,1507135110000.0,36.22,-86.52,Michelle Sharpe,TN,1507911230000.0,19556549
223103141,Nashville,,1488585267000.0,36.17,-86.78,Michelle weaver,TN,1488585267000.0,19556549
203590010,Bradyville,,1461005937000.0,35.7,-86.1,MichelleNextDoor,TN,1461005937000.0,19556549
218560507,Antioch,,1482450819000.0,36.04,-86.64,Micouri Aranea Silva,TN,1482450819000.0,19556549
195794101,Nashville,,1477842965000.0,36.15,-86.86,Midi,TN,1479562968000.0,19556549
210290703,La Vergne,,1470194415000.0,36.01,-86.57,Mike,TN,1470194415000.0,19556549
229158831,Nashville,,1496774022000.0,36.14,-86.81,Mike Iavarone III,TN,1496774022000.0,19556549
148809192,Nashville,,1488493147000.0,36.14,-86.74,Mike Rogers,TN,1488493147000.0,19556549
204020469,Nashville,,1461621722000.0,36.13,-86.8,Miranda Burr,TN,1461621722000.0,19556549
211027856,Nashville,,1471270125000.0,36.08,-86.72,Miriam,TN,1503444268000.0,19556549
202586163,Nashville,,1459581052000.0,36.18,-86.74,missworld227,TN,1459581052000.0,19556549
231846181,Spring Hill,,1500671073000.0,35.76,-86.88,Misty Parrott,TN,1501116348000.0,19556549
204673877,Nashville,,1462584278000.0,36.17,-86.78,Misty W.,TN,1462584278000.0,19556549
210266590,Clarksville,,1470165160000.0,36.53,-87.35,mohamed ahmed,TN,1470165160000.0,19556549
230489557,Nashville,,1498446064000.0,36.09,-86.82,Molly Jewel,TN,1498446064000.0,19556549
105002772,Hendersonville,Hendersonville,1504281476000.0,36.32,-86.61,Molly Rajendran,TN,1506376958000.0,19556549
203095669,Madison,,1460308189000.0,36.26,-86.71,Monica,TN,1460308189000.0,19556549
221566519,Franklin,Franklin,1486468118000.0,35.92,-86.89,Monica Restrepo,TN,1486468118000.0,19556549
212355057,Chicago,"Chicago, IL",1493171936000.0,41.88,-87.62,Ms Raye Turner,IL,1493171936000.0,19556549
238646830,Nashville,,1507729900000.0,36.08,-86.72,N'Digo Kali,TN,1507729900000.0,19556549
214994263,Nashville,,1476557503000.0,36.07,-86.78,Nah Rutledge,TN,1476557503000.0,19556549
208798360,Nashville,,1468234927000.0,36.17,-86.78,Nancy L,TN,1469325282000.0,19556549
205405133,Rutherfordton,,1463587618000.0,35.38,-81.98,Nandita Munganoor,NC,1466637086000.0,19556549
184547151,Nashville,,1465013991000.0,36.08,-86.72,Nandita Munganoor,TN,1505741948000.0,19556549
4389320,Nashville,Charlotte,1484272356000.0,36.17,-86.78,Nat,TN,1505099937000.0,19556549
182481932,Pensacola,Pensacola,1477586847000.0,30.45,-87.21,Natalia Bayona,FL,1492621080000.0,19556549
238102882,Thompsons Station,,1507144222000.0,35.8,-86.9,Natalie,TN,1507144222000.0,19556549
227421616,Nashville,,1494557115000.0,36.17,-86.78,Natalie C,TN,1494557115000.0,19556549
185075060,Brentwood,,1504586295000.0,36.0,-86.79,Natalie Elefante,TN,1504586295000.0,19556549
75967532,Franklin,,1478365185000.0,35.95,-86.8,Natalie Michelle,TN,1482817951000.0,19556549
53071102,Nashville,Nashville ,1503761958000.0,36.17,-86.72,Natalya,TN,1503761958000.0,19556549
217140591,Nashville,,1479870105000.0,36.17,-86.78,Natasha,TN,1479870105000.0,19556549
175159382,Clarksville,"Hopkinsville, KY",1468949864000.0,36.56,-87.41,Natasha Thompson,TN,1482219487000.0,19556549
206040566,Franklin,nashville,1484508212000.0,35.93,-86.81,Nate,TN,1484511890000.0,19556549
223852135,Nashville,,1489642997000.0,36.16,-86.79,natosha parr,TN,1489642997000.0,19556549
7642860,Murfreesboro,Nashville,1495940872000.0,35.87,-86.44,Neesa,TN,1497669961000.0,19556549
217730360,Franklin,,1480916465000.0,35.93,-86.81,Neil Chitre,TN,1480916465000.0,19556549
139695302,Nashville,,1465617145000.0,36.17,-86.78,Nesha,TN,1506893839000.0,19556549
211100586,Nashville,,1471363926000.0,36.17,-86.78,Ngawang Losel,TN,1471363926000.0,19556549
206234001,Austin,,1464744997000.0,30.22,-97.75,Ngenze A,TX,1464744997000.0,19556549
183856769,Nashville,,1497152953000.0,36.05,-86.71,Nhu Nguyen,TN,1502742021000.0,19556549
201347057,Scottsville,,1457760135000.0,36.78,-86.19,Nicholas Reed,KY,1457760135000.0,19556549
210436359,Hendersonville,,1470414748000.0,36.32,-86.61,Nichole Foy,TN,1470414748000.0,19556549
232038228,Nashville,,1500326054000.0,36.17,-86.78,Nick Doaks,TN,1500326054000.0,19556549
222148390,Nashville,,1487255539000.0,36.17,-86.78,nick hayes,TN,1487255539000.0,19556549
231168456,Nashville,,1499285656000.0,36.22,-86.77,Nick Walker,TN,1499285656000.0,19556549
219481090,Antioch,,1483839747000.0,36.04,-86.64,Nicki Ricci,TN,1483839747000.0,19556549
206293002,Nashville,,1464826990000.0,36.17,-86.72,Nico Hammond,TN,1464836155000.0,19556549
213128831,Nashville,,1474127380000.0,36.17,-86.78,Nicole,TN,1474127380000.0,19556549
197455409,Lebanon,,1468901016000.0,36.21,-86.31,Nicole Barton,TN,1468901016000.0,19556549
103082782,Chandler,,1470105747000.0,33.31,-111.92,Nicole Howard,AZ,1470105747000.0,19556549
227866911,Hermitage,,1495147283000.0,36.19,-86.6,Nicole Jones,TN,1495147283000.0,19556549
210037852,Greer,,1469853743000.0,34.9,-82.27,Nicole Paxson,SC,1469853743000.0,19556549
235591298,Nashville,,1504496085000.0,36.16,-86.79,Niki Norton Reese,TN,1504496085000.0,19556549
127433472,Nashville,,1481659720000.0,36.17,-86.78,Nikki deMesa,TN,1502215617000.0,19556549
191972450,Hendersonville,,1474825396000.0,36.32,-86.61,Nikki Sutton,TN,1474825396000.0,19556549
205867701,Madison,,1464220262000.0,36.26,-86.71,NikkiB,TN,1464220262000.0,19556549
225545388,Nashville,,1492026101000.0,36.17,-86.72,niraj joshi,TN,1492026101000.0,19556549
209550937,Brentwood,,1482592248000.0,36.0,-86.79,Niyaz Mohd,TN,1492903240000.0,19556549
209666213,Nashville,,1469369238000.0,36.09,-86.82,Nkechi ,TN,1469369238000.0,19556549
1738473,Nashville,"Nashville, Tennessee",1471655669000.0,36.11,-86.78,oh_me,TN,1484604438000.0,19556549
227343111,Nashville,,1494455065000.0,36.07,-86.78,Olivia Chang,TN,1494455065000.0,19556549
234168251,Franklin,,1502887818000.0,35.93,-86.81,Olivia Oetjens,TN,1502887818000.0,19556549
201829205,Nashville,,1458442557000.0,36.1,-86.66,Ollie Windsor Leon,TN,1458442557000.0,19556549
109486962,Nashville,"Dallas, TX",1499390319000.0,36.14,-86.79,Omair,TN,1506877738000.0,19556549
225030846,Nashville,,1491292053000.0,36.17,-86.78,Omar Hamadi,TN,1491292053000.0,19556549
146590192,Nashville,Nashville,1458693585000.0,36.17,-86.72,Ophelia,TN,1504030394000.0,19556549
205193250,Brentwood,,1463317781000.0,36.0,-86.79,Otilia Bilauca,TN,1463317781000.0,19556549
223397572,Nashville,,1490398392000.0,36.17,-86.78,Owen Melissa,TN,1490398392000.0,19556549
3949436,Nashville,Santiago,1476200040000.0,36.15,-86.86,Pablo,TN,1506865764000.0,19556549
218939039,Murfreesboro,,1483141383000.0,35.84,-86.39,Pablo Camareno,TN,1483141383000.0,19556549
211665567,Nashville,,1472231966000.0,36.17,-86.78,Paige Sheehan,TN,1474911280000.0,19556549
11696972,Nashville,,1483798500000.0,36.11,-86.86,Pam ,TN,1502244515000.0,19556549
201378893,Fairview,,1502558576000.0,35.97,-87.13,Pamela Benedict,TN,1502558576000.0,19556549
233738595,Nashville,,1502382284000.0,36.21,-86.72,Paradoja Humana,TN,1502382284000.0,19556549
8203457,Brentwood,Nashville,1475910244000.0,36.0,-86.79,Patty ,TN,1475910244000.0,19556549
207255733,Chicago,,1467238990000.0,41.81,-87.71,Paul Frieh,IL,1467238990000.0,19556549
9382164,Antioch,,1503854997000.0,36.04,-86.64,paula,TN,1504476195000.0,19556549
235438953,Antioch,,1504320509000.0,36.17,-86.88,Payge Berry,TN,1504320509000.0,19556549
223363210,Nashville,,1488957486000.0,36.07,-86.73,Petra Moreno-Frasca,TN,1488957486000.0,19556549
209414848,Nashville,,1477514599000.0,36.07,-86.73,Piyush Patel,TN,1480717871000.0,19556549
107844552,Nashville,"Memphis, TN",1484159583000.0,36.17,-86.78,Porsha Jones,TN,1484159583000.0,19556549
234952526,Mount Juliet,,1503773617000.0,36.21,-86.52,prabhakar mishra,TN,1506396459000.0,19556549
226182413,Cross Plains,,,36.56,-86.62,,TN,,19556549
205735599,Nashville,,1464040557000.0,36.08,-86.72,Queen Amidala,TN,1466481220000.0,19556549
11804234,Murfreesboro,,1506275659000.0,35.87,-86.44,R. Brian Leanza,TN,1506275659000.0,19556549
213197220,Nashville,,1474213258000.0,36.17,-86.72,Rach Marie,TN,1474213258000.0,19556549
210934831,Nashville,,1475544938000.0,36.17,-86.78,Rachel,TN,1476148596000.0,19556549
206023810,Nashville,,1464456483000.0,36.15,-86.86,Rachel Conti,TN,1464456483000.0,19556549
215124979,Nashville,,1476739451000.0,36.19,-86.8,Rachel Harville,TN,1476739451000.0,19556549
231983954,Nashville,,1500256965000.0,36.08,-86.72,Rafael Jimenez,TN,1500256965000.0,19556549
216199669,Franklin,,1478384739000.0,35.92,-86.89,Rahul Raj,TN,1478384739000.0,19556549
58242332,Atlanta,,1507772429000.0,33.94,-84.32,Raj,GA,1507772429000.0,19556549
193283929,Brentwood,,1491159231000.0,36.0,-86.79,Rajiv Wadhwa,TN,1491159231000.0,19556549
58461922,Bangalore,,1463797068000.0,12.97,77.56,Ramanathan Nachiappan Kumarappan,,1502155233000.0,19556549
238098040,Nashville,,1507162228000.0,36.17,-86.79,Randi Rosack,TN,1507384858000.0,19556549
51738552,Franklin,,1471121831000.0,35.92,-86.89,Rashmi,TN,1471121831000.0,19556549
210082852,Franklin,,1480183448000.0,35.92,-86.89,Ray Blair,TN,1504316532000.0,19556549
215493026,Nashville,,1477288772000.0,36.1,-86.66,Rebeca Medina,TN,1503093448000.0,19556549
221167176,Nashville,,1485966923000.0,36.13,-86.8,Rebecca Augustine,TN,1485966923000.0,19556549
203645267,Nashville,,1461082534000.0,36.18,-86.74,Rebecca Blankenship,TN,1461082534000.0,19556549
222681978,Nashville,,1487994448000.0,36.17,-86.78,Rebecca Ware,TN,1487994448000.0,19556549
225016686,Nashville,,1503250637000.0,36.13,-86.8,Rebekah Batyah Freedman,TN,1503250637000.0,19556549
204965506,Nashville,,1463001875000.0,36.08,-86.72,Reese,TN,1463001875000.0,19556549
4272713,Clarksville,Clarksville,1464318701000.0,36.53,-87.35,Regge,TN,1464318701000.0,19556549
221161925,Clarksville,,1485961177000.0,36.56,-87.41,Renee Palicia,TN,1485961177000.0,19556549
205709591,Antioch,,1464011911000.0,36.04,-86.64,revjule,TN,1497407236000.0,19556549
217706956,Nashville,,1480879967000.0,36.15,-86.86,Rhonda Reed,TN,1485373626000.0,19556549
201508114,Antioch,,1457983772000.0,36.17,-86.88,Richelle West,TN,1457983772000.0,19556549
165098002,Nashville,,1455499533000.0,36.09,-86.82,Rick Taran,TN,1463594028000.0,19556549
216297968,Hendersonville,,1478538649000.0,36.32,-86.61,Rikki Jo,TN,1478538649000.0,19556549
215302362,Nashville,,1476996143000.0,36.09,-86.82,RK From,TN,1476996143000.0,19556549
218782366,Nashville,,1482901535000.0,36.15,-86.81,Ro Whi,TN,1482901535000.0,19556549
232460990,Burns,,1500848555000.0,36.04,-87.26,Robert Barry,TN,1500848555000.0,19556549
188003894,Nashville,,1479490193000.0,36.18,-86.81,Robert Crutcher,TN,1479490193000.0,19556549
231180568,Nashville,,1499301925000.0,36.11,-86.78,Robin Martin,TN,1499301925000.0,19556549
206464818,Franklin,,1465068057000.0,35.92,-86.89,Robin Turner Hawkins,TN,1465068057000.0,19556549
205937109,Nashville,"Hamlet, NC",1484103425000.0,36.15,-86.86,Roger Caulk,TN,1484187263000.0,19556549
223265622,Saint Louis,,1488829575000.0,38.63,-90.19,Rohan Kashyap,MO,1488829575000.0,19556549
6548558,Nashville,"Chester, West Virginia",1465146180000.0,36.13,-86.8,Ron Brunk,TN,1466467859000.0,19556549
201170312,Madison,,1457499000000.0,36.26,-86.71,Ronnie Greer,TN,1457499000000.0,19556549
235288903,Nashville,,1504146946000.0,36.08,-86.72,Rookh McClellan,TN,1504146946000.0,19556549
6157416,Nashville,,1467319046000.0,36.17,-86.78,Rose,TN,1467319046000.0,19556549
177279942,Nashville,,1484152732000.0,36.17,-86.78,Rose Leon,TN,1486960330000.0,19556549
205481106,Nashville,,1463688763000.0,36.16,-86.79,Rose Patrick,TN,1463688763000.0,19556549
113362402,Nashville,Detroit,1485052205000.0,36.17,-86.78,Roselyn,TN,1490462516000.0,19556549
224823705,Nashville,,1490997369000.0,36.18,-86.74,Ross,TN,1490997369000.0,19556549
222252539,Nashville,,1487398504000.0,36.17,-86.78,Roy Mendiola,TN,1487398504000.0,19556549
204507346,Nashville,,1462333682000.0,36.17,-86.78,Ruby Marvel,TN,1470697761000.0,19556549
122791642,Nashville,green hills,1506107077000.0,36.09,-86.82,Russ,TN,1506107077000.0,19556549
203195849,Nashville,,1460437881000.0,36.18,-86.74,Russ Hagan,TN,1460437881000.0,19556549
218769855,Nashville,,1482882875000.0,36.17,-86.78,Ryan Hanlin,TN,1483673390000.0,19556549
234139225,Nashville,,1506223867000.0,36.17,-86.78,Ryona (Rebecca),TN,1506916036000.0,19556549
188660063,Nashville,,1460868269000.0,36.17,-86.78,S K,TN,1476107805000.0,19556549
215737745,Nashville,,1477664358000.0,36.17,-86.78,Sabrina Simmons,TN,1477664358000.0,19556549
219740784,Nashville,,1484164628000.0,36.15,-86.79,Sade,TN,1484221758000.0,19556549
227274537,Murfreesboro,,1494361409000.0,35.87,-86.34,Salwa Kanakrieh,TN,1494361409000.0,19556549
218027204,Fairview,,1481431001000.0,35.97,-87.13,Sam Gallagher,TN,1485261067000.0,19556549
161907272,Nashville,,1504358555000.0,36.17,-86.78,Sam Penziner,TN,1504358555000.0,19556549
103288562,Nashville,"Ocala, FL",1482111727000.0,36.15,-86.69,Sam Swift,TN,1482111727000.0,19556549
226780029,Joelton,,1493685965000.0,36.33,-86.91,Samantha ,TN,1493685965000.0,19556549
206996047,Nashville,,1465770373000.0,36.08,-86.72,Samantha Nicole,TN,1465770373000.0,19556549
238815972,Nashville,,1507922747000.0,36.16,-86.77,Sammy D,TN,1507922747000.0,19556549
221128997,Nashville,,1485912461000.0,36.17,-86.78,Sandeep Reddy,TN,1502951883000.0,19556549
46546712,Mount Juliet,,1493476629000.0,36.16,-86.5,Sandeep S Darawade,TN,1505129425000.0,19556549
212513226,Nashville,,1473308181000.0,36.17,-86.78,Sandy,TN,1482167425000.0,19556549
221482535,Nashville,,1486355149000.0,36.21,-86.72,Sandy Hughes Bradley,TN,1486355149000.0,19556549
202486699,Hermitage,,1459432759000.0,36.19,-86.6,Sara,TN,1459432759000.0,19556549
191823767,Dimock,,1476765285000.0,41.74,-75.9,Sara Kistner,PA,1476765285000.0,19556549
188820115,Huntsville,,1506256617000.0,34.6,-86.54,Sara Lilley,AL,1507309718000.0,19556549
202892117,Hermitage,,1460009197000.0,36.19,-86.6,Sara Linn Hough,TN,1460009197000.0,19556549
207464133,Antioch,,1474848683000.0,36.17,-86.88,Sara Raiszadeh,TN,1484018123000.0,19556549
200295695,Madison,,1456249557000.0,36.26,-86.71,Sarah ,TN,1456261064000.0,19556549
217416910,Gladeville,,1480377260000.0,36.19,-86.28,Sarah Elizabeth Osuch,TN,1480377260000.0,19556549
197885668,Nashville,,1457294869000.0,36.17,-86.78,Sarah Jensen,TN,1457294869000.0,19556549
227740916,Smyrna,,1494988165000.0,35.97,-86.51,Sarah Johnson,TN,1494988165000.0,19556549
225391149,Nashville,,1505055301000.0,36.17,-86.78,Sarah Zavattero,TN,1505055301000.0,19556549
234825068,Mount Juliet,,1503617932000.0,36.22,-86.52,Sasha Kauvar,TN,1503617932000.0,19556549
210555722,Nashville,,1470587316000.0,36.16,-86.66,Savanna Court,TN,1470587316000.0,19556549
35966372,Hermitage,,1477767974000.0,36.19,-86.6,Savannah Toone,TN,1477767974000.0,19556549
182692811,Goodlettsville,,1507380094000.0,36.32,-86.72,SayCo,TN,1507380094000.0,19556549
232037404,Nashville,,1500324001000.0,36.16,-86.79,Saydi Miller,TN,1502292127000.0,19556549
182763579,Nashville,,1465260933000.0,36.13,-86.8,Sb,TN,1465260933000.0,19556549
216795808,Nashville,,1479324622000.0,36.17,-86.78,Scott,TN,1479324622000.0,19556549
205132868,Spring Hill,,1497472747000.0,35.76,-86.88,Scott,TN,1497472747000.0,19556549
218101454,Nashville,,1481566404000.0,36.16,-86.78,Scott Hafley,TN,1482345484000.0,19556549
224882707,Smyrna,,1491082502000.0,35.97,-86.51,Scott Marshall,TN,1491082502000.0,19556549
9561451,Franklin,"Franklin, TN",1471307364000.0,35.92,-86.89,Scott Nugent,TN,1485449111000.0,19556549
193286122,Madison,,1455591484000.0,36.26,-86.71,Sean Willis,TN,1468936221000.0,19556549
204297176,Nashville,,1462038063000.0,36.08,-86.72,Sebastian Motola,TN,1462038063000.0,19556549
214764664,Gallatin,,1476221639000.0,36.39,-86.45,Selena ,TN,1476221639000.0,19556549
225255212,Nashville,,1491616607000.0,36.13,-86.8,Shah Gaurav,TN,1491616607000.0,19556549
237257608,Nashville,,1506202051000.0,36.15,-86.86,Shai Love,TN,1506202051000.0,19556549
214578793,Antioch,,1483761083000.0,36.04,-86.64,Shalee Marshall,TN,1486136486000.0,19556549
8539046,Nashville,,1486212570000.0,36.13,-86.8,Shalini,TN,1504827716000.0,19556549
221384190,Nashville,,1486230575000.0,36.21,-86.72,Shane Stephens,TN,1486230575000.0,19556549
199563789,Nashville,,1455629087000.0,36.17,-86.72,Shanell S,TN,1455629087000.0,19556549
233164227,Murfreesboro,,1501763121000.0,35.78,-86.33,Shanetria Houston,TN,1506878876000.0,19556549
64648962,Spring,,1471463066000.0,30.03,-95.53,shannon grave,TX,1474138905000.0,19556549
216374980,Nashville,,1478652762000.0,36.15,-86.79,Shannon Lutes,TN,1478652762000.0,19556549
232367463,Nashville,,1500733990000.0,36.14,-86.74,Shannon Marie,TN,1502338238000.0,19556549
199815546,Madison,,1458597105000.0,36.26,-86.71,Shantel Moore,TN,1458597105000.0,19556549
211066818,Franklin,,1471953503000.0,35.92,-86.89,Shari,TN,1472091637000.0,19556549
192113176,Murfreesboro,,1469457897000.0,35.87,-86.34,Sharon Martin Jacks,TN,1469457897000.0,19556549
185309052,Franklin,,1486002010000.0,35.92,-86.89,Shawnda Tiernan,TN,1486002010000.0,19556549
2000166,Clarksville,,1462105543000.0,36.53,-87.35,Shawnmarie Bane,TN,1462105543000.0,19556549
206528152,Clarksville,,1465153687000.0,36.56,-87.41,Shay Allen,TN,1465153687000.0,19556549
203822539,Smyrna,,1461342754000.0,35.97,-86.51,Sheila Smith,TN,1461342754000.0,19556549
231083258,Nashville,,1499182604000.0,36.17,-86.72,Shekinah Christian,TN,1499182604000.0,19556549
222771934,Nashville,,1488126914000.0,36.17,-86.72,Shelby,TN,1488126914000.0,19556549
229965993,White House,White House,1497816346000.0,36.48,-86.69,Shelby Scott,TN,1497816346000.0,19556549
66210812,Nashville,,1459770794000.0,36.17,-86.78,Shelly James,TN,1485831063000.0,19556549
222740881,Nashville,,1488078615000.0,36.08,-86.72,Sherman Megibben,TN,1488078615000.0,19556549
215334233,Nashville,,1477050695000.0,36.08,-86.72,Shetik Brock,TN,1477050695000.0,19556549
200378774,Nashville,,1456359988000.0,36.17,-86.72,Shiphrah Campbell,TN,1456359988000.0,19556549
231415178,Nashville,,1499581840000.0,36.1,-86.66,Shruti Luhach,TN,1499581840000.0,19556549
206865240,Antioch,,1466128187000.0,36.17,-86.88,shweta ,TN,1466128187000.0,19556549
228125989,Nashville,,1495472627000.0,36.11,-86.78,siddhesh tiwari,TN,1506264280000.0,19556549
200171427,Nashville,,1458517705000.0,36.17,-86.78,Silky,TN,1494882855000.0,19556549
232683824,Nashville,,1501113344000.0,36.17,-86.78,simone,TN,1501113344000.0,19556549
212663369,Franklin,,1473518869000.0,35.92,-86.89,Skye McCall,TN,1473518869000.0,19556549
101142012,Hermitage,"Danbury, CT",1492818413000.0,36.13,-86.67,Slyms Bazile,TN,1492818413000.0,19556549
111390662,Nashville,,1481002904000.0,36.08,-86.72,smokymtngirl76,TN,1481002904000.0,19556549
226812534,Antioch,,1493735417000.0,36.04,-86.64,So Hollywood,TN,1493735417000.0,19556549
171174122,Nashville,,1461518739000.0,36.13,-86.8,sohayla,TN,1503763867000.0,19556549
232956266,Nashville,,1501464287000.0,36.06,-86.96,Sonia Alam,TN,1501464287000.0,19556549
204296662,Gallatin,,1497804288000.0,36.39,-86.45,Sonia Lim,TN,1497804288000.0,19556549
216524014,Nashville,,1478907539000.0,36.17,-86.78,Sonja,TN,1478907539000.0,19556549
194029239,Nashville,,1492391788000.0,36.1,-86.66,Sophia Xu,TN,1492391788000.0,19556549
211988352,Orlinda,,1472596993000.0,36.61,-86.69,Stacey Haag,TN,1472784343000.0,19556549
204063495,Nashville,,1461686709000.0,36.06,-86.96,Stacey Thompson,TN,1461686709000.0,19556549
230338234,Nashville,,1498255860000.0,36.17,-86.78,Stacy,TN,1498255860000.0,19556549
8921426,Hermitage,"Nashville, TN",1474130562000.0,36.0,-86.46,Stacy Cline,TN,1475615101000.0,19556549
170733682,Nashville,nashville,1459828500000.0,36.16,-86.79,stacy king,TN,1459828500000.0,19556549
126770072,Nashville,,1506980666000.0,36.09,-86.82,Stacy Schorr,TN,1506980666000.0,19556549
212767968,Orlando,,1473650624000.0,28.54,-81.37,Stacytakesnashville,FL,1473650624000.0,19556549
215170416,Clarksville,,1476806340000.0,36.56,-87.41,star dean,TN,1476806340000.0,19556549
136927092,Nashville,,1465348463000.0,36.17,-86.78,Stefanie Stalmasek,TN,1483804585000.0,19556549
215634002,Nashville,,1477499298000.0,36.18,-86.81,Stefano Scotti,TN,1477499298000.0,19556549
203987562,Nashville,,1469072695000.0,36.11,-86.78,Steph,TN,1469072695000.0,19556549
217458903,Nashville,,1480447209000.0,36.17,-86.78,Steph Blick,TN,1480447209000.0,19556549
232897749,Antioch,,1503872785000.0,36.17,-86.88,Stephanie P.,TN,1506904226000.0,19556549
78520132,Brentwood,"Marion, OH",1489898106000.0,36.03,-86.85,Stephanie Wallace,TN,1489898106000.0,19556549
122747652,Old Hickory,,1462922908000.0,36.25,-86.63,Stephen Freeman,TN,1466184070000.0,19556549
203831648,Nashville,,1461353969000.0,36.17,-86.78,Stephen Huffman,TN,1461353969000.0,19556549
224449342,Nashville,Nashville,1498571586000.0,36.13,-86.8,Steven Culver,TN,1498571586000.0,19556549
20784851,Nashville,Nashville,1468335120000.0,36.08,-86.72,strider dayn lear,TN,1473867426000.0,19556549
204480621,Franklin,Franklin,1490449221000.0,35.92,-86.89,Sucharitha Rajendran,TN,1490992935000.0,19556549
205908943,Bell Buckle,,1464283369000.0,35.6,-86.41,Summer,TN,1465067848000.0,19556549
9657641,Antioch,Antioch,1495720160000.0,36.04,-86.64,Sunny,TN,1498350091000.0,19556549
46100472,Washington,"Washington, DC",1470369513000.0,38.91,-77.05,Sunny,DC,1480722412000.0,19556549
233654869,Nashville,,1502291622000.0,36.11,-86.86,Surya,TN,1502291622000.0,19556549
232227436,Mount Juliet,,1506040898000.0,36.21,-86.52,Susan Apple,TN,1506858207000.0,19556549
210131587,Nashville,,1469987007000.0,36.17,-86.78,Susan Duckett,TN,1469987007000.0,19556549
207401705,Clarksville,,1466337659000.0,36.49,-87.23,Susan Gibler,TN,1466607046000.0,19556549
225097483,Nashville,,1491390535000.0,36.21,-86.72,Susan Ulrich,TN,1491390535000.0,19556549
211926506,Nashville,,1472517092000.0,36.17,-86.72,Sushant,TN,1472517092000.0,19556549
208142603,Nashville,,1467343834000.0,36.08,-86.72,Sushanth Kothapally,TN,1475094772000.0,19556549
12134295,Nashville,,1506748265000.0,36.15,-86.86,Suzanne,TN,1506748265000.0,19556549
4475779,Nashville,,1495378859000.0,36.1,-86.72,Sy,TN,1495378859000.0,19556549
234609290,Nashville,,1503378209000.0,36.11,-86.86,Taherah Alsadah,TN,1503378209000.0,19556549
236877468,Nashville,,1506827121000.0,36.17,-86.72,tahmina khan,TN,1506827121000.0,19556549
210520916,Antioch,,1470534502000.0,36.04,-86.64,Taku Kataura,TN,1470534502000.0,19556549
202063668,La Vergne,,1458783129000.0,36.01,-86.57,Tamalishus,TN,1458783129000.0,19556549
207732337,Nashville,,1466806945000.0,36.17,-86.78,Tamara,TN,1469703396000.0,19556549
200837414,Antioch,,1457023353000.0,36.04,-86.64,Tania Luvjourney Ford,TN,1457023353000.0,19556549
199089906,Nashville,,1456004259000.0,36.18,-86.81,Tanisha,TN,1456004259000.0,19556549
234154899,Franklin,,1508399259000.0,35.92,-86.89,Tanya Parsley,TN,1508399259000.0,19556549
21342251,Hendersonville,Hendersonville,1503716630000.0,36.32,-86.61,Tara,TN,1503716630000.0,19556549
222745771,Hermitage,,1488123928000.0,36.21,-86.59,Tara ,TN,1488123928000.0,19556549
209079314,Antioch,,1468597701000.0,36.04,-86.64,Tara Maxwell,TN,1468597701000.0,19556549
206428101,Nashville,,1465018739000.0,36.17,-86.78,Tasha,TN,1474263032000.0,19556549
90079182,Franklin,"Franklin, TN",1499191573000.0,35.93,-86.81,Tassel Shanebrook Baldwin,TN,1499191573000.0,19556549
190227441,Nashville,Chattanooga,1461018914000.0,36.15,-86.86,Taylor,TN,1474039829000.0,19556549
214605783,Nashville,,1475977013000.0,36.17,-86.78,Taylor Logan,TN,1475977013000.0,19556549
227861075,Nashville,,1496241384000.0,36.08,-86.72,Taylor M.,TN,1496241384000.0,19556549
189921731,Nashville,,1455551896000.0,36.15,-86.86,Taylor Wesley,TN,1455551896000.0,19556549
202499734,Goodlettsville,Boynton Beach,1459449813000.0,36.33,-86.74,taylor white,TN,1459449813000.0,19556549
213825537,Dallas,,1475011237000.0,32.79,-96.8,Taylor Williams,TX,1478029357000.0,19556549
173064032,Franklin,,1472769569000.0,35.92,-86.89,Teagan Fitzpatrick,TN,1472769569000.0,19556549
197928971,Franklin,,1474487795000.0,35.92,-86.89,Ted,TN,1483979060000.0,19556549
213998998,Nashville,,1475201237000.0,36.15,-86.79,Tess Wilson,TN,1475201237000.0,19556549
217663007,Orlando,,1503457160000.0,28.54,-81.37,Tessa Foreman,FL,1504368089000.0,19556549
227165725,Ridgetop,,1494216974000.0,36.4,-86.77,Thao Tran,TN,1507433385000.0,19556549
199212558,La Vergne,,1476975884000.0,36.01,-86.57,Thea Smith,TN,1476975884000.0,19556549
205779649,Gallatin,,1464180919000.0,36.39,-86.45,Theresa Roth,TN,1464180919000.0,19556549
187042428,La Vergne,,1482160934000.0,36.01,-86.57,Tierenney Garrison,TN,1482160934000.0,19556549
220878794,Nashville,,1485646948000.0,36.21,-86.72,Tiffany C.,TN,1485646948000.0,19556549
218515812,Nashville,,1482357035000.0,36.17,-86.77,Tiffany Harris,TN,1483675279000.0,19556549
220613116,Nashville,,1485278530000.0,36.1,-86.66,Tiffany Hassell,TN,1485298343000.0,19556549
227566374,Franklin,,1494771280000.0,35.92,-86.89,Tiffany Hope,TN,1494771280000.0,19556549
205173724,Nashville,"Arkansas City, AR",1463491268000.0,36.14,-86.74,Tim,TN,1492876930000.0,19556549
3363302,Antioch,,1503455315000.0,36.04,-86.64,Tim -L2,TN,1507767956000.0,19556549
33567782,Nashville,Nashville,1508782537000.0,36.18,-86.74,Tim McNary,TN,1508782537000.0,19556549
201567747,Madison,,1458063610000.0,36.26,-86.71,Tima Imari Smith,TN,1463942206000.0,19556549
53999432,Savannah,"Savannah, TN",1479663275000.0,35.23,-88.23,Timothy Smith,TN,1479663275000.0,19556549
210024889,Franklin,,1506637821000.0,35.92,-86.89,Tina,TN,1506637821000.0,19556549
209509399,Nashville,,1469150354000.0,36.17,-86.78,Tish,TN,1469150354000.0,19556549
144894062,Franklin,,1477229649000.0,35.99,-86.9,Tom Brannon,TN,1477229649000.0,19556549
73626592,Nashville,,1464525481000.0,36.11,-86.86,Tom Dillehay,TN,1493052671000.0,19556549
208351300,Nashville,,1467642043000.0,36.17,-86.78,Toni R,TN,1473776408000.0,19556549
112899382,Smyrna,Nashville,1468985595000.0,35.97,-86.51,Tonia,TN,1468985595000.0,19556549
8360384,Nashville,,1487791379000.0,36.16,-86.79,Tonya ,TN,1507577474000.0,19556549
226826586,Nashville,,1494256886000.0,36.16,-86.79,Tori Dickerson,TN,1494256886000.0,19556549
225935828,Nashville,,1492553463000.0,36.07,-86.73,Tori Shaw,TN,1492553463000.0,19556549
187991692,Hendersonville,,1466606224000.0,36.32,-86.61,Toya Brown,TN,1466606224000.0,19556549
197353685,Spring Hill,,1475607836000.0,35.76,-86.88,Tracy Stilwell,TN,1504144504000.0,19556549
210657744,Clarksville,,1497667195000.0,36.56,-87.41,Trever Webb,TN,1497667195000.0,19556549
222297239,Nashville,,1487464239000.0,36.17,-86.78,Trevor Killian Murphy,TN,1487464239000.0,19556549
221073003,Nashville,,1485843959000.0,36.18,-86.81,Troy Ginyard Jr.,TN,1485843959000.0,19556549
216431731,Nashville,,1478757741000.0,36.17,-86.78,Tyler Ashley,TN,1478757741000.0,19556549
211309597,Fort Campbell,,1471662709000.0,36.65,-87.46,Tyler McKee,KY,1471662709000.0,19556549
195569654,Hermitage,,1485658480000.0,36.19,-86.6,V. Lauren Fass,TN,1485658480000.0,19556549
215546199,Nashville,,1477366775000.0,36.17,-86.78,Vaibhav Srivastava,TN,1506138030000.0,19556549
205034568,Nashville,,1463098537000.0,36.17,-86.78,Valeria Hickman,TN,1463098537000.0,19556549
102889902,Mount Juliet,,1484532160000.0,36.21,-86.52,Valerie Hoagland,TN,1484532160000.0,19556549
201930849,Nashville,,1484451923000.0,36.17,-86.77,Vane Quiroz,TN,1484490784000.0,19556549
159239302,Nashville,,1466091782000.0,36.16,-86.79,Vanessa,TN,1472484635000.0,19556549
148924392,Nashville,"Chicago, IL",1459369454000.0,36.17,-86.78,Vanessa,TN,1459369454000.0,19556549
203356091,Nashville,,1460668476000.0,36.17,-86.78,Vanessa,TN,1460668476000.0,19556549
207446760,Franklin,,1466396011000.0,35.92,-86.89,Vanessa Huaracha,TN,1466396011000.0,19556549
235368725,Mount Juliet,,1507045146000.0,36.21,-86.52,Vanessa Niu,TN,1507045146000.0,19556549
236151560,Nashville,,1505076248000.0,36.13,-86.8,Varalakshmi Dintakurti,TN,1505076248000.0,19556549
212988199,Franklin,,1473938709000.0,35.93,-86.81,Velvet Buinicky Bechard,TN,1473938709000.0,19556549
224287185,Clarksville,,1490245271000.0,36.53,-87.34,Veronica Aguirre,TN,1490245271000.0,19556549
222826023,Goodlettsville,,1488209397000.0,36.31,-86.72,Vickie Martin,TN,1498427013000.0,19556549
71038612,Bowling Green,,1462012884000.0,37.02,-86.46,victoria,KY,1480275224000.0,19556549
205802574,Nashville,,1464130356000.0,36.06,-86.96,Victoria Sfasciotti Rovier Lowri,TN,1464130356000.0,19556549
183705950,Nashville,"Memphis, TN",1486537912000.0,36.17,-86.78,Vincent,TN,1486537912000.0,19556549
184847215,Franklin,,1503281068000.0,35.93,-86.84,Vinny,TN,1507384149000.0,19556549
187797754,Nashville,,1462529951000.0,36.13,-86.8,Wallace Cartwright,TN,1462529951000.0,19556549
233280736,Nashville,,1501865464000.0,36.17,-86.78,Walt Bell,TN,1501865464000.0,19556549
215894433,Clarksville,,1477943492000.0,36.49,-87.23,Wehilani Kaniho,TN,1479397270000.0,19556549
224282779,Nashville,,1490238121000.0,36.21,-86.72,Weston Sparks,TN,1490421448000.0,19556549
188146401,Nashville,Nashville,1508021264000.0,36.15,-86.86,Will Barton,TN,1508021264000.0,19556549
205389919,Nashville,,1505178517000.0,36.13,-86.67,Will Davis,TN,1505178517000.0,19556549
66396222,Murfreesboro,Chattanooga,1474072725000.0,35.87,-86.34,Will McFalls,TN,1474072725000.0,19556549
104949862,Chicago,Nashville,1477604593000.0,41.9,-87.67,Will WIlkins III,IL,1477604593000.0,19556549
144530472,Nashville,"Lexington, KY",1479915636000.0,36.18,-86.79,William Templeton,TN,1506918212000.0,19556549
203455821,Madison,,1460821193000.0,36.26,-86.71,Wm Muse,TN,1460821193000.0,19556549
207994183,Nashville,,1467146130000.0,36.17,-86.78,Woody Evins,TN,1467146130000.0,19556549
215718642,Antioch,,1477625702000.0,36.04,-86.64,Worlanyo Yao Fenih,TN,1477625702000.0,19556549
179391132,Nashville,,1458996364000.0,36.08,-86.72,X,TN,1462214981000.0,19556549
206663495,Antioch,,1465327159000.0,36.17,-86.88,Yana,TN,1465327159000.0,19556549
231103049,Nashville,,1499202723000.0,36.17,-86.78,Yeraldy Marcano,TN,1499202723000.0,19556549
216328809,Nashville,,1478577913000.0,36.08,-86.72,Yesenia Mendoza,TN,1478577913000.0,19556549
205816960,Nashville,,1464148211000.0,36.16,-86.79,Yulia Romanchuk,TN,1475785588000.0,19556549
154503742,Franklin,Edmonton,1497294891000.0,35.93,-86.81,Yvonne Wang,TN,1497328450000.0,19556549
224618872,Murfreesboro,,1490711079000.0,35.87,-86.44,Zack Galloway,TN,1490711079000.0,19556549
203002050,Hendersonville,,1460170359000.0,36.32,-86.61,Zoe Lopez,TN,1460170359000.0,19556549
221958694,Nashville,Nashville,1494346383000.0,36.13,-86.8,Zoey Nguyen,TN,1498063311000.0,19556549
237824178,Hopkinsville,,1508650417000.0,36.87,-87.48,????,KY,1508650417000.0,19556549
114847582,Boston,"Palo Alto, CA",1474163814000.0,42.34,-71.09,????? VAKIL Kora Roberta Katz,MA,1474163814000.0,19556549
