id,city,hometown,joined,lat,lon,name,state,visited,group_id
82284732,Brentwood,Nashville,1486733292000.0,36.0,-86.79,"""Courtney""",TN,1507228695000.0,19728145
128415212,Nashville,,1470192670000.0,36.16,-86.79,A,TN,1470192670000.0,19728145
199380598,Columbia,,1491360410000.0,35.61,-87.05,A T K Bane,TN,1491360410000.0,19728145
221847659,Franklin,,1487863632000.0,35.93,-86.81,Aaron Duncan,TN,1507251904000.0,19728145
235689203,Nashville,,1507919238000.0,36.13,-86.67,aayudh thakur,TN,1508592864000.0,19728145
14765321,Nashville,,1480998927000.0,36.2,-86.72,abbie,TN,1504908597000.0,19728145
222239470,Brentwood,,1499530958000.0,36.0,-86.79,Abbie Sumrall,TN,1499530958000.0,19728145
193922702,New York,,1488138843000.0,40.78,-73.98,Abhishek Shrivastava,NY,1488138843000.0,19728145
3054893,New Orleans,New Orleans,1490489944000.0,29.97,-90.03,abram,LA,1494953585000.0,19728145
209568287,Smyrna,"Tullahoma, TN",1469242019000.0,35.97,-86.51,Adam,TN,1480090965000.0,19728145
185276433,Hendersonville,,1506909351000.0,36.32,-86.61,Adam Sirulnick,TN,1507691673000.0,19728145
205874466,Franklin,Springfield,1465083537000.0,35.95,-86.8,Adria,TN,1499569460000.0,19728145
222527731,Spring Hill,,1487779265000.0,35.76,-86.88,Adrian Darnell Weston,TN,1487779265000.0,19728145
223752018,Clarksville,,1489507767000.0,36.56,-87.41,Adrienne Dennis,TN,1489507767000.0,19728145
228618128,Nashville,,1496108799000.0,36.06,-86.96,Aidan Desmarais,TN,1496108799000.0,19728145
237980974,Nashville,,1507007969000.0,36.17,-86.77,Aimee Christine Donahue,TN,1507007969000.0,19728145
237812072,Nashville,,1506818137000.0,36.07,-86.73,Ainsley Carman,TN,1506818137000.0,19728145
215754059,Nashville,,1477687159000.0,36.13,-86.8,Ainura  Ospanova,TN,1477687159000.0,19728145
221829185,Nashville,,1486821908000.0,36.17,-86.78,Al Burns,TN,1496109905000.0,19728145
126178842,Nashville,,1459902313000.0,36.17,-86.78,AL Chandler,TN,1476016353000.0,19728145
191621498,Spring Hill,,1459615988000.0,35.76,-86.88,Al Posnack,TN,1508765622000.0,19728145
131523452,Burns,Burns,1501564165000.0,36.04,-87.26,Al Sumabat,TN,1507632099000.0,19728145
238696387,Nashville,,1507777830000.0,36.13,-86.8,Alan Sanders,TN,1508605009000.0,19728145
223164692,Franklin Park,,1491334441000.0,41.94,-87.88,Alan wright,IL,1493327507000.0,19728145
9089210,Smyrna,,1470711536000.0,35.97,-86.51,Alana,TN,1508618984000.0,19728145
228254756,Houston,,1496447111000.0,29.9,-95.43,Aldemaro Vasquez,TX,1499191095000.0,19728145
227583360,Murfreesboro,,1494793414000.0,35.78,-86.33,Alec,TN,1496078941000.0,19728145
210800745,Nashville,,1470930713000.0,36.17,-86.78,Alec Carro,TN,1492552054000.0,19728145
154920002,Columbia,Columbia ,1463083820000.0,35.61,-87.05,Alee,TN,1504285471000.0,19728145
43573462,Nashville,chicago,1458799512000.0,36.17,-86.78,Alejo,TN,1487308919000.0,19728145
235742118,Nashville,,1504650152000.0,36.17,-86.78,Alex S,TN,1504650152000.0,19728145
213472744,Franklin,"Detroit, MI",1474556892000.0,35.92,-86.89,Alex Walker,TN,1474556892000.0,19728145
104091252,Chapel Hill,Delaware ,1469755831000.0,35.62,-86.62,Alexander,TN,1491080744000.0,19728145
213272753,Nashville,,1474302740000.0,36.17,-86.78,Aleyda,TN,1474302740000.0,19728145
224165408,Cookeville,,1493020148000.0,36.2,-85.52,Ali Lynn,TN,1499222354000.0,19728145
202153611,Nashville,,1458931870000.0,36.08,-86.72,Ali Yasin,TN,1490131734000.0,19728145
226421047,New York,,1493195765000.0,40.75,-73.99,Alica Connor,NY,1493195765000.0,19728145
207583772,Lebanon,,1466574894000.0,36.21,-86.31,alice anderson,TN,1472536727000.0,19728145
9422523,Lebanon,,1499184050000.0,36.21,-86.31,Alicia,TN,1505072696000.0,19728145
219486173,Fort Campbell,,1483845742000.0,36.65,-87.46,Alicia Clare,KY,1483845742000.0,19728145
14601025,Nashville,"Kohtla-Yarve, Estonia",1495507199000.0,36.06,-86.96,Alina ,TN,1496256153000.0,19728145
63626142,Franklin,"Clarence, New York",1458674097000.0,35.93,-86.81,Alisa,TN,1489285805000.0,19728145
209886677,Nashville,,1470245857000.0,36.17,-86.78,Alison Lammot,TN,1471543905000.0,19728145
213591311,Murfreesboro,,1505443241000.0,35.85,-86.44,Alissa,TN,1505443241000.0,19728145
192419782,Nashville,,1461622037000.0,36.18,-86.81,Aljoe,TN,1471567145000.0,19728145
239411816,Nashville,,1508609732000.0,36.17,-86.78,Allie Lanza,TN,1508679071000.0,19728145
204309661,Murfreesboro,,1478480485000.0,35.82,-86.45,Allison Hoadley,TN,1505242472000.0,19728145
200052480,Nashville,,1472312738000.0,36.17,-86.78,Allison Krandall,TN,1474951125000.0,19728145
9965059,Nashville,,1484858951000.0,36.09,-86.82,Allison Thompson,TN,1484858951000.0,19728145
189716705,Nashville,,1464605043000.0,36.17,-86.78,Allison Verre,TN,1473290927000.0,19728145
47185942,Franklin,Cincinnati,1482056970000.0,35.91,-86.88,Alok,TN,1503034549000.0,19728145
150902602,Nashville,,1501099833000.0,36.17,-86.78,Amanda,TN,1502563397000.0,19728145
216141093,Nashville,,1478737117000.0,36.16,-86.79,Amanda,TN,1478737117000.0,19728145
196063006,Brentwood,,1492873339000.0,36.0,-86.79,Amanda,TN,1492873339000.0,19728145
110268622,Nashville,,1495316073000.0,36.17,-86.78,Amanda Adams,TN,1505095909000.0,19728145
182796117,Nashville,,1467496608000.0,36.17,-86.78,Amanda Beckelhimer,TN,1484947745000.0,19728145
236451734,Nashville,,1505354473000.0,36.06,-86.96,Amanda Brittany Pascoe,TN,1505354473000.0,19728145
79719332,Murfreesboro,"Nashville, TN",1458668561000.0,35.78,-86.33,Amanda Sacchinelli,TN,1458668561000.0,19728145
206850273,Nashville,,1465572976000.0,36.21,-86.75,Amanda Vanderford,TN,1504191206000.0,19728145
185953628,Aurora,,1506012937000.0,39.58,-104.76,Amber Gartner,CO,1508127618000.0,19728145
190026711,Nashville,,1491237563000.0,36.08,-86.72,Amberlee' Brooks,TN,1504966567000.0,19728145
238877673,Hendersonville,,1507997581000.0,36.32,-86.61,Amberlyn Richardson,TN,1507997581000.0,19728145
208066820,Nashville,,1467238546000.0,36.08,-86.72,Amy,TN,1481066938000.0,19728145
190490600,Nashville,,1472524347000.0,36.17,-86.78,Amy,TN,1486442264000.0,19728145
95860892,Nashville,,1485895706000.0,36.13,-86.77,Amy Brown,TN,1491575097000.0,19728145
237670327,Clifton,,1507309431000.0,40.85,-74.16,Amy Ferry,NJ,1508603743000.0,19728145
33994092,Murfreesboro,"Fort Oglethorpe, GA",1472515493000.0,35.78,-86.33,Amy LeTellier,TN,1473037507000.0,19728145
226402285,Goodlettsville,,1505968992000.0,36.32,-86.72,Amy Munguia,TN,1505968992000.0,19728145
211409871,Nashville,,1471809235000.0,36.17,-86.78,Amy Page,TN,1471809235000.0,19728145
225059669,Murfreesboro,Murfreesboro ,1491334091000.0,35.87,-86.44,Amy Roberts,TN,1496020467000.0,19728145
199387829,Antioch,,1461607202000.0,36.04,-86.64,Amy Z,TN,1507920766000.0,19728145
80142302,Nashville,,1466165457000.0,36.03,-86.79,Ana Nirina,TN,1507850129000.0,19728145
204871578,Clarksville,,1462873572000.0,36.49,-87.23,AnaKatarina Lalonde,TN,1462873572000.0,19728145
227713726,Nashville,,1500680137000.0,36.18,-86.81,Anand,TN,1500833031000.0,19728145
239238180,Nashville,,1508413783000.0,36.17,-86.78,Anderson Igor copper,TN,1508589289000.0,19728145
197902290,Murfreesboro,Murfreesboro,1476230716000.0,35.78,-86.33,Andie,TN,1500330890000.0,19728145
153501652,Nashville,,1482178087000.0,36.18,-86.74,Andrea,TN,1484769007000.0,19728145
182574366,Nashville,Nashville,1497227228000.0,36.11,-86.78,Andrea,TN,1507818525000.0,19728145
237526933,Clarksville,,1506496941000.0,36.56,-87.41,Andrea Blalock,TN,1506496941000.0,19728145
195757297,Nashville,,1498759420000.0,36.17,-86.72,andrea French,TN,1508681380000.0,19728145
226532440,Nashville,,1493387225000.0,36.16,-86.79,Andrea Lambert,TN,1508155979000.0,19728145
225882177,Nashville,,1492488261000.0,36.08,-86.72,Andrea P,TN,1493858133000.0,19728145
234124929,Nashville,,1502834508000.0,36.09,-86.82,Andrea Paulson,TN,1503572277000.0,19728145
20418,Nashville,"Huntington, WV",1458703997000.0,36.17,-86.72,Andrea Reynolds,TN,1486700943000.0,19728145
190195816,Nashville,"Bogotá, CO",1472939212000.0,36.13,-86.8,Andrés Felipe Rodríguez Buitrago,TN,1473388098000.0,19728145
187254868,Nashville,"Chattanooga, TN",1499785994000.0,36.17,-86.78,Andrew Clement,TN,1507651971000.0,19728145
194892095,Franklin,,1480944248000.0,35.92,-86.89,Andrew Franklin,TN,1507841170000.0,19728145
22256281,Anaheim,"Davis, CA",1463973157000.0,33.84,-117.87,Andrew Harden,CA,1501384676000.0,19728145
209171518,Clarksville,,1468716810000.0,36.53,-87.35,Andria,TN,1468716810000.0,19728145
204034654,Nashville,,1461640503000.0,36.17,-86.72,Angel,TN,1461640503000.0,19728145
235261736,Hermitage,,1504121618000.0,36.19,-86.6,Angel Koenig,TN,1504121618000.0,19728145
10460237,Spring Hill,Spring Hill,1458665093000.0,35.76,-86.88,Angela,TN,1487381460000.0,19728145
28245362,Franklin,"Greenville, OH",1463799382000.0,35.91,-86.84,Angela,TN,1507958430000.0,19728145
1962233,Nashville,Alabama,1494292388000.0,36.08,-86.72,ANGELA,TN,1496599211000.0,19728145
206915868,Murfreesboro,Murfreesboro ,1502474951000.0,35.87,-86.34,Angela Adams,TN,1502647935000.0,19728145
218067858,Clarksville,,1481504250000.0,36.49,-87.23,Angela Balthrop,TN,1481504250000.0,19728145
132479012,Nashville,,1478413271000.0,36.17,-86.78,Angela Camiolo,TN,1502469882000.0,19728145
227793890,Antioch,,1499962072000.0,36.04,-86.64,Angela D Hall,TN,1506784003000.0,19728145
214323124,Franklin,,1477407309000.0,35.93,-86.81,Angela M Helbig,TN,1502725466000.0,19728145
180878792,Brentwood,,1463074533000.0,36.0,-86.79,Angela Mink,TN,1467988436000.0,19728145
199655144,Nashville,,1460756470000.0,36.17,-86.78,Angela Nolan,TN,1465514148000.0,19728145
225421891,Nashville,,1491857827000.0,36.16,-86.79,Angela Renee,TN,1495204223000.0,19728145
203733990,Smithville,,1474414257000.0,35.96,-85.82,angelica roark,TN,1474414257000.0,19728145
230452366,Gallatin,,1498405475000.0,36.39,-86.45,Angie,TN,1499352347000.0,19728145
182459838,Nashville,,1508015810000.0,36.17,-86.78,Angie,TN,1508609545000.0,19728145
10083446,Franklin,,1458691464000.0,35.92,-86.89,Angie McKeehan,TN,1500677256000.0,19728145
10816904,Nashville,"Nashville, TN",1458874885000.0,36.16,-86.79,Anita,TN,1502276951000.0,19728145
224749493,Nashville,,1493757487000.0,36.08,-86.72,Anita D,TN,1507657164000.0,19728145
209957000,Franklin,,1469741239000.0,35.92,-86.89,Anita Murray,TN,1470086500000.0,19728145
140824002,Clarksville,Clarksville,1465614666000.0,36.53,-87.35,Anja OBrien,TN,1467241060000.0,19728145
45178062,Nashville,"Columbus, OH",1491052613000.0,36.17,-86.78,Ann,TN,1508604634000.0,19728145
99924752,Nashville,,1471595852000.0,36.17,-86.78,Ann Caudill,TN,1506911085000.0,19728145
187049149,Nashville,Nashville,1458738325000.0,36.11,-86.86,Anna,TN,1505188344000.0,19728145
228303901,Nashville,,1507754241000.0,36.11,-86.86,Anna Avery,TN,1507754241000.0,19728145
107162042,Nashville,Nashville,1485615113000.0,36.15,-86.86,Anne,TN,1496531495000.0,19728145
210310489,Hermitage,,1470229328000.0,36.19,-86.6,Anne Ertel-Sawasky,TN,1494172477000.0,19728145
191512916,Hendersonville,,1468183746000.0,36.31,-86.66,Anne Evans,TN,1508607519000.0,19728145
198188049,Franklin,,1468814828000.0,35.93,-86.81,Annette,TN,1508638441000.0,19728145
181761962,Franklin,"New York, NY",1458708874000.0,35.92,-86.89,Annie,TN,1487005606000.0,19728145
222498565,Nashville,,1490827631000.0,36.08,-86.72,Annie Hallquist,TN,1490846544000.0,19728145
195445175,Nashville,,1472945933000.0,36.14,-86.81,Annika,TN,1487638046000.0,19728145
221423715,Nashville,,1490410071000.0,36.17,-86.78,Annise Fitzgerald ,TN,1508603868000.0,19728145
218489682,Nashville,,1482327938000.0,36.08,-86.72,Anqunette Hollins,TN,1508352115000.0,19728145
203819181,Nashville,,1477359786000.0,36.13,-86.8,Anthony Ryan Warren,TN,1506733371000.0,19728145
11173720,Nashville,,1470458882000.0,36.17,-86.78,Antonia,TN,1508627636000.0,19728145
221871047,Nashville,,1492475371000.0,36.13,-86.67,Antonio C.,TN,1501473027000.0,19728145
227901641,Nashville,,1495233585000.0,36.15,-86.81,Anuz Razthala,TN,1499957683000.0,19728145
100930682,Nashville,,1477174329000.0,36.08,-86.72,Anwesa,TN,1477958241000.0,19728145
193248264,Nashville,,1465781244000.0,36.18,-86.74,April,TN,1505574739000.0,19728145
236882103,Smyrna,,1505788593000.0,35.97,-86.51,April Rojik,TN,1505788593000.0,19728145
14532681,Hermitage,Clarksville,1483962063000.0,36.19,-86.63,April Sheree Klein,TN,1507688067000.0,19728145
230216065,Nashville,,1498099654000.0,36.08,-86.72,Araz Amedy,TN,1498099654000.0,19728145
228001013,Nashville,,1495422077000.0,36.17,-86.78,Ari,TN,1497900701000.0,19728145
223253865,Nashville,,1488814784000.0,36.18,-86.74,Arianna Yarritu,TN,1489935380000.0,19728145
236975889,Nashville,,1505877611000.0,36.15,-86.86,Armel Bama,TN,1505877611000.0,19728145
224954611,Cookeville,,1491261059000.0,36.2,-85.52,Arveen Amiri,TN,1508173193000.0,19728145
212556898,Murfreesboro,,1473368331000.0,35.78,-86.33,Ashland Ferguson,TN,1473368331000.0,19728145
220472061,Nashville,,1485099755000.0,36.17,-86.78,Ashley ,TN,1485358241000.0,19728145
52789182,Nashville,Nashville,1490479620000.0,36.08,-86.72,Ashley,TN,1501884484000.0,19728145
152663212,Nashville,"Birmingham, AL",1461010131000.0,36.14,-86.82,Ashley,TN,1465412620000.0,19728145
118216602,Nashville,"Columbus, OH",1471745824000.0,36.08,-86.72,Ashley,TN,1475032169000.0,19728145
225719614,Nashville,,1492253368000.0,36.17,-86.78,Ashley Kiel,TN,1492253368000.0,19728145
206714130,Nashville,,1465388978000.0,36.11,-86.86,Ashley Nicole Marshall,TN,1465388978000.0,19728145
206858217,Spring Hill,,1465583705000.0,35.76,-86.88,Ashley Pierre,TN,1465583705000.0,19728145
210271392,Lebanon,,1470361744000.0,36.21,-86.31,Ashley Steimle,TN,1473706748000.0,19728145
211996265,Franklin,Coos Bay,1494851220000.0,35.92,-86.89,Ashley Tate,TN,1494851220000.0,19728145
223944054,Nashville,,1489776448000.0,36.17,-86.78,Ashli,TN,1489776448000.0,19728145
225228594,Clarksville,,1491581571000.0,36.53,-87.35,Aspen Osborne,TN,1496458856000.0,19728145
206212552,Gallatin,,1464719146000.0,36.39,-86.45,Audra,TN,1471907153000.0,19728145
233387655,Brentwood,,1505501903000.0,36.03,-86.79,Audrey,TN,1508731734000.0,19728145
187496418,Baxter,,1476754510000.0,36.16,-85.64,Audrey,TN,1503690012000.0,19728145
217615480,Mount Juliet,Mount Juliet,1486738268000.0,36.22,-86.52,Audrey P. M.,TN,1487784735000.0,19728145
232300966,Clarksville,,1500647684000.0,36.56,-87.41,Austin Wheeler,TN,1501798606000.0,19728145
217663750,Nashville,,1480801425000.0,36.17,-86.78,Axl Velten,TN,1497933079000.0,19728145
184388075,Hopkinsville,,1466870544000.0,36.87,-87.48,Barb Armstrong,KY,1472566740000.0,19728145
193751763,Beaver Falls,Beaver falls,1480306046000.0,40.76,-80.34,Barb Britton,PA,1507073113000.0,19728145
98742322,Murfreesboro,,1467318189000.0,35.87,-86.44,Barbara,TN,1499292014000.0,19728145
5343879,Nashville,,1503805262000.0,36.22,-86.77,Barbara Dale,TN,1503805262000.0,19728145
33155302,Brentwood,,1460166095000.0,36.0,-86.79,Barbara F,TN,1497474447000.0,19728145
71424452,Nashville,,1458662227000.0,36.17,-86.78,Barbara L.,TN,1508766782000.0,19728145
198309808,Goodlettsville,Goodlettsville,1459344995000.0,36.33,-86.74,Barbara/Cookie (previously H),TN,1508623329000.0,19728145
237854922,Brentwood,,1506874487000.0,36.0,-86.79,Barbie Hayes,TN,1508591963000.0,19728145
203538181,Barcelona,,1477834691000.0,41.4,2.17,Bea,,1479516446000.0,19728145
216074164,Nashville,Cincinnati,1503446157000.0,36.16,-86.79,Becca,TN,1503772048000.0,19728145
174329642,Brentwood,,1464807287000.0,36.0,-86.79,Becki,TN,1508038388000.0,19728145
13701322,Brentwood,Nashville,1492482923000.0,36.0,-86.79,Beckie Woodmore,TN,1499188891000.0,19728145
25034832,Thompsons Station,Thompsons Station,1468704479000.0,35.8,-86.9,Becky Favorite,TN,1507417341000.0,19728145
209447556,Murfreesboro,,1469319950000.0,35.78,-86.33,Becky Shults,TN,1508290675000.0,19728145
195574437,Springfield,Brentwood,1458441936000.0,36.52,-86.87,Bernadette Webster,TN,1508728790000.0,19728145
183297218,Nashville,"Chicago, IL",1496761173000.0,36.17,-86.78,Beth,TN,1508607905000.0,19728145
208753729,Brentwood,,1496580794000.0,36.0,-86.79,Beth,TN,1497610297000.0,19728145
6967585,Nashville,North Andover,1498450992000.0,36.17,-86.78,BETH MARTENS,TN,1498525440000.0,19728145
222171588,Nashville,,1487288512000.0,36.08,-86.72,Beth Pinkerton,TN,1505945834000.0,19728145
5766763,Nashville,Memphis,1474940971000.0,36.17,-86.78,Bethany,TN,1494532981000.0,19728145
168571052,Nashville,,1501425826000.0,36.13,-86.8,Betsy,TN,1501425826000.0,19728145
235109335,Murfreesboro,,1503957639000.0,35.87,-86.44,Bette Jo Love,TN,1503957639000.0,19728145
20738801,Nashville,,1461609571000.0,36.11,-86.86,Betty sanders,TN,1507637297000.0,19728145
222376725,Murfreesboro,,1487576772000.0,35.87,-86.34,Bettye Steele,TN,1494708267000.0,19728145
227927111,Nashville,,1495230466000.0,36.16,-86.79,Beverly Brandon,TN,1499720562000.0,19728145
155477052,Nashville,,1504051575000.0,36.08,-86.72,BeverlyS,TN,1508076019000.0,19728145
83029142,Old Hickory,Old Hickory,1469413658000.0,36.25,-86.63,Bill  Steed,TN,1508599276000.0,19728145
204678126,Oak Lawn,,1462604560000.0,41.71,-87.76,Bill Alshaikhy,IL,1465892255000.0,19728145
223905771,Nashville,,1489715361000.0,36.06,-86.96,Bill Burns,TN,1489715361000.0,19728145
232720500,Springfield,,1501166024000.0,36.52,-86.87,Bill French,TN,1501378647000.0,19728145
23308701,Nashville,,1458751584000.0,36.09,-86.82,Bill Hill,TN,1506220123000.0,19728145
198067348,Nashville,"Hackensack, NJ",1459441136000.0,36.08,-86.72,Bill P.,TN,1499798252000.0,19728145
222289339,Nashville,,1487453911000.0,36.17,-86.72,Birtha Street,TN,1487453911000.0,19728145
35865872,Goodlettsville,,1460422099000.0,36.32,-86.72,bjnorthern,TN,1460422099000.0,19728145
2192820,Nashville,"Santa Maria, CA",1459946987000.0,36.15,-86.86,Blainey,TN,1499082637000.0,19728145
227530431,Pulaski,,1495077544000.0,35.19,-87.03,Blake Marks,TN,1506623434000.0,19728145
208454128,Nashville,,1467770026000.0,36.08,-86.72,Blake Salmons,TN,1467770026000.0,19728145
237182533,Nashville,,1506114703000.0,36.17,-86.78,Blanca Rosa,TN,1506696527000.0,19728145
37118292,Gallatin,,1476456248000.0,36.39,-86.45,Bob,TN,1507412965000.0,19728145
158910422,Spring Hill,,1458750565000.0,35.76,-86.88,Bob Campbell,TN,1508677494000.0,19728145
225323359,Nashville,,1492057342000.0,36.11,-86.78,Bob Harwell,TN,1492066193000.0,19728145
11247133,Greenbrier,,1475120188000.0,36.42,-86.8,Bob S,TN,1508609476000.0,19728145
184825537,Nashville,"Nashville, TN",1484973936000.0,36.17,-86.78,Bobby,TN,1508440356000.0,19728145
194057278,Clarksville,,1501606809000.0,36.53,-87.35,Bobby,TN,1508726806000.0,19728145
229357858,Nashville,,1497027014000.0,36.06,-86.96,Bobby Yeager,TN,1497027014000.0,19728145
216494258,Nashville,,1478914693000.0,36.17,-86.78,boiaryntseva,TN,1490754360000.0,19728145
109089102,Nashville,,1459948848000.0,36.16,-86.79,Bonnie,TN,1508080128000.0,19728145
57492662,Bentonville,Fort Smith,1487298865000.0,36.38,-94.21,Bonnie B.,AR,1487646982000.0,19728145
202806430,Nashville,,1508337080000.0,36.16,-86.79,Brad,TN,1508459754000.0,19728145
235013176,Franklin,,1505964397000.0,35.92,-86.89,Brad,TN,1508605733000.0,19728145
217311548,Smyrna,,1480199979000.0,35.97,-86.51,Brad Frazier,TN,1480199979000.0,19728145
211781851,Clarksville,,1472322627000.0,36.56,-87.41,Brandon Robb,TN,1506556596000.0,19728145
212348977,Nashville,,1473098905000.0,36.17,-86.78,Brandy Dufrane,TN,1473098905000.0,19728145
182588103,Murfreesboro,,1479598049000.0,35.78,-86.33,Bree,TN,1479598049000.0,19728145
235264779,Franklin,,1506606831000.0,35.92,-86.89,Brenda,TN,1508327668000.0,19728145
210978000,Murfreesboro,,1474759000000.0,35.78,-86.33,Brenda Sanders,TN,1477594828000.0,19728145
103496962,Columbia,Columbia,1469485467000.0,35.61,-87.05,Brenda Slanga,TN,1508375304000.0,19728145
209963734,Nashville,,1469750613000.0,36.17,-86.78,Brian,TN,1507825877000.0,19728145
217679870,Thompsons Station,,1480827475000.0,35.8,-86.9,Brian,TN,1490547717000.0,19728145
206226839,Antioch,,1464735269000.0,36.04,-86.64,Brian Remund,TN,1464735269000.0,19728145
212028545,Nashville,,1472657136000.0,36.06,-86.96,Brian Scott Jones,TN,1473284244000.0,19728145
12957704,Nashville,,1480247984000.0,36.13,-86.8,Brian Tuesca,TN,1507844808000.0,19728145
64455192,Mount Juliet,Los Angeles,1458750165000.0,36.21,-86.52,Brianna,TN,1506595614000.0,19728145
12299392,Nashville,,1496092049000.0,36.13,-86.8,Bridgette Kohnhorst,TN,1500759963000.0,19728145
154488962,Nashville,,1471965278000.0,36.17,-86.78,Brittany,TN,1500170494000.0,19728145
237144250,Nashville,,1506073403000.0,36.06,-86.96,Brittany ,TN,1506073403000.0,19728145
230106057,Nashville,,1497986401000.0,36.17,-86.78,Brittany,TN,1497986401000.0,19728145
204057246,Nashville,,1461769102000.0,36.17,-86.78,Brittany Ann Portman,TN,1488251577000.0,19728145
190647576,Murfreesboro,,1472482057000.0,35.78,-86.33,Brittany Cupp,TN,1472482057000.0,19728145
212030026,Marshfield,Marshfield,1472658946000.0,42.13,-70.74,Brittany McLure,MA,1472658946000.0,19728145
187445713,Nashville,,1492107140000.0,36.08,-86.72,Brittany Purvis,TN,1507648195000.0,19728145
208045057,Cookeville,,1467213547000.0,36.2,-85.52,Brittnay White,TN,1469930645000.0,19728145
236389949,Murfreesboro,,1505770181000.0,35.87,-86.34,Brook Breece,TN,1505770181000.0,19728145
205962020,Nashville,,1466532215000.0,36.17,-86.78,Brook Sutton,TN,1470675505000.0,19728145
215875831,Nashville,,1478299365000.0,36.17,-86.78,Brooke,TN,1480448163000.0,19728145
214643052,Gallatin,,1476038450000.0,36.39,-86.45,Brooke Bailey,TN,1476038450000.0,19728145
231911900,Manchester,,1500166634000.0,35.47,-86.08,Bruno García,TN,1500166634000.0,19728145
129122472,Antioch,,1482286470000.0,36.17,-86.88,Bryan Overbey,TN,1502576543000.0,19728145
216267622,Franklin,,1478486293000.0,35.92,-86.89,Bud Vassar,TN,1507552470000.0,19728145
11107841,Nashville,,1477091357000.0,36.17,-86.72,Buddy Strickland,TN,1505070516000.0,19728145
13260727,Clarksville,Clarksville,1462618439000.0,36.56,-87.41,Byron,TN,1481400621000.0,19728145
134335252,Nashville,,1460176629000.0,36.08,-86.72,C. Wayne Pharris,TN,1507305293000.0,19728145
209932580,Spring Hill,,1469712812000.0,35.76,-86.88,Caitlin Kloss,TN,1469712812000.0,19728145
220153459,Nashville,,1484708111000.0,36.17,-86.79,Caity,TN,1484708111000.0,19728145
221305173,Nashville,,1495732151000.0,36.17,-86.72,CallieC,TN,1495732151000.0,19728145
235722925,Clarksville,,1504629990000.0,36.53,-87.35,Capps Christopher,TN,1504629990000.0,19728145
230220250,Nashville,,1501170679000.0,36.17,-86.78,Carissa Rundle,TN,1501170679000.0,19728145
224458931,Murfreesboro,"Winnie, TX",1492118930000.0,35.78,-86.33,Carl Keating,TN,1508535852000.0,19728145
221587165,Nashville,,1486491903000.0,36.06,-86.96,Carla Smith,TN,1486491903000.0,19728145
219829422,Murfreesboro,,1484274658000.0,35.78,-86.33,Carleen,TN,1489486829000.0,19728145
210940690,Nashville,,1471134862000.0,36.17,-86.78,Carley,TN,1471134862000.0,19728145
215365962,Murfreesboro,,1477094086000.0,35.87,-86.44,Carlos Carranza,TN,1477094086000.0,19728145
225794967,Nashville,,1493692520000.0,36.13,-86.67,Carlos Romero,TN,1493692520000.0,19728145
203201181,Hermitage,,1460448774000.0,36.19,-86.6,Carlton Jenkins,TN,1470672711000.0,19728145
67798422,Nashville,New Orleans,1495047183000.0,36.14,-86.74,Carly,TN,1500681110000.0,19728145
220818378,Nashville,,1485528308000.0,36.17,-86.72,Carnetta Dansby,TN,1507647392000.0,19728145
38506582,Brentwood,,1473538041000.0,35.97,-86.82,Carol,TN,1506632311000.0,19728145
187639969,Murfreesboro,Murfreesboro,1486466310000.0,35.87,-86.34,Carol,TN,1508756551000.0,19728145
11656125,Nashville,,1472358116000.0,36.15,-86.86,Carol Buttenham,TN,1490560028000.0,19728145
50452172,Nashville,Nashville,1463370028000.0,36.17,-86.72,Carol M.,TN,1508440049000.0,19728145
212329432,Gallatin,,1495592303000.0,36.39,-86.45,Carol Walker,TN,1495592303000.0,19728145
232552033,Nashville,,1500954940000.0,36.06,-86.96,Carole Scherling,TN,1503094173000.0,19728145
223111033,Nashville,,1504054007000.0,36.08,-86.72,Carolyn ,TN,1504054007000.0,19728145
121021612,Nashville,"Quincy, MA",1459904757000.0,36.17,-86.78,Carolyn,TN,1489886749000.0,19728145
234453313,Nashville,,1503197884000.0,36.17,-86.78,Carolyn ,TN,1503197884000.0,19728145
189780875,Nashville,,1486934507000.0,36.21,-86.72,Carolyn Griggs,TN,1493163351000.0,19728145
238465517,Nashville,,1507535348000.0,36.22,-86.86,Carolyn H.,TN,1507610226000.0,19728145
214080908,Franklin,,1475330833000.0,35.92,-86.89,Carrie Jugan,TN,1475330833000.0,19728145
104289252,Nashville,Cedar Park,1484258961000.0,36.17,-86.78,Cassi Aleman,TN,1489168240000.0,19728145
185694785,Nashville,Fort Collins,1508650965000.0,36.16,-86.77,Cat,TN,1508767002000.0,19728145
183896718,Franklin,nashville,1489095685000.0,35.93,-86.81,Catharine ,TN,1490386162000.0,19728145
12128207,Franklin,"Columbia, SC",1506127200000.0,35.93,-86.81,Catherine,TN,1508600093000.0,19728145
185225109,Nashville,,1463315887000.0,36.18,-86.81,Catherine Epstein,TN,1465409094000.0,19728145
226345625,Smyrna,,1493098682000.0,35.97,-86.51,Catherine Orman,TN,1493098682000.0,19728145
205535742,Nashville,,1463767922000.0,36.08,-86.72,Cathery LeBouef,TN,1484921534000.0,19728145
224519666,Nashville,,1490576482000.0,36.17,-86.78,Cathy,TN,1490576482000.0,19728145
232538888,Nashville,,1500941017000.0,36.13,-86.8,Cathy Ellis,TN,1500941017000.0,19728145
140103122,Hendersonville,Hendersonville,1489107476000.0,36.32,-86.61,Cathy Joki,TN,1507582557000.0,19728145
186077282,Franklin,,1483047028000.0,35.92,-86.89,Cathy Sparacia,TN,1483077673000.0,19728145
190701974,Homestead,,1503938501000.0,25.48,-80.51,Catie White,FL,1503938501000.0,19728145
191966482,Nashville,Nashville,1461166444000.0,36.22,-86.77,cayala,TN,1497407852000.0,19728145
230966901,Nashville,,1499037583000.0,36.06,-86.96,Ceci Figueroa,TN,1501130160000.0,19728145
53734912,Nashville,,1467660414000.0,36.17,-86.78,Celina Roth,TN,1498699833000.0,19728145
212054560,Nashville,,1472688294000.0,36.11,-86.78,Celina Scruggs,TN,1472688294000.0,19728145
221617528,Hopkinsville,,1486641153000.0,36.87,-87.48,Celina Wilhelm,KY,1487776914000.0,19728145
9704343,Nashville,"Macon, GA",1468139009000.0,36.06,-86.96,Chad S. Wrye,TN,1483120642000.0,19728145
13689903,Dickson,dickson,1499994892000.0,36.08,-87.43,Chancey Hall,TN,1499994892000.0,19728145
15519011,Nashville,,1465789342000.0,36.17,-86.78,Chantil Huskey,TN,1489939596000.0,19728145
222006724,Nashville,,1493162620000.0,36.08,-86.72,Char Wood,TN,1493162620000.0,19728145
138966802,Nashville,,1478386851000.0,36.13,-86.8,charlayne trotter,TN,1506285811000.0,19728145
54121472,Smyrna,Smyrna,1501298220000.0,35.97,-86.51,Charlene Elizabeth Jones,TN,1507009169000.0,19728145
209149276,Kennesaw,,1468691861000.0,34.03,-84.62,Charlene Taylor,GA,1468691861000.0,19728145
206296158,Brentwood,,1464831391000.0,36.0,-86.79,Charles,TN,1500668093000.0,19728145
217565232,Nashville,,1482012850000.0,36.11,-86.86,Charli,TN,1487551831000.0,19728145
93835242,Nashville,,1458666090000.0,36.18,-86.74,Charlie Godart,TN,1471637328000.0,19728145
116753932,Franklin,Nashville,1481647888000.0,35.92,-86.89,Charlie Kaser,TN,1483620692000.0,19728145
78550462,Murfreesboro,,1458820691000.0,35.85,-86.36,Charmaine,TN,1496105847000.0,19728145
152698732,Murfreesboro,"Des Moines, IA",1500217369000.0,35.78,-86.33,Charniqua Wilson,TN,1504764273000.0,19728145
208270091,Nashville,,1467529683000.0,36.08,-86.72,Charray Kennedy,TN,1470528448000.0,19728145
208977633,Leitchfield,"Leitchfield, KY",1468458226000.0,37.48,-86.3,Chell Law,KY,1481919156000.0,19728145
89126592,Nashville,,1458663080000.0,36.06,-86.96,chelsea,TN,1458921668000.0,19728145
222237132,Spring Hill,,1487376185000.0,35.76,-86.88,cherry,TN,1487376185000.0,19728145
132106482,Nashville,,1480566348000.0,36.17,-86.78,Cheryl,TN,1480566348000.0,19728145
221125818,Murfreesboro,,1485909106000.0,35.78,-86.33,Cheryl Smith,TN,1485909106000.0,19728145
236803469,Springfield,,1505720517000.0,36.52,-86.87,Chester,TN,1506720249000.0,19728145
191220068,Franklin,,1476318906000.0,35.92,-86.89,Chris ,TN,1507846055000.0,19728145
184735550,Antioch,,1486520520000.0,36.17,-86.88,Chris,TN,1501865959000.0,19728145
236338727,Nashville,,1505252766000.0,36.18,-86.74,Chris ,TN,1505252766000.0,19728145
73166632,Ridgetop,"Springfield, TN",1468289611000.0,36.48,-86.87,Chris,TN,1480981283000.0,19728145
99836252,Louisville,,1484423714000.0,38.26,-85.61,Chris,KY,1504920631000.0,19728145
12255707,Thompsons Station,,1487518316000.0,35.8,-86.9,Chris Ankele,TN,1487518316000.0,19728145
222982089,Franklin,,1488416596000.0,35.93,-86.81,Chris Burnette,TN,1499216116000.0,19728145
237594753,Nashville,,1507368011000.0,36.17,-86.78,Chris J,TN,1508466875000.0,19728145
194777855,Sevierville,,1494546223000.0,35.87,-83.53,Chris Lee,TN,1494546223000.0,19728145
116916932,Nashville,"Auburn, CA",1471549285000.0,36.13,-86.8,Chris Paoli,TN,1471549285000.0,19728145
236031527,Welchs Creek,,1508512628000.0,37.29,-86.5,Chris Robertson,KY,1508604137000.0,19728145
10758349,Nashville,Nashville,1502109098000.0,36.08,-86.72,Chris Saunders,TN,1507439416000.0,19728145
211788050,Nashville,,1472329767000.0,36.17,-86.78,Chrissy,TN,1472329767000.0,19728145
209600773,Nashville,,1469282233000.0,36.17,-86.78,Christian Tabarez,TN,1470719281000.0,19728145
183070324,Murfreesboro,,1486683666000.0,35.87,-86.34,Christie,TN,1486683666000.0,19728145
213568281,Antioch,"Nashville, tennessee",1487123218000.0,36.05,-86.62,Christie Cigainero,TN,1500128751000.0,19728145
112299162,Clarksville,Clarksville ,1479761997000.0,36.53,-87.35,christie nelson,TN,1479761997000.0,19728145
221830992,Mount Juliet,,1486821912000.0,36.21,-86.52,Christina Ayotte,TN,1497634890000.0,19728145
229515491,Tullahoma,,1497221827000.0,35.37,-86.21,Christina Bartelt,TN,1497221827000.0,19728145
209847376,Clarksville,,1469592207000.0,36.53,-87.35,Christina DeLapp,TN,1497238769000.0,19728145
223646557,Nashville,,1489540196000.0,36.17,-86.78,Christina G.,TN,1507892118000.0,19728145
219290165,Nashville,,1490844113000.0,36.15,-86.68,Christina Shoptaw,TN,1495238665000.0,19728145
10055195,Murfreesboro,,1462233228000.0,35.87,-86.44,Christine,TN,1508103409000.0,19728145
232121093,Nashville,Nashville,1502765529000.0,36.13,-86.8,Christine Joy,TN,1502765529000.0,19728145
183578799,Nashville,,1469500561000.0,36.06,-86.96,christine schroeder,TN,1498735057000.0,19728145
14160964,Nashville,,1487381510000.0,36.17,-86.72,Christopher Andrews,TN,1508800728000.0,19728145
42954682,Nashville,,1483901155000.0,36.17,-86.78,Christy Hunt,TN,1505775309000.0,19728145
229717665,Columbia,,1497473847000.0,35.61,-87.05,Chuck Crisco,TN,1501273932000.0,19728145
34633322,Smyrna,,1464471317000.0,35.97,-86.51,Chuck Guy,TN,1508607575000.0,19728145
33198752,Nashville,"Baltimore, MD",1459886505000.0,36.16,-86.79,Cindy,TN,1499737287000.0,19728145
4579315,Nashville,"Nashville, Tennessee",1468277566000.0,36.21,-86.72,Cindy,TN,1508547926000.0,19728145
1726285,Petersburg,PETERSBURG,1496422599000.0,40.0,-89.85,Cindy,IL,1498834387000.0,19728145
53516852,Franklin,,1465861031000.0,35.92,-86.89,Cindy,TN,1495238060000.0,19728145
9043499,Spring Hill,"Manitowoc, WI",1474224548000.0,35.76,-86.88,Cindy Brown,TN,1508543789000.0,19728145
181187742,Nashville,Nashville,1469492064000.0,36.1,-86.66,Cindy Loyola,TN,1487619661000.0,19728145
221452659,Nashville,,1506376426000.0,36.17,-86.78,Cindy Martin,TN,1507900541000.0,19728145
11462026,Murfreesboro,murfreesboro,1460401637000.0,35.87,-86.34,Cindy Sue Whitaker,TN,1507100882000.0,19728145
221204411,Nashville,,1486058611000.0,36.13,-86.8,Cindy T Rahn,TN,1504914582000.0,19728145
224919839,Brentwood,,1491142783000.0,36.0,-86.79,CJ Six,TN,1491142783000.0,19728145
182480471,Old Hickory,,1478648185000.0,36.25,-86.63,Clark Causey,TN,1490477121000.0,19728145
234510721,Mount Juliet,,1503266210000.0,36.21,-86.52,Clay Jones,TN,1505312221000.0,19728145
135507172,Franklin,,1479409679000.0,35.92,-86.89,Clayton Johnson,TN,1483551218000.0,19728145
201809446,Spring Hill,,1458417156000.0,35.76,-86.88,Cliff,TN,1458417156000.0,19728145
106178752,Indianapolis,Indianapolis,1491441691000.0,39.77,-86.11,Clint Mahoney,IN,1491441691000.0,19728145
103338452,Murfreesboro,,1493763517000.0,35.78,-86.4,Cody,TN,1493763517000.0,19728145
206628724,Gallatin,,1465281292000.0,36.39,-86.45,Colleen Lloyd,TN,1467320015000.0,19728145
211371242,Nashville,,1471752936000.0,36.16,-86.79,Colleen Spain,TN,1471752936000.0,19728145
206457912,Nashville,,1465059534000.0,36.08,-86.72,Collin Honeycutt,TN,1465059534000.0,19728145
11317542,Cottontown,"Springfield, IL",1484245054000.0,36.49,-86.59,Connie Cooper,TN,1503069968000.0,19728145
213200089,Nolensville,Brentwood,1498476366000.0,35.94,-86.67,Connie Rhinehart,TN,1508279512000.0,19728145
182763054,Arrington,,1474217321000.0,35.86,-86.66,Connie Rhinehart,TN,1496748603000.0,19728145
26085612,Nashville,Carlsbad,1499274067000.0,36.08,-86.72,Corey White,TN,1507253023000.0,19728145
181737072,Smyrna,,1486168407000.0,35.97,-86.51,Corinne Morgan,TN,1507247001000.0,19728145
182854229,Smyrna,,1484764337000.0,35.97,-86.51,Corinne Morgan,TN,1493082470000.0,19728145
3856155,Dayton,cincinnati,1493319645000.0,39.61,-84.16,cory,OH,1493420276000.0,19728145
186394449,Nashville,Brentwood,1492203318000.0,36.08,-86.72,Courtney,TN,1492203318000.0,19728145
204635405,Franklin,,1487867337000.0,35.92,-86.89,Craig,TN,1508382677000.0,19728145
226938907,Nashville,,1493904266000.0,36.17,-86.78,Cristina Martínez de Carrasco,TN,1493904266000.0,19728145
12269233,Nashville,Guadalajara,1473522139000.0,36.17,-86.78,Cristy Corona,TN,1483850383000.0,19728145
208672655,Chattanooga,"Hixson, TN",1472277875000.0,35.04,-85.31,Crystal Taylor,TN,1472277875000.0,19728145
45525172,Nashville,Nashville,1469249431000.0,36.15,-86.86,Crystalena Haney,TN,1483304524000.0,19728145
162268392,Franklin,,1508451528000.0,35.92,-86.89,Curt,TN,1508451528000.0,19728145
124644362,Mc Minnville,Wilmington,1464040977000.0,35.68,-85.78,Curtis,TN,1494169381000.0,19728145
214605910,Nashville,,1475977147000.0,36.14,-86.74,Curtis Mosher ,TN,1477027184000.0,19728145
79172332,Nashville,Maryland,1464147448000.0,36.15,-86.86,Cynthia ,TN,1476235407000.0,19728145
205704257,Brentwood,,1487904644000.0,36.0,-86.79,Cynthia D. Moore,TN,1490103154000.0,19728145
234588058,Hendersonville,,1506887638000.0,36.32,-86.61,D,TN,1508449697000.0,19728145
9115703,Nashville,,1490312512000.0,36.13,-86.8,D. R. White,TN,1507838393000.0,19728145
219262628,Nashville,,1484662415000.0,36.15,-86.8,Dan and Tina Sanders,TN,1503085193000.0,19728145
229693920,Nashville,,1497446795000.0,36.06,-86.96,Dan Butler,TN,1501371859000.0,19728145
202000479,Monterrey,,1478112910000.0,25.67,-100.32,Dan Cordero,,1484961146000.0,19728145
206087141,Murfreesboro,,1468895799000.0,35.82,-86.45,Dan Hays,TN,1499484835000.0,19728145
41855402,Nashville,"Elizabethtown, KY",1493952579000.0,36.13,-86.7,Dan Meredith,TN,1508009450000.0,19728145
212243049,Nashville,,1483850633000.0,36.17,-86.72,Dana,TN,1488668819000.0,19728145
9831878,Nashville,"Miami Springs, FL",1458729679000.0,36.18,-86.74,Dana,TN,1508719499000.0,19728145
13273531,Smyrna,,1464319749000.0,35.97,-86.51,Dana,TN,1508808187000.0,19728145
234482199,Columbia,,1503237029000.0,35.62,-87.03,Dana Ladd,TN,1507258610000.0,19728145
195231923,Southfield,,1480806538000.0,42.47,-83.29,Dani,MI,1480806538000.0,19728145
16585541,Nashville,,1470926217000.0,36.17,-86.78,Daniel Cox,TN,1508536134000.0,19728145
10559810,Nashville,,1474597127000.0,36.16,-86.79,Daniel Gann,TN,1475983644000.0,19728145
214358433,Gallatin,,1486685432000.0,36.39,-86.45,Daniel Gregory,TN,1500164258000.0,19728145
18711121,Altamonte Springs,altamonte springs,1475787195000.0,28.67,-81.41,Daniella,FL,1482206440000.0,19728145
102331622,Ashland City,Ashland City,1484242716000.0,36.28,-87.07,Danielle,TN,1484242716000.0,19728145
130988532,Chicago,"Chicago, IL",1470458751000.0,41.88,-87.62,Danielle McGee,IL,1472326197000.0,19728145
202597783,Nashville,,1499092421000.0,36.18,-86.74,Danni,TN,1499545450000.0,19728145
2220997,Fairview,"Fairview, TN",1470705440000.0,35.97,-87.13,Danny,TN,1497932997000.0,19728145
233242359,Nashville,,1506656354000.0,36.17,-86.78,Darla Spears,TN,1506656354000.0,19728145
216780271,Nashville,,1501522655000.0,36.17,-86.78,Darlene,TN,1508547849000.0,19728145
226811357,Nashville,,1500385883000.0,36.06,-86.96,Dave,TN,1507646622000.0,19728145
206843171,Nashville,,1487462545000.0,36.15,-86.79,David,TN,1507677120000.0,19728145
183047646,Franklin,,1468274607000.0,35.92,-86.89,David,TN,1472236468000.0,19728145
223312572,Nashville,,1498400052000.0,36.13,-86.8,David,TN,1507735981000.0,19728145
34585292,Nashville,"New York, NY",1497663484000.0,36.17,-86.78,David Diamond,TN,1508129281000.0,19728145
12925095,Nashville,Knoxville,1474833602000.0,36.21,-86.72,David Drake,TN,1474833602000.0,19728145
209660386,Hermitage,,1489574064000.0,36.19,-86.6,David G.,TN,1506549707000.0,19728145
201822256,Nashville,,1458433445000.0,36.06,-86.96,David Hall,TN,1492396485000.0,19728145
217476844,Nashville,,1480473517000.0,36.06,-86.96,David Lewis,TN,1497616082000.0,19728145
219971231,Humble,,1484726361000.0,30.0,-95.28,David Liu,TX,1484726361000.0,19728145
68737692,Ojai,,1477521638000.0,34.45,-119.25,David Morris,CA,1493995375000.0,19728145
216092618,Murfreesboro,,1478800523000.0,35.85,-86.36,David Palomeque,TN,1505176948000.0,19728145
230345052,Nashville,,1498263372000.0,36.15,-86.86,David Seckman,TN,1503061426000.0,19728145
61122382,Austin,,1472237653000.0,30.4,-97.75,David Self,TX,1472237653000.0,19728145
144256692,Nashville,,1487106373000.0,36.15,-86.86,David VanWie,TN,1492296190000.0,19728145
226787030,Nashville,Nashville,1493696102000.0,36.06,-86.96,David williams,TN,1501258207000.0,19728145
226037387,Hermitage,,1492692970000.0,36.19,-86.6,David. G,TN,1497490166000.0,19728145
228533008,West Palm Beach,West Palm Beach,1501008051000.0,26.66,-80.26,Davy Yue,FL,1501885992000.0,19728145
218758085,Brentwood,Nashville ,1494286625000.0,36.0,-86.79,Dawn,TN,1499461060000.0,19728145
185532751,Nashville,Nashville ,1484968527000.0,36.17,-86.72,Dawn,TN,1507719923000.0,19728145
120137392,Nashville,,1470030909000.0,36.17,-86.78,Dawn,TN,1471438693000.0,19728145
189401341,Nashville,Nashville,1479291498000.0,36.21,-86.72,Dawn Draper Lawson,TN,1507944901000.0,19728145
232240829,Franklin,,1500602420000.0,35.92,-86.89,Dawn Lind,TN,1506729162000.0,19728145
226310667,Lewisburg,,1493056849000.0,35.45,-86.8,Dayna Souders,TN,1498759856000.0,19728145
111592472,Franklin,,1470089265000.0,35.93,-86.81,Deb McKenzie,TN,1505503094000.0,19728145
188942274,Nashville,,1459185637000.0,36.17,-86.72,Debbie C,TN,1487196100000.0,19728145
200057646,Nashville,Nashville,1458662441000.0,36.06,-86.96,Debbie Christensen,TN,1459790717000.0,19728145
60790102,Pleasant View,Pleasant View,1487724070000.0,36.38,-87.04,Debbie Cormier Robichaud,TN,1490113706000.0,19728145
29532352,Greenbrier,,1458688627000.0,36.43,-86.8,Debbie M,TN,1508634571000.0,19728145
19366751,Franklin,,1486752082000.0,35.92,-86.89,Debbie R,TN,1501951907000.0,19728145
49743012,Fairview,"Hernando County, FL",1470745353000.0,35.97,-87.13,Debi,TN,1507635307000.0,19728145
11742625,Nashville,,1462582787000.0,36.14,-86.74,Debi,TN,1485985471000.0,19728145
208914122,Columbia,,1468372382000.0,35.61,-87.05,Deborah,TN,1468580689000.0,19728145
204097214,Old Hickory,,1463613762000.0,36.25,-86.63,Deborah,TN,1508524991000.0,19728145
11674317,Nashville,,1492025227000.0,36.16,-86.79,Deborah,TN,1503664976000.0,19728145
215952752,Hermitage,,1479148516000.0,36.19,-86.6,Deborah Abrams,TN,1507664656000.0,19728145
174993022,Hendersonville,,1472818672000.0,36.32,-86.61,Debra,TN,1472940163000.0,19728145
50831312,Nashville,,1488848602000.0,36.17,-86.78,Debra,TN,1497743922000.0,19728145
3156031,Hermitage,,1458823669000.0,36.19,-86.6,Debra,TN,1483405377000.0,19728145
168101822,Nashville,,1461264572000.0,36.17,-86.72,Debra Manning,TN,1497146519000.0,19728145
2179235,Nashville,,1458393827000.0,36.07,-86.78,Dee,TN,1508535932000.0,19728145
151176272,Atlanta,,1492873515000.0,33.85,-84.31,Dee,GA,1497065955000.0,19728145
209148366,Nashville,,1468703904000.0,36.17,-86.78,Dee,TN,1495210037000.0,19728145
185535083,Franklin,,1464477620000.0,35.92,-86.89,Dee Ann ,TN,1502234111000.0,19728145
233494248,Lebanon,,1502112993000.0,36.21,-86.31,Dee Fontenot,TN,1502198983000.0,19728145
222317800,Pune,Pune,1491886012000.0,18.53,73.84,Deepak Gupta,,1491886012000.0,19728145
205677713,Nashville,nashville,1474977006000.0,36.17,-86.79,Delaney,TN,1506650901000.0,19728145
110255062,Hermitage,"Nashville, TN",1486856019000.0,36.19,-86.6,Delilah Massarotti,TN,1507471066000.0,19728145
199634900,Clarksville,,1474813381000.0,36.53,-87.35,Delynn,TN,1475027720000.0,19728145
13678954,Spring Hill,,1472495259000.0,35.76,-86.88,Deme Pinchek,TN,1503024031000.0,19728145
183223448,Fort Campbell,,1499501048000.0,36.65,-87.46,Demetrius Rashaad Smith,KY,1506293624000.0,19728145
120451972,Nashville,,1482963437000.0,36.17,-86.78,Dena,TN,1482963437000.0,19728145
11760939,Nashville,Benson,1465554458000.0,36.17,-86.78,Denise,TN,1487190919000.0,19728145
33208982,Nashville,Florence SC,1475207647000.0,36.17,-86.78,Denise,TN,1497717618000.0,19728145
71195802,Spring Hill,Illinois,1494194792000.0,35.76,-86.88,Denise,TN,1508017936000.0,19728145
218746094,Atlanta,,1482848535000.0,33.68,-84.45,Denise Graves-Judkins,GA,1482848535000.0,19728145
227101162,Nashville,,1494127022000.0,36.08,-86.72,Denise Michelle Jackson,TN,1496108118000.0,19728145
190055719,Nashville,,1476930201000.0,36.06,-86.96,Denise S.,TN,1508628126000.0,19728145
211216826,Opa Locka,"Opa Locka, FL",1471535047000.0,25.91,-80.26,DeRon Washington,FL,1471535047000.0,19728145
85715592,Murfreesboro,Murfreesboro,1467673610000.0,35.82,-86.45,Desiree,TN,1500407617000.0,19728145
64445472,Nashville,,1468032329000.0,36.11,-86.78,Dessica,TN,1482455181000.0,19728145
227414637,Columbia,,1498177227000.0,35.62,-87.03,Deva Andrews- Warren,TN,1508092844000.0,19728145
202566856,Brentwood,Brentwood,1495240637000.0,36.0,-86.79,Dexter Davis,TN,1500680428000.0,19728145
109826772,Nashville,Nashville,1496434330000.0,36.1,-86.66,Diana,TN,1507571276000.0,19728145
58444702,Nashville,,1470970574000.0,36.17,-86.72,Diana Morrow,TN,1470970574000.0,19728145
182662118,Franklin,Brentwood,1491148868000.0,35.92,-86.89,Diana Norsworthy Meade,TN,1507665234000.0,19728145
45298022,Murfreesboro,,1463375635000.0,35.87,-86.44,Diane G.,TN,1502743334000.0,19728145
9745115,Nashville,,1462919127000.0,36.08,-86.72,Diane T,TN,1507938232000.0,19728145
133171572,Murfreesboro,"Johnstown, Penna.",1465260705000.0,35.87,-86.44,Dianna L Stuver,TN,1489664062000.0,19728145
184642731,Nashville,,1500925076000.0,36.18,-86.81,Dianne,TN,1505066629000.0,19728145
12462230,Raleigh,,1477080456000.0,35.77,-78.64,didee,NC,1477080456000.0,19728145
218999759,Nashville,,1483296472000.0,36.17,-86.72,Dillon Crysel,TN,1483296472000.0,19728145
221961488,Nashville,,1487001629000.0,36.16,-86.66,Dilnoza Nasritdinova,TN,1505697279000.0,19728145
223771686,Nashville,,1495840680000.0,36.14,-86.8,Dixie Messer,TN,1495840680000.0,19728145
195301990,Nashville,,1468072820000.0,36.17,-86.78,DJ Big K,TN,1507977854000.0,19728145
188348741,Fayetteville,,1460319104000.0,35.18,-86.57,Don,TN,1508531916000.0,19728145
230550372,Nashville,,1507222761000.0,36.17,-86.78,Don H.,TN,1507958907000.0,19728145
224200134,Nashville,,1493039776000.0,36.13,-86.8,Don Kim ,TN,1507631954000.0,19728145
220372946,Nashville,,1505606655000.0,36.16,-86.79,donald dunning,TN,1507910787000.0,19728145
231834990,Nashville,,1500597359000.0,36.11,-86.86,Donald Erich,TN,1503278083000.0,19728145
225901215,Nashville,,1492612930000.0,36.17,-86.78,Donelson ,TN,1492881581000.0,19728145
227488510,Nashville,,1494654891000.0,36.16,-86.79,donita oliver,TN,1494654891000.0,19728145
204615960,North Berwick,North Berwick ME,1462495163000.0,43.31,-70.74,Donna,ME,1508756576000.0,19728145
10389475,Nashville,Nashville,1458681594000.0,36.15,-86.86,Donna ,TN,1502824200000.0,19728145
80687142,Pleasant View,Chicago,1480280894000.0,36.38,-87.04,Donna,TN,1508724174000.0,19728145
213346624,Nashville,,1474391984000.0,36.17,-86.78,Donna Ava Marie,TN,1474391984000.0,19728145
214003611,Franklin,,1475206872000.0,35.93,-86.81,donna ava marie,TN,1475206872000.0,19728145
51608162,Nashville,"Jacksonville, FL",1493863810000.0,36.17,-86.78,Donna Brown,TN,1508155312000.0,19728145
204040707,Murfreesboro,,1491358099000.0,35.87,-86.34,Donna Carroll,TN,1493856738000.0,19728145
232201571,Hendersonville,,1505411989000.0,36.3,-86.62,Donna Jackson,TN,1505680117000.0,19728145
227808163,Nashville,,1495071986000.0,36.16,-86.79,Donna Morton,TN,1495071986000.0,19728145
203281152,Franklin,,1460561409000.0,35.93,-86.81,Donna S.,TN,1471094742000.0,19728145
20238391,Nashville,,1477971970000.0,36.13,-86.8,Donna Venardi,TN,1508287928000.0,19728145
237029849,Murfreesboro,,1507774587000.0,35.78,-86.33,Donna W,TN,1508702816000.0,19728145
196614133,Nashville,,1465687362000.0,36.17,-86.78,Donnell Rhone,TN,1471882505000.0,19728145
216915574,Ocala,,1485776644000.0,29.03,-82.16,Dorethea Briggs,FL,1489607777000.0,19728145
222177621,Nashville,,1489346295000.0,36.13,-86.8,Doris B,TN,1504211273000.0,19728145
210818574,Nashville,,1470953275000.0,36.17,-86.78,Dorothy Stewart,TN,1499473378000.0,19728145
164266812,Nashville,,1491024182000.0,36.06,-86.96,Dorthea,TN,1505183612000.0,19728145
216959689,Augusta,,1479586174000.0,33.47,-82.06,dotun fakile,GA,1487890061000.0,19728145
216034438,Woodbury,Woodbury,1496599157000.0,35.81,-86.07,Doug King,TN,1506721749000.0,19728145
234643626,Nashville,,1503419321000.0,36.06,-86.96,Dp,TN,1503419321000.0,19728145
184586892,Nashville,,1487747392000.0,36.22,-86.86,Dr. Cliff Cockerham,TN,1490026048000.0,19728145
210011474,Brentwood,,1472659331000.0,36.0,-86.79,Dr. Nash Aragam,TN,1502479332000.0,19728145
200735518,Nashville,Nashville,1464653963000.0,36.15,-86.79,Drake,TN,1506810727000.0,19728145
212108700,Nashville,,1475038087000.0,36.14,-86.74,DW,TN,1506909909000.0,19728145
130345072,Rogers,,1507168339000.0,36.33,-94.13,eden,AR,1507168339000.0,19728145
236056175,Franklin,,1504975900000.0,35.92,-86.89,Eduardo Alejandro Carrau,TN,1504975900000.0,19728145
14117091,Murfreesboro,Boston area,1501601558000.0,35.87,-86.34,Edwina Shannon,TN,1501601558000.0,19728145
205583248,Nashville,,1494698856000.0,36.08,-86.72,Edysa,TN,1494698856000.0,19728145
39405032,Knoxville,,1463866898000.0,36.03,-83.89,Eileen A McAllister,TN,1504872899000.0,19728145
87429252,Nashville,Nashville,1458763082000.0,36.18,-86.74,Eileen Santangelo,TN,1496524288000.0,19728145
35218662,Sherman Oaks,Nashville,1466428703000.0,34.15,-118.46,Eileen Tomson,CA,1492111871000.0,19728145
210069599,Nashville,,1469901654000.0,36.18,-86.81,Elaine,TN,1500307771000.0,19728145
211363204,Nashville,,1473461655000.0,36.05,-86.7,Elana,TN,1505333884000.0,19728145
231995908,Nashville,,1500273288000.0,36.17,-86.78,Elena Maria Lewis,TN,1500273288000.0,19728145
13895139,Nashville,,1467149998000.0,36.17,-86.79,Elfi,TN,1504619487000.0,19728145
208312378,Nashville,,1468012103000.0,36.17,-86.78,Eli,TN,1483754741000.0,19728145
204305442,Nashville,,1462049196000.0,36.18,-86.74,Elijah Newman,TN,1462049196000.0,19728145
194478005,Nashville,,1471317347000.0,36.08,-86.72,elisa,TN,1501129378000.0,19728145
151000432,Nashville,,1486703520000.0,36.17,-86.78,Elise,TN,1486703520000.0,19728145
21995631,Nashville,,1482175211000.0,36.17,-86.77,Elizabeth,TN,1508556606000.0,19728145
231448275,Nashville,,1499808840000.0,36.17,-86.78,Elizabeth,TN,1501688911000.0,19728145
186727519,Chattanooga,,1483651647000.0,35.04,-85.31,Elizabeth,TN,1483811876000.0,19728145
211190144,Franklin,,1492137607000.0,35.92,-86.89,Elizabeth Austen,TN,1505126351000.0,19728145
224049945,Fort Campbell,,1489938146000.0,36.65,-87.46,Elizabeth Ensley,KY,1489938146000.0,19728145
162559442,Nashville,,1481870535000.0,36.16,-86.78,Elizabeth Hope Bradley,TN,1485781768000.0,19728145
161708522,Waycross,many places,1500439573000.0,31.22,-82.36,Elizabeth J.,GA,1502074200000.0,19728145
89205222,Orlando,,1489801442000.0,28.54,-81.37,Elizabeth Luminoso,FL,1502287392000.0,19728145
215226979,Nashville,,1476887511000.0,36.17,-86.78,Elizabeth Sharp,TN,1476887511000.0,19728145
225729295,Nashville,,1492268909000.0,36.17,-86.78,Elizabeth Walston,TN,1501689664000.0,19728145
230327993,Nashville,,1499136327000.0,36.17,-86.78,Ella,TN,1499202962000.0,19728145
211913498,Lebanon,"Eureka, MT",1474683346000.0,36.21,-86.31,Ellena,TN,1507663445000.0,19728145
185424897,Franklin,,1491541753000.0,35.92,-86.89,Em,TN,1491670393000.0,19728145
201035186,Nashville,,1486850143000.0,36.11,-86.86,EMenetreS,TN,1486850143000.0,19728145
223781357,Franklin,,1490225468000.0,35.92,-86.89,Emily,TN,1490225468000.0,19728145
193839771,Nashville,,1470508322000.0,36.09,-86.82,emily,TN,1479098879000.0,19728145
21563471,Nashville,,1460837686000.0,36.17,-86.78,Emily,TN,1508536432000.0,19728145
225920676,Nashville,,1495916159000.0,36.13,-86.8,Emily Allen,TN,1507683866000.0,19728145
228927947,Nashville,,1496501769000.0,36.1,-86.66,Emily Bruer,TN,1506027173000.0,19728145
231686574,Nashville,,1500434545000.0,36.12,-86.82,Emily H,TN,1500758204000.0,19728145
237092856,Nashville,,1506121419000.0,36.14,-86.81,Emma Ohm,TN,1507939287000.0,19728145
215373635,Keller,,1494088491000.0,32.93,-97.25,Eric Li,TX,1496521607000.0,19728145
231512351,Nashville,,1500139281000.0,36.16,-86.77,Eric Sorrelhorse,TN,1500162125000.0,19728145
89695652,Smyrna,,1473134268000.0,35.97,-86.51,Erika,TN,1475191099000.0,19728145
59872982,Madison,Minneapolis,1488865762000.0,36.26,-86.71,Erika Jarnes,TN,1507740467000.0,19728145
212542755,Jackson,,1473395539000.0,35.61,-88.82,Erin,TN,1473395539000.0,19728145
214926311,Nashville,,1476456644000.0,36.16,-86.79,Erin,TN,1476456644000.0,19728145
195951151,Murfreesboro,Murfreesboro,1467128761000.0,35.82,-86.45,Erin,TN,1484890212000.0,19728145
37663062,Goodlettsville,"Nashville, TN",1463336807000.0,36.33,-86.74,Erin Amanda,TN,1474595773000.0,19728145
194742643,Murfreesboro,,1472527399000.0,35.81,-86.44,Erin B,TN,1508560306000.0,19728145
227272490,Nashville,,1494359072000.0,36.09,-86.82,Erin Miller,TN,1496112079000.0,19728145
195568999,Columbia,,1507866097000.0,35.61,-87.05,Erin Wyrick,TN,1507866097000.0,19728145
220935309,Clarksville,,1485677401000.0,36.53,-87.35,Eriqa Larsen,TN,1486597789000.0,19728145
146917802,Wiesbaden,,1475536353000.0,50.08,8.23,Ernie,,1492191907000.0,19728145
161041682,Nashville,,1467684455000.0,36.16,-86.79,Ethan,TN,1481840398000.0,19728145
189706008,Nashville,"Boulder, CO",1504382696000.0,36.15,-86.86,Evan Blum,TN,1507999604000.0,19728145
210294801,Nashville,Nahville,1502128270000.0,36.06,-86.96,Evan Filipovic,TN,1502128270000.0,19728145
209757395,Franklin,,1481911666000.0,35.93,-86.81,Evan West,TN,1483565338000.0,19728145
210015978,Nashville,,1471129155000.0,36.17,-86.78,Fawaz ,TN,1489695299000.0,19728145
213913856,Nashville,,1475116148000.0,36.11,-86.86,FeistyPhoenix,TN,1475116148000.0,19728145
9123460,Mount Juliet,"Chicago, IL",1484783002000.0,36.21,-86.52,Felicia,TN,1484783002000.0,19728145
188656957,Bristol,,1494228251000.0,51.46,-2.6,Felicity,B7,1497042139000.0,19728145
219272046,Nashville,,1483572277000.0,36.17,-86.78,Fiona G,TN,1483982233000.0,19728145
186783983,Nashville,,1482368451000.0,36.17,-86.78,Forrest Cooper,TN,1483286225000.0,19728145
11426187,Nashville,Nashville,1478635810000.0,36.17,-86.78,Forrest Galloway,TN,1478834215000.0,19728145
214896475,Nashville,,1479516237000.0,36.14,-86.81,Frances Baiza,TN,1479516237000.0,19728145
202443626,Nashville,,1459552439000.0,36.22,-86.77,Frances Marie Munoz,TN,1460118908000.0,19728145
28608902,Nashville,"Nashville, tn",1462753681000.0,36.11,-86.78,Francesca,TN,1506204236000.0,19728145
229717183,Nashville,,1506542167000.0,36.17,-86.78,Francieli Balieiro,TN,1506542167000.0,19728145
210469769,Nashville,Nashville,1484260560000.0,36.19,-86.8,Frank,TN,1489385775000.0,19728145
8851276,Nashville,,1474264650000.0,36.1,-86.66,Franko Hashiguchi,TN,1499110814000.0,19728145
160137002,Nashville,"Miami, FL",1487621268000.0,36.17,-86.78,Gaby,TN,1506091444000.0,19728145
189431560,Nashville,,1458672259000.0,36.09,-86.82,Gail Greil,TN,1507060483000.0,19728145
198399671,Franklin,,1478312562000.0,35.93,-86.81,Gail Mitchell,TN,1508723908000.0,19728145
214907613,Pordenone,,1492843783000.0,45.96,12.66,gall21m,PN,1504878592000.0,19728145
5842332,Nashville,,1476907086000.0,36.17,-86.78,Garreth ,TN,1476988283000.0,19728145
187805782,Madison,,1488902757000.0,36.26,-86.71,Gary,TN,1501190159000.0,19728145
182295072,Madison,,1459137830000.0,36.26,-86.71,Gary Montross,TN,1483804530000.0,19728145
219156849,Maryville,,1485290999000.0,35.75,-83.97,Gary Pool,TN,1486650593000.0,19728145
35235252,Nashville,,1465419406000.0,36.13,-86.8,Gayle Goad,TN,1506908859000.0,19728145
229696707,Nashville,,1497450593000.0,36.17,-86.78,Gee  Rivera,TN,1502721185000.0,19728145
29951952,Holly Springs,holly springs,1495307840000.0,35.62,-78.83,geeta,NC,1495307840000.0,19728145
220422771,Nashville,,1485151645000.0,36.17,-86.78,Gem Davis,TN,1504538653000.0,19728145
13611579,Nashville,,1464403655000.0,36.16,-86.79,Geno Haffner,TN,1474426857000.0,19728145
229418539,Nashville,,1501349600000.0,36.08,-86.72,George,TN,1508620154000.0,19728145
89700402,Nashville,,1492533395000.0,36.13,-86.8,Georgie,TN,1497662225000.0,19728145
223660950,Brentwood,,1501539094000.0,36.0,-86.79,Gerald Smith,TN,1501539094000.0,19728145
211962911,Nashville,,1472568616000.0,36.06,-86.96,Gerri Smiley Holt,TN,1495889575000.0,19728145
74272472,Mount Juliet,,1464316464000.0,36.21,-86.52,Gerry,TN,1508801180000.0,19728145
33628922,Nashville,,1466463425000.0,36.13,-86.8,Gina,TN,1472696781000.0,19728145
174057822,Nashville,Nashville,1466912708000.0,36.15,-86.86,Giovanna Baptiste,TN,1507902579000.0,19728145
129560482,Nashville,,1480893933000.0,36.22,-86.77,Gladette Martin -Gigi,TN,1497569051000.0,19728145
220297664,Nashville,,1487957278000.0,36.17,-86.78,Glenda,TN,1508739323000.0,19728145
216426903,Clarksville,,1478748355000.0,36.56,-87.41,Glenda Rohner,TN,1479752086000.0,19728145
188527897,Hendersonville,,1459210624000.0,36.32,-86.61,Glenn W.,TN,1507240662000.0,19728145
177009282,Nashville,,1464577946000.0,36.14,-86.74,Glenna,TN,1496892360000.0,19728145
220798915,Nashville,,1485495097000.0,36.11,-86.86,Gloria Castile,TN,1486963691000.0,19728145
216082734,Madison,,1478201810000.0,36.19,-86.74,Glory C,TN,1478973809000.0,19728145
149975872,Nashville,,1472220737000.0,36.13,-86.8,Grace,TN,1507577856000.0,19728145
207287492,Nashville,Southington,1500811263000.0,36.11,-86.86,Grace R,TN,1507420546000.0,19728145
185838869,Mount Juliet,"Rochester, MN",1506132481000.0,36.21,-86.52,Grace W,TN,1506132481000.0,19728145
216955806,Dickson,Dickson,1490845648000.0,36.08,-87.43,Grady McMillen,TN,1508156658000.0,19728145
3660571,Nashville,"Nashville, Tn ",1482933319000.0,36.1,-86.66,Graymatter,TN,1482937148000.0,19728145
220581376,Nashville,,1503267799000.0,36.06,-86.96,Greg,TN,1508548641000.0,19728145
13667508,Franklin,,1499197582000.0,35.93,-86.81,Greg H. Maxedon,TN,1508117362000.0,19728145
15284591,Nashville,,1475355804000.0,36.17,-86.72,Greg Lemons,TN,1505421244000.0,19728145
216978883,Kingsport,,1479698028000.0,36.55,-82.55,Gretchen Barnette,TN,1485303639000.0,19728145
170557622,Nashville,"New York, NY",1507163765000.0,36.14,-86.83,Guy Griscom,TN,1507599198000.0,19728145
238502366,Nashville,,1507573126000.0,36.06,-86.96,GW Campbell,TN,1508094562000.0,19728145
205954558,Nashville,,1464353196000.0,36.06,-86.96,Gwen holder,TN,1507427845000.0,19728145
10234731,Nashville,,1480197735000.0,36.21,-86.72,gwen holder,TN,1480340329000.0,19728145
153203602,Goodlettsville,,1475689495000.0,36.33,-86.74,Gypsy,TN,1504225247000.0,19728145
230829414,Nashville,,1498865026000.0,36.16,-86.79,Haden Conners,TN,1499408261000.0,19728145
230223054,Nashville,,1498108474000.0,36.13,-86.8,Hadley Peterson,TN,1498108474000.0,19728145
38844582,Nashville,Seattle,1468634732000.0,36.13,-86.8,Hailey Jade Peterson,TN,1495294101000.0,19728145
199290936,Franklin,,1469165513000.0,35.92,-86.89,Hank Parrott,TN,1508569646000.0,19728145
208008729,Nashville,,1467158507000.0,36.17,-86.78,Hannah Hodge,TN,1467158507000.0,19728145
208107909,Gallatin,,1491749939000.0,36.39,-86.45,Harry Elberson,TN,1494972774000.0,19728145
218438007,Murfreesboro,,1484404524000.0,35.78,-86.33,Hayley,TN,1484404524000.0,19728145
12266046,Nashville,Marietta,1465542574000.0,36.17,-86.78,Hazel,TN,1466291437000.0,19728145
197030866,Antioch,,1461891409000.0,36.04,-86.64,Heather,TN,1461891409000.0,19728145
3860333,Fairbanks,RI,1493758273000.0,64.89,-147.41,heather a.,AK,1493758273000.0,19728145
40634792,Chattanooga,,1462899303000.0,35.0,-85.33,Heather Huston,TN,1463433010000.0,19728145
217933284,Hendersonville,,1481258957000.0,36.32,-86.61,Heather Lea,TN,1481258957000.0,19728145
228663449,Murfreesboro,,1496176301000.0,35.85,-86.4,Heather Maize,TN,1496329096000.0,19728145
184090617,Nashville,,1461873851000.0,36.17,-86.78,Hector Sanchez,TN,1501109916000.0,19728145
221385858,Nashville,,1486232560000.0,36.06,-86.96,Helen Brown,TN,1502505669000.0,19728145
57562612,Hendersonville,Goodlettsville,1483023301000.0,36.32,-86.61,helen powers,TN,1507383109000.0,19728145
183068807,White Bluff,,1477790883000.0,36.12,-87.23,Helena,TN,1489019059000.0,19728145
231543043,Nashville,,1499727266000.0,36.13,-86.8,Heysel Andrea De Aquino,TN,1499727266000.0,19728145
230481134,Hendersonville,,1498436377000.0,36.32,-86.61,Holly Webb Bateman,TN,1498436377000.0,19728145
219985636,Brentwood,,1484490939000.0,36.0,-86.79,Hope Patonis,TN,1484520467000.0,19728145
235088735,Nashville,Y.S.,1508371007000.0,36.16,-86.78,hopesdreams,TN,1508602663000.0,19728145
5985520,Nashville,,1478062317000.0,36.16,-86.79,Hugh,TN,1508803872000.0,19728145
194958550,Nashville,,1458662060000.0,36.08,-86.72,Hunter H. Williams,TN,1460060209000.0,19728145
148872212,Clarksville,,1458662587000.0,36.53,-87.35,Ida Faye Rhodes-Ogle,TN,1484676447000.0,19728145
212786949,Nashville,,1479093583000.0,36.08,-86.72,Ilana Isaac,TN,1483808885000.0,19728145
69229592,Nashville,"Bronx, NY",1471654295000.0,36.17,-86.78,Imani,TN,1471654295000.0,19728145
202816153,Nashville,,1495311363000.0,36.1,-86.66,ingrid fidler,TN,1495336892000.0,19728145
81247262,Clarksville,Clarksville,1465385797000.0,36.56,-87.41,Inson E,TN,1507731559000.0,19728145
211931386,Antioch,,1472526385000.0,36.04,-86.64,Irene Imhof,TN,1474168761000.0,19728145
59543352,Nashville,,1471475368000.0,36.13,-86.8,Irene Popa,TN,1490486059000.0,19728145
7920216,Nashville,,1472659700000.0,36.1,-86.66,irina,TN,1503686907000.0,19728145
204917959,Birmingham,,1489940228000.0,33.46,-86.81,Ivana Joyce,AL,1489940228000.0,19728145
225940579,Spring Hill,,1492556604000.0,35.76,-86.88,Ivy ,TN,1507593380000.0,19728145
190918296,Greensboro,,1499223363000.0,36.01,-79.87,J. David Jobe,NC,1499570432000.0,19728145
231150893,Murfreesboro,,,35.89,-86.32,,TN,,19728145
229757915,Nashville,,1497532616000.0,36.17,-86.78,J.E,TN,1497532616000.0,19728145
9419814,Plano,Nonya,1504887685000.0,33.08,-96.75,J'ne,TX,1504887685000.0,19728145
230873941,Nashville,,1498930505000.0,36.15,-86.8,Jabari,TN,1499798295000.0,19728145
127213442,Nashville,,1484338833000.0,36.17,-86.78,Jack,TN,1502561485000.0,19728145
223981122,Nashville,,1491739950000.0,36.17,-86.72,Jackie Robinson,TN,1493972420000.0,19728145
61094802,Clarksville,,1487897879000.0,36.53,-87.35,Jacqueline,TN,1490908984000.0,19728145
196074034,La Vergne,,1491184877000.0,36.01,-86.57,Jacy Pate,TN,1492117950000.0,19728145
220089813,Nashville,,1484609366000.0,36.13,-86.8,Jahir Hernandez,TN,1484615390000.0,19728145
179019412,Nashville,,1468104265000.0,36.08,-86.72,Jaime,TN,1508533121000.0,19728145
127866592,Hendersonville,"Mt. Vernon, IL",1505817285000.0,36.32,-86.61,Jairus Campbell,TN,1508112512000.0,19728145
203653716,Murfreesboro,"Louisville, KY",1493657144000.0,35.87,-86.44,James,TN,1493657144000.0,19728145
224780639,Nashville,,1491497221000.0,36.11,-86.86,James,TN,1506655040000.0,19728145
218468986,Nashville,,1482267868000.0,36.17,-86.78,James Boyd,TN,1496119855000.0,19728145
10553819,Watertown,"Louisville, KY",1483744935000.0,36.11,-86.14,James Hennessy,TN,1508700183000.0,19728145
183942370,Pinner,"Harrow, England",1507414495000.0,51.59,-0.38,James Keith,F8,1507414495000.0,19728145
6961459,Nashville,Nashville,1484874224000.0,36.16,-86.79,James Leininger,TN,1495321692000.0,19728145
32671432,Nashville,"Jackson, Tn.",1458355145000.0,36.17,-86.78,James Patrick,TN,1497909825000.0,19728145
226199733,Nashville,,1499305617000.0,36.08,-86.72,James Ross,TN,1499539651000.0,19728145
185666069,Nashville,,1507153823000.0,36.08,-86.72,James Seibert,TN,1508457427000.0,19728145
203175667,Nashville,Nashville ,1477520726000.0,36.15,-86.86,James Weber,TN,1477520726000.0,19728145
153889962,Antioch,,1500606448000.0,36.17,-86.88,Jamie,TN,1507941240000.0,19728145
198002508,Nashville,,1476753207000.0,36.16,-86.79,Jamie Campbell,TN,1481930452000.0,19728145
209946506,White House,"Portville, NY",1469808990000.0,36.48,-86.69,Jamie Corwin,TN,1475643586000.0,19728145
11726894,Nashville,,1497227078000.0,36.16,-86.79,Jamie Jensen,TN,1508198215000.0,19728145
8869875,Nashville,,1491598434000.0,36.07,-86.78,Jamie M.,TN,1508467357000.0,19728145
208312190,Franklin,,1470560683000.0,35.92,-86.89,Jan H,TN,1478508004000.0,19728145
234373810,Nashville,,1503107653000.0,36.06,-86.96,Janae Masters,TN,1503107653000.0,19728145
107456652,Nashville,Nashville,1458669991000.0,36.06,-86.96,Jane B Brewster,TN,1494939217000.0,19728145
7296520,Nashville,Nashville,1483725042000.0,36.06,-86.96,janeen,TN,1494678727000.0,19728145
6519119,Nashville,,1490678797000.0,36.17,-86.72,Janelle,TN,1500749845000.0,19728145
204554449,Antioch,,1463550995000.0,36.04,-86.64,Janelle Roberts,TN,1467855454000.0,19728145
37487842,Nashville,,1490544359000.0,36.17,-86.72,Janelle VanHootegem,TN,1490544359000.0,19728145
57041582,Nashville,,1465328138000.0,36.08,-86.72,Janet,TN,1503919095000.0,19728145
11473749,Nashville,Oxford,1506983600000.0,36.1,-86.66,Janet,TN,1508713639000.0,19728145
207743796,Spring Hill,,1466803950000.0,35.76,-86.88,Janet Annette Argo,TN,1466803950000.0,19728145
205992602,Wartrace,,1464406965000.0,35.5,-86.34,Janet Fox,TN,1465868627000.0,19728145
181531312,Nashville,Nashville,1473825739000.0,36.08,-86.72,Janet Wyatt,TN,1508541945000.0,19728145
223175487,Brentwood,,1488712258000.0,36.0,-86.79,Janet-Leigh Pearce,TN,1488712258000.0,19728145
210706984,Franklin,,1491613895000.0,35.92,-86.89,Janine,TN,1506358493000.0,19728145
212663110,Nashville,Nashville,1499799370000.0,36.08,-86.72,Janna Eddy,TN,1499881012000.0,19728145
203924564,Dover,Dover,1461541125000.0,36.48,-87.83,Janna Morel,TN,1469908856000.0,19728145
183048368,Franklin,,1468121535000.0,35.92,-86.89,Jason,TN,1505686697000.0,19728145
224745036,Spring Hill,,1490884431000.0,35.76,-86.88,Jayz M,TN,1490912460000.0,19728145
203659364,Saint Petersburg,,1465981569000.0,27.77,-82.77,Jazmin,FL,1505483207000.0,19728145
11101515,Nashville,,1477682762000.0,36.06,-86.96,JB,TN,1477682762000.0,19728145
186143519,Nashville,,1472535095000.0,36.18,-86.81,Jean,TN,1472535095000.0,19728145
113655312,Franklin,,1498167109000.0,35.93,-86.81,Jean,TN,1508713143000.0,19728145
223417564,Nashville,,1489033773000.0,36.17,-86.79,Jean L Jones,TN,1491610135000.0,19728145
80861082,Nashville,Clarksville,1483838124000.0,36.17,-86.78,Jeane,TN,1507687919000.0,19728145
16406281,Franklin,,1463851726000.0,35.99,-86.9,Jeanine Stroud,TN,1463851726000.0,19728145
6068909,Nashville,"Stevensville, MI",1476370826000.0,36.17,-86.72,Jeannie,TN,1508691850000.0,19728145
13588972,Nashville,,1507174793000.0,36.13,-86.8,Jeff,TN,1508806473000.0,19728145
47397942,Nashville," Nashville, TN",1505512615000.0,36.17,-86.72,Jeff,TN,1508771943000.0,19728145
209977483,Nashville,,1469768646000.0,36.09,-86.82,Jeffrey Goetz,TN,1470156818000.0,19728145
7485542,Franklin,Nashville TN,1469031477000.0,35.93,-86.81,Jen,TN,1506616845000.0,19728145
187019337,Nashville,,1467767914000.0,36.17,-86.78,Jenae PinkCrush Vosburg,TN,1488162752000.0,19728145
174069362,Nashville,,1459533631000.0,36.06,-86.96,Jenn,TN,1500912075000.0,19728145
222716681,Smyrna,,1488049148000.0,35.97,-86.51,Jennette SZP,TN,1489339064000.0,19728145
9102758,Nashville,,1479595871000.0,36.17,-86.78,Jennifer,TN,1508539905000.0,19728145
4250146,Nashville,,1466480639000.0,36.04,-86.73,Jennifer,TN,1507840502000.0,19728145
142717112,Brentwood,,1458665839000.0,36.0,-86.79,Jennifer,TN,1468294896000.0,19728145
8286556,Nashville,"Houston, TX",1493736439000.0,36.18,-86.74,Jennifer,TN,1505861734000.0,19728145
218262429,Lewisburg,,1501693092000.0,35.45,-86.8,Jennifer Caldwell,TN,1504726916000.0,19728145
76722082,Nashville,Murfreesboro,1467375630000.0,36.22,-86.86,Jennifer K,TN,1482121809000.0,19728145
207915512,Gallatin,,1467216188000.0,36.39,-86.45,Jennifer Lawson Brown,TN,1467216188000.0,19728145
232463079,Hendersonville,,1500854110000.0,36.32,-86.61,Jennifer Martin,TN,1501675754000.0,19728145
222906914,Nashville,,,36.18,-86.73,,TN,,19728145
207265038,Gallatin,,1466135673000.0,36.39,-86.45,Jennifer Sharpe,TN,1475383612000.0,19728145
199336017,Hendersonville,,1505293086000.0,36.32,-86.61,Jennifer W.,TN,1507773642000.0,19728145
219764412,Murfreesboro,,1484275896000.0,35.87,-86.44,Jennifer Williams,TN,1495413055000.0,19728145
220102841,Smyrna,,1484623629000.0,35.97,-86.51,Jennifer Young,TN,1488418739000.0,19728145
10098017,Nashville,Nashville,1490661704000.0,36.15,-86.81,Jenny,TN,1491829677000.0,19728145
233752750,Nashville,,1502394389000.0,36.17,-86.78,Jenny Dyer Vinson,TN,1502394389000.0,19728145
210068024,Smyrna,,1469901655000.0,35.97,-86.51,Jenny Griffin Little,TN,1471057942000.0,19728145
222616582,Clarksville,,1490135217000.0,36.56,-87.41,Jenny Hough,TN,1506098366000.0,19728145
213057752,Nashville,Leiden,1474038094000.0,36.21,-86.72,Jenny van Amsterdam,TN,1491153056000.0,19728145
215179635,Nashville,,1477239329000.0,36.08,-86.72,Jenny Yan,TN,1506394008000.0,19728145
188010474,Murfreesboro,,1473983439000.0,35.82,-86.45,Jeremy Malcolm,TN,1505268897000.0,19728145
62740152,Nashville,"Manhattan Beach, CA",1458675482000.0,36.16,-86.79,Jeremy Spille,TN,1461899405000.0,19728145
205233254,Nashville,,1507088706000.0,36.1,-86.66,Jermaine Sullivan,TN,1507241210000.0,19728145
198380339,Franklin,"Murfreesboro, Tn",1458448295000.0,35.9,-86.86,Jerry ,TN,1508178346000.0,19728145
204759133,Murfreesboro,,1496194277000.0,35.78,-86.33,Jesse Edwards,TN,1496769911000.0,19728145
221259073,Nashville,,1486863732000.0,36.13,-86.8,Jesse Jay Quintana,TN,1487895603000.0,19728145
33659822,Franklin,"Chicago, IL",1471625438000.0,35.92,-86.89,Jessica,TN,1503745435000.0,19728145
182867375,Mount Juliet,,1506605515000.0,36.16,-86.51,Jessica,TN,1508065982000.0,19728145
239430097,Lewisburg,,1508627173000.0,35.45,-86.8,Jessica Burchell,TN,1508627173000.0,19728145
210072704,Nashville,,1470405427000.0,36.17,-86.78,Jessica Elyse,TN,1472658399000.0,19728145
209914589,Nashville,,1469682631000.0,36.18,-86.74,Jessica Ferguson,TN,1470092336000.0,19728145
59475472,Nashville,,1493042628000.0,36.08,-86.72,Jessica Jernigan,TN,1502106370000.0,19728145
221313210,Smyrna,,1486563684000.0,35.97,-86.51,Jessica Kilpatrick,TN,1486563684000.0,19728145
221750430,Murfreesboro,,1495965861000.0,35.78,-86.33,Jessica Lavette Nelson,TN,1499075155000.0,19728145
220334912,Nashville,,1484912549000.0,36.14,-86.74,Jessica Pike,TN,1484912549000.0,19728145
205098495,Nashville,,1474254442000.0,36.07,-86.73,Jessica Renee Larrazabal,TN,1508632518000.0,19728145
157948202,Pope A F B,Pope A F B,1494502812000.0,35.05,-78.88,Jessica Sands,NC,1497586533000.0,19728145
232112531,Franklin,,1500412729000.0,35.92,-86.89,Jessica Sizemore,TN,1500412729000.0,19728145
191074840,Nashville,,1484537974000.0,36.17,-86.78,Jessica Thomas,TN,1498523408000.0,19728145
8473236,Nashville,,1467159975000.0,36.13,-86.8,Jian Chen,TN,1508767455000.0,19728145
216587756,Nashville,,1479008863000.0,36.11,-86.86,Jibin George,TN,1490873411000.0,19728145
7567406,Nashville,"Stephenville, TX",1499127055000.0,36.06,-86.96,Jill,TN,1499168496000.0,19728145
239440826,Nashville,,1508640232000.0,36.07,-86.73,Jill Burns,TN,1508640232000.0,19728145
202273652,New York,,1459121774000.0,40.75,-73.99,Jill Loree Hanson Garvin,NY,1466166460000.0,19728145
239410561,Nashville,,1508613829000.0,36.17,-86.78,Jim Barber,TN,1508613829000.0,19728145
210471963,Murfreesboro,"Orland Park, IL",1470787115000.0,35.78,-86.33,Jim Baugher,TN,1492976515000.0,19728145
187572521,Brentwood,Brentwood,1470082368000.0,36.0,-86.79,Jim Campbell,TN,1505511585000.0,19728145
3380276,Nashville,Nashville/Shelbyville,1465071710000.0,36.11,-86.78,Jim H,TN,1507757644000.0,19728145
208350173,Franklin,,1470575503000.0,35.92,-86.89,Jim S,TN,1508014954000.0,19728145
231661235,Mount Juliet,,1499869378000.0,36.22,-86.52,Jimi Sanders,TN,1507687681000.0,19728145
82380302,Nashville,,1477998891000.0,36.22,-86.77,Jimmie,TN,1495223200000.0,19728145
232891767,Greenbrier,,1501381325000.0,36.43,-86.8,jimmy las,TN,1508458585000.0,19728145
217973866,Springfield,,1481334705000.0,36.52,-86.87,Jo Ann Keller,TN,1485230672000.0,19728145
6944107,Nashville,Old Hickory,1500650123000.0,36.17,-86.78,Joan D,TN,1506635611000.0,19728145
140965932,Clarksville,,1460377345000.0,36.56,-87.41,Jodi,TN,1508726798000.0,19728145
223348295,Nashville,,1490066869000.0,36.17,-86.78,Jodie,TN,1496028963000.0,19728145
11222990,Nashville,Nashville,1459186927000.0,36.06,-86.96,Jodie,TN,1495126806000.0,19728145
32809502,Nashville,,1507228660000.0,36.17,-86.78,Jodie,TN,1508684917000.0,19728145
112609262,Nashville,,1487892739000.0,36.17,-86.78,Joe Diaz,TN,1487907813000.0,19728145
99738132,Nashville,,1466560143000.0,36.22,-86.86,Joe Gillum,TN,1501275588000.0,19728145
239275386,Nashville,,1508448804000.0,36.06,-86.96,Joel Clifton,TN,1508448804000.0,19728145
209407174,Franklin,,1501798009000.0,35.92,-86.89,Joel Coady,TN,1508630874000.0,19728145
5173876,Nashville,,1471877625000.0,36.16,-86.79,Johanna,TN,1485206359000.0,19728145
197861782,Goodlettsville,,1487777105000.0,36.33,-86.74,Johanne,TN,1493480144000.0,19728145
62662372,Nashville,,1484796598000.0,36.08,-86.72,John,TN,1502670767000.0,19728145
223931892,Franklin,,1489854775000.0,35.92,-86.89,John,TN,1489854775000.0,19728145
208125485,Antioch,,1479265212000.0,36.04,-86.64,John,TN,1508620627000.0,19728145
57444982,Nashville,,1474224636000.0,36.17,-86.78,John Belvedere,TN,1475616311000.0,19728145
188194830,Madison,,1460414068000.0,36.26,-86.71,John Henry,TN,1507826350000.0,19728145
44927672,Nashville,,1489411186000.0,36.17,-86.78,John lozier,TN,1506950355000.0,19728145
14171672,San Antonio,37066,1500875033000.0,29.62,-98.62,John McPherson,TX,1506653744000.0,19728145
205875866,Nashville,,1507047393000.0,36.13,-86.8,John Murphy,TN,1507443116000.0,19728145
220555487,Nashville,,1485198276000.0,36.17,-86.79,John Obrien,TN,1490026980000.0,19728145
209129137,Brentwood,,1468705027000.0,36.0,-86.79,"JOHN R. WISE, III",TN,1497710728000.0,19728145
14367073,Nashville,,1458679038000.0,36.17,-86.78,John STEVEN Thomas,TN,1505780220000.0,19728145
186081074,Franklin,,1458400850000.0,35.92,-86.89,John Wilson,TN,1486216099000.0,19728145
203108212,Nashville,,1460474090000.0,36.1,-86.66,John Zakharey,TN,1462910165000.0,19728145
228370847,Sparta,,1495870149000.0,35.93,-85.47,Jon,TN,1507362743000.0,19728145
219105350,Nashville,,1483391586000.0,36.17,-86.78,Jon Jaffe,TN,1489561204000.0,19728145
221310673,Murfreesboro,,1486821963000.0,35.85,-86.36,Jordan Caswell,TN,1503407329000.0,19728145
226571690,Nashville,,1493402772000.0,36.17,-86.78,Jordyn White,TN,1495257151000.0,19728145
236092717,Clarksville,,1507074703000.0,36.53,-87.35,Jorge Figueroa-Cecco,TN,1507865395000.0,19728145
115560912,Nashville,Nashville,1488734229000.0,36.09,-86.82,Joseph M.,TN,1488734229000.0,19728145
227993789,Clarksville,,1497359567000.0,36.49,-87.23,Joseph Rodriguez Castillero,TN,1505264448000.0,19728145
58860632,Fairview,,1488078986000.0,35.96,-87.12,Josh Marshall,TN,1505259396000.0,19728145
212216023,Nashville,,1485100451000.0,36.17,-86.78,Joshua,TN,1485147270000.0,19728145
228647401,Franklin,,1496152169000.0,35.93,-86.84,Joshua Barbee,TN,1496152169000.0,19728145
212864620,Nashville,,1507146080000.0,36.08,-86.72,Joshua Stagner,TN,1507146080000.0,19728145
228958379,Hendersonville,,1496535857000.0,36.32,-86.61,Josiah Pummill,TN,1496535857000.0,19728145
11969763,Nashville,,1503111570000.0,36.13,-86.67,Jourdan ,TN,1503111570000.0,19728145
201774191,Thompsons Station,,1458362501000.0,35.8,-86.9,Joy,TN,1507857868000.0,19728145
10157485,Hermitage,Hermitage,1487425143000.0,36.19,-86.6,Joyce C.,TN,1487425143000.0,19728145
237266818,Nashville,,1506212330000.0,36.07,-86.73,Juan Carrillo,TN,1506442186000.0,19728145
232197617,Franklin,,1500516448000.0,35.93,-86.81,Judita ,TN,1501186543000.0,19728145
213429312,Mount Juliet,,1474507486000.0,36.22,-86.52,Judith Wylie,TN,1474507486000.0,19728145
12977589,Nashville,,1494203236000.0,36.17,-86.68,Judy,TN,1502130986000.0,19728145
146040842,Nashville,,1478220446000.0,36.18,-86.64,Judy,TN,1507318027000.0,19728145
203319996,Antioch,,1460610385000.0,36.17,-86.88,Judy   J,TN,1460610385000.0,19728145
186320543,Nashville,Nashville,1498749424000.0,36.19,-86.64,Judy Johnson,TN,1503620946000.0,19728145
213775243,Gold Coast,,1484194150000.0,-28.07,153.44,Judy Mitchell,,1485322477000.0,19728145
197439605,Nashville,,1475936059000.0,36.06,-86.96,Judy Peterson,TN,1475936059000.0,19728145
201826516,Franklin,,1458702952000.0,35.93,-86.81,Judy R,TN,1502106381000.0,19728145
14621123,Nashville,,1458410247000.0,36.17,-86.78,Judy Ray,TN,1508353680000.0,19728145
236291383,Clarksville,,1505214850000.0,36.53,-87.35,Judy Williams,TN,1508152724000.0,19728145
192411296,Toronto,,1475411345000.0,43.74,-79.36,Jules,ON,1506624173000.0,19728145
121705122,Nashville,,1476311455000.0,36.14,-86.74,Julia,TN,1496593258000.0,19728145
207420826,Nashville,,1466365606000.0,36.17,-86.78,Julia,TN,1497673930000.0,19728145
229804753,Nashville,,1497635475000.0,36.17,-86.78,Julia,TN,1508531079000.0,19728145
3562568,Montréal,"Lowell, MA",1467860728000.0,45.65,-73.5,Julia,QC,1472943778000.0,19728145
217127827,Nashville,,1500049795000.0,36.14,-86.74,Julia Christina Rowe,TN,1500049795000.0,19728145
225357721,Murfreesboro,,1491875435000.0,35.82,-86.45,Julia Crutcher,TN,1507841746000.0,19728145
30535422,Nashville,Nashville,1460994695000.0,36.18,-86.74,Julia osgood,TN,1497489356000.0,19728145
231054908,Nashville,,1500165195000.0,36.08,-86.72,Julia Seay,TN,1507280092000.0,19728145
95327432,Nashville,,1505690581000.0,36.17,-86.78,Julia Stamper,TN,1506717473000.0,19728145
227058551,New York,,1497484395000.0,40.75,-73.99,Julia Welch-Riddle,NY,1497484395000.0,19728145
213901834,Franklin,,1501187555000.0,35.92,-86.89,Julie,TN,1508463444000.0,19728145
101723672,Madison,,1478301066000.0,36.26,-86.71,Julie James,TN,1505215947000.0,19728145
131712502,Nashville,Reno ,1500621781000.0,36.14,-86.81,Julie Stavas,TN,1500621781000.0,19728145
13588187,Nashville,,1459911766000.0,36.16,-86.79,Jump Session Nashville,TN,1459911766000.0,19728145
9415032,Nashville,,1480561879000.0,36.13,-86.8,Justin,TN,1506805123000.0,19728145
203055322,Tullahoma,,1461625021000.0,35.37,-86.21,Justin,TN,1508673537000.0,19728145
29859932,Brentwood,,1495869836000.0,36.0,-86.79,Justine Vild,TN,1495869836000.0,19728145
233149348,Spring Hill,,1502989697000.0,35.76,-86.88,K.Lee Mitchell,TN,1505069896000.0,19728145
122825002,Franklin,,1482115920000.0,35.92,-86.89,Kacy,TN,1482115920000.0,19728145
148211832,Hermitage,,1465085461000.0,36.19,-86.6,Kailer Largaespada,TN,1496021179000.0,19728145
230395953,Antioch,,1498331443000.0,36.04,-86.64,Kailyn ,TN,1498331443000.0,19728145
206401764,Nashville,,1464981513000.0,36.17,-86.78,Kaley Wypyszynski,TN,1464981513000.0,19728145
238032737,Nashville,,1507064095000.0,36.17,-86.78,Kali Turner,TN,1507295662000.0,19728145
206682030,Spring Hill,,1465344696000.0,35.76,-86.88,Kameri Muir,TN,1465344696000.0,19728145
224336417,Clarksville,,1490313988000.0,36.53,-87.35,Kamisha LaShanna,TN,1507300265000.0,19728145
232591658,Bowling Green,,1501007381000.0,36.93,-86.45,Kana.T,KY,1505318655000.0,19728145
224051918,Franklin,,1489942744000.0,35.92,-86.89,karan,TN,1507962300000.0,19728145
11221820,Hendersonville,"Rochester, NY",1470101600000.0,36.32,-86.61,Karen,TN,1502393074000.0,19728145
10878718,Murfreesboro,Murfreesboro,1467961780000.0,35.87,-86.34,Karen,TN,1487319619000.0,19728145
47618912,Nashville,,1458399485000.0,36.14,-86.74,Karen,TN,1508626051000.0,19728145
126323812,Goodlettsville,,1483112986000.0,36.33,-86.74,Karen,TN,1508710521000.0,19728145
204318533,Nashville,,1463507019000.0,36.22,-86.77,Karen,TN,1489769282000.0,19728145
220883245,Nolensville,Nolensville,1506730160000.0,35.94,-86.67,Karen Harder,TN,1506730160000.0,19728145
12748906,Rockvale,Winchester TN,1484931117000.0,35.76,-86.55,Karen K,TN,1505556984000.0,19728145
225414213,Nashville,,1491848423000.0,36.1,-86.66,Kari Guindon,TN,1492587686000.0,19728145
231085846,Nashville,,1499184970000.0,36.1,-86.66,Kari VanHeulen,TN,1499184970000.0,19728145
193051777,Cornersville,,1458866810000.0,35.36,-86.84,Karin Poffenberger,TN,1458866810000.0,19728145
234763778,Nashville,,1503545334000.0,36.17,-86.78,Karissa,TN,1503545334000.0,19728145
214236637,Thompsons Station,,1490469700000.0,35.8,-86.9,Kasey Ray,TN,1491138860000.0,19728145
209453152,Nashville,,1488751331000.0,36.17,-86.78,Kat Stephenson,TN,1490406564000.0,19728145
205864072,Nashville,,1490705058000.0,36.13,-86.8,Kate Webster,TN,1490705058000.0,19728145
213568542,Nashville,,1480829398000.0,36.08,-86.72,Kate Zhang,TN,1499650045000.0,19728145
156086352,Nashville,Nashville,1458662583000.0,36.06,-86.96,Katey,TN,1503421801000.0,19728145
84201282,Nashville,,1507990615000.0,36.17,-86.78,Katherine,TN,1507990615000.0,19728145
186433041,Murfreesboro,,1468086269000.0,35.78,-86.33,Katheryn Carroll,TN,1502329991000.0,19728145
234091623,Nashville,,1507224053000.0,36.08,-86.72,Kathi,TN,1507562798000.0,19728145
206661176,Nashville,,1487985217000.0,36.17,-86.78,Kathleen S.,TN,1505633820000.0,19728145
214030883,Nashville,,1475244858000.0,36.17,-86.78,Kathryn,TN,1507369829000.0,19728145
223716349,Nashville,San Clemente,1498714954000.0,36.11,-86.78,Kathryn Jones,TN,1499368723000.0,19728145
96438392,Nashville,,1485572103000.0,36.06,-86.96,Kathryne,TN,1507257725000.0,19728145
98707082,Murfreesboro,Murfreesboro,1459867341000.0,35.82,-86.45,Kathy,TN,1507289676000.0,19728145
212054650,Nashville,Nashville,1488884173000.0,36.17,-86.72,Kathy,TN,1508013312000.0,19728145
10600933,Nashville,,1462580135000.0,36.17,-86.72,kathy,TN,1465405017000.0,19728145
149371672,Brentwood,,1460465430000.0,36.0,-86.79,Kathy,TN,1505271421000.0,19728145
238177306,Nashville,,1507226724000.0,36.17,-86.72,Kathy Burton Rogers,TN,1507226724000.0,19728145
143808632,Murfreesboro,,1469660430000.0,35.87,-86.34,Kathy Craddock,TN,1482347457000.0,19728145
206282306,Franklin,,1464881288000.0,35.92,-86.89,Kathy Greenberg,TN,1495031570000.0,19728145
236059849,Spring Hill,,1504981046000.0,35.76,-86.88,Kathy Lineberger,TN,1505676645000.0,19728145
23875012,Murfreesboro,"Adrian, Michigan",1489884892000.0,35.78,-86.33,Kathy M,TN,1507759457000.0,19728145
231045204,Murfreesboro,,1499132134000.0,35.78,-86.33,Kathy Shepperd,TN,1505182797000.0,19728145
58175802,Nashville,,1461384145000.0,36.17,-86.72,Katie,TN,1467160632000.0,19728145
184601713,Nashville,,1499660534000.0,36.13,-86.8,Katie Kruzan,TN,1499896182000.0,19728145
192945227,Hermitage,,1463852163000.0,36.19,-86.6,Katie Lamb,TN,1486226753000.0,19728145
188329840,Goodlettsville,,1462024885000.0,36.33,-86.74,Katie Lyons,TN,1501191758000.0,19728145
210078639,Nashville,,1469912988000.0,36.17,-86.78,Katina,TN,1471048601000.0,19728145
198256220,Nashville,,1483498165000.0,36.18,-86.74,Katy Brantley,TN,1483498165000.0,19728145
204406512,Madison,,1462199480000.0,36.26,-86.71,Kay,TN,1489945563000.0,19728145
188297294,New York,,1468852989000.0,40.75,-73.99,Kay Dozier,NY,1477248980000.0,19728145
197066151,Brentwood,,1468682371000.0,36.0,-86.79,Kay P,TN,1470833549000.0,19728145
13803088,Nashville,,1504274908000.0,36.17,-86.78,Kay S,TN,1507841533000.0,19728145
17285351,Nashville,,1458678508000.0,36.16,-86.79,Kayla,TN,1476889661000.0,19728145
59892862,Nashville,,1474008492000.0,36.13,-86.8,Kayla Bruyn,TN,1506050396000.0,19728145
192500388,Nashville,,1478384785000.0,36.17,-86.78,Kayla Ramos,TN,1483881214000.0,19728145
56997982,Nashville,"Springfield, IL",1483660274000.0,36.08,-86.72,Keegan Singh,TN,1492434399000.0,19728145
194396605,Murfreesboro,,1486732752000.0,35.78,-86.33,Keila Valdivieso,TN,1507702697000.0,19728145
110832222,Nashville,Cropseyville,1485041879000.0,36.1,-86.66,Keith Keenan,TN,1508572006000.0,19728145
10579442,Lebanon,"Lebanon, TN",1496450756000.0,36.15,-86.32,Keith Manning,TN,1496450756000.0,19728145
233247962,Nashville,,1501822328000.0,36.06,-86.96,Kellee Cunningham López,TN,1508545873000.0,19728145
63128862,Gallatin,,1499525147000.0,36.39,-86.45,Kelley,TN,1508190991000.0,19728145
229044263,Spring Hill,,1496636813000.0,35.76,-86.88,Kelli,TN,1496636813000.0,19728145
226273838,Nashville,,1499638945000.0,36.17,-86.78,Kelli Anderson,TN,1501326597000.0,19728145
178679642,Nashville,,1478913163000.0,36.16,-86.63,Kellie,TN,1493507212000.0,19728145
119612112,Nashville,Columbus,1494993669000.0,36.09,-86.82,Kellie Barnhill,TN,1494993669000.0,19728145
207503174,Nashville,,1471463932000.0,36.17,-86.78,Kelly,TN,1479489136000.0,19728145
186257673,Nashville,,1492578100000.0,36.17,-86.72,Kelly,TN,1495174798000.0,19728145
93983122,Nashville,"Cincinnati, OH",1488728383000.0,36.1,-86.66,Kelly,TN,1499180300000.0,19728145
152786182,Franklin,,1458778031000.0,35.93,-86.81,Kelly,TN,1505569920000.0,19728145
183560521,Franklin,"Austin, TX",1492982028000.0,35.92,-86.89,Kelly,TN,1507350853000.0,19728145
237380966,Nashville,,1506346265000.0,36.17,-86.78,kelly curtis,TN,1506519711000.0,19728145
232945958,Franklin,,1501451792000.0,35.92,-86.89,Kelsey Collins,TN,1501451792000.0,19728145
226454278,Nashville,,1493245600000.0,36.06,-86.96,Ken Sowards,TN,1498333336000.0,19728145
4741220,Nashville,,1484935649000.0,36.16,-86.79,Kendra,TN,1485278413000.0,19728145
150370402,Nashville,,1461779999000.0,36.22,-86.77,kennedy,TN,1461779999000.0,19728145
227480320,Nashville,,1494642365000.0,36.17,-86.78,Kenneth Drew,TN,1506960702000.0,19728145
194544967,Nashville,,1494061242000.0,36.17,-86.79,Kenneth Shipp,TN,1494892356000.0,19728145
8311912,Nashville,,1498593345000.0,36.17,-86.78,kermy73,TN,1506995759000.0,19728145
174196442,Franklin,,1469231265000.0,35.92,-86.89,Kerry,TN,1469231265000.0,19728145
226935241,Nashville,,1493921687000.0,36.06,-86.96,Keturah Richardson,TN,1493921687000.0,19728145
3891728,Nashville,Nashville,1458675976000.0,36.19,-86.8,Kevin,TN,1463719558000.0,19728145
5700963,Mount Juliet,Mt Juliet,1465079467000.0,36.22,-86.52,kevin,TN,1472935726000.0,19728145
140459462,Murfreesboro,Murfreesboro,1485395000000.0,35.87,-86.44,Kevin M,TN,1493496303000.0,19728145
224631915,Clarksville,,1490727348000.0,36.53,-87.35,Kevin Maldonado,TN,1490727348000.0,19728145
197335395,Nashville,,1483912579000.0,36.09,-86.82,Kevin Pointer,TN,1494435756000.0,19728145
195654361,Hermitage,"Buxton, ME",1468680638000.0,36.17,-86.6,Kevin Snow,TN,1507913248000.0,19728145
209159548,Smyrna,,1477094251000.0,35.97,-86.51,Kevin VanHeulen,TN,1477962703000.0,19728145
188671296,Nashville,"Nashville, TN",1467734430000.0,36.17,-86.78,Kim,TN,1508609257000.0,19728145
233830250,Hermitage,,1503600601000.0,36.19,-86.6,Kim,TN,1505789648000.0,19728145
13856024,Franklin,,1485818181000.0,35.92,-86.89,Kim,TN,1488217311000.0,19728145
10856565,Nashville,,1508338411000.0,36.08,-86.72,Kim Cady,TN,1508338411000.0,19728145
235204069,Thompsons Station,,1505353880000.0,35.8,-86.9,Kim Crawley,TN,1507491031000.0,19728145
224343876,Nashville,,1494520712000.0,36.21,-86.72,Kim Flory,TN,1494520712000.0,19728145
229188569,Franklin,,1496871332000.0,35.93,-86.84,Kim Gorsuch,TN,1497220024000.0,19728145
10514162,Franklin,Franklin,1464841579000.0,35.93,-86.81,Kim L,TN,1500355244000.0,19728145
210527213,Thompsons Station,,1470786926000.0,35.8,-86.9,Kim W,TN,1478991654000.0,19728145
227802971,Clarksville,,1504103182000.0,36.56,-87.41,Kimberly,TN,1504103182000.0,19728145
216839449,Nashville,,1494105978000.0,36.17,-86.78,kimberly collett,TN,1495148475000.0,19728145
217182582,Gordonsville,,1479946620000.0,36.17,-85.93,Kira S. Shelton,TN,1507153731000.0,19728145
49863072,Hermitage,,1476327280000.0,36.19,-86.6,kiran,TN,1495229136000.0,19728145
199959120,Mount Juliet,,1507030721000.0,36.17,-86.6,Kirk Jones,TN,1507273985000.0,19728145
232981847,Nashville,,1501502497000.0,36.17,-86.78,Kirsten Grimes,TN,1501502497000.0,19728145
186770261,Nashville,Nashville,1491161411000.0,36.09,-86.82,Kirstin Heather,TN,1491161411000.0,19728145
232443135,Nashville,,1500830573000.0,36.15,-86.86,Krista,TN,1502246842000.0,19728145
229665778,Columbia,,1497408174000.0,35.62,-87.03,Krista Nice,TN,1497408174000.0,19728145
98004922,Nashville,Chicago,1467676944000.0,36.18,-86.74,Krista Riddle,TN,1468527502000.0,19728145
183900545,Parsons,,1505710072000.0,35.64,-88.13,Kristen,TN,1507431496000.0,19728145
226135246,Nashville,,1501634867000.0,36.17,-86.78,Kristian,TN,1501634867000.0,19728145
221617309,Nashville,,1486604384000.0,36.22,-86.74,Kristin Montenegro,TN,1486604384000.0,19728145
10812648,Nashville,Nashville,1484068178000.0,36.08,-86.72,Kristin Reed,TN,1489452912000.0,19728145
190939281,Nashville,,1503065872000.0,36.16,-86.66,Kristine R,TN,1508608322000.0,19728145
213472478,Nashville,,1478022225000.0,36.17,-86.78,Kristy,TN,1478022225000.0,19728145
182739832,Nashville,,1462031353000.0,36.17,-86.78,Kristy,TN,1462031353000.0,19728145
236116659,Whites Creek,,1505043943000.0,36.27,-86.83,Kristy West,TN,1506616333000.0,19728145
223913920,Nashville,,1492452936000.0,36.22,-86.77,Kristy Wilson,TN,1497316607000.0,19728145
208496004,Clarksville,,1467829865000.0,36.53,-87.35,Kristyn Bailey,TN,1469327149000.0,19728145
209671658,Nashville,,1476320570000.0,35.94,-86.81,Krystal Jensen,TN,1476676471000.0,19728145
215547287,Nashville,,1487914778000.0,36.08,-86.72,Krystal Wilson,TN,1492132869000.0,19728145
204187168,Murfreesboro,,1471959288000.0,35.85,-86.46,Krystle,TN,1489293778000.0,19728145
124310602,Nashville,Providence,1495121553000.0,36.17,-86.78,Kumar,TN,1508629587000.0,19728145
215005104,Fort Campbell,,1476570756000.0,36.65,-87.46,kwame FRIMPONG,KY,1476570756000.0,19728145
209603017,Nashville,,1469286735000.0,36.21,-86.72,Ky Palmore,TN,1469286735000.0,19728145
220545268,Nashville,,1485187842000.0,36.17,-86.79,Kyle Ashley Johnson,TN,1485187842000.0,19728145
228682424,Nashville,,1496188157000.0,36.1,-86.66,Kyra Blank,TN,1500504068000.0,19728145
204369511,Nashville,,1462143102000.0,36.18,-86.74,L Skylar Pochatko,TN,1462143102000.0,19728145
224794741,Lagos,,1492514517000.0,6.45,3.47,L.Fash,,1493278490000.0,19728145
213483660,Nashville,,1491687759000.0,36.17,-86.78,LA Martin,TN,1491687759000.0,19728145
173879692,Nashville,Nashville,1461339304000.0,36.07,-86.78,Lacie Daye,TN,1462640798000.0,19728145
205972256,Nashville,,1464995764000.0,36.15,-86.86,Lacie Tate,TN,1484409806000.0,19728145
187059092,Nashville,,1465631322000.0,36.11,-86.86,Lana,TN,1465631322000.0,19728145
118484462,Nashville,Nashville,1458348564000.0,36.06,-86.96,Lana Barabash,TN,1508788948000.0,19728145
10716469,Nashville,Abilene ,1483114220000.0,36.17,-86.78,Lane Hollingsworth,TN,1498672460000.0,19728145
9770454,Antioch,"Detroit Lakes, MN",1502374688000.0,36.04,-86.64,Lanita,TN,1502374688000.0,19728145
150907332,Smyrna,McMinnville,1459383024000.0,35.97,-86.51,Larry Adcock,TN,1508767991000.0,19728145
220359361,Nashville,,1484943589000.0,36.06,-86.96,Larry Giffin,TN,1484943589000.0,19728145
226128410,Thompsons Station,thompson station,1493906911000.0,35.8,-86.9,Larry Gooden,TN,1495238285000.0,19728145
13396880,Hendersonville,,1476546382000.0,36.32,-86.61,Larry Mayfield,TN,1507516276000.0,19728145
222288505,Franklin,,1491161275000.0,35.93,-86.83,Latish Khubnani,TN,1508634281000.0,19728145
151526702,Nashville,Cane Ridge,1489280004000.0,36.17,-86.78,LaTisha,TN,1495153374000.0,19728145
205788143,Goodlettsville,,1464113934000.0,36.28,-86.75,Laura,TN,1467683788000.0,19728145
14610788,Minneapolis,Edina,1486697723000.0,44.88,-93.37,Laura,MN,1499826894000.0,19728145
6505611,Hendersonville,"Gulfport, Ms",1459058020000.0,36.32,-86.61,Laura,TN,1491531796000.0,19728145
6318515,Nashville,Boston,1460686324000.0,36.13,-86.8,Laura,TN,1463179677000.0,19728145
210811613,Nashville,,1470942737000.0,36.18,-86.81,Laura A,TN,1490122225000.0,19728145
199261692,Franklin,,1503790791000.0,35.92,-86.89,Laura Caron Erby,TN,1507694193000.0,19728145
203611756,Nashville,,1482380637000.0,36.17,-86.78,Laura Cook,TN,1502278465000.0,19728145
21255541,Nashville,"Chagrin Falls, OH",1472148823000.0,36.18,-86.81,Laura G.,TN,1507522083000.0,19728145
82238712,Murfreesboro,,1459205492000.0,35.82,-86.45,Laura Lindsay,TN,1508769318000.0,19728145
158884172,Nashville,,1465910476000.0,36.17,-86.72,Laura Pinell,TN,1468684643000.0,19728145
10510839,Nashville,,1464195686000.0,36.16,-86.79,Laura Roberts,TN,1464195686000.0,19728145
218470947,Hendersonville,,1485700038000.0,36.32,-86.61,laura.rambles.on,TN,1485736103000.0,19728145
231669598,Franklin,,1499876138000.0,35.92,-86.89,Lauren ,TN,1499876138000.0,19728145
199433243,Franklin,,1493211175000.0,35.92,-86.89,Lauren Bellar,TN,1493211175000.0,19728145
218776572,Nashville,,1482892316000.0,36.06,-86.96,Lauren Cannon,TN,1482892316000.0,19728145
205554905,Goodlettsville,,1463792619000.0,36.33,-86.74,Lauren Carnahan,TN,1463792619000.0,19728145
238423198,Smyrna,,1507493065000.0,35.97,-86.51,Lauren Cootes,TN,1508439963000.0,19728145
174047032,Nashville,,1479236582000.0,36.17,-86.72,Lauren DeBow,TN,1493152936000.0,19728145
215018677,Nashville,,1476641074000.0,36.08,-86.72,Lauren Fairand,TN,1476641074000.0,19728145
232246243,Tuxedo,,1500609872000.0,35.23,-82.43,Lauren Gilbert,NC,1504448171000.0,19728145
88827122,Nashville,Memphis,1507131763000.0,36.08,-86.72,Lauren Van Alstine,TN,1507131763000.0,19728145
5166997,Nashville,Nashville,1468590350000.0,36.13,-86.8,Laurie,TN,1492613106000.0,19728145
12757769,Franklin,Franklin,1487961202000.0,35.92,-86.89,Laurie  E.,TN,1493203839000.0,19728145
210349975,Nashville,,1470280230000.0,36.17,-86.78,Laurie Lee Sisk,TN,1470280230000.0,19728145
3644808,Nashville,Nashville,1460064131000.0,36.17,-86.72,laurie m,TN,1461708385000.0,19728145
198499631,Nashville,,1458774900000.0,36.17,-86.72,Laurie McCabe,TN,1487900394000.0,19728145
239149538,Nashville,,1508630772000.0,36.17,-86.78,Lawrence Coley,TN,1508630772000.0,19728145
94109362,Nashville,,1497119827000.0,36.13,-86.78,Layne,TN,1500846623000.0,19728145
235726562,Cleveland,,1504734653000.0,41.4,-81.83,Lea Dougher,OH,1504734653000.0,19728145
184792175,Dubai,,1473539866000.0,25.27,55.33,Leah Ashley,,1486695866000.0,19728145
114324162,Nashville,,1467669179000.0,36.16,-86.79,Leah Bailey,TN,1477078201000.0,19728145
222124728,Franklin,,1488859155000.0,35.92,-86.89,Lee Anne O'Brien,TN,1496365238000.0,19728145
11384020,Nashville,"Fort Payne, AL",1466513307000.0,36.17,-86.78,Leia Brown,TN,1469129219000.0,19728145
210561896,Nashville,,1470604373000.0,36.17,-86.78,Leisa,TN,1499825277000.0,19728145
222267335,Clarksville,,1487427119000.0,36.49,-87.23,Leon Walsh,TN,1487427119000.0,19728145
180315362,Nashville,Nashville,1473267530000.0,36.08,-86.72,Lesleigh,TN,1506348552000.0,19728145
198117708,Madison,,1471579323000.0,36.26,-86.71,Leslie,TN,1503378411000.0,19728145
205795157,Nashville,,1464203009000.0,36.17,-86.78,Leslie Boleyjack,TN,1489392310000.0,19728145
24377252,New York,,1464623213000.0,40.75,-73.99,Leslie Halpern,NY,1464623213000.0,19728145
183346706,Nashville,,1468430499000.0,36.18,-86.74,Leslie L,TN,1496440142000.0,19728145
235462900,White House,,1504354412000.0,36.48,-86.69,Leslie OGwynn,TN,1508365751000.0,19728145
13547579,Nashville,,1459287516000.0,36.13,-86.8,Leticia F. LaFontaine,TN,1508461270000.0,19728145
233227213,Nashville,,1501798568000.0,36.16,-86.79,Lewis Biltcliffe,TN,1501991638000.0,19728145
222889547,Clarksville,,1488290507000.0,36.56,-87.41,Libby Ballard-Hathaway,TN,1488290507000.0,19728145
217272053,La Vergne,,1480127234000.0,36.01,-86.57,Lidia Choc,TN,1480127234000.0,19728145
227856548,Franklin,,1495136775000.0,35.93,-86.81,Lily Nelsen,TN,1503009796000.0,19728145
225231768,Nashville,,1491585428000.0,36.13,-86.8,Lily Norton,TN,1491585428000.0,19728145
207866166,Nashville,,1468360473000.0,36.11,-86.86,Lin Cisney,TN,1490661640000.0,19728145
31901512,Nashville,Nashville,1458392599000.0,36.06,-86.96,Linda,TN,1508765887000.0,19728145
58950342,Brentwood,,1499168171000.0,36.0,-86.79,Linda,TN,1500996898000.0,19728145
204800042,Nashville,,1462772822000.0,36.22,-86.86,Linda ,TN,1462772822000.0,19728145
213901653,Ashland City,,1475106706000.0,36.28,-87.07,Linda,TN,1508807158000.0,19728145
14186026,Nashville,,1474002595000.0,36.16,-86.79,Linda,TN,1496626964000.0,19728145
214724158,Franklin,,1476155561000.0,36.73,-86.57,Linda,KY,1481570694000.0,19728145
215619639,Nashville,Franklin,1486645003000.0,36.06,-86.96,Linda,TN,1508464664000.0,19728145
10066189,Nashville,,1489350327000.0,36.19,-86.71,Linda,TN,1505091418000.0,19728145
128991232,Goodlettsville,Goodlettsville,1461382261000.0,36.33,-86.74,Linda Carney,TN,1508640910000.0,19728145
205681158,Antioch,,1463966970000.0,36.04,-86.64,Linda Dowell,TN,1467072115000.0,19728145
30852882,Nashville,,1487422764000.0,36.16,-86.79,Linda Jameson,TN,1507466531000.0,19728145
208106733,Murfreesboro,,1467298628000.0,35.78,-86.33,Linda W,TN,1489799298000.0,19728145
190636286,Brentwood,Brentwood,1501624726000.0,36.0,-86.79,Lindsay,TN,1507008792000.0,19728145
192828286,Nashville,Nashville,1508715637000.0,36.17,-86.72,Lisa,TN,1508715637000.0,19728145
225378632,Nashville,,1491796384000.0,36.17,-86.78,Lisa,TN,1491796384000.0,19728145
196725445,Nashville,,1486494291000.0,36.17,-86.72,Lisa,TN,1508539323000.0,19728145
100212992,Clarksville,,1480881991000.0,36.53,-87.35,Lisa,TN,1506690556000.0,19728145
9718805,Nashville,,1460125655000.0,36.13,-86.8,Lisa,TN,1468008349000.0,19728145
203059873,Old Hickory,Old Hickory,1460765760000.0,36.25,-86.63,Lisa,TN,1497884669000.0,19728145
14452729,Nashville,,1472140396000.0,36.17,-86.78,Lisa A.,TN,1507994365000.0,19728145
216421300,Nashville,,1478739389000.0,36.07,-86.73,Lisa Anne Omarsdottir,TN,1501458697000.0,19728145
222180532,Brentwood,,1487294900000.0,36.0,-86.79,lisa beaudet,TN,1487294900000.0,19728145
61202412,Columbia,,1468974351000.0,35.61,-87.05,Lisa Burns Schneider,TN,1500783434000.0,19728145
39532322,Nashville,,1507607273000.0,36.18,-86.74,Lisa Connor,TN,1508083771000.0,19728145
218062154,Nashville,,1482558043000.0,36.08,-86.72,Lisa D,TN,1507583783000.0,19728145
233283392,Nashville,,1502028033000.0,36.16,-86.79,Lisa D,TN,1508522458000.0,19728145
215876742,Nashville,,1478924098000.0,36.08,-86.72,Lisa K,TN,1507400980000.0,19728145
226779164,Atlanta,,1493726884000.0,33.86,-84.4,Lisa Provost,GA,1507241370000.0,19728145
68682832,Hendersonville,Hendersonville,1485270988000.0,36.32,-86.61,Lisa Shaw,TN,1506690338000.0,19728145
228236804,Nashville,,1495599870000.0,36.06,-86.96,Lisa Stafford,TN,1495599870000.0,19728145
223379525,Spring Hill,,1489146650000.0,35.76,-86.88,LisaB,TN,1493408453000.0,19728145
222036864,Nashville,,1487097457000.0,36.13,-86.8,Lisandra Blanco Martinez,TN,1487097457000.0,19728145
4883361,Nashville,,1502232174000.0,36.17,-86.78,Liz,TN,1506735355000.0,19728145
202919711,Madison,Seattle,1468082872000.0,36.26,-86.71,Lizzie (Lizabeth),TN,1491637995000.0,19728145
53695782,Brentwood,,1465707849000.0,36.0,-86.79,LJ,TN,1507393722000.0,19728145
63356042,Boston,Boston,1484012384000.0,42.34,-71.09,Long Dinh,MA,1501443235000.0,19728145
8284800,Hendersonville,,1495850727000.0,36.32,-86.61,Lorena ,TN,1497041284000.0,19728145
200790668,Nashville,,1460320199000.0,36.13,-86.8,Loreta Watrous,TN,1508617758000.0,19728145
129637372,Nashville,,1467919684000.0,36.17,-86.78,Lori,TN,1508002118000.0,19728145
137512942,Nashville,,1501686168000.0,36.06,-86.96,Lori Gilmore,TN,1501686168000.0,19728145
212038445,Nashville,,1483030939000.0,36.09,-86.82,Lorraine Seta,TN,1508584669000.0,19728145
11819774,Nashville,,1485360175000.0,36.06,-86.96,Lorraine Wilson,TN,1488835562000.0,19728145
201161097,Nashville,,1458661979000.0,36.08,-86.72,LouAnne McBride,TN,1463597195000.0,19728145
14051566,Nashville,Nashville,1463237703000.0,36.18,-86.74,Louise Stroop,TN,1500939593000.0,19728145
212577516,Madison,"Birmingham, AL",1486852368000.0,36.26,-86.71,Lovell E,TN,1508704372000.0,19728145
178109922,Nashville,,1476930886000.0,36.14,-86.74,"Luciana Aliaga ""Lucy""",TN,1477543378000.0,19728145
237145017,Old Hickory,,1506074838000.0,36.25,-86.63,Lucy,TN,1508622500000.0,19728145
219594175,Nashville,,1495145590000.0,36.11,-86.86,lucy,TN,1499136648000.0,19728145
212288649,Gallatin,,1473023203000.0,36.39,-86.45,Lugene Sloan,TN,1473023203000.0,19728145
212237872,Nashville,,1472948270000.0,36.06,-86.96,luis,TN,1473071602000.0,19728145
225412049,Nashville,,1498109268000.0,36.17,-86.78,Luis Chunga,TN,1498751354000.0,19728145
193437762,Nashville,,1458680823000.0,36.17,-86.78,Luz Belleza-Binns,TN,1458680823000.0,19728145
127594002,Old Hickory,,1482593129000.0,36.17,-86.6,Lydia K,TN,1496852340000.0,19728145
218877430,Nashville,,1485563340000.0,36.08,-86.72,Lydia Kennedy,TN,1488520793000.0,19728145
5279673,Clarksville,"Gloucester, VA",1485839208000.0,36.53,-87.35,Lynda Doberman,TN,1508809607000.0,19728145
212722637,Nashville,,1473599778000.0,36.16,-86.79,Lynn,TN,1473599778000.0,19728145
190076793,Franklin,,1458677367000.0,35.93,-86.81,Lynn,TN,1476369533000.0,19728145
211436936,Nashville,,1473222380000.0,36.17,-86.78,Lynn Cates,TN,1485580119000.0,19728145
210232269,Nashville,,1470114548000.0,36.17,-86.78,Lynn Jackson Conklin,TN,1470114548000.0,19728145
234821243,Nashville,,1507142132000.0,36.08,-86.72,Lynn Pate,TN,1508796911000.0,19728145
4390904,Hollywood,"Hollywood, FL/Nashville TN",1485407131000.0,26.02,-80.12,Lynne ,FL,1494935400000.0,19728145
178344732,Nashville,Nashville,1489885434000.0,36.18,-86.81,M.Cook,TN,1508718631000.0,19728145
211621454,Nashville,,1472490746000.0,36.06,-86.96,Madonna A,TN,1490528539000.0,19728145
182547125,Murfreesboro,,1507075397000.0,35.78,-86.33,Maggie,TN,1507754814000.0,19728145
11271445,Nashville,Nashville,1488301544000.0,36.15,-86.86,Maggie Odle,TN,1488429066000.0,19728145
198501855,Santa Fe,,1462974426000.0,35.76,-87.17,Maile Newton,TN,1492956171000.0,19728145
216186447,Nashville,,1478366792000.0,36.06,-86.96,Makenzie Parks,TN,1485141860000.0,19728145
216636561,Nashville,,1479083845000.0,36.11,-86.78,Mala Siri,TN,1479083845000.0,19728145
210040203,Bon Aqua,,1470623642000.0,35.93,-87.25,Mandy Burkhead,TN,1492165522000.0,19728145
216371152,Nashville,,1478646775000.0,36.16,-86.79,Mandy Robinson Walley,TN,1478646775000.0,19728145
214899808,Nashville,,1476410540000.0,36.13,-86.67,Manoj,TN,1506176659000.0,19728145
199104094,Albany,,1458697839000.0,42.65,-73.75,Manoj,NY,1471112471000.0,19728145
43871542,Brentwood,"Brentwood, TN",1468298045000.0,36.0,-86.79,Manuel,TN,1494724845000.0,19728145
7426161,Nashville,,1469652064000.0,36.09,-86.82,Manuel Valenzuela,TN,1500666567000.0,19728145
183119747,Franklin,,1467629359000.0,35.92,-86.89,Marc Siegel,TN,1493720721000.0,19728145
203246284,Nashville,,1460507196000.0,36.17,-86.78,Marco Trejo,TN,1460507196000.0,19728145
153633002,Nashville,"Batavia, IL",1493435339000.0,36.18,-86.74,Marcus,TN,1495235340000.0,19728145
193087362,Ruskin,,1463256644000.0,27.71,-82.45,Marek Sinilo,FL,1463256644000.0,19728145
28294922,Clarksville,Folsom,1475875260000.0,36.49,-87.23,Margarita,TN,1507227902000.0,19728145
216590349,Clarksville,,1503172433000.0,36.5,-87.36,Margie Velez,TN,1508751126000.0,19728145
9999847,Goodlettsville,Madison,1498431827000.0,36.32,-86.72,Maria,TN,1508540389000.0,19728145
232129321,Nashville,,1500430831000.0,36.17,-86.78,María J,TN,1501504738000.0,19728145
202119345,Clarksville,,1459135224000.0,36.56,-87.41,Marianna Napolitano Tanner,TN,1470947560000.0,19728145
124912362,Nashville,,1493931345000.0,36.15,-86.86,Marie Gonzales,TN,1507556421000.0,19728145
221335151,Tennessee Ridge,,1486163755000.0,36.31,-87.76,marie marchbanks,TN,1486163755000.0,19728145
228041546,Nashville,,1495390958000.0,36.13,-86.8,Mariela Egaña Blanco,TN,1495390958000.0,19728145
6716693,Nashville,,1504888525000.0,36.17,-86.72,Marilyn ,TN,1508769210000.0,19728145
58619242,Nashville,St. Louis,1458360272000.0,36.08,-86.72,Marilyn Redick,TN,1508725174000.0,19728145
222010309,Nashville,,1487060480000.0,36.16,-86.79,Marina,TN,1488313871000.0,19728145
73911552,Nashville,"Damascus, VA",1503114353000.0,36.08,-86.72,Marinda Skeesick,TN,1503114353000.0,19728145
217561726,Nashville,,1480629926000.0,36.17,-86.78,Maris Black,TN,1480629926000.0,19728145
98329112,Huntsville,,1489942112000.0,34.73,-86.57,Marjorie Gruen,AL,1489942112000.0,19728145
58756332,Nashville,Mount Juliet,1458686562000.0,36.17,-86.78,Mark,TN,1508680231000.0,19728145
216474792,Franklin,,1478827377000.0,35.92,-86.89,mark ,TN,1507774811000.0,19728145
184565993,Franklin,,1486803111000.0,35.92,-86.89,Mark,TN,1487375927000.0,19728145
1953790,Nashville,,1508112555000.0,36.17,-86.78,Mark,TN,1508637588000.0,19728145
119628682,Nashville,Birmingham,1507338549000.0,36.16,-86.79,Mark Andrew,TN,1508449977000.0,19728145
210649524,Nashville,"Nashville, TN",1470761067000.0,36.17,-86.78,Mark H,TN,1507256382000.0,19728145
127564392,Nashville,Nashville,1473397252000.0,36.08,-86.72,Mark M,TN,1494908892000.0,19728145
16479361,Nashville,,1498082095000.0,36.13,-86.8,Mark Pierret,TN,1507717619000.0,19728145
47018792,Huntsville,,1472920856000.0,34.76,-86.68,Mark R,AL,1503775207000.0,19728145
238735032,Nashville,,1507828167000.0,36.06,-86.96,Mark White,TN,1507851613000.0,19728145
208389674,Hermitage,,1467686504000.0,36.19,-86.6,marlies dougherty,TN,1508603267000.0,19728145
232172268,Hendersonville,,1507344408000.0,36.32,-86.61,Marta Sargunas,TN,1508674114000.0,19728145
12260818,Nashville,Nashville,1458821406000.0,36.18,-86.74,Martha Lisle,TN,1503759263000.0,19728145
220535409,Hickory Valley,,1485257018000.0,35.32,-89.15,Martin Conte,TN,1485257018000.0,19728145
221212756,Nashville,,1486023440000.0,36.17,-86.78,Martynas ustavi?ius,TN,1493464574000.0,19728145
45495792,Nashville,,1489292513000.0,36.17,-86.78,Marvin,TN,1508716564000.0,19728145
4088809,Franklin,,1478012290000.0,35.92,-86.89,Mary,TN,1508787628000.0,19728145
233231433,Nashville,,1501803761000.0,36.17,-86.78,Mary Ann G,TN,1504963522000.0,19728145
219744699,Nashville,,1484171531000.0,36.14,-86.81,Mary Elizabeth Pellett,TN,1485747603000.0,19728145
223910698,Franklin,,1494617877000.0,35.93,-86.81,Mary Hamlin,TN,1505834429000.0,19728145
225483657,Thompsons Station,,1491938425000.0,35.8,-86.9,Mary Lou Bradley Casey,TN,1491938425000.0,19728145
210807107,Nashville,,1471130220000.0,36.09,-86.82,Mary Margaret Hardaway,TN,1505875866000.0,19728145
182614074,Columbia,,1483769178000.0,35.61,-87.05,Mary Susan Hennessy,TN,1492964675000.0,19728145
231429736,Nashville,,1499603536000.0,36.11,-86.86,Marybeth Schultz Reed,TN,1507290412000.0,19728145
208188965,Nashville,,1468409746000.0,36.17,-86.78,Maryjean,TN,1470017929000.0,19728145
195288637,Spring Hill,,1486919081000.0,35.76,-86.9,MaryLou Buford-Gestas,TN,1504916855000.0,19728145
8689400,Nashville,,1461389559000.0,36.16,-86.79,masoud,TN,1505534517000.0,19728145
214576733,Ashland City,,1503796349000.0,36.28,-87.07,Mathew Binkley,TN,1508262317000.0,19728145
206825202,Nashville,,1473289064000.0,36.17,-86.78,Matt,TN,1490656925000.0,19728145
13079203,Smyrna,"Smyrna, TN",1494649492000.0,35.97,-86.51,Matt ,TN,1494649492000.0,19728145
230839591,Nashville,,1498879472000.0,36.11,-86.86,Matt Boyle,TN,1498879472000.0,19728145
104220992,Nashville,,1472339822000.0,36.11,-86.86,Matt Good,TN,1505346884000.0,19728145
234937748,Franklin,,1503760060000.0,35.92,-86.89,Matte Campbell,TN,1503760060000.0,19728145
197319095,Portland,,1506923513000.0,45.57,-122.69,Matthew,OR,1507467454000.0,19728145
237645761,Franklin,,1506628180000.0,35.92,-86.89,Matthew,TN,1508284680000.0,19728145
228614899,Manchester,,1496106558000.0,35.47,-86.11,Matthew B Powers,TN,1496106558000.0,19728145
197917430,Clarksville,,1458756718000.0,36.49,-87.23,Maureen,TN,1471670590000.0,19728145
185503679,Clarksville,Clarksville ,1458929139000.0,36.53,-87.35,Maureen Halstead,TN,1497851470000.0,19728145
114061872,Brentwood,,1465616211000.0,36.0,-86.79,Maureen Lanigan,TN,1465616211000.0,19728145
233295855,Madison,,,36.26,-86.71,,TN,,19728145
635319,Nashville,Nashville,1465324502000.0,36.06,-86.96,Max,TN,1508617574000.0,19728145
236624309,Nashville,,1505526454000.0,36.1,-86.66,Max Scates,TN,1507889501000.0,19728145
8501906,Brentwood,Miami,1475001084000.0,36.0,-86.79,Mayde,TN,1479181920000.0,19728145
66214592,Nashville,,1506355786000.0,36.17,-86.78,Mayme Van Meveren,TN,1507762710000.0,19728145
203307190,Madison,,1488422318000.0,36.26,-86.71,McKenna Driver,TN,1497887477000.0,19728145
14352106,Nashville,San Antonio,1483122796000.0,36.15,-86.79,ME,TN,1502068813000.0,19728145
235346322,Nashville,,1504213914000.0,36.07,-86.78,Meagan & Eric ,TN,1507852984000.0,19728145
127219982,Nashville,,1474471449000.0,36.18,-86.74,Meg Anderson,TN,1475246362000.0,19728145
83016682,Nashville,"San Antonio, TX",1465650201000.0,36.22,-86.86,Megan Bee,TN,1497327732000.0,19728145
208326288,Nashville,,1467604189000.0,36.17,-86.72,Megan Dudley,TN,1472671522000.0,19728145
215485890,Nashville,,1477276379000.0,36.07,-86.73,Megan Swindler,TN,1485279356000.0,19728145
6042535,Nashville,,1497735675000.0,36.17,-86.78,Megha Bradley,TN,1498327134000.0,19728145
11532203,Franklin,"Hartland, WI",1501471078000.0,35.93,-86.81,Meghan,TN,1501471078000.0,19728145
206103004,Nashville,,1467343044000.0,36.17,-86.78,Meghan Owen,TN,1479949926000.0,19728145
127549592,Boston,,1506654867000.0,42.34,-71.09,mehrdad,MA,1506654867000.0,19728145
203794696,Nashville,"Los Angeles, CA",1470337619000.0,36.17,-86.78,MéKyle,TN,1504624614000.0,19728145
83032962,Franklin,,1463069202000.0,35.92,-86.89,melanie,TN,1506678980000.0,19728145
140274692,Nashville,,1491622114000.0,36.17,-86.78,Melanie,TN,1506634258000.0,19728145
209202527,Antioch,,1468763283000.0,36.04,-86.64,Melanie Greene,TN,1480821694000.0,19728145
211209647,Nashville,,1490749172000.0,36.17,-86.78,Melanie M.,TN,1507993376000.0,19728145
45529472,Nashville,,1466614306000.0,36.15,-86.86,Melissa,TN,1508525680000.0,19728145
207240834,Nashville,,1468045524000.0,36.16,-86.66,Melissa,TN,1468045524000.0,19728145
187624182,Nashville,,1475979570000.0,36.15,-86.86,Melissa,TN,1504280412000.0,19728145
238930516,Franklin,,1508061047000.0,35.92,-86.89,Melissa,TN,1508061047000.0,19728145
217830172,Franklin,,1481076472000.0,35.93,-86.81,Melissa K,TN,1488552390000.0,19728145
183233948,Franklin,,1487777640000.0,35.92,-86.89,Melissa M.,TN,1494960591000.0,19728145
229512175,Nashville,,1497218346000.0,36.17,-86.78,Melissa Raines,TN,1504376485000.0,19728145
206280668,Grand Rapids,,1464822596000.0,42.96,-85.66,Melissa Rhoads,MI,1502386710000.0,19728145
13582987,Nashville,,1492577011000.0,36.16,-86.79,Melissa Taylor,TN,1508797311000.0,19728145
182970988,Nashville,,1471961111000.0,36.17,-86.78,Melodie Rahmeyer,TN,1475699894000.0,19728145
7624534,Murfreesboro,Murfreesboro,1481255198000.0,35.78,-86.33,Melody,TN,1483494476000.0,19728145
210596951,Clarksville,,1470639098000.0,36.56,-87.41,Melony Johnson,TN,1470639098000.0,19728145
223465472,Nashville,,1489103986000.0,36.13,-86.8,Mercedes Maite Janvion,TN,1489103986000.0,19728145
224483168,Long Island City,,1493076744000.0,40.75,-73.95,Meredith Joy,NY,1507143685000.0,19728145
226770365,Nashville,,1499290176000.0,36.17,-86.77,Micah LeeAnn,TN,1499290176000.0,19728145
188562198,Nashville,,1458709840000.0,36.06,-86.96,Michael,TN,1470410882000.0,19728145
11103866,Nashville,Nashville,1493115806000.0,36.17,-86.72,Michael,TN,1493115806000.0,19728145
202841783,Franklin,,1459944975000.0,35.92,-86.89,Michael And Shirley Bryant,TN,1499205843000.0,19728145
41473632,Brentwood,Brooklyn,1485653407000.0,36.0,-86.79,Michael Biscotto,TN,1508191323000.0,19728145
208571752,Brentwood,,1467933738000.0,36.0,-86.79,Michael Frost ,TN,1467933738000.0,19728145
209103533,Madison,,1468626917000.0,36.26,-86.71,Michael J. Radyko,TN,1468626917000.0,19728145
208253400,Columbia,,1468637721000.0,35.61,-87.05,Michael Lawler,TN,1472327665000.0,19728145
201800343,Nashville,,1458572989000.0,36.08,-86.72,Michael Magnin,TN,1489941885000.0,19728145
226437965,La Vergne,,1493220987000.0,36.0,-86.57,Michael Nefzger,TN,1508629838000.0,19728145
216570265,Nashville,,1478982704000.0,36.11,-86.86,Michael Samuel,TN,1494263062000.0,19728145
205152316,West Palm Beach,Singer Island,1463259316000.0,26.78,-80.07,Michael Siebesma,FL,1466799998000.0,19728145
139630192,Fayetteville,,1488298148000.0,36.05,-94.14,Michael Smith,AR,1506284863000.0,19728145
130158522,Franklin,"Franklin, TN",1502013445000.0,35.92,-86.89,Michael Stanton,TN,1508503216000.0,19728145
229821736,Hermitage,,1506804508000.0,36.19,-86.6,Michael Swift,TN,1508538901000.0,19728145
229068181,Nashville,,1508243971000.0,36.16,-86.79,Michael Swift,TN,1508243971000.0,19728145
72379512,Nashville,Nashville,1468104900000.0,36.18,-86.74,Michael(Mike) Sherman,TN,1508027510000.0,19728145
229831302,Murfreesboro,,1501188275000.0,35.78,-86.33,Micheal Morehead,TN,1506482285000.0,19728145
237077848,Spring Hill,,1506000449000.0,35.76,-86.88,Michele ,TN,1507895644000.0,19728145
207249235,Murfreesboro,murfreesboro,1503125831000.0,35.87,-86.34,Michele Ladd,TN,1506731771000.0,19728145
212994487,Nashville,,1473948263000.0,36.17,-86.78,Michele S.,TN,1476212736000.0,19728145
216294161,Smyrna,,1478573392000.0,35.97,-86.51,Michelle,TN,1487220618000.0,19728145
14263505,Antioch,,1492357948000.0,36.04,-86.64,Michelle,TN,1507856548000.0,19728145
105128552,Nashville,,1458749555000.0,36.06,-86.96,Michelle,TN,1490466131000.0,19728145
202631762,Nashville,,1460561279000.0,36.13,-86.8,Michelle,TN,1467458281000.0,19728145
195621446,Nashville,,1490023386000.0,36.15,-86.81,Michelle,TN,1508616390000.0,19728145
218692365,Shelbyville,,1482755664000.0,35.49,-86.45,Michelle Arianna,TN,1482755664000.0,19728145
215600256,Nashville,,1477492798000.0,36.15,-86.81,Michelle Hoover,TN,1483931317000.0,19728145
146112942,Nashville,"Clarksville, TN",1495926017000.0,36.17,-86.78,Michelle James,TN,1508399398000.0,19728145
224832034,Fort Campbell,,1491007089000.0,36.65,-87.46,Michelle Lucas,KY,1491582468000.0,19728145
46486792,Nashville,,1491146607000.0,36.17,-86.78,Michelle McManus,TN,1500378879000.0,19728145
230505166,Smyrna,,1498470095000.0,35.97,-86.51,Michelle Moore,TN,1498470095000.0,19728145
190646018,Nashville,,1472946582000.0,36.17,-86.78,Michelle Pray,TN,1472946582000.0,19728145
103058612,Mount Juliet,,1492566482000.0,36.22,-86.52,Michelle Walker,TN,1492566482000.0,19728145
225949237,Mount Juliet,Connecticut,1492993490000.0,36.22,-86.52,Michelle Walker,TN,1505438923000.0,19728145
216070051,Nashville,,1478184042000.0,36.06,-86.96,michelle wood,TN,1478184042000.0,19728145
218560507,Antioch,,1482450797000.0,36.04,-86.64,Micouri Aranea Silva,TN,1482450797000.0,19728145
195794101,Nashville,,1462033218000.0,36.15,-86.86,Midi,TN,1508087855000.0,19728145
197328318,Nashville,,1479145347000.0,36.13,-86.8,Migdalia Roman,TN,1479182931000.0,19728145
163365842,Nashville,Palm Springs ,1490348307000.0,36.17,-86.78,Mike,TN,1490348307000.0,19728145
138754712,Mount Juliet,"Warner Robins, GA",1473104661000.0,36.17,-86.51,Mike,TN,1496140081000.0,19728145
96869842,Madison,Madison,1479219856000.0,36.26,-86.71,Mike Campbell,TN,1508213013000.0,19728145
212106131,Nashville,,1472866516000.0,36.17,-86.78,Mike Emmerich,TN,1474479305000.0,19728145
4013677,Nashville,"St Louis, Mo.",1465814007000.0,36.17,-86.78,mike s,TN,1499225899000.0,19728145
70254562,Greenbrier,Clarksville,1466070121000.0,36.43,-86.8,Mike T,TN,1491218838000.0,19728145
198959622,Clarksville,,1458789370000.0,36.53,-87.35,Mike Tanner,TN,1493868013000.0,19728145
202175238,New York,,1458961926000.0,40.75,-73.99,Millie East,NY,1503934447000.0,19728145
238895898,Nashville,,1508016998000.0,36.17,-86.72,Milly Balcheva,TN,1508775675000.0,19728145
13004628,Nashville,Nashville,1466885305000.0,36.17,-86.78,Mindy Abshier,TN,1472224287000.0,19728145
11352371,Clarksville,"Taipei, Taiwan",1495118495000.0,36.56,-87.41,ming ^.^,TN,1507819866000.0,19728145
198371494,Franklin,,1468829896000.0,35.93,-86.81,Miranda,TN,1482185052000.0,19728145
194310006,Gilbert,,1496105410000.0,33.32,-111.71,Miranda L Cade,AZ,1496105410000.0,19728145
5367540,Nashville,,1459532717000.0,36.17,-86.78,Miroslava,TN,1486048272000.0,19728145
9236917,Nashville,,1506212575000.0,36.08,-86.72,Miss Ashleigh,TN,1507297854000.0,19728145
177418742,Nashville,,1458669458000.0,36.15,-86.86,Miss Latoya,TN,1494676376000.0,19728145
212613349,Franklin,,1475596726000.0,35.92,-86.89,Missy Ione Benoit,TN,1489789677000.0,19728145
189574367,Murfreesboro,,1470110084000.0,35.87,-86.34,Missy Peterson ,TN,1472011566000.0,19728145
184426907,Madison,,1478999015000.0,43.08,-89.38,mjad,WI,1482822920000.0,19728145
207499677,Nashville,,1490709408000.0,36.14,-86.74,MOE,TN,1503170788000.0,19728145
111937412,Nashville,,1477272602000.0,36.17,-86.78,Molly,TN,1483585253000.0,19728145
239519923,Franklin,,1508729482000.0,35.92,-86.89,Molly Harris,TN,1508729482000.0,19728145
105002772,Hendersonville,Hendersonville,1500081176000.0,36.32,-86.61,Molly Rajendran,TN,1500081176000.0,19728145
12505220,Nashville,,1466829840000.0,36.15,-86.86,Mon Da Lee Phillips,TN,1507515340000.0,19728145
220363309,Lebanon,,1502131044000.0,36.21,-86.31,Monica ,TN,1502131044000.0,19728145
227869544,Nashville,,1495296158000.0,36.08,-86.72,Monica L Sims,TN,1497490889000.0,19728145
226591978,Franklin,,1493426752000.0,35.93,-86.84,Monica Rodriguez,TN,1499536022000.0,19728145
190147610,Antioch,"Antioch, TN",1464276040000.0,36.04,-86.64,Monica V,TN,1506453021000.0,19728145
184036472,Whites Creek,Nashville Tn,1465085842000.0,36.27,-86.83,Monica Washington,TN,1465606649000.0,19728145
214035641,Nashville,,1478184189000.0,36.19,-86.8,Monique Taylor,TN,1493748476000.0,19728145
211561279,Nashville,"San Diego, CA",1472239358000.0,36.17,-86.78,Montana Alexander,TN,1473140800000.0,19728145
202782389,Brentwood,,1459859527000.0,36.0,-86.79,Monte King,TN,1507558507000.0,19728145
192877023,Primm Springs,,1471881699000.0,35.84,-87.24,Moo Jin Oh,TN,1471908961000.0,19728145
54845102,Nashville,,1500214703000.0,36.17,-86.78,Moogie,TN,1502623549000.0,19728145
92158032,Nashville,Nashville,1492123170000.0,36.14,-86.74,Morgan,TN,1492123170000.0,19728145
183015093,Louisville,,1491865749000.0,38.25,-85.76,Morgan,KY,1507642247000.0,19728145
9278294,Nashville,,1470427998000.0,36.17,-86.78,MRB,TN,1508189552000.0,19728145
212174895,Clarksville,,1472862929000.0,36.53,-87.35,Myrna Wells,TN,1475785698000.0,19728145
192223710,Nashville,,1473477561000.0,36.15,-86.79,Nadyne,TN,1473556998000.0,19728145
58682932,Nashville,,1470923161000.0,36.17,-86.78,Nancy,TN,1496779045000.0,19728145
51485662,Clarksville,,1473087011000.0,36.87,-87.48,Nancy,TN,1508546440000.0,19728145
216186230,Nashville,,1499218167000.0,36.17,-86.78,Nancy Harlan,TN,1499218167000.0,19728145
203999616,Nolensville,,1461598038000.0,35.94,-86.67,Nancy Kirby,TN,1461598038000.0,19728145
229425712,Mount Juliet,,1502246606000.0,36.22,-86.52,Nancy Law,TN,1502246606000.0,19728145
11563642,Nashville,"Ft. Lauderdale, FL",1477803107000.0,36.17,-86.78,Naomi,TN,1499996180000.0,19728145
223993020,Nashville,,1490120537000.0,36.17,-86.78,Nashgal,TN,1498367632000.0,19728145
3614107,Greenbrier,Greenbrier,1468620175000.0,36.43,-86.8,Nat,TN,1493060925000.0,19728145
4389320,Nashville,Charlotte,1484270344000.0,36.17,-86.78,Nat,TN,1507687372000.0,19728145
94046082,Goodlettsville,Goodlettsville,1477745669000.0,36.33,-86.74,Natalia & Jairus Mayer,TN,1489340018000.0,19728145
22062221,Nashville,"Annapolis, MD",1503496504000.0,36.17,-86.72,Natalie,TN,1504631252000.0,19728145
142417362,Nashville,,1484366943000.0,36.17,-86.78,Natalie,TN,1508588293000.0,19728145
229389599,Nashville,,1497063983000.0,36.17,-86.78,Natalie McDonald,TN,1497182136000.0,19728145
218094479,Nashville,,1487245402000.0,36.16,-86.79,Natalie Traylor Peake,TN,1502162748000.0,19728145
53071102,Nashville,Nashville ,1487457116000.0,36.17,-86.72,Natalya,TN,1507401922000.0,19728145
206624315,Chapmansboro,,1504879300000.0,36.37,-87.14,Natanyah Faber,TN,1506291902000.0,19728145
68597182,Murfreesboro,Nashville,1474677906000.0,35.78,-86.39,Nathan Brown,TN,1485076444000.0,19728145
86858662,Nashville,"Nashville, TN",1466466924000.0,36.17,-86.78,Nathaniel Ingle Jr,TN,1475004303000.0,19728145
192394999,Nashville,,1470539254000.0,36.08,-86.72,Neali,TN,1505478360000.0,19728145
239420004,Murfreesboro,,1508786670000.0,35.87,-86.44,Nelia,TN,1508786670000.0,19728145
14267386,Nashville,Nashville,1482428794000.0,36.11,-86.86,Nelly,TN,1482428794000.0,19728145
215502931,Hermitage,,1477308189000.0,36.19,-86.6,Nic Leftrick,TN,1477308189000.0,19728145
158694102,Nashville,,1475545730000.0,36.17,-86.78,Nichole Broadhacker,TN,1475545730000.0,19728145
210436359,Hendersonville,,1489183087000.0,36.32,-86.61,Nichole Foy,TN,1489438970000.0,19728145
197487551,Nashville,,1467400469000.0,36.07,-86.73,Nick,TN,1480448461000.0,19728145
198877889,Nashville,,1480543169000.0,36.16,-86.79,Nick Tompkins,TN,1480543169000.0,19728145
188713571,Nashville,,1490624851000.0,36.14,-86.84,nick vallarino,TN,1490624851000.0,19728145
41954092,Nashville,,1480995262000.0,36.17,-86.78,Nickolas Zapton,TN,1499746807000.0,19728145
221847746,Nashville,,1501187882000.0,36.15,-86.81,Nicole,TN,1506988499000.0,19728145
198900450,Gallatin,,1473169145000.0,36.39,-86.45,Nicole Robinson,TN,1501773609000.0,19728145
214192570,Goodlettsville,,1475436366000.0,36.32,-86.72,Nicole Siracusa,TN,1475436366000.0,19728145
43417002,Clarksville,,1467753211000.0,36.49,-87.23,Nika,TN,1467753211000.0,19728145
101518072,Nashville,Medford,1495730158000.0,36.17,-86.78,Niki Murray,TN,1497636474000.0,19728145
192965786,Nashville,,1507008639000.0,36.06,-86.74,Nikita Vaz,TN,1508687672000.0,19728145
224562634,Nashville,,1490637100000.0,36.13,-86.8,Nina Fowler,TN,1490637100000.0,19728145
225226984,Mount Juliet,,1491579899000.0,36.22,-86.52,Nina Furnari,TN,1508466856000.0,19728145
230314872,Nashville,,1498405111000.0,36.17,-86.78,Nishita Dsouza,TN,1499549491000.0,19728145
159959922,Columbia,Fallbrook,1478308010000.0,35.61,-87.05,Noelle Garcia,TN,1478308010000.0,19728145
189562241,Franklin,,1492518398000.0,35.92,-86.89,Noha Schouder,TN,1492518398000.0,19728145
206164688,Franklin,,1464652248000.0,35.92,-86.89,Noha Schouder,TN,1464652248000.0,19728145
188589763,Nashville,"Ludington, Mich.",1474822348000.0,36.06,-86.96,Nora C.,TN,1501592937000.0,19728145
8525315,Clarksville,,1492975222000.0,36.54,-87.35,Nura,TN,1497105791000.0,19728145
1738473,Nashville,"Nashville, Tennessee",1463149953000.0,36.11,-86.78,oh_me,TN,1484603784000.0,19728145
13501170,Franklin,Franklin,1458403701000.0,35.92,-86.89,Olga ,TN,1508186596000.0,19728145
7559534,Nashville,Nashville,1491488110000.0,36.08,-86.72,Olga Alex,TN,1506859037000.0,19728145
234168251,Franklin,,1502888131000.0,35.93,-86.81,Olivia Oetjens,TN,1502888131000.0,19728145
223967699,Nashville,,1489810874000.0,36.17,-86.78,OSCAR,TN,1492132967000.0,19728145
202069455,Nashville,,1458791505000.0,36.11,-86.78,Page Pennington,TN,1469501348000.0,19728145
136654612,Clarksville,,1458663356000.0,36.53,-87.35,Paige Bates,TN,1482030861000.0,19728145
195150098,Nashville,,1467859932000.0,36.06,-86.96,Pam Buck,TN,1484608809000.0,19728145
132888562,Franklin,,1458393328000.0,35.92,-86.89,Pam C,TN,1482209352000.0,19728145
8334399,Nashville,"Huntsville, AL",1461213225000.0,36.17,-86.78,Pamela,TN,1461213225000.0,19728145
8979910,Hendersonville,Chicago,1459959721000.0,36.32,-86.61,Pamela,TN,1503690450000.0,19728145
231006862,Clarksville,,1499092245000.0,36.56,-87.41,Pamela Barry,TN,1499354417000.0,19728145
230975729,Nashville,,1500161961000.0,36.08,-86.72,Pantless Thundergoose,TN,1500161961000.0,19728145
197702145,Nashville,,1458690759000.0,36.1,-86.66,Pat,TN,1462190095000.0,19728145
13614935,Mount Juliet,"Gaithersburg, MD",1499180439000.0,36.21,-86.58,Patricia,TN,1508758010000.0,19728145
13900451,Franklin,"Franklin, Tn",1501988592000.0,35.93,-86.81,patricia eck,TN,1507028484000.0,19728145
203424042,Nashville,,1460769618000.0,36.17,-86.78,Patricia Espy,TN,1486171678000.0,19728145
81970252,Franklin,,1458694400000.0,35.93,-86.81,Patricia Rappa,TN,1507039181000.0,19728145
207065875,Nashville,Nashville,1465862367000.0,36.17,-86.78,Patrick Adrianus,TN,1465862367000.0,19728145
193271405,Nashville,,1473124714000.0,36.08,-86.72,Patrina Hall,TN,1497531999000.0,19728145
183279426,Nashville,,1488121880000.0,36.21,-86.72,Patty,TN,1508788546000.0,19728145
208176128,Nashville,,1467397376000.0,36.17,-86.78,Patty Olstad,TN,1501249078000.0,19728145
206493284,Clarksville,,1498522966000.0,36.53,-87.35,Patty Schneider,TN,1508658931000.0,19728145
137261662,San Rafael,San Rafael,1489945184000.0,37.97,-122.51,Patty T.,CA,1501737568000.0,19728145
229692381,Nashville,,1500119812000.0,36.16,-86.79,Paul A. Parris,TN,1508352581000.0,19728145
233594564,Nashville,,1502386336000.0,36.11,-86.78,Paul Ferguson,TN,1502386336000.0,19728145
231369991,Nashville,,1499530754000.0,36.06,-86.96,Paul Hicks,TN,1499557937000.0,19728145
187277518,Nashville,"Huntington, WV",1471706955000.0,36.16,-86.79,Paul L. McNeely,TN,1502110315000.0,19728145
184531258,Nashville,Knoxville,1506836299000.0,36.17,-86.78,Paul Paulus,TN,1508526099000.0,19728145
186247021,Antioch,,1487468530000.0,36.04,-86.64,paul pelters,TN,1508747058000.0,19728145
222142396,Columbia,,1487246392000.0,35.61,-87.05,Paula Bean,TN,1501816886000.0,19728145
87746432,Nashville,Nashville,1469977030000.0,36.18,-86.81,PC Fleming,TN,1477501410000.0,19728145
190717209,Nashville,,1464550593000.0,36.17,-86.78,Pendry,TN,1496717659000.0,19728145
222353401,Memphis,,1508583182000.0,35.07,-89.96,Penny,TN,1508583182000.0,19728145
220339967,Nashville,,1485000157000.0,36.08,-86.72,Penny Gibson,TN,1485256767000.0,19728145
13656043,Brentwood,,1463090437000.0,36.0,-86.79,Percy 'P' Sidney,TN,1500066082000.0,19728145
212378653,Nashville,,1473131226000.0,36.17,-86.78,Persephanie Celiene Rogers,TN,1473131226000.0,19728145
224585755,Lebanon,,1490666410000.0,36.21,-86.31,Pete Patel,TN,1492689950000.0,19728145
8979000,Nashville,"New Iberia, LA",1487990573000.0,36.16,-86.79,PETRA,TN,1508696426000.0,19728145
206344891,Clarksville,,1470367232000.0,36.53,-87.35,Phil Stanfield,TN,1507841463000.0,19728145
137411322,Nashville,,1458363862000.0,36.17,-86.72,Phillip R. Jones,TN,1508739201000.0,19728145
110905242,Nashville,Oakridge,1500585357000.0,36.17,-86.78,Phoenix Elliott,TN,1503167105000.0,19728145
937048,Nashville,Nashville,1499055224000.0,36.06,-86.96,Phuong Nguyen,TN,1505946362000.0,19728145
9845063,Franklin,,1494269957000.0,35.92,-86.89,phyl l harper,TN,1502050179000.0,19728145
94715722,Hermitage,nashville,1487221187000.0,36.19,-86.6,Phyllis Thomson,TN,1505092334000.0,19728145
195898518,Hendersonville,,1490014457000.0,36.32,-86.61,Priscilla Dickerson,TN,1502457664000.0,19728145
205735599,Nashville,,1464040693000.0,36.08,-86.72,Queen Amidala,TN,1467119826000.0,19728145
102093052,St. Albert,San Francisco,1494105115000.0,53.64,-113.59,Rachael,AB,1494621149000.0,19728145
10865691,Nashville,"Brentwood, TN",1490463912000.0,36.08,-86.72,Rachael Babcock,TN,1490463912000.0,19728145
238948681,Franklin,,1508084758000.0,35.92,-86.89,Rachel,TN,1508243012000.0,19728145
70403712,Nashville,Nashville,1474757209000.0,36.09,-86.82,Rachel,TN,1500459031000.0,19728145
208579324,Nashville,,1467936383000.0,36.1,-86.66,Rachel Brenner,TN,1473531248000.0,19728145
205292142,Nashville,,1463439366000.0,36.11,-86.86,Rachel Garner ,TN,1467781643000.0,19728145
205917340,Nashville,,1464353990000.0,36.17,-86.78,Rachel Hufham,TN,1464353990000.0,19728145
220143353,Nashville,,1484677117000.0,36.06,-86.96,Rachel Ives,TN,1485802483000.0,19728145
228742071,Nashville,,1496265083000.0,36.17,-86.78,Rachel Mallard,TN,1496265083000.0,19728145
32707172,Nashville,,1459978532000.0,36.17,-86.78,Rachel Miller,TN,1459978532000.0,19728145
183447204,Franklin,,1484056803000.0,35.93,-86.88,Rachel S,TN,1486477263000.0,19728145
26701342,Nashville,"Hollywood, FL",1504667178000.0,36.22,-86.72,Raechel McBride,TN,1507290879000.0,19728145
185814116,Antioch,Antioch,1469679036000.0,36.04,-86.64,Rafiullah Sherzad,TN,1471746447000.0,19728145
216199669,Franklin,,1478384422000.0,35.92,-86.89,Rahul Raj,TN,1496085521000.0,19728145
183124251,Smyrna,"Huntingdon Valley, PA",1487528463000.0,35.95,-86.54,Rallew,TN,1490655016000.0,19728145
123173112,Nashville,,1475880139000.0,36.17,-86.78,Ralph MasterBarber Donaway,TN,1491774948000.0,19728145
222712658,Nashville,,1489339383000.0,36.16,-86.79,Ralph Rivera,TN,1501941810000.0,19728145
184991548,Nashville,,1485053315000.0,36.17,-86.78,Ram,TN,1507245113000.0,19728145
213407938,Springfield,,1474471629000.0,36.52,-86.87,Randi,TN,1501080912000.0,19728145
6409109,Nashville,,1463922020000.0,36.16,-86.79,Randy,TN,1508532834000.0,19728145
207401844,Atlanta,,1466709375000.0,33.86,-84.4,Randy WRight,GA,1470777360000.0,19728145
6944960,Nashville,,1494347134000.0,36.15,-86.83,Ray,TN,1494698424000.0,19728145
187371529,Franklin,,1472323912000.0,35.92,-86.89,RC,TN,1508037417000.0,19728145
7515723,Nashville,,1458781405000.0,36.16,-86.79,Rebecca,TN,1507419004000.0,19728145
221283673,Nashville,,1486097654000.0,36.06,-86.96,Rebecca Bell,TN,1486097654000.0,19728145
202999113,Nashville,,1463156495000.0,36.17,-86.78,Rebecca Cargill,TN,1463266832000.0,19728145
36522782,Nashville,,1499296479000.0,36.17,-86.78,Rebecca Schreher,TN,1508352043000.0,19728145
232292919,Nashville,,1500751086000.0,36.17,-86.78,Rebekah,TN,1503487059000.0,19728145
7726130,Antioch,,1505769289000.0,36.04,-86.64,Reesie,TN,1508606891000.0,19728145
210005463,Nashville,,1489548413000.0,36.17,-86.78,Rene',TN,1489548413000.0,19728145
162430602,Nashville,,1480372900000.0,36.17,-86.78,Renee,TN,1507216238000.0,19728145
220001197,Lexington,,1486842655000.0,35.66,-88.4,Renee Gateley Maness,TN,1486872954000.0,19728145
221161925,Clarksville,,1485975505000.0,36.56,-87.41,Renee Palicia,TN,1485975505000.0,19728145
223784622,Nashville,Murfreesboro,1489546092000.0,36.06,-86.96,Renee S. Queary,TN,1490815371000.0,19728145
33073902,San Diego,,1500702124000.0,32.8,-117.14,Renee Tru,CA,1500702124000.0,19728145
129944172,Murfreesboro,Edmonds,1465666554000.0,35.78,-86.33,Renee Walker,TN,1496422083000.0,19728145
218975482,Nashville,,1483205706000.0,36.17,-86.72,rhoda,TN,1490480045000.0,19728145
222276068,Hillsboro,,1487438766000.0,35.43,-86.01,Rhonda K Holland,TN,1487438766000.0,19728145
185407708,Nashville,,1458684928000.0,36.17,-86.78,Rhonda Lamb,TN,1497393988000.0,19728145
224686397,Murfreesboro,,1490803307000.0,35.82,-86.45,Ri Ri,TN,1490828732000.0,19728145
210063124,Nashville,,1469906356000.0,36.18,-86.81,Richard,TN,1471832640000.0,19728145
5856456,Nashville,New York,1459913528000.0,36.08,-86.72,Richard Pelych,TN,1508636298000.0,19728145
217630413,Lebanon,,1480738673000.0,36.21,-86.29,Richwatds,TN,1480738673000.0,19728145
217536408,Thompsons Station,,1505443352000.0,35.8,-86.9,Rick ,TN,1508603934000.0,19728145
234599113,Nashville,,1503381440000.0,36.15,-86.86,Rickco Forbes,TN,1505186727000.0,19728145
208879998,Murfreesboro,,1468334786000.0,35.78,-86.33,Riri,TN,1470494837000.0,19728145
225139423,Nashville,,1491869905000.0,36.14,-86.8,RiTech,TN,1491869905000.0,19728145
195716453,Nashville,Nashville,1491424570000.0,36.06,-86.96,Rob,TN,1508448204000.0,19728145
222408640,Nashville,,1499180429000.0,36.17,-86.78,Rob Alexander,TN,1507079648000.0,19728145
222518567,Clarksville,,,36.5,-87.23,,TN,,19728145
194006965,Sherwood Park,,1462188251000.0,53.53,-113.26,Rob McLachlen ,AB,1489944187000.0,19728145
2573903,Nashville,Fort Wayne,1468221007000.0,36.17,-86.78,Robbie,TN,1508673409000.0,19728145
202787758,Nashville,,1459866365000.0,36.08,-86.72,Robbie Davenport,TN,1500407175000.0,19728145
32441542,Nashville,"Bellevue, TN",1506544898000.0,36.06,-86.96,Robert,TN,1506642903000.0,19728145
11797053,Nashville,,1474240749000.0,36.08,-86.72,Robert Cash K.,TN,1508683061000.0,19728145
120822802,Nashville,,1486667003000.0,36.17,-86.78,Robert Roy Miles II,TN,1493309846000.0,19728145
219129196,Nashville,,1499975946000.0,36.17,-86.72,Robert Simmen,TN,1499975946000.0,19728145
7848668,Nashville,,1492633780000.0,36.18,-86.74,ROBERTA LITTLEJOHN,TN,1492633780000.0,19728145
77442152,Brentwood,,1494874405000.0,36.0,-86.79,Roberto Orellana,TN,1494874405000.0,19728145
207563463,Franklin,,1466548244000.0,35.92,-86.89,Robin ,TN,1508531547000.0,19728145
185909326,Murfreesboro,,1487391090000.0,35.78,-86.33,Robin,TN,1507026058000.0,19728145
206800495,Nashville,,1465846095000.0,36.17,-86.78,Robin,TN,1466131064000.0,19728145
220400139,Nashville,,1485002768000.0,36.06,-86.96,Robin Gibson,TN,1492277636000.0,19728145
235471238,Hermitage,,1504364136000.0,36.19,-86.6,Robin Gordon,TN,1508008351000.0,19728145
206464818,Franklin,,1465067915000.0,35.92,-86.89,Robin Turner Hawkins,TN,1469134663000.0,19728145
13726196,Nashville,Nashville,1505153693000.0,36.06,-86.96,Robyn,TN,1506694150000.0,19728145
12807186,Nashville,,1466816337000.0,36.16,-86.79,Robyn ,TN,1468087024000.0,19728145
78131812,Franklin,,1490928295000.0,35.93,-86.81,Rochelle,TN,1507855326000.0,19728145
3101051,Franklin,,1486268380000.0,36.73,-86.57,Rocky,KY,1486371824000.0,19728145
9105503,Kingston Springs,,1483850742000.0,36.09,-87.12,Roddyf,TN,1489437448000.0,19728145
209104586,Franklin,,1468628075000.0,35.92,-86.89,Rodney Metoyer,TN,1471695798000.0,19728145
11248312,Spring Hill,Spring Hill,1497356367000.0,35.76,-86.88,Roger Akel,TN,1507173354000.0,19728145
91539072,Fort Campbell,"Bronx, NY",1475288233000.0,36.66,-87.47,Roland White,KY,1475288233000.0,19728145
155278822,Murfreesboro,Memphis,1481837782000.0,35.82,-86.45,Romney Dickinson,TN,1506223850000.0,19728145
209432118,Mount Pleasant,Mt Pleasant,1469048716000.0,35.54,-87.21,Ron,TN,1508120495000.0,19728145
208840957,Nashville,,1468366175000.0,36.17,-86.78,Ron,TN,1497113371000.0,19728145
45728772,Nashville,,1496848904000.0,36.17,-86.78,Ron Wogan,TN,1505686226000.0,19728145
236374347,Franklin,,1505286100000.0,35.93,-86.81,Roni Kat,TN,1507185529000.0,19728145
236432106,Clarksville,,1505361131000.0,36.53,-87.34,Ronnie Herral,TN,1505361131000.0,19728145
212310324,Franklin,,1507154710000.0,35.92,-86.89,Rory Coreen,TN,1507515055000.0,19728145
40952892,Nashville,,1503167196000.0,36.17,-86.78,Rosalena,TN,1508642036000.0,19728145
180401872,Nashville,"San Diego, CA",1504607920000.0,36.17,-86.78,Rose,TN,1506693634000.0,19728145
113362402,Nashville,Detroit,1487935563000.0,36.17,-86.78,Roselyn,TN,1493335868000.0,19728145
202828688,Nashville,,1467153577000.0,36.17,-86.78,rossita_maria,TN,1487646390000.0,19728145
223738717,Brentwood,,1496016674000.0,36.0,-86.79,Ruby MBA Professional,TN,1508012444000.0,19728145
217665993,Nashville,,1480804377000.0,36.14,-86.74,Russ Humensky,TN,1495734827000.0,19728145
220867862,Nashville,,1487664346000.0,36.11,-86.86,Ryan,TN,1491669351000.0,19728145
212768918,Nashville,,1484055707000.0,36.04,-86.72,Ryan Hollingsworth,TN,1484271515000.0,19728145
192016663,Nashville,,1489178765000.0,36.08,-86.72,Ryan Larrison,TN,1493425945000.0,19728145
19639311,Nashville,,1502677441000.0,36.16,-86.79,Ryan Murphy,TN,1503627234000.0,19728145
38844132,Madison,,1473993260000.0,36.26,-86.71,Ryan Spainhoward,TN,1496283554000.0,19728145
204152954,Nashville,,1486828835000.0,36.11,-86.78,Sabri,TN,1486960905000.0,19728145
161561332,Murray,,1496869390000.0,36.62,-88.25,Sabrina,KY,1500940119000.0,19728145
147482682,Nashville,,1478728019000.0,36.11,-86.86,Sade,TN,1479424961000.0,19728145
166082312,Nashville,Franklin,1458681489000.0,36.13,-86.86,Sagar,TN,1485530097000.0,19728145
140013602,Nashville,Nashville,1475464537000.0,36.14,-86.74,Sage Snider,TN,1497809644000.0,19728145
222284609,Cookeville,,1487983561000.0,36.16,-85.51,Sai Chand,TN,1508330925000.0,19728145
217027080,Franklin,,1479692079000.0,35.93,-86.84,Saleem Kothia,TN,1488900712000.0,19728145
189633429,Nashville,,1465078332000.0,36.17,-86.78,Sally A.,TN,1473794312000.0,19728145
225640031,Nashville,,1495655624000.0,36.08,-86.72,Sam,TN,1500859823000.0,19728145
228213759,Brentwood,,1495573602000.0,36.0,-86.79,Sam Bowers,TN,1496176076000.0,19728145
103288562,Nashville,"Ocala, FL",1470539570000.0,36.15,-86.69,Sam Swift,TN,1488589570000.0,19728145
150616362,Robbinsville,,1462126941000.0,35.35,-83.87,Samantha Sue Adams,NC,1469979917000.0,19728145
220902665,Nashville,,1496500768000.0,36.17,-86.78,Sandi,TN,1499731157000.0,19728145
212305931,Hendersonville,,,36.32,-86.61,,TN,,19728145
197332024,Fairview,,1465309509000.0,35.97,-87.13,Sandi Furney,TN,1465315911000.0,19728145
8563523,Nashville,nashville tn,1478998870000.0,36.07,-86.73,sandra,TN,1479756373000.0,19728145
221724454,Nashville,,1486664195000.0,36.06,-86.96,Sandra Overton,TN,1500175252000.0,19728145
212048654,Nashville,,1472680243000.0,36.06,-86.96,Sandra Richardson Lewis,TN,1488886354000.0,19728145
203094815,Spring Hill,,1464494964000.0,35.76,-86.88,Sandra Roberts,TN,1507341659000.0,19728145
198765491,Nashville,,,36.17,-86.78,,TN,,19728145
221852349,Nashville,,1486846951000.0,36.13,-86.8,Sandy Arons,TN,1487562695000.0,19728145
184301904,Nashville,,1458678291000.0,36.06,-86.96,Sandy G,TN,1487088070000.0,19728145
188652887,Bowling Green,,1467392072000.0,36.93,-86.45,Sandy Patterson,KY,1496510168000.0,19728145
223867991,Nashville,,1504455325000.0,36.08,-86.72,Sara,TN,1507995982000.0,19728145
128721802,Nashville,Nashville,1496769547000.0,36.06,-86.96,Sara Lewandroski,TN,1499081791000.0,19728145
224457186,Nashville,Milwaukee,1503789957000.0,36.17,-86.78,Sara N,TN,1506596595000.0,19728145
212770120,Spring Hill,,1479706964000.0,35.76,-86.88,Sara Nash,TN,1496622408000.0,19728145
10853574,Nashville,Nashville,1495989681000.0,36.08,-86.72,Sara Stokes,TN,1495989681000.0,19728145
10011742,Nashville,"Petersburg, IL",1480817986000.0,36.17,-86.72,Sarah,TN,1501968660000.0,19728145
198204496,Nashville,Nashville,1461890719000.0,36.16,-86.79,Sarah,TN,1473620702000.0,19728145
135203512,Pleasant View,Clarksville,1458663432000.0,36.38,-87.04,Sarah,TN,1474425470000.0,19728145
168860302,Hermitage,,1499205658000.0,36.19,-86.6,Sarah,TN,1499205658000.0,19728145
209224665,Nashville,,1468786711000.0,36.08,-86.72,Sarah Ashley Christian,TN,1488835831000.0,19728145
233848934,Nashville,,1502501494000.0,36.17,-86.78,Sarah Bounse,TN,1502501494000.0,19728145
204902820,Brentwood,,1462912624000.0,36.0,-86.79,Sarah Burke,TN,1464005567000.0,19728145
8079808,Franklin,,1495890432000.0,35.93,-86.88,Sarah Hedden,TN,1508605046000.0,19728145
226897907,Nashville,,1493845316000.0,36.17,-86.72,Sarah Josephine ,TN,1493845316000.0,19728145
191233632,Nashville,Nashville,1463107537000.0,36.16,-86.79,Sarah Merritt,TN,1481088172000.0,19728145
15997811,Nashville,"Rosendale, NY",1463762889000.0,36.18,-86.74,Sarah Rankin,TN,1470586785000.0,19728145
112291422,Nashville,,1459122490000.0,36.17,-86.78,Sarah Sharlet Harvey,TN,1459122490000.0,19728145
205257465,Franklin,,1463400335000.0,35.92,-86.89,Sarah Sisk,TN,1468094371000.0,19728145
105265452,Franklin,,1463086311000.0,35.92,-86.78,Sarmita,TN,1474595435000.0,19728145
191658970,Bowling Green,,1462012934000.0,37.02,-86.46,Sasha,KY,1502241559000.0,19728145
193287149,Brentwood,,1496512735000.0,36.0,-86.79,Sasha,TN,1508198807000.0,19728145
218173260,Murfreesboro,,1481746184000.0,35.82,-86.45,Savannah Myers,TN,1481815319000.0,19728145
192033663,Spring Hill,springhill,1491154932000.0,35.76,-86.88,Saverio C.,TN,1508634123000.0,19728145
209360581,Nashville,,1468957090000.0,36.17,-86.78,Scat Springs,TN,1483933734000.0,19728145
11416204,Hendersonville,Hendersonville,1470249080000.0,36.32,-86.61,Scott,TN,1497131919000.0,19728145
42767962,Nashville,USA,1488570794000.0,36.17,-86.78,Scott,TN,1488570794000.0,19728145
205132868,Spring Hill,,1463237477000.0,35.76,-86.88,Scott,TN,1468897957000.0,19728145
3710232,Nashville,,1466339679000.0,36.17,-86.78,Scott,TN,1507844313000.0,19728145
40221462,Hendersonville,,1468695303000.0,36.32,-86.61,Scott Compton,TN,1507637417000.0,19728145
237603369,Nashville,,1506734883000.0,36.06,-86.96,Seth,TN,1507941335000.0,19728145
8539046,Nashville,,1480468073000.0,36.13,-86.8,Shalini,TN,1508121952000.0,19728145
63998462,Franklin,Nashville,1485816280000.0,35.99,-86.9,Shanah,TN,1489807254000.0,19728145
237311969,Brentwood,,1506269452000.0,36.0,-86.79,Shane Nesler,TN,1508725765000.0,19728145
228598422,Murfreesboro,,1501392466000.0,35.87,-86.44,Shanessa Freshour,TN,1501392466000.0,19728145
226567849,Brentwood,,1500661875000.0,36.0,-86.79,Shanna,TN,1507129851000.0,19728145
11778333,Hendersonville,Los Angeles,1502801582000.0,36.32,-86.61,Shanna,TN,1502801582000.0,19728145
8313646,Nashville,,1474258131000.0,36.17,-86.78,Shannon,TN,1492818120000.0,19728145
223644563,Madison,,1491337752000.0,36.26,-86.71,shannon,TN,1499135441000.0,19728145
237567497,Clarksville,,1507820349000.0,36.56,-87.41,Shannon  LaFleur,TN,1508680366000.0,19728145
221233630,Nashville,,1486053779000.0,36.06,-86.96,Shannon Caudill,TN,1486053779000.0,19728145
231293825,Nashville,,1499466980000.0,36.11,-86.78,Shannon Jensen,TN,1508351981000.0,19728145
210692888,Nashville,,1477284178000.0,36.08,-86.72,Shannon Lane,TN,1489971696000.0,19728145
185838202,Smyrna,Smyrna,1475864918000.0,35.97,-86.51,Shannon Peeler,TN,1507394605000.0,19728145
221666417,Nashville,,1489513948000.0,36.08,-86.72,Shantel Ray Flowers,TN,1490657499000.0,19728145
45002702,Nashville,,1466475824000.0,36.09,-86.82,Shara Lunn,TN,1502231702000.0,19728145
61913882,Nashville,,1458400530000.0,36.22,-86.86,Sharie,TN,1507823558000.0,19728145
9599317,Franklin,"Massillon, Ohio",1491282791000.0,35.92,-86.89,Sharon,TN,1508670753000.0,19728145
74138742,Hermitage,Nashville,1467718878000.0,36.19,-86.6,sharon,TN,1467884995000.0,19728145
14407654,Nashville,,1459635174000.0,36.21,-86.72,Sharon,TN,1506488811000.0,19728145
178964592,Franklin,,1458688999000.0,35.93,-86.81,Sharon Harwell,TN,1500232013000.0,19728145
205721322,West Memphis,,1464131137000.0,35.15,-90.18,Sharon Soleman,AR,1464131137000.0,19728145
152556442,Franklin,,1489837904000.0,35.99,-86.9,Sharri,TN,1500504030000.0,19728145
205921919,Franklin,,1464460900000.0,35.92,-86.89,Shawnda,TN,1465260207000.0,19728145
217563923,Nashville,,1480624204000.0,36.17,-86.78,Shay Young,TN,1507903548000.0,19728145
235087994,Clarksville,,1503936928000.0,36.56,-87.41,Sheila Powell,TN,1503936928000.0,19728145
202677735,Madison,,1461310505000.0,36.26,-86.71,Shelby Hudson,TN,1464361146000.0,19728145
209481671,Spring Hill,,1485384952000.0,35.76,-86.88,Shelley Edwards Jeffries,TN,1488837614000.0,19728145
185591004,Nashville,,1501363540000.0,36.08,-86.72,Shellie Williams,TN,1505092224000.0,19728145
191758521,Goodlettsville,,1469285550000.0,36.32,-86.72,Sheri,TN,1508624249000.0,19728145
9455335,Burns,"Silver Spring, MD",1502331841000.0,36.04,-87.26,Sheridan,TN,1504870788000.0,19728145
9065591,White House,White House,1458670093000.0,36.48,-86.69,sherrie,TN,1492573962000.0,19728145
81196252,Nashville,,1458743169000.0,36.08,-86.72,Sherrie G,TN,1507193323000.0,19728145
91119062,Nashville,,1505267815000.0,36.16,-86.66,sherry,TN,1505342217000.0,19728145
10627673,Antioch,Nashville,1487349807000.0,36.04,-86.64,Sherry,TN,1487349807000.0,19728145
115244542,Nashville,Tampa,1483985648000.0,36.08,-86.72,Sherry,TN,1493207840000.0,19728145
222537001,Nashville,,1487888238000.0,36.06,-86.96,Sherry Cummings,TN,1491340812000.0,19728145
10354169,Franklin,,1483502020000.0,35.92,-86.89,Sherry Garrett,TN,1483931037000.0,19728145
203214181,Columbia,,1465903628000.0,35.61,-87.05,Sherry Graham,TN,1490719780000.0,19728145
225672437,Murfreesboro,,1500780857000.0,35.78,-86.33,Sherry Pullum,TN,1507564602000.0,19728145
95986132,Nashville,Bucaramanga,1495125342000.0,36.19,-86.71,Sheyla Rosana Niño,TN,1497533902000.0,19728145
12787768,Nashville,San Francisco ,1472609444000.0,36.15,-86.86,Shibby Kitty,TN,1487470704000.0,19728145
192631937,Nashville,,1475411314000.0,36.11,-86.86,Shindig Mafia,TN,1475702286000.0,19728145
233105514,Spring Hill,,1501647318000.0,35.76,-86.88,Sierra A,TN,1501647318000.0,19728145
66847942,Montpellier,Franklin,1490620211000.0,43.6,3.88,Sierra Rhodes,,1490620211000.0,19728145
204796875,Nashville,,1463981305000.0,36.17,-86.78,Simone Parke,TN,1465167960000.0,19728145
222610499,Nashville,,1487889629000.0,36.08,-86.72,Sis Odland,TN,1487889629000.0,19728145
100195752,Nashville,,1462318910000.0,36.15,-86.86,Sissy K,TN,1507117914000.0,19728145
137420832,Nashville,,1501255541000.0,36.15,-86.8,Sol,TN,1507731043000.0,19728145
187025081,Durham,,1466039396000.0,35.88,-78.87,Soli Bratanatawira,NC,1487459445000.0,19728145
37880142,Cypress,"Spanish fort, al",1480987880000.0,29.97,-95.7,Sonia Moore,TX,1495327182000.0,19728145
208173959,Madison,"Collierville, TN",1467394685000.0,36.26,-86.71,Sonya Anthony McGhee,TN,1467394685000.0,19728145
12886154,Brentwood,Brentwood,1472008556000.0,36.0,-86.79,Sonya Mae,TN,1472008556000.0,19728145
11418140,Mount Juliet,Mobile,1507172099000.0,36.22,-86.52,Sonya McVeay,TN,1508619560000.0,19728145
187689213,Nashville,,1483565254000.0,36.08,-86.72,Sourav Tarafdar,TN,1508029321000.0,19728145
187662564,Brentwood,Hyderabad,1464794429000.0,36.0,-86.79,srikanth,TN,1500178983000.0,19728145
203968003,Nashville,,1487243527000.0,36.17,-86.78,Stacey Moshopoulos Scism,TN,1489173379000.0,19728145
13687304,Nashville,,1505516057000.0,36.17,-86.78,Stacie,TN,1507893232000.0,19728145
107574492,Nashville,,1482284346000.0,36.17,-86.78,Stacie,TN,1483147212000.0,19728145
204012533,Madison,,1462051044000.0,36.26,-86.71,Stacie Milligan,TN,1471371237000.0,19728145
8921426,Hermitage,"Nashville, TN",1489057435000.0,36.0,-86.46,Stacy Cline,TN,1505603016000.0,19728145
199602237,Nashville,,1481755562000.0,36.15,-86.86,Stacy Parman,TN,1508606242000.0,19728145
187930064,Hermitage,,1466471524000.0,36.19,-86.6,Star Moberg,TN,1466603817000.0,19728145
209426592,Nashville,,1470763379000.0,36.17,-86.78,Stefani Leigh,TN,1471395686000.0,19728145
211400429,Mount Juliet,,1471799047000.0,36.21,-86.52,Stefanie Anders,TN,1502040458000.0,19728145
229017666,Nashville,,1502243161000.0,36.08,-86.72,StefaniL,TN,1504443594000.0,19728145
234719216,Nashville,,1503503441000.0,36.18,-86.74,Stella Hu,TN,1503535646000.0,19728145
203987562,Nashville,,1473027078000.0,36.11,-86.78,Steph,TN,1485432174000.0,19728145
208751333,Nashville,,1468172525000.0,36.08,-86.72,Steph Bergy,TN,1468172525000.0,19728145
208371858,Mount Juliet,,1467730569000.0,36.21,-86.52,Stephanie,TN,1500855011000.0,19728145
14390209,Franklin,Winthrop,1493419854000.0,35.92,-86.89,Stephanie,TN,1507849985000.0,19728145
70340222,Nashville,Nashville,1501173243000.0,36.16,-86.79,Stephanie,TN,1501173243000.0,19728145
11590846,Nashville,,1493088933000.0,36.17,-86.78,Stephanie,TN,1501725303000.0,19728145
224811331,Lebanon,,1490980711000.0,36.21,-86.31,Stephanie Anderson,TN,1491679297000.0,19728145
228228846,Nashville,,1495590674000.0,36.08,-86.72,Stephanie Anthony,TN,1501420008000.0,19728145
8304651,Nashville,,1465837345000.0,36.17,-86.78,Stephanie James,TN,1508561712000.0,19728145
195336304,Fayetteville,,1497199625000.0,36.05,-94.14,Stephanie Kosla,AR,1497199625000.0,19728145
237422803,Tullahoma,,1506383787000.0,35.37,-86.21,Stephanie Matthews,TN,1506383787000.0,19728145
232897749,Antioch,,1503870412000.0,36.17,-86.88,Stephanie P.,TN,1504797393000.0,19728145
225555724,Nashville,,1498400282000.0,36.09,-86.82,Stephanie Simmons,TN,1498577208000.0,19728145
194453577,Nashville,,1464334941000.0,36.17,-86.78,Stephen,TN,1464720280000.0,19728145
193858771,Nashville,"Paris, TN",1503268808000.0,36.13,-86.84,Stephen,TN,1503268808000.0,19728145
232764022,Mount Juliet,,1501215147000.0,36.22,-86.52,Stephen Broyles,TN,1501215147000.0,19728145
106513552,Nashville,"Los Angeles, CA",1470434879000.0,36.22,-86.83,Stephie G.,TN,1483160923000.0,19728145
198066340,Nashville,,1472158226000.0,36.18,-86.81,Steppin in the Ville,TN,1474396401000.0,19728145
208083240,Murfreesboro,,1467259003000.0,35.78,-86.33,Steve B,TN,1492826786000.0,19728145
88452062,Nashville,,1458846093000.0,36.08,-86.72,Steve Dawson,TN,1504239745000.0,19728145
213222759,Shelbyville,,1493191288000.0,35.48,-86.47,Steve Haber,TN,1499549724000.0,19728145
18235831,Nashville,Willow Springs,1490830434000.0,36.17,-86.78,Steve J.,TN,1505598417000.0,19728145
41254342,Folsom,Folsom,1481604465000.0,38.68,-121.16,Steve K,CA,1507691983000.0,19728145
58660462,Franklin,,1458785685000.0,35.93,-86.81,steve macdermott,TN,1508723512000.0,19728145
177731352,Nashville,,1475709284000.0,36.11,-86.86,steven black,TN,1487564241000.0,19728145
229288509,Nashville,,1496938119000.0,36.17,-86.78,Steven Black,TN,1498756920000.0,19728145
230538548,Hendersonville,,1498509091000.0,36.32,-86.61,Steven Liggons,TN,1498509091000.0,19728145
220571838,Nashville,,1485214707000.0,36.17,-86.78,Stevie Manhart,TN,1498756708000.0,19728145
14687401,New Preston Marble Dale,New Preston,1496597259000.0,41.69,-73.35,Stuart Ratcliff,CT,1500182260000.0,19728145
37974112,Nashville,,1505443306000.0,36.13,-86.8,Subha,TN,1507309420000.0,19728145
205221132,Dickson,,1473208725000.0,36.08,-87.43,sue ellen,TN,1481596890000.0,19728145
221437801,Nashville,,1490396922000.0,36.16,-86.79,Sue Ellen Upchurch-Hall,TN,1501368584000.0,19728145
210137314,Franklin,,1474189161000.0,35.92,-86.89,Sue L.,TN,1490406889000.0,19728145
229114345,Franklin,,1496716560000.0,35.92,-86.89,Sue Manley Lombardo,TN,1496716560000.0,19728145
201881464,Goodlettsville,,1478115553000.0,36.33,-86.74,Sue OFallon,TN,1478115553000.0,19728145
220246057,Nashville,,1484792475000.0,36.15,-86.86,Summer Stanfield,TN,1485256563000.0,19728145
159418982,Nashville,Nashville,1474868194000.0,36.13,-86.8,Sunil,TN,1508809776000.0,19728145
178667012,Franklin,,1496005061000.0,35.93,-86.81,susan,TN,1506517674000.0,19728145
9995194,Clarksville,,1484258997000.0,36.49,-87.23,Susan,TN,1494720690000.0,19728145
183556787,Nashville,,1488037024000.0,36.17,-86.79,Susan,TN,1501186259000.0,19728145
230373206,Nashville,,1500148398000.0,36.08,-86.72,Susan,TN,1500148398000.0,19728145
12925101,Durham,,1460856172000.0,35.88,-78.87,Susan B,NC,1493551270000.0,19728145
210222241,Nashville,,1470101415000.0,36.17,-86.78,Susan B. Solomon,TN,1474390526000.0,19728145
207370422,Franklin,,1466288889000.0,35.92,-86.89,Susan Buller,TN,1505968012000.0,19728145
82272932,Murfreesboro,"Murfreesboro, TN",1461642710000.0,35.87,-86.34,Susan E,TN,1508798422000.0,19728145
13918555,Franklin,Franklin,1478865054000.0,35.93,-86.81,Susan Ingraham,TN,1478865054000.0,19728145
199103025,Nashville,,1458662653000.0,36.18,-86.74,Susan S.,TN,1458853184000.0,19728145
6055703,Antioch,"Motley, MN",1458758412000.0,36.04,-86.64,Susan Smith,TN,1507433871000.0,19728145
11136926,Nashville,Nashville,1500749580000.0,36.17,-86.78,Susan W.,TN,1501072707000.0,19728145
212771043,Nashville,,1473655557000.0,36.07,-86.78,Susi,TN,1473655557000.0,19728145
210875866,Nashville,,1473093254000.0,36.11,-86.78,suzanne quon,TN,1473373816000.0,19728145
204524586,Nashville,,1490486797000.0,36.11,-86.86,Svetlana Eden,TN,1502722280000.0,19728145
237196112,Nashville,,1506129954000.0,36.06,-86.96,Sweets,TN,1506129954000.0,19728145
218460360,Nashville,,1482253438000.0,36.13,-86.8,Syd Green,TN,1484931248000.0,19728145
184247531,Franklin,,1487836505000.0,35.95,-86.8,T. Walker,TN,1502571038000.0,19728145
204360367,Nashville,,1462236200000.0,36.22,-86.77,Takisha A.,TN,1507928407000.0,19728145
210520916,Antioch,,1470534679000.0,36.04,-86.64,Taku Kataura,TN,1472938181000.0,19728145
100099192,Nashville,,1469498905000.0,36.17,-86.78,Talitha Valentin,TN,1490486441000.0,19728145
66464922,Hendersonville,,1492522265000.0,36.32,-86.61,Tamara Morgan,TN,1492783358000.0,19728145
158474712,Murfreesboro,Murfreesboro,1466478814000.0,35.82,-86.45,Tami,TN,1507173857000.0,19728145
209767922,Nashville,,1470789769000.0,36.15,-86.86,Tammi Wooten,TN,1485466746000.0,19728145
208312509,Nashville,,1467586162000.0,36.07,-86.73,Tammie G. Stephens-Blades,TN,1467586162000.0,19728145
14288622,Kenosha,Seymour,1465696926000.0,42.58,-87.83,Tammy,WI,1467918719000.0,19728145
121329722,Nashville,,1471055486000.0,36.08,-86.72,Tammy,TN,1490461659000.0,19728145
209216260,Antioch,nashville,1468777900000.0,36.17,-86.88,Tammy,TN,1508358061000.0,19728145
55832292,Gallatin,"Logansport, IN",1459370608000.0,36.39,-86.45,Tammy Hudson,TN,1466787049000.0,19728145
98198412,Hendersonville,,1476581891000.0,36.32,-86.61,Tammy Hutchinson,TN,1507839837000.0,19728145
28699072,Greenbrier,,1505518709000.0,36.43,-86.8,Tammy Seay,TN,1508203000000.0,19728145
216800088,Manchester,,1479330175000.0,35.47,-86.08,Tammy Trail,TN,1479330175000.0,19728145
147367812,White Bluff,,1487055818000.0,36.12,-87.23,tanja,TN,1499263914000.0,19728145
213769870,Nashville,,1474937297000.0,36.06,-86.96,Tanya Matherne,TN,1474937297000.0,19728145
236981094,Cottontown,,1505885605000.0,36.49,-86.59,Tara Lynn Keen,TN,1506218695000.0,19728145
191410344,Lewisville,,1473996600000.0,33.05,-97.0,Tara Nicole Price,TX,1473996600000.0,19728145
213768028,Oak Grove,,1474935791000.0,36.68,-87.45,Tarshena Rodriguez,KY,1474935791000.0,19728145
211006026,Brentwood,,1471911315000.0,36.0,-86.79,Tary,TN,1474410475000.0,19728145
218504772,Nashville,,1487109027000.0,36.22,-86.86,Tasha,TN,1487109027000.0,19728145
198211693,La Vergne,,1507012824000.0,36.01,-86.57,Tasha,TN,1507012824000.0,19728145
231233914,Nashville,,1499366005000.0,36.17,-86.78,Tasheka Terry,TN,1506407557000.0,19728145
231185329,Hermitage,,1500126448000.0,36.19,-86.6,Tasia Elias,TN,1502128286000.0,19728145
43430592,Nashville,,1490488051000.0,36.14,-86.74,Tawana Howard,TN,1490908211000.0,19728145
211365934,Nashville,,1471785343000.0,36.16,-86.79,Taylor,TN,1491338468000.0,19728145
11436326,Nashville,,1494463213000.0,36.17,-86.78,Taylor Stewart,TN,1499548834000.0,19728145
102267292,Nashville,,1468856758000.0,36.18,-86.74,Teade,TN,1497748201000.0,19728145
159654132,Nashville,,1458392271000.0,36.09,-86.75,Ted Chessor,TN,1508532403000.0,19728145
137230272,Hendersonville,,1478101919000.0,36.33,-86.66,ted fleming,TN,1508644013000.0,19728145
185422955,Thompsons Station,,1468851666000.0,35.8,-86.9,Ted Schempp,TN,1506135438000.0,19728145
192229223,Hermitage,"Decatur, AL",1472051834000.0,36.19,-86.6,Tee King,TN,1472051834000.0,19728145
207788795,Nashville,,1487974662000.0,36.18,-86.81,telwin edathil,TN,1508520685000.0,19728145
13702065,Goodlettsville,"Goodlettsville, TN",1460047690000.0,36.33,-86.74,Teresa,TN,1508612090000.0,19728145
224736458,Nashville,,1491870115000.0,36.16,-86.79,Teresa,TN,1508359571000.0,19728145
190058503,Nashville,,1486941386000.0,36.18,-86.74,Teresa,TN,1493715356000.0,19728145
225994557,Brentwood,,1495499710000.0,36.0,-86.79,Teresa Sparks,TN,1507233219000.0,19728145
184097033,Nashville,,1488376596000.0,36.16,-86.79,Teri Rice,TN,1503333831000.0,19728145
215689453,Nashville,,1477585139000.0,36.16,-86.79,Terisa Thorpe,TN,1477589852000.0,19728145
216723661,Nashville,,1479221660000.0,36.1,-86.66,TERRI G POTTS,TN,1506435068000.0,19728145
18543331,Nashville,,1500949763000.0,36.17,-86.72,Terri of Nashville,TN,1505277290000.0,19728145
14173571,Nashville,Nashville,1476891328000.0,36.08,-86.72,Terri R,TN,1492557084000.0,19728145
209839379,Clarksville,Clarksville TN,1469580487000.0,36.49,-87.23,Terryl Wash,TN,1470675028000.0,19728145
115037452,Nashville,,1465126018000.0,36.08,-86.72,Tess,TN,1485883154000.0,19728145
87679492,Clarksville,,1504590598000.0,36.53,-87.35,Tessie McCoy,TN,1504590598000.0,19728145
16318981,Nashville,Ann Arbor,1471498190000.0,36.17,-86.78,Thai,TN,1508372591000.0,19728145
223411155,Iowa City,,,41.66,-91.53,,IA,,19728145
206207288,Franklin,,1494449068000.0,35.93,-86.81,The Tierney's,TN,1497629926000.0,19728145
10074999,Hendersonville,Hendersonville ,1507334840000.0,36.32,-86.61,Theresa,TN,1507822211000.0,19728145
5579198,Nashville,Redmond,1464950028000.0,36.17,-86.78,Theresa,TN,1508600564000.0,19728145
81924252,Nashville,,1469897799000.0,36.17,-86.78,Theresa,TN,1508731553000.0,19728145
7372266,Nashville,Nashville,1458746598000.0,36.22,-86.77,Thomas,TN,1458746598000.0,19728145
187501804,Clarksville,,1465477953000.0,36.53,-87.35,Thomasa,TN,1488070318000.0,19728145
232331221,Springfield,,1500869276000.0,36.52,-86.87,Tia LovingLife Gray,TN,1506396045000.0,19728145
13612163,Nashville,madison,1485367984000.0,36.17,-86.78,Tiffany,TN,1485367984000.0,19728145
203093206,Nashville,,1460644497000.0,36.15,-86.86,Tiffany,TN,1463455016000.0,19728145
8809972,Columbia,Nashville,1458670027000.0,35.61,-87.05,Tiffany Henderson,TN,1508728991000.0,19728145
203192644,Antioch,,1460434373000.0,36.17,-86.88,Tim Freeman,TN,1488153654000.0,19728145
38591482,Nashville,Nashville,1458699067000.0,36.09,-86.82,Tim Repass,TN,1508195250000.0,19728145
211377778,Nashville,,1471764742000.0,36.06,-86.96,Tim Taylor,TN,1505183552000.0,19728145
53999432,Savannah,"Savannah, TN",1479664916000.0,35.23,-88.23,Timothy Smith,TN,1479664916000.0,19728145
212567186,Clarksville,,1473387488000.0,36.49,-87.23,Tina,TN,1473387488000.0,19728145
220235139,Clarksville,,1484806091000.0,36.53,-87.35,Tina,TN,1494893487000.0,19728145
220273198,Nashville,,1484831542000.0,36.17,-86.78,tina,TN,1484831542000.0,19728145
5317212,Nashville,"Dearborn, MI",1501976871000.0,36.22,-86.77,Tina Belli,TN,1507514138000.0,19728145
237223538,Pleasant View,,1506167079000.0,36.38,-87.04,Tina Carter,TN,1507931462000.0,19728145
234495779,Antioch,,1503250041000.0,36.04,-86.64,Tina Grimes,TN,1503250041000.0,19728145
216947723,Mount Juliet,,1479569879000.0,36.22,-86.52,tinghui zhang,TN,1485227833000.0,19728145
223595992,Atlanta,,1489346641000.0,33.86,-84.4,TJ Berryman,GA,1491800836000.0,19728145
107631912,Lebanon,lebanon tn,1503086585000.0,36.21,-86.31,Tom,TN,1504899431000.0,19728145
17319611,Murfreesboro,"Mufresboro, TN",1468755966000.0,35.82,-86.45,Tom,TN,1501246386000.0,19728145
204639668,Clarksville,,1462536794000.0,36.56,-87.41,Tom Carrick,TN,1476586264000.0,19728145
231909116,Nashville,,1500162829000.0,36.06,-86.96,Tom Manuel,TN,1500162829000.0,19728145
201790063,Nashville,,1458392710000.0,36.15,-86.86,Tommie Proctor,TN,1472649163000.0,19728145
186320204,Nashville,,1478191597000.0,36.17,-86.72,Tommy,TN,1478883277000.0,19728145
9702068,Murfreesboro,"Murfreesboro, TN",1460127155000.0,35.82,-86.45,Toni,TN,1508778018000.0,19728145
194923584,Nashville,"Nashville, TN",1506724407000.0,36.17,-86.78,Toni,TN,1507297543000.0,19728145
161847002,Old Hickory,,1471828498000.0,36.25,-86.64,Toni,TN,1508336495000.0,19728145
179884652,Antioch,Norcross,1503328080000.0,36.04,-86.64,Tony,TN,1508685368000.0,19728145
208693532,Murfreesboro,murfreesboro,1493099450000.0,35.87,-86.44,Tony Ray,TN,1507693068000.0,19728145
155430672,Rockvale,mount juliet,1496438434000.0,35.76,-86.55,Tonya,TN,1503102281000.0,19728145
12229328,Nashville,,1483496458000.0,36.13,-86.8,Tonya,TN,1507848975000.0,19728145
231285211,Murfreesboro,,1499430822000.0,35.87,-86.34,Tori Stephens,TN,1499430822000.0,19728145
224661424,Nashville,,1490761428000.0,36.18,-86.74,Tori Stephens,TN,1490761428000.0,19728145
209533227,Nashville,,1470484572000.0,36.07,-86.93,Tosh,TN,1470484572000.0,19728145
225209150,Nashville,,1491550531000.0,36.17,-86.78,Tosh Mccoy,TN,1492915361000.0,19728145
226549458,Franklin,,1493690614000.0,35.92,-86.89,tosh mccoy,TN,1493690614000.0,19728145
6765365,Goodlettsville,Goodlettsville,1470006138000.0,36.32,-86.72,Tracey P,TN,1487283629000.0,19728145
146704092,Nashville,"Dallas, Texas",1462060938000.0,36.17,-86.78,Traci,TN,1479159448000.0,19728145
118600512,Philadelphia,,1487303404000.0,40.09,-75.2,Tracy Ellen,PA,1496610910000.0,19728145
5173635,Nashville,,1461772225000.0,36.16,-86.79,Tracy Jennette,TN,1508533759000.0,19728145
230818596,Nashville,,,36.17,-86.78,,TN,,19728145
211124212,Nashville,,1471391539000.0,36.13,-86.78,Travis Wallander,TN,1498342802000.0,19728145
216735140,Nashville,,1484576488000.0,36.13,-86.8,Tricia Berry,TN,1488805982000.0,19728145
45213252,Hermitage,Hermitage,1483392360000.0,36.19,-86.6,Tricia Henley Garven,TN,1505104189000.0,19728145
229895339,Fort Campbell,,1497717531000.0,36.65,-87.46,Trish,KY,1497717531000.0,19728145
198209300,Nashville,"Nashville, TN",1484878429000.0,36.17,-86.72,Trish,TN,1507399706000.0,19728145
232165465,Madison,,1500495362000.0,36.26,-86.71,Trivillian,TN,1500495362000.0,19728145
221575833,La Vergne,,1486479900000.0,36.01,-86.57,Trixie Verchota,TN,1487631518000.0,19728145
225846488,White House,,1492446119000.0,36.48,-86.69,Troy ,TN,1492446119000.0,19728145
173246352,Nashville,,1458359010000.0,36.16,-86.79,Troy,TN,1503532226000.0,19728145
48400472,Nashville,,1458488699000.0,36.16,-86.79,Troy M,TN,1508538688000.0,19728145
233859668,Thompsons Station,,1502513844000.0,35.8,-86.9,Tru,TN,1507935106000.0,19728145
125261312,Nashville,,1495411095000.0,36.22,-86.77,Trudie,TN,1508462136000.0,19728145
220953611,Crossville,,1485704486000.0,35.95,-85.03,Trudy Gray,TN,1485704486000.0,19728145
215189540,Franklin,,1507590903000.0,35.95,-86.8,Tunde O.,TN,1507637101000.0,19728145
203449042,Dickson,,1460812191000.0,36.08,-87.43,Twyla T S,TN,1460812191000.0,19728145
195345829,Lebanon,"Jackson, MS",1499106683000.0,36.15,-86.32,Tyesha Brooks,TN,1499106683000.0,19728145
236313302,Antioch,,1507002768000.0,36.04,-86.64,Tyler D Asgrimson,TN,1508125019000.0,19728145
182452719,Nashville,,1465268446000.0,36.18,-86.74,Ugochi,TN,1470018349000.0,19728145
200660957,Brentwood,,1465716690000.0,36.0,-86.79,Ujjwal Reddy,TN,1469731869000.0,19728145
195569654,Hermitage,,1467640688000.0,36.19,-86.6,V. Lauren Fass,TN,1507558759000.0,19728145
4602540,Brentwood,,1458666696000.0,36.0,-86.79,V. Mammina,TN,1508192459000.0,19728145
205591560,Nashville,,1463853036000.0,36.22,-86.77,Val,TN,1473183190000.0,19728145
238525204,Nashville,,1507595909000.0,36.07,-86.78,Valentina,TN,1508297312000.0,19728145
218668783,Murfreesboro,,1487873796000.0,35.78,-86.33,Valerie Avant,TN,1506720576000.0,19728145
175891512,Nashville,,1483057694000.0,36.17,-86.78,Vanessa,TN,1488991095000.0,19728145
5838751,Nashville,Nashville,1461263276000.0,36.17,-86.72,Vanessa,TN,1508792789000.0,19728145
207415487,Murfreesboro,,1471571762000.0,35.78,-86.33,Vanessa,TN,1472335454000.0,19728145
193657201,Murfreesboro,,1465007690000.0,35.87,-86.34,Vanessa Leithoff,TN,1465007690000.0,19728145
235368725,Mount Juliet,,1506730908000.0,36.21,-86.52,Vanessa Niu,TN,1508428016000.0,19728145
165197642,Murfreesboro,,1494114118000.0,35.87,-86.34,Vangie,TN,1506820099000.0,19728145
13921785,Brentwood,"Plano, TX",1472609817000.0,36.0,-86.79,Venkat Yarlagadda,TN,1472609817000.0,19728145
211687812,Nashville,,1472185396000.0,36.17,-86.78,Vera Streeter,TN,1499743583000.0,19728145
211034930,Nashville,,1473210387000.0,36.17,-86.78,Vicki,TN,1493434269000.0,19728145
72367952,Lebanon,,1488029239000.0,36.17,-86.4,Vickie Lessenberry,TN,1500224889000.0,19728145
211521717,Franklin,,1471999693000.0,35.93,-86.81,Vickie Lynn,TN,1472521874000.0,19728145
71038612,Bowling Green,,1479697745000.0,37.02,-86.46,victoria,KY,1507282986000.0,19728145
192034207,Nashville,Nashville,1499226849000.0,36.08,-86.72,Victoria Crawford,TN,1507413960000.0,19728145
215224901,Fort Campbell,,,36.65,-87.46,,KY,,19728145
205802574,Nashville,,1464130444000.0,36.06,-86.96,Victoria Sfasciotti Rovier Lowri,TN,1466762500000.0,19728145
16176611,Nolensville,New Orleans,1470696210000.0,35.94,-86.67,Vida,TN,1471104734000.0,19728145
205971255,New Orleans,New Orleans,1464386659000.0,29.97,-90.09,Vincent Liggio,LA,1465259459000.0,19728145
183928842,Dallas,,1507576700000.0,33.0,-96.84,Vinith,TX,1507576700000.0,19728145
211611544,Franklin,,1472078699000.0,35.93,-86.81,Vinny Castano,TN,1485311615000.0,19728145
192818849,Nashville,,1474595928000.0,36.17,-86.72,Violette Mayfaire,TN,1483031434000.0,19728145
193527552,Nashville,,1482417100000.0,36.17,-86.78,Vishnu Anna,TN,1482417100000.0,19728145
214586226,Nashville,,1475949823000.0,36.13,-86.8,Vladir Villagran,TN,1475949823000.0,19728145
208902374,Clarksville,,1468358253000.0,36.56,-87.41,Wanda A. Gee,TN,1468358253000.0,19728145
10743245,Brentwood,BRENTWOOD,1466876041000.0,36.0,-86.79,WANDA B PIPPIN,TN,1508685031000.0,19728145
125274672,Franklin,,1471877827000.0,35.92,-86.89,Wayne,TN,1492955989000.0,19728145
233675700,Hermitage,,1502425504000.0,36.19,-86.6,Wejdan Aljafar,TN,1507241144000.0,19728145
212766408,Nashville,,1473648641000.0,36.06,-86.96,Wendell Smith,TN,1473648641000.0,19728145
6603223,Madison,Panama,1459554769000.0,36.26,-86.71,Wendy,TN,1505004484000.0,19728145
4720318,Nashville,,1464389075000.0,36.08,-86.72,Wendy ,TN,1508030411000.0,19728145
229808569,Santa Fe,,1497595040000.0,35.76,-87.17,Wendy Bee,TN,1500002618000.0,19728145
190761456,Lewisburg,,1464383578000.0,35.45,-86.8,wendy eckenstine,TN,1508613297000.0,19728145
232863892,Nashville,,1501350229000.0,36.08,-86.72,Wendy Hesselman,TN,1501350229000.0,19728145
9475768,Nashville,Nashville,1488663993000.0,36.21,-86.72,Wendy Morrison,TN,1506471811000.0,19728145
208352792,Franklin,,1467643715000.0,35.92,-86.89,Wendy V.,TN,1488575465000.0,19728145
29315112,Nashville,,1484020584000.0,36.11,-86.86,Wendy W.,TN,1508102484000.0,19728145
206748135,Nashville,,1485977197000.0,36.17,-86.78,Whit Joseph,TN,1493049479000.0,19728145
239434572,Spring Hill,,1508632277000.0,35.76,-86.88,Whitney Bennett,TN,1508632277000.0,19728145
104949862,Chicago,Nashville,1459979485000.0,41.9,-87.67,Will WIlkins III,IL,1479787169000.0,19728145
227803412,Clarksville,,1495065991000.0,36.56,-87.41,William Biship Graves,TN,1495065991000.0,19728145
185354947,Nashville,Nashville,1469298139000.0,36.06,-86.96,William George,TN,1484919755000.0,19728145
227089197,Nashville,,1494109864000.0,36.06,-86.96,William Harlin,TN,1498843194000.0,19728145
189311115,Oakland City,,1500158391000.0,38.34,-87.35,William Putt,IN,1504213325000.0,19728145
144530472,Nashville,"Lexington, KY",1483669088000.0,36.18,-86.79,William Templeton,TN,1506918274000.0,19728145
10430851,Madison,Madison,1488305431000.0,36.26,-86.71,Winifred,TN,1508435276000.0,19728145
216927741,White House,,1489674996000.0,36.48,-86.69,Winnie Elberson,TN,1504920432000.0,19728145
91626512,Nashville,Nashville,1460721726000.0,36.1,-86.66,Woodrow Lucas,TN,1467334741000.0,19728145
174311572,Nashville,japan ,1503200778000.0,36.06,-86.96,yama,TN,1503200778000.0,19728145
216195162,Nashville,,,36.07,-86.72,,TN,,19728145
216328809,Nashville,,1478577949000.0,36.08,-86.72,Yesenia Mendoza,TN,1478577949000.0,19728145
9340001,Hermitage,,1488082692000.0,36.19,-86.6,Yulia,TN,1489021014000.0,19728145
235034626,Franklin,,1503869928000.0,35.92,-86.89,Yuliya Speroff,TN,1503869928000.0,19728145
209296950,Portland,,1468875735000.0,36.57,-86.49,Yulizza,TN,1468875735000.0,19728145
98624912,Nashville,,1459203117000.0,36.08,-86.72,Yvette,TN,1459947871000.0,19728145
174031072,Thompsons Station,,1472089632000.0,35.8,-86.9,Yvette,TN,1479350995000.0,19728145
13499550,Memphis,"Memphis, TN",1490450164000.0,35.09,-89.9,Yvonne ,TN,1492006087000.0,19728145
6163505,Nashville,Nashville,1508591481000.0,36.08,-86.72,Yvonne,TN,1508781686000.0,19728145
10804145,Murfreesboro,Nashville,1459129330000.0,35.78,-86.33,Yvonne ,TN,1503968939000.0,19728145
209099058,Nashville,,1470512255000.0,36.07,-86.73,Zach Glendening,TN,1471653575000.0,19728145
187957004,Nashville,Lewis Center,1462329954000.0,36.17,-86.78,Zachary Joseph Stilp,TN,1480752268000.0,19728145
11149295,Nashville,Delphos,1478003363000.0,36.17,-86.72,Zack Benner,TN,1494529141000.0,19728145
223915611,Nashville,,1489794093000.0,36.06,-86.96,Zarita,TN,1490766325000.0,19728145
89650582,Nashville,Sydney Australia,1492694942000.0,36.21,-86.72,Zelda Sheldon,TN,1493094276000.0,19728145
209917652,Nashville,St. Paul,1500169590000.0,36.17,-86.78,Zuliat Owoade,TN,1500169590000.0,19728145
