id,city,hometown,joined,lat,lon,name,state,visited,group_id
195227488,Murfreesboro,"Murfreesboro, TN",1492479797000.0,35.82,-86.45,Aaron Browning,TN,1497049356000.0,19828398
223112979,Murfreesboro,,1488821007000.0,35.78,-86.33,Abdul ,TN,1494794035000.0,19828398
217030990,Nashville,,1479698048000.0,36.15,-86.86,Abdulaziz Buaishah,TN,1494229871000.0,19828398
221632815,Nashville,,1486545568000.0,36.06,-86.96,Abdulelah Alqoud,TN,1487725328000.0,19828398
87682152,Nashville,Nashville,1484635252000.0,36.17,-86.78,Abdullah,TN,1484635252000.0,19828398
163386852,Colorado City,,1475387089000.0,37.94,-104.85,Abdullah Alanezi,CO,1481510934000.0,19828398
239065751,Nashville,,1508208268000.0,36.16,-86.77,Abduvokhid Abdusalomov,TN,1508208268000.0,19828398
128850122,Nashville,,1468446372000.0,36.17,-86.78,adi,TN,1495734547000.0,19828398
227281960,Nashville,,1494385098000.0,36.11,-86.86,Ahmad Alattas,TN,1504038016000.0,19828398
228478397,Nashville,,1508027752000.0,36.17,-86.78,Akhil,TN,1508027752000.0,19828398
229513128,Franklin,,1497218726000.0,35.93,-86.81,Akiko Sato,TN,1508116181000.0,19828398
215802660,Murfreesboro,,1478302210000.0,35.87,-86.44,Alejandra,TN,1486512126000.0,19828398
204447629,Nashville,,1462249083000.0,36.09,-86.82,Alejandra Colorado,TN,1480806631000.0,19828398
117604732,Arlington,,1463832625000.0,38.86,-77.1,Alejandra Salazar,VA,1463832625000.0,19828398
201787805,Nashville,,1469634275000.0,36.17,-86.78,Alex,TN,1485270826000.0,19828398
70818482,Iowa City,,1492280701000.0,41.66,-91.53,Alex Cho,IA,1492280701000.0,19828398
232900636,Nashville,,1501393857000.0,36.21,-86.78,Alexandrina Likova,TN,1501393857000.0,19828398
219051525,Nashville,,1483324091000.0,36.11,-86.86,Alexuis Weems,TN,1483324091000.0,19828398
202333185,Nashville,,1468920596000.0,36.08,-86.72,Ali Aso,TN,1495769873000.0,19828398
224528703,Nashville,,1490587760000.0,36.21,-86.72,Ali Naeimipour,TN,1494890369000.0,19828398
230483658,Nashville,,1498439857000.0,36.14,-86.74,Ali Rabeh,TN,1498923841000.0,19828398
204871578,Clarksville,,1462873574000.0,36.49,-87.23,AnaKatarina Lalonde,TN,1462873574000.0,19828398
234500011,Nashville,,1503298474000.0,36.16,-86.66,Anas Bin Yamin,TN,1504705289000.0,19828398
206129650,Nashville,,1464613301000.0,36.13,-86.8,Andrea,TN,1464613301000.0,19828398
211335825,Nashville,,1476766258000.0,36.13,-86.8,Angela Shi,TN,1490085402000.0,19828398
222504287,Nashville,,1487742802000.0,36.09,-86.82,Angelica Garzon,TN,1487742802000.0,19828398
215846841,West Palm Beach,,1477841851000.0,26.64,-80.24,Angelica Guzman,FL,1477841851000.0,19828398
225928501,Spring Hill,,1492544742000.0,35.76,-86.88,Angelica Vargas,TN,1492703835000.0,19828398
192623642,Wroclaw,,1495640376000.0,51.11,17.03,Anna Epishova,,1502829721000.0,19828398
214643399,Nashville,,1476037894000.0,36.11,-86.78,April Pitchford,TN,1476037894000.0,19828398
212686319,Clarksville,,1476152527000.0,36.58,-87.3,Ashwath,TN,1502938977000.0,19828398
217516382,Nashville,,1480541754000.0,36.17,-86.78,Ayla Townsend,TN,1480692726000.0,19828398
185673028,Nashville,,1494519986000.0,36.06,-86.96,Aziz,TN,1501651790000.0,19828398
194499579,Franklin,,1468446372000.0,35.93,-86.81,Bahar,TN,1468899216000.0,19828398
210023552,Antioch,,1484611533000.0,36.17,-86.88,Bairon Palma,TN,1484611533000.0,19828398
122989772,Nashville,Los Angeles ,1484020888000.0,36.17,-86.78,Bashar,TN,1484020888000.0,19828398
75873682,Nashville,,1468787236000.0,36.17,-86.78,Bayron,TN,1500495382000.0,19828398
231900180,La Vergne,,1500152979000.0,36.01,-86.57,Beate Geyermann-braun,TN,1500152979000.0,19828398
186784863,Brentwood,,1472871097000.0,36.0,-86.79,beilei zhu,TN,1472871097000.0,19828398
123237172,Nashville,"Forestville, NY",1491323171000.0,36.15,-86.86,Bethany DeJoe,TN,1491323171000.0,19828398
214647105,Nashville,,1476042247000.0,36.11,-86.78,Bill Ding,TN,1476149664000.0,19828398
8195395,Franklin,"Daegu, South Korea",1462309904000.0,35.92,-86.89,Bob Yoon,TN,1473351778000.0,19828398
234645897,Nashville,,1503421411000.0,36.15,-86.86,Breanna Frye,TN,1503421411000.0,19828398
203374039,Clarksville,,1507392481000.0,36.53,-87.35,Bren,TN,1508518786000.0,19828398
62418442,Nashville,,1472221423000.0,36.16,-86.79,Brenda Dillard,TN,1472221423000.0,19828398
18761341,Nolensville,,1460669759000.0,35.94,-86.67,Brenda H,TN,1473182803000.0,19828398
102878332,Nashville,,1496527017000.0,36.11,-86.86,Bria,TN,1496527017000.0,19828398
231911900,Manchester,,1500166778000.0,35.47,-86.08,Bruno García,TN,1500166778000.0,19828398
149235682,Antioch,,1495752701000.0,36.05,-86.68,Bryan White,TN,1495811726000.0,19828398
225794967,Nashville,,1492369928000.0,36.13,-86.67,Carlos Romero,TN,1492369928000.0,19828398
225874796,Nashville,,1492478362000.0,36.1,-86.66,Carlos Ruiz Olaya,TN,1492478362000.0,19828398
235169566,Franklin,,1504027498000.0,35.92,-86.89,carmen,TN,1504027498000.0,19828398
208624858,Nashville,,1468446372000.0,36.17,-86.78,Cathy,TN,1489635948000.0,19828398
233071600,Murfreesboro,,1503871903000.0,35.87,-86.34,Catia,TN,1508207859000.0,19828398
228626923,Nashville,,1496120168000.0,36.18,-86.74,Chad Kim,TN,1498068238000.0,19828398
218668159,Franklin,,1482701405000.0,35.93,-86.81,Chaitanya Pawar,TN,1500089833000.0,19828398
190009821,Nashville,,1460646279000.0,36.16,-86.79,Chao Ma,TN,1475607468000.0,19828398
13587968,Nashville,,1495680865000.0,36.06,-86.96,Charles99,TN,1495680865000.0,19828398
6748620,Nashville,,1478242969000.0,36.16,-86.79,Charmaine Lowe,TN,1478242969000.0,19828398
230020626,Murfreesboro,,1497891322000.0,35.78,-86.33,Chastity W.,TN,1497891322000.0,19828398
113032392,Nashville,Nashville,1479232799000.0,36.16,-86.79,chen hajaj,TN,1506220798000.0,19828398
217505803,Nashville,,1480526672000.0,36.16,-86.79,ChiaChi ,TN,1480526672000.0,19828398
208757225,Denver,,1468178928000.0,39.7,-105.08,Chrishna Cool,CO,1468178928000.0,19828398
214666133,Murfreesboro,,1478135851000.0,35.78,-86.33,christian,TN,1480651310000.0,19828398
10270601,Nashville,Hermitage,1493590485000.0,36.16,-86.79,Cleo Bond,TN,1503512727000.0,19828398
227482125,Nashville,,1494644499000.0,36.17,-86.78,Collins,TN,1494644499000.0,19828398
215083227,Nashville,,1476682071000.0,36.06,-86.96,Collins ,TN,1476682071000.0,19828398
208418247,Franklin,,1483526782000.0,35.92,-86.89,Connie,TN,1498358201000.0,19828398
191993261,Mount Juliet,,1484917949000.0,36.22,-86.52,Corri G,TN,1488169921000.0,19828398
230045695,Nashville,,1500606940000.0,36.08,-86.72,Courtney,TN,1505679927000.0,19828398
234968793,Nashville,,1504198409000.0,36.17,-86.78,Cris Bern,TN,1505826069000.0,19828398
234419823,Nashville,,1503162226000.0,36.17,-86.78,Cristina Landry,TN,1507711101000.0,19828398
226938907,Nashville,,1493904252000.0,36.17,-86.78,Cristina Martínez de Carrasco,TN,1493904252000.0,19828398
12269233,Nashville,Guadalajara,1473521140000.0,36.17,-86.78,Cristy Corona,TN,1474937495000.0,19828398
208437097,Nashville,,1468446372000.0,36.17,-86.78,Cui,TN,1468510917000.0,19828398
211585280,Nashville,,1472047694000.0,36.18,-86.74,Dahomey B Aznar,TN,1472047694000.0,19828398
212969358,Franklin,,1473906184000.0,35.92,-86.89,Daniel Hofmeister,TN,1473906184000.0,19828398
156342002,Nashville,,1487116627000.0,36.17,-86.79,Daniel Huerta Marquez,TN,1508277631000.0,19828398
220235831,Nashville,,1484781225000.0,36.14,-86.81,Daniel Parra,TN,1485828814000.0,19828398
183152231,Murfreesboro,,1472061407000.0,35.78,-86.33,Daniel Robert Browning,TN,1483833743000.0,19828398
229102995,Madison,,1496705685000.0,36.26,-86.71,David Jay,TN,1496705685000.0,19828398
235105301,Cottontown,,1503953360000.0,36.49,-86.59,David Whitefield Gould,TN,1507883770000.0,19828398
228718563,Nashville,,1496370416000.0,36.19,-86.8,Debbie Bresee,TN,1496453589000.0,19828398
218142049,Nashville,,1481640409000.0,36.22,-86.77,Deshaun Dè ,TN,1481640409000.0,19828398
208647021,Antioch,,1468446372000.0,36.17,-86.88,Diana C. Castañeda Maya,TN,1481661941000.0,19828398
210803976,Hermitage,Hermitage,1470933551000.0,36.19,-86.6,Diane Wilson,TN,1470933551000.0,19828398
226718501,Nashville,,1493605804000.0,36.08,-86.72,Didem,TN,1507842493000.0,19828398
162289142,Newark,,1495569219000.0,39.6,-75.75,Dl Zhang,DE,1496635587000.0,19828398
205697718,Nashville,,1463992690000.0,36.07,-86.73,Docre,TN,1463992690000.0,19828398
222981893,Goodlettsville,,1488415887000.0,36.32,-86.72,Dominique SALANDRE,TN,1507734531000.0,19828398
182570117,Antioch,,1491182779000.0,36.17,-86.88,doyi,TN,1496609559000.0,19828398
205819559,Hendersonville,,1464152367000.0,36.32,-86.61,dragos cornea,TN,1464152367000.0,19828398
219480410,Hollywood,,1499756795000.0,25.99,-80.21,Dreamer 305,FL,1499756795000.0,19828398
21287551,Brentwood,BRENTWOOD,1496031030000.0,36.0,-86.79,Edgard Arenas,TN,1496695320000.0,19828398
206297794,Mount Juliet,,1479865689000.0,36.22,-86.52,Eduardo Miller,TN,1485988950000.0,19828398
218717485,Springfield,,1482795765000.0,36.52,-86.87,Eduardo Moran,TN,1484010407000.0,19828398
226525108,Nashville,,1493332462000.0,36.17,-86.78,Edward Rust,TN,1493332462000.0,19828398
220988560,Nashville,,,36.13,-86.67,,TN,,19828398
211363204,Nashville,,1472506309000.0,36.05,-86.7,Elana,TN,1494426194000.0,19828398
220595441,Nashville,,1485243268000.0,36.17,-86.78,ELHILALY  EHIMIR,TN,1485243268000.0,19828398
229700182,Mount Juliet,,1497458500000.0,36.21,-86.52,Elizabeth,TN,1498361364000.0,19828398
39143562,Nashville,,1468446372000.0,36.17,-86.78,Elizabeth Cruz,TN,1468602623000.0,19828398
237023682,Madison,,1505936234000.0,36.26,-86.71,Emanuel Escalante,TN,1505936234000.0,19828398
217755795,Nashville,,1480961309000.0,36.08,-86.72,emily ,TN,1480961309000.0,19828398
212306666,Nashville,,1473040298000.0,36.13,-86.8,Emily Rose,TN,1473301547000.0,19828398
214973487,Nashville,,1476558309000.0,36.17,-86.78,Emmanuel Ogunkoya,TN,1476558309000.0,19828398
209637148,Nashville,,1469324510000.0,36.17,-86.78,Erick Kigen,TN,1470009219000.0,19828398
150496832,Hendersonville,Hendersonville ,1505326306000.0,36.32,-86.61,Eriko  Isoi,TN,1508454682000.0,19828398
212801507,Nashville,,1473698197000.0,36.08,-86.72,Erin Bean,TN,1473698197000.0,19828398
221197896,Montclair,,1486001448000.0,40.81,-74.22,Erin Kim,NJ,1508502192000.0,19828398
225248298,Brentwood,,,36.0,-86.79,,TN,,19828398
207059821,Nashville,,1471638581000.0,36.17,-86.78,Estela,TN,1496693505000.0,19828398
229530894,Nashville,,1497240379000.0,36.07,-86.73,Eva Wei,TN,1497240379000.0,19828398
204143379,Nashville,,1461798000000.0,36.09,-86.82,Eve Tawarayama,TN,1507598591000.0,19828398
204142039,Nashville,,1461796430000.0,36.09,-86.82,Eve Tawarayama,TN,1461796430000.0,19828398
225138308,Nashville,,1491443734000.0,36.08,-86.72,Evelyn Castillo,TN,1491443734000.0,19828398
216773081,Nashville,,1479289862000.0,36.17,-86.78,Fabrício Ramos,TN,1496307356000.0,19828398
184067176,Nashville,,1476243872000.0,36.15,-86.86,Fahd,TN,1479658608000.0,19828398
209973469,Murfreesboro,,1469789701000.0,35.87,-86.44,faleh aldawsri,TN,1469789701000.0,19828398
235159690,Nashville,,1504017568000.0,36.16,-86.79,Fangfei Zhang,TN,1508452591000.0,19828398
163683862,Nashville,,1477936318000.0,36.16,-86.79,Fangzhou Sun,TN,1478807735000.0,19828398
210015978,Nashville,,1469826586000.0,36.17,-86.78,Fawaz ,TN,1469826586000.0,19828398
231042050,Lafayette,,1499128652000.0,36.52,-86.02,Fédya Khalfaoui,TN,1499128652000.0,19828398
237392263,Nashville,,1506355963000.0,36.16,-86.79,Fernanda Eliott,TN,1508276290000.0,19828398
229717183,Nashville,,1497473525000.0,36.17,-86.78,Francieli Balieiro,TN,1498047552000.0,19828398
69876982,Nashville,Shaanxi,1508267711000.0,36.13,-86.8,Franklin,TN,1508267711000.0,19828398
205104317,Madison,,1463193305000.0,36.26,-86.71,Funguy84,TN,1463193305000.0,19828398
233295843,Hermitage,,1501880844000.0,36.19,-86.6,Gabriela Apolinario,TN,1501880844000.0,19828398
218395158,Clarksville,,1482124758000.0,36.53,-87.34,Garland Cain,TN,1482124758000.0,19828398
215947278,Clarksville,,1477998535000.0,36.56,-87.41,Garland Cain,TN,1477998535000.0,19828398
9627667,Nashville,,1468084915000.0,36.15,-86.86,Garrett ,TN,1495667627000.0,19828398
218941484,Portland,,1483145292000.0,36.57,-86.49,Garry Lueng,TN,1483145292000.0,19828398
221845228,Madison,,1486860475000.0,36.26,-86.71,Garry Lyons,TN,1500596855000.0,19828398
17401691,Nashville,,1494175036000.0,36.13,-86.8,German Perez-Vargas,TN,1494175036000.0,19828398
209681408,Smyrna,,1469386243000.0,35.97,-86.51,Ghost,TN,1469386243000.0,19828398
238751264,Nashville,,1507843620000.0,36.08,-86.72,Gilberto Camacho Echeverry,TN,1508285402000.0,19828398
211594974,New York,,1472059334000.0,40.75,-73.99,Grace E. Chase,NY,1472059334000.0,19828398
205240616,Smyrna,,1463370726000.0,35.97,-86.51,Guillermo ,TN,1463370726000.0,19828398
206678666,Smyrna,,1468446372000.0,35.97,-86.51,Guillermo durruty ,TN,1472328958000.0,19828398
106814302,Nashville,,1468720677000.0,36.17,-86.78,Guy,TN,1490043418000.0,19828398
211924033,Nashville,,1472513856000.0,36.16,-86.79,Gwanwoo David Kim,TN,1472513856000.0,19828398
212181097,Mount Juliet,,1472869918000.0,36.21,-86.52,Hae,TN,1472869918000.0,19828398
214283308,Nashville,,1475547674000.0,36.08,-86.72,Haluk Alk??,TN,1476910519000.0,19828398
161536282,Madison,Madison,1487251307000.0,36.26,-86.71,Hamish MacFarlane,TN,1498832841000.0,19828398
213910156,Lebanon,,1475112312000.0,36.21,-86.29,Hana Tanaka,TN,1489806174000.0,19828398
140800142,Nashville,Nashville,1469047145000.0,36.13,-86.8,Harold Griffin,TN,1469292867000.0,19828398
84443762,Franklin,,1479245161000.0,35.92,-86.89,Harshal Kalgutkar,TN,1480973732000.0,19828398
211435150,Nashville,,1471840675000.0,36.09,-86.82,Hayley Clifford,TN,1471840675000.0,19828398
6776355,Nashville,,1496940270000.0,36.21,-86.72,Hilde,TN,1499903748000.0,19828398
210760139,Franklin,,1470866210000.0,35.93,-86.81,HIROYA KAWGUCHI,TN,1507347790000.0,19828398
220729720,Franklin,,1485404350000.0,35.93,-86.81,Hisayo Nakai,TN,1485404350000.0,19828398
227420324,Nashville,,1494555716000.0,36.09,-86.82,Hojin Jang,TN,1508281009000.0,19828398
212043415,Nashville,,1488504573000.0,36.07,-86.73,Holly molly,TN,1488504573000.0,19828398
217756737,Nashville,,1480962318000.0,36.16,-86.79,Ian Montgomery,TN,1480962318000.0,19828398
222336648,Nashville,,1487524301000.0,36.11,-86.86,Ibra,TN,1487524301000.0,19828398
215363665,Nashville,,1477090702000.0,36.11,-86.86,Ibraheem,TN,1480562891000.0,19828398
232402909,Brentwood,,1500774862000.0,36.0,-86.79,Idairis Campo,TN,1500774862000.0,19828398
236333616,Nashville,,1505247879000.0,36.06,-86.96,Inara Bauru,TN,1505247879000.0,19828398
230309457,Nashville,,1498224405000.0,36.15,-86.81,Indu Bal,TN,1498224405000.0,19828398
210510408,Nashville,,1470521198000.0,36.06,-86.96,Isaac B.,TN,1470521198000.0,19828398
215139017,Nashville,Nashville,1484253768000.0,36.08,-86.72,Isis Izturriaga,TN,1484253768000.0,19828398
233079831,Nashville,,1501618578000.0,36.22,-86.77,Israel Rivadeneira,TN,1501618578000.0,19828398
183688965,Nashville,"Cameron, NC",1481373086000.0,36.18,-86.81,Jackie Vinal,TN,1481373086000.0,19828398
217085195,Nashville,,1479875083000.0,36.17,-86.78,jacob Paul,TN,1480881848000.0,19828398
185974958,Nashville,,1469408499000.0,36.14,-86.74,Jacqueline ,TN,1492351748000.0,19828398
229025056,Goodlettsville,,1496615341000.0,36.32,-86.72,Jacquline C,TN,1496615341000.0,19828398
215924500,La Vergne,,1477956991000.0,36.0,-86.57,Jad Nehme,TN,1477956991000.0,19828398
219578866,Nashville,,1483964945000.0,36.17,-86.78,Jade,TN,1483964945000.0,19828398
218552197,Nashville,,1483071725000.0,36.17,-86.78,Jaehoon Kim,TN,1493068488000.0,19828398
206588718,Nashville,,1485991022000.0,36.14,-86.81,JAEHYUK LEE,TN,1508287324000.0,19828398
208989415,Westmoreland,,1468469183000.0,36.57,-86.22,James Biggs,TN,1468469183000.0,19828398
220257665,Nashville,,1484806899000.0,36.15,-86.8,James Huang,TN,1484806899000.0,19828398
204700330,Nashville,,1464649303000.0,36.17,-86.78,James Lauderdale Jr,TN,1464649303000.0,19828398
191305948,Clarksville,,1468446372000.0,36.56,-87.41,Jamijo,TN,1498535385000.0,19828398
223707821,Nashville,,1489444768000.0,36.17,-86.72,Jane Y,TN,1489444768000.0,19828398
215821418,Nashville,,1477794126000.0,36.14,-86.74,Jarvis B. Puckett,TN,1477794126000.0,19828398
237483945,Mount Juliet,,1506473242000.0,36.21,-86.52,Jason An,TN,1506473242000.0,19828398
95784352,Nashville,,1488053155000.0,36.17,-86.78,Jason Wheeler,TN,1488053155000.0,19828398
232309384,Nashville,,1500657220000.0,36.17,-86.78,Javier Camacho,TN,1500657220000.0,19828398
6298662,Hendersonville,"Greeneville, TN",1460939922000.0,36.32,-86.61,Jeanne,TN,1494738112000.0,19828398
211597933,Nashville,,1472062102000.0,36.17,-86.78,Jefreey Torres,TN,1472069938000.0,19828398
210631553,Nashville,,1470687339000.0,36.06,-86.96,Jen Simon,TN,1471475325000.0,19828398
38690452,Nashville,Cypress,1471858614000.0,36.11,-86.8,Jessica,TN,1471858614000.0,19828398
207895223,Nashville,,1468446372000.0,36.17,-86.72,Jessica,TN,1478395697000.0,19828398
217562207,Nashville,,1480621118000.0,36.06,-86.96,Jessica Hiskey,TN,1480621118000.0,19828398
235720343,Brentwood,,1504628462000.0,36.0,-86.79,Jewell,TN,1504628462000.0,19828398
187132144,Nashville,Nashville,1477802466000.0,36.16,-86.79,Jie Xu,TN,1477802466000.0,19828398
216811342,Nashville,,1479345291000.0,36.16,-86.79,Jill Stockton,TN,1479345291000.0,19828398
212287293,Nashville,,1473020263000.0,36.17,-86.78,Jingyi Yan,TN,1476226222000.0,19828398
232989354,Nashville,,1501511310000.0,36.14,-86.8,Joanna  Chen,TN,1501511310000.0,19828398
32809502,Nashville,,1473187777000.0,36.17,-86.78,Jodie,TN,1504029152000.0,19828398
190672293,Hendersonville,,1487521881000.0,36.32,-86.61,Joe Ren,TN,1494906470000.0,19828398
205875866,Nashville,,1505165220000.0,36.13,-86.8,John Murphy,TN,1507152386000.0,19828398
203108212,Nashville,,1460435090000.0,36.1,-86.66,John Zakharey,TN,1463379245000.0,19828398
223498921,Nashville,,1489158194000.0,36.17,-86.78,Jordan Todd ,TN,1489158194000.0,19828398
232953136,Nashville,,1501460445000.0,36.14,-86.74,Jose Aguilar,TN,1501460445000.0,19828398
184870684,Nashville,,1476153378000.0,36.16,-86.79,Jose Moreno,TN,1487893210000.0,19828398
195529583,Nashville,,1474217544000.0,36.17,-86.78,Joselyn,TN,1508283210000.0,19828398
212216023,Nashville,,1472921682000.0,36.17,-86.78,Joshua,TN,1502683405000.0,19828398
238846742,Nashville,,1507957534000.0,36.17,-86.78,Joy Gilmore,TN,1508009268000.0,19828398
182708543,Spring Hill,nashville,1484288308000.0,35.76,-86.88,JT,TN,1489982616000.0,19828398
208846051,Nashville,,1468286331000.0,36.17,-86.72,Juan Buitrago,TN,1468286331000.0,19828398
232197617,Franklin,,1500516544000.0,35.93,-86.81,Judita ,TN,1500516544000.0,19828398
225172748,Horki,,1491844351000.0,56.32,44.0,Julia,,1492616256000.0,19828398
197492262,Clarksville,,1486071065000.0,36.53,-87.35,Julie,TN,1486078815000.0,19828398
53668382,Nashville,Nashville,1503977722000.0,36.13,-86.8,Julien Doibani,TN,1504041240000.0,19828398
231880737,Nashville,,1502041736000.0,36.11,-86.78,Justin Judson,TN,1503961583000.0,19828398
210281477,Nashville,,1470182184000.0,36.17,-86.78,KarlaAcana,TN,1500038801000.0,19828398
213899956,Goodlettsville,,1475104304000.0,36.32,-86.72,Karlha,TN,1506368087000.0,19828398
238084563,Franklin,,1507126581000.0,35.92,-86.87,Katherine Bloomfield,TN,1508290484000.0,19828398
206351586,Nashville,,1464908626000.0,36.11,-86.78,Katherine Marena Munoz,TN,1464908626000.0,19828398
226141306,Nashville,,1492829450000.0,36.08,-86.72,Katie Z.,TN,1498934990000.0,19828398
208884915,Hendersonville,"Salem, IN",1468339234000.0,36.32,-86.61,Kay IAm,TN,1468339234000.0,19828398
216128363,Nashville,,1478274864000.0,36.16,-86.79,Kazuchika Higuchi,TN,1503397087000.0,19828398
234624599,Bowling Green,,1504494502000.0,37.02,-86.46,Kei Kamiya,KY,1504494502000.0,19828398
208189715,Pflugerville,,1487639436000.0,30.44,-97.63,Keirra Ewah,TX,1487639436000.0,19828398
204121322,Antioch,,1461771114000.0,36.04,-86.64,keisha morrow,TN,1462223372000.0,19828398
222677104,Nolensville,,1487987169000.0,35.94,-86.67,Kelli Rai,TN,1487987169000.0,19828398
210561881,Nashville,,1470594430000.0,36.17,-86.78,Kenneth,TN,1470594430000.0,19828398
206024168,Nashville,,1464457921000.0,36.1,-86.66,Khaled,TN,1508783258000.0,19828398
194031204,Nashville,,1463545254000.0,36.06,-86.96,Khaled Layas,TN,1488322208000.0,19828398
206735625,Nashville,,1468446372000.0,36.08,-86.71,Krish,TN,1465413003000.0,19828398
207044557,Brentwood,,1468446372000.0,36.0,-86.79,Kuang Shuyi,TN,1508249439000.0,19828398
220324973,Nashville,,1484894315000.0,36.17,-86.78,Ky dinh,TN,1484894315000.0,19828398
209062292,Antioch,,1468570224000.0,36.04,-86.64,kyng George,TN,1468570224000.0,19828398
221445918,Hermitage,,1486311452000.0,36.19,-86.6,Lance Liu,TN,1486311452000.0,19828398
226128410,Thompsons Station,thompson station,1495232084000.0,35.8,-86.9,Larry Gooden,TN,1495232084000.0,19828398
230440580,Franklin,,1498390051000.0,35.93,-86.81,Latha Huttanna,TN,1498390051000.0,19828398
218829868,Nashville,,1482982005000.0,36.21,-86.77,Lenore Ellsworth,TN,1482982005000.0,19828398
217507898,Nashville,,1480529629000.0,36.06,-86.96,Leonel Marulanda,TN,1480529629000.0,19828398
222739109,Nashville,,1488074775000.0,36.14,-86.74,Lese Jenea,TN,1488074775000.0,19828398
217272053,La Vergne,,1480127171000.0,36.01,-86.57,Lidia Choc,TN,1480127171000.0,19828398
115604952,Nashville,,1464272797000.0,36.14,-86.74,Liesa Jo Jenkins,TN,1469670818000.0,19828398
23229581,Nashville,,1486508694000.0,36.17,-86.78,Lifeavinash,TN,1486508694000.0,19828398
203719306,Brentwood,,1461184119000.0,36.0,-86.79,Liming Wang,TN,1461184119000.0,19828398
219129650,Nashville,,1483414835000.0,36.16,-86.77,Lina Bracamonte,TN,1503542666000.0,19828398
217316783,Nashville,,1486689487000.0,36.17,-86.78,Lisa Lin,TN,1487394674000.0,19828398
206157779,Nashville,,1464644077000.0,36.09,-86.82,Lisa Zhito,TN,1489252226000.0,19828398
239290656,Nashville,,1508465667000.0,36.14,-86.81,Lissa Drake,TN,1508465667000.0,19828398
4883361,Nashville,,1503024191000.0,36.17,-86.78,Liz,TN,1503024191000.0,19828398
183783884,Nashville,,1461715324000.0,36.17,-86.78,Liza D,TN,1461715324000.0,19828398
220849059,Hendersonville,,1485563050000.0,36.32,-86.61,Loanie Nguyen,TN,1485563050000.0,19828398
184842362,Nashville,,1495019781000.0,36.17,-86.78,Lolita Medina,TN,1498007905000.0,19828398
12424336,Nashville,,1477170060000.0,36.17,-86.78,Louis,TN,1485612230000.0,19828398
205458315,Nashville,,1464837414000.0,36.06,-86.96,Lucía ,TN,1488258204000.0,19828398
216535938,Nashville,,1478955125000.0,36.07,-86.73,Lucia Diaz,TN,1478955125000.0,19828398
218829154,Joelton,,1494166701000.0,36.33,-86.94,Luo,TN,1494166701000.0,19828398
233599190,Clarksville,,1502225100000.0,36.53,-87.35,Madam Casha Ming,TN,1502225100000.0,19828398
198307591,Nashville,,1495758545000.0,36.17,-86.78,Magie,TN,1495758545000.0,19828398
237889415,Nashville,,1506907443000.0,36.08,-86.72,Majd,TN,1508277439000.0,19828398
233083939,Franklin,,1501623694000.0,35.93,-86.84,Makiko Oshino,TN,1508348095000.0,19828398
6259039,Murfreesboro,Shizuoka,1486490301000.0,35.87,-86.34,Makoto,TN,1507732931000.0,19828398
216636561,Nashville,,1479083844000.0,36.11,-86.78,Mala Siri,TN,1479083844000.0,19828398
225913002,Nashville,,1492530078000.0,36.15,-86.86,Malabika Sarbadhikary,TN,1499831660000.0,19828398
199104094,Albany,,1469329207000.0,42.65,-73.75,Manoj,NY,1471971218000.0,19828398
211774374,Nashville,,1473978159000.0,36.17,-86.78,Marat Kyzylbaev,TN,1476370808000.0,19828398
205352388,Joelton,,1463516121000.0,36.33,-86.91,Maria Knight,TN,1463516121000.0,19828398
124311612,Nashville,,1473002737000.0,36.17,-86.78,Maricruz Flores ,TN,1473002737000.0,19828398
236613257,Murfreesboro,,1505515191000.0,35.84,-86.39,Marino,TN,1508639338000.0,19828398
210096250,Fosterville,,1469933875000.0,35.75,-86.39,Mario Allen,TN,1469933875000.0,19828398
237818800,Nashville,,1506826028000.0,36.13,-86.8,Mario Di Fend,TN,1508208247000.0,19828398
206493348,Murfreesboro,,1465102455000.0,35.85,-86.4,Marisela,TN,1465102455000.0,19828398
231336370,Madison,,1499522268000.0,36.26,-86.71,Martha,TN,1499691975000.0,19828398
221212756,Nashville,,1486024159000.0,36.17,-86.78,Martynas ustavi?ius,TN,1486024159000.0,19828398
207292432,Nashville,,1468446372000.0,36.08,-86.72,Mary,TN,1466182171000.0,19828398
217280466,Nashville,,1496592685000.0,36.11,-86.86,Mary,TN,1506814233000.0,19828398
202753654,Brentwood,,1489285463000.0,36.0,-86.79,Maryam,TN,1491365825000.0,19828398
234136565,Nashville,,1502844344000.0,36.17,-86.78,Mateus Ferreira,TN,1507768515000.0,19828398
235955749,Nashville,,1504870058000.0,36.14,-86.81,Maureen Harless,TN,1504870058000.0,19828398
215575363,Smyrna,,1477411116000.0,35.97,-86.51,Mauricio Nova,TN,1477411116000.0,19828398
223835933,Nashville,,1504399907000.0,36.18,-86.81,Mayara Santos,TN,1504553241000.0,19828398
220252348,Nashville,,1485100225000.0,36.11,-86.86,Mayuko  Matsuda,TN,1485100225000.0,19828398
228593365,La Vergne,,1496083945000.0,36.01,-86.57,Megan Dersu,TN,1496083945000.0,19828398
216054240,Nashville,,1478154763000.0,36.13,-86.8,Michael Baron,TN,1478154763000.0,19828398
104483452,Portland,,1499817544000.0,45.52,-122.64,Michael Kig,OR,1499817544000.0,19828398
226665450,Nashville,,1493535232000.0,36.08,-86.72,Michael King,TN,1498253119000.0,19828398
218692365,Shelbyville,,1482755296000.0,35.49,-86.45,Michelle Arianna,TN,1482755296000.0,19828398
239593592,Nashville,,1508809080000.0,36.16,-86.79,Miguel badio,TN,1508809080000.0,19828398
236631880,Nashville,,1505533663000.0,36.16,-86.79,Mijin J,TN,1508788316000.0,19828398
235373485,Nashville,,1504244859000.0,36.17,-86.78,Mina,TN,1504244859000.0,19828398
211814649,Nashville,Nashville,1506407772000.0,36.1,-86.66,Mina Abdalla,TN,1507701587000.0,19828398
235917829,Nashville,,1504823903000.0,36.14,-86.8,Minsun Park,TN,1505425469000.0,19828398
229701620,Nashville,,1497456026000.0,36.15,-86.86,Mírian Daniela,TN,1497456026000.0,19828398
11794631,Nashville,Seoul,1488613293000.0,36.15,-86.86,Miyo Park,TN,1500191104000.0,19828398
238802649,Nashville,,1507908975000.0,36.16,-86.77,Moo Jin Oh,TN,1507908975000.0,19828398
234200049,Hermitage,,1503015456000.0,36.19,-86.6,Movin uddin,TN,1503706016000.0,19828398
226139905,Nashville,,1494346954000.0,36.17,-86.78,Mu-Barack  Jama ,TN,1505603716000.0,19828398
213386783,Nashville,,1474439705000.0,36.17,-86.78,MUTEB ALKHAMISI,TN,1475132220000.0,19828398
233383958,Nashville,,1501982180000.0,36.22,-86.74,Nadia Dunlap,TN,1501982180000.0,19828398
206058894,Rosedale,,1464526754000.0,40.66,-73.73,Najiyah Kelly,NY,1464526754000.0,19828398
231017596,Nashville,,1499103165000.0,36.1,-86.66,Nasheeda Shaikh,TN,1499103165000.0,19828398
211540430,Nashville,,1471981422000.0,36.11,-86.78,Natalia Escandon,TN,1471981422000.0,19828398
229979437,Nashville,,1497832775000.0,36.15,-86.86,Nawaf Mulafikh,TN,1497832775000.0,19828398
183856769,Nashville,,1495476566000.0,36.05,-86.71,Nhu Nguyen,TN,1505515604000.0,19828398
190973568,Nashville,,1495139514000.0,36.16,-86.79,nick telangi,TN,1495659938000.0,19828398
220827338,Nashville,,1485538664000.0,36.09,-86.82,Nina Jones Morel,TN,1500149821000.0,19828398
189602965,Nashville,,1475633583000.0,36.08,-86.72,Nuha,TN,1475633583000.0,19828398
1738473,Nashville,"Nashville, Tennessee",1461287430000.0,36.11,-86.78,oh_me,TN,1493947221000.0,19828398
215533801,Nashville,,1477346399000.0,36.16,-86.79,Oksana,TN,1498829688000.0,19828398
38067452,Franklin,,1497887855000.0,35.92,-86.89,olga sundstrom,TN,1500130248000.0,19828398
223972699,Nashville,,1489818199000.0,36.11,-86.78,Olia,TN,1489818199000.0,19828398
234168251,Franklin,,1502888552000.0,35.93,-86.81,Olivia Oetjens,TN,1502888552000.0,19828398
125212422,Nashville,Hot Springs,1471491725000.0,36.18,-86.74,Olympia Pakis,TN,1471491725000.0,19828398
210498485,Nashville,,,36.17,-86.78,,TN,,19828398
228916474,Nashville,,1496486416000.0,36.15,-86.86,Osama Alhammad,TN,1496486416000.0,19828398
223967699,Nashville,,1489810322000.0,36.17,-86.78,OSCAR,TN,1491714284000.0,19828398
191466325,Nashville,,1507468664000.0,36.17,-86.78,Oscar,TN,1507468664000.0,19828398
208228352,Nashville,,1468446372000.0,36.17,-86.78,Pan Zhang,TN,1471794263000.0,19828398
207065875,Nashville,Nashville,1468446372000.0,36.17,-86.78,Patrick Adrianus,TN,1465862362000.0,19828398
230846288,Thompsons Station,,1498885695000.0,35.8,-86.9,Patrick Newsom,TN,1498885695000.0,19828398
194728751,Nashville,,1460669901000.0,36.08,-86.72,Paul,TN,1476154863000.0,19828398
229380747,Nashville,,1497052438000.0,36.17,-86.78,Paula Andrade,TN,1507775319000.0,19828398
205118866,Antioch,,1463217838000.0,36.04,-86.64,Phillip Lavallet,TN,1463217838000.0,19828398
191314948,Nashville,,1489966888000.0,36.14,-86.8,Ping,TN,1505050050000.0,19828398
4278530,Nashville,,1496615459000.0,36.17,-86.72,Pratik,TN,1506280358000.0,19828398
231983954,Nashville,,1500256965000.0,36.08,-86.72,Rafael Jimenez,TN,1500256965000.0,19828398
226635416,Nashville,,1493493194000.0,36.06,-86.96,rafiq,TN,1493493194000.0,19828398
216579537,Nashville,,1500146378000.0,36.06,-86.96,Raja Almutairi,TN,1500146378000.0,19828398
224563017,Nashville,,1490637455000.0,36.08,-86.72,Ravi Teja,TN,1490637455000.0,19828398
216507826,Nashville,,1478885508000.0,36.16,-86.79,Raziel,TN,1497992635000.0,19828398
220226100,Hendersonville,,,36.35,-86.6,,TN,,19828398
43332952,Nashville,Nashville,1463370323000.0,36.17,-86.78,Rene'e,TN,1497361335000.0,19828398
215265063,Nashville,,1476937212000.0,36.07,-86.73,Ricky Chan,TN,1490124003000.0,19828398
233161849,Nashville,,1502843104000.0,36.15,-86.81,Rina,TN,1508639212000.0,19828398
238107895,Nashville,,1507148511000.0,36.18,-86.81,Ritu Verma,TN,1507148511000.0,19828398
183228859,Dallas,,1462823775000.0,32.79,-96.8,Rizwn s,TX,1462823775000.0,19828398
215302362,Nashville,,1476996214000.0,36.09,-86.82,RK From,TN,1476996214000.0,19828398
224440831,Nashville,,1490466652000.0,36.14,-86.74,Robert,TN,1490466652000.0,19828398
188003894,Nashville,,1479490193000.0,36.18,-86.81,Robert Crutcher,TN,1479490193000.0,19828398
235639164,Nashville,,1504547217000.0,36.17,-86.78,Robert Usieto,TN,1504547217000.0,19828398
222955154,Nashville,,1488383692000.0,36.18,-86.74,Roberto Bevenuto,TN,1490879296000.0,19828398
234800905,Nashville,,1503592791000.0,36.17,-86.78,Roger Reyes,TN,1503592791000.0,19828398
209395248,Nashville,,1468997169000.0,36.17,-86.78,Rollers,TN,1468997169000.0,19828398
216860398,Nashville,,1479422731000.0,36.1,-86.66,Rose Gibson,TN,1479422731000.0,19828398
27465332,Nashville,Nashville,1460400355000.0,36.16,-86.79,Ruben Adery,TN,1508799963000.0,19828398
223738717,Brentwood,,1498828223000.0,36.0,-86.79,Ruby MBA Professional,TN,1500040356000.0,19828398
216641290,Hopkinsville,,1479090275000.0,36.87,-87.48,Rushabh Patel,KY,1479090275000.0,19828398
218287357,Nashville,,1498262051000.0,36.11,-86.78,Ruslan Mardugalliamov,TN,1503356938000.0,19828398
220450179,Seattle,,1485063524000.0,47.61,-122.33,Sabit,WA,1485063524000.0,19828398
212067480,Nashville,,1472706996000.0,36.12,-86.91,saeed,TN,1496602594000.0,19828398
225769272,Nashville,,1492329787000.0,36.15,-86.86,Saeed Alzahrani,TN,1492329787000.0,19828398
201665615,Nashville,,1480642519000.0,36.11,-86.78,Sam,TN,1503986419000.0,19828398
217230236,Nashville,,1480042361000.0,36.17,-86.78,Samuel Baswell,TN,1480042361000.0,19828398
221128997,Nashville,,1485912548000.0,36.17,-86.78,Sandeep Reddy,TN,1503162660000.0,19828398
233699840,Nashville,,1502333449000.0,36.07,-86.73,Sara,TN,1502333449000.0,19828398
187751956,Nashville,,1484430072000.0,36.17,-86.78,Sara Kathryn,TN,1484430072000.0,19828398
214590028,Nashville,,1475954918000.0,36.18,-86.81,Sarai Corea,TN,1475954918000.0,19828398
132696942,Nashville,,1475182136000.0,36.14,-86.74,Sarkaut Taro,TN,1494794179000.0,19828398
232320201,Nashville,,1500689425000.0,36.17,-86.78,Saul H,TN,1500689425000.0,19828398
234732665,Fort Campbell,,1503514637000.0,36.65,-87.46,Sean Ferry,KY,1503514637000.0,19828398
217207377,Nashville,,1486867381000.0,36.17,-86.78,Senen Yrad Marcano Gonzalez,TN,1486867381000.0,19828398
235541488,Nashville,,1504444969000.0,36.07,-86.73,Sergio Bello,TN,1504444969000.0,19828398
189225336,Nashville,Ocotlan,1478013416000.0,36.08,-86.72,Sergio Carrillo,TN,1508277473000.0,19828398
216374980,Nashville,,1478652762000.0,36.15,-86.79,Shannon Lutes,TN,1478652762000.0,19828398
234675643,Nashville,,1503449728000.0,36.13,-86.8,Shantal Francis,TN,1503809960000.0,19828398
218643313,Nashville,,1482636340000.0,36.15,-86.79,Sharon J,TN,1482636340000.0,19828398
210735674,Hermitage,,1470846996000.0,36.19,-86.6,Shelby Buttrey,TN,1470931420000.0,19828398
215718865,Murfreesboro,,1477627104000.0,35.78,-86.33,shin_matsuda,TN,1477627104000.0,19828398
196075172,Nashville,,1462759470000.0,36.09,-86.82,Shirley,TN,1498250838000.0,19828398
218915370,Nashville,,1483131704000.0,36.17,-86.78,Sho Minamide,TN,1484533819000.0,19828398
188228226,Nashville,,1460772824000.0,36.13,-86.8,Shohreh ,TN,1508274497000.0,19828398
206865240,Antioch,,1468446372000.0,36.17,-86.88,shweta ,TN,1487286368000.0,19828398
234954667,Nashville,,1503776437000.0,36.14,-86.74,Simina Moldovan,TN,1503776437000.0,19828398
187842110,Chandler,Nashville,1468446372000.0,33.31,-111.92,Simon,AZ,1492526336000.0,19828398
204738665,Gallatin,,1462678801000.0,36.39,-86.45,Sonia Lim,TN,1463362027000.0,19828398
204296662,Gallatin,,1462051143000.0,36.39,-86.45,Sonia Lim,TN,1497802653000.0,19828398
185984390,Mount Juliet,Mount Juliet,1472595657000.0,36.22,-86.52,Sosciore,TN,1474862357000.0,19828398
223653322,Nashville,,1489369810000.0,36.17,-86.78,Southerns Seven,TN,1489369810000.0,19828398
213774160,Nashville,,1474942934000.0,36.17,-86.78,Stacy Jablonoski,TN,1474942934000.0,19828398
234719216,Nashville,,1503503441000.0,36.18,-86.74,Stella Hu,TN,1503590122000.0,19828398
208371858,Mount Juliet,,1468446372000.0,36.21,-86.52,Stephanie,TN,1468713655000.0,19828398
157814872,Nashville,,1475125769000.0,36.17,-86.78,Sultan Alanazi,TN,1507702530000.0,19828398
226318843,Murfreesboro,,1493066442000.0,35.87,-86.34,Sumeet,TN,1493066442000.0,19828398
234205473,Nashville,,1502925044000.0,36.16,-86.79,Sunha Ryu,TN,1508334046000.0,19828398
204524586,Nashville,,1462366429000.0,36.11,-86.86,Svetlana Eden,TN,1463400657000.0,19828398
191202867,Franklin,,1488745205000.0,35.93,-86.81,swati bhandaru,TN,1488745205000.0,19828398
106423822,Nashville,,1469488309000.0,36.11,-86.86,Sylvia Birriel,TN,1469488309000.0,19828398
224080380,Murfreesboro,,1489971262000.0,35.87,-86.34,T Beard,TN,1489971262000.0,19828398
185430439,Nashville,,1471496537000.0,36.17,-86.78,T.K,TN,1481674319000.0,19828398
187158005,Fort Campbell,,1505248433000.0,36.65,-87.46,Taimalelagi Pouvi,KY,1505248433000.0,19828398
238025774,Murfreesboro,,1507059679000.0,35.85,-86.36,Taketoshi Sato,TN,1507867699000.0,19828398
210520916,Antioch,,1470534559000.0,36.04,-86.64,Taku Kataura,TN,1470534559000.0,19828398
199212241,Franklin,,1461351941000.0,35.93,-86.81,Tania,TN,1483992735000.0,19828398
217923948,Nashville,,1481242749000.0,36.13,-86.67,Tanya,TN,1481242749000.0,19828398
222065087,Nashville,,1487134740000.0,36.14,-86.74,Tarekegn Sisay,TN,1487134740000.0,19828398
210856717,Nashville,,1471014561000.0,36.17,-86.78,Tatsuya Minamide,TN,1493333632000.0,19828398
227861075,Nashville,,1496241464000.0,36.08,-86.72,Taylor M.,TN,1496241464000.0,19828398
209662667,Nashville,,1469364791000.0,36.09,-86.82,Taynan Cattozatto,TN,1506622042000.0,19828398
201489944,Nashville,,1503845252000.0,36.17,-86.78,Thais   Mangetti Gonçalves,TN,1505926835000.0,19828398
203159893,Hendersonville,,1460766783000.0,36.32,-86.61,Thanyia,TN,1460766783000.0,19828398
227165725,Ridgetop,,1494216932000.0,36.4,-86.77,Thao Tran,TN,1507900967000.0,19828398
223473959,Nashville,,1489117329000.0,36.14,-86.8,Theo Ndayisaba,TN,1496004089000.0,19828398
209128086,Franklin,,1468665573000.0,35.92,-86.89,Thibisay Ruiz ,TN,1468665573000.0,19828398
52130822,Atlanta,,1471389530000.0,33.79,-84.35,Thu,GA,1471389530000.0,19828398
214781159,Nashville,,1476238573000.0,36.17,-86.78,Tifdany,TN,1476238573000.0,19828398
216045840,Nashville,,1478138863000.0,36.16,-86.79,Tina Sun,TN,1478138863000.0,19828398
202700743,Nashville,,1499393924000.0,36.17,-86.78,Tina Wu,TN,1499393924000.0,19828398
223973544,Nashville,,1489820210000.0,36.15,-86.8,Tom Sanchez,TN,1489820210000.0,19828398
207339870,Nashville,,1493587141000.0,36.17,-86.78,Tomoki Akiyama,TN,1505627354000.0,19828398
216382264,Nashville,,1478666730000.0,36.16,-86.66,Tomomi Hogaku,TN,1480801394000.0,19828398
233377195,Nashville,,1501979062000.0,36.18,-86.74,TOSHIHIDE OGURA,TN,1508491555000.0,19828398
227382202,Nashville,,1494509318000.0,36.08,-86.72,Travis Green,TN,1494509318000.0,19828398
216962893,Murfreesboro,,1479589840000.0,35.85,-86.36,Ukela Alred,TN,1479589840000.0,19828398
224584454,Lebanon,,1490659774000.0,36.15,-86.32,Urmila Patel,TN,1499692301000.0,19828398
201930849,Nashville,,1484451923000.0,36.17,-86.77,Vane Quiroz,TN,1484451923000.0,19828398
226917309,Hendersonville,,1493904029000.0,36.32,-86.61,Vanesa Neria,TN,1493904029000.0,19828398
229924947,Antioch,,1497753637000.0,36.04,-86.64,Vanesa Quiroz,TN,1497753637000.0,19828398
239068981,Nashville,,1508211859000.0,36.15,-86.81,Veronica Restrepo,TN,1508211859000.0,19828398
198849959,Nashville,,1483463904000.0,36.13,-86.8,Victor Zavala,TN,1483463904000.0,19828398
112579542,Nashville,Nashville ,1484697402000.0,36.15,-86.86,Victoria ,TN,1487867381000.0,19828398
215050917,Nashville,,1476642688000.0,36.11,-86.78,Vincenzeno,TN,1476642688000.0,19828398
194180707,Franklin,,1494882799000.0,35.94,-86.83,Vinny,TN,1500182458000.0,19828398
209891806,Nashville,,1489077159000.0,36.17,-86.78,Will T.,TN,1492444865000.0,19828398
230662725,Franklin,,1498693290000.0,35.91,-86.88,Yamilet Delgado,TN,1498693290000.0,19828398
217452507,Nashville,,1480438250000.0,36.17,-86.78,Yanet Tenay,TN,1487874178000.0,19828398
238562122,Nashville,,1507637543000.0,36.15,-86.86,Yanina Bonetto,TN,1507637543000.0,19828398
238562101,Nashville,,1508341070000.0,36.16,-86.79,Yanina Bonetto,TN,1508341070000.0,19828398
208764936,Nashville,,1468187437000.0,36.17,-86.78,Yasu,TN,1508206771000.0,19828398
144983262,Nashville,,1468446372000.0,36.17,-86.78,Yep,TN,1465610813000.0,19828398
237348198,Nashville,,1506305296000.0,36.13,-86.8,Yijing Chen,TN,1506305296000.0,19828398
237228573,Brentwood,,1506173068000.0,36.0,-86.79,YILDIRIM YILMAZ,TN,1506173068000.0,19828398
217757720,Alexandria,,1480963931000.0,38.76,-77.15,yonatan molla,VA,1482911194000.0,19828398
235971038,Nashville,,1504884727000.0,36.16,-86.79,YONG,TN,1508531931000.0,19828398
230062074,Franklin,south korea,1498033355000.0,35.93,-86.81,yongchan lee,TN,1499042569000.0,19828398
210921083,Nashville,,1471109583000.0,36.16,-86.79,You Zhou,TN,1496613960000.0,19828398
222627186,Nashville,,1489126451000.0,36.17,-86.79,Younggi Lee,TN,1494998945000.0,19828398
143979532,Nashville,,1478127564000.0,36.17,-86.78,Yousef Almutairi,TN,1492229990000.0,19828398
208742214,Nashville,,1468174744000.0,36.17,-86.78,Yuko,TN,1484588395000.0,19828398
205816960,Nashville,,1464148211000.0,36.16,-86.79,Yulia Romanchuk,TN,1477327521000.0,19828398
221454263,Antioch,,1486320339000.0,36.04,-86.64,Yusuf Yusuf,TN,1486320339000.0,19828398
203730395,Old Hickory,,1461199193000.0,36.25,-86.63,Zach1987,TN,1461199193000.0,19828398
237934433,Nashville,,1506961506000.0,36.16,-86.79,ZOE_G,TN,1506961506000.0,19828398
226873077,Nashville,,1493815601000.0,36.16,-86.66,???,TN,1495248147000.0,19828398
