id,city,hometown,joined,lat,lon,name,state,visited,group_id
183964621,Nashville,,1473552451000,36.08,-86.93,A.J.,TN,1475967734000,19847832
223343566,Antioch,Nashville,1488928845000,36.04,-86.64,Aaron Banks,TN,1488928845000,19847832
214282996,Franklin,,1482205695000,35.92,-86.89,Abby Kinney,TN,1482205695000,19847832
209893741,Nashville,,1469653994000,36.14,-86.74,Abigail Hertz,TN,1484696793000,19847832
14174731,Nashville,,1477542272000,36.17,-86.78,Adam,TN,1479015362000,19847832
223540451,Nashville,,1489211490000,36.13,-86.8,Alex Hopkins,TN,1507398003000,19847832
116343942,Nashville,,1500513480000,36.13,-86.82,Alex Sommer,TN,1501635228000,19847832
215111481,Nashville,,1476724441000,36.16,-86.79,Alexander Brandt,TN,1476724441000,19847832
221986791,Nashville,,1487027759000,36.08,-86.72,Alisa Gossett,TN,1487027759000,19847832
211286424,Spring Hill,,1471631108000,35.76,-86.88,Alix ,TN,1471659101000,19847832
192419782,Nashville,,1461111478000,36.18,-86.81,Aljoe,TN,1503523949000,19847832
189716705,Nashville,,1465139033000,36.17,-86.78,Allison Verre,TN,1472327987000,19847832
237320832,Nashville,,1506278655000,36.17,-86.77,Ally Hummel,TN,1506278655000,19847832
7481095,Nashville,Ponte Vedra,1504006292000,36.11,-86.86,Allyson,TN,1504387670000,19847832
195162670,Gallatin,Crystal Lake,1494059045000,36.39,-86.45,Alvaro Morales,TN,1508099417000,19847832
216574839,Nashville,,1478988874000,36.17,-86.78,Alyssa Stambaugh,TN,1478988874000,19847832
108780202,Nashville,,1466455262000,36.17,-86.78,Ambrea,TN,1488323364000,19847832
216063645,Gallatin,,1478205385000,36.39,-86.45,Amy,TN,1508017005000,19847832
81052872,Nashville,Nashville,1460835600000,36.17,-86.78,Amy,TN,1508201609000,19847832
12992627,Hendersonville,,1475957110000,36.3,-86.62,Amy Landrus Edwards,TN,1476565254000,19847832
221471291,Nashville,,1486340025000,36.17,-86.78,Amy Masley,TN,1503200346000,19847832
228205967,Nashville,,1495565378000,36.18,-86.81,Andrea Law,TN,1508376974000,19847832
160845252,Murfreesboro,,1502215370000,35.78,-86.33,Andrea Moore,TN,1502215370000,19847832
224775136,Nashville,,1491147192000,36.11,-86.86,Andrew ,TN,1491162489000,19847832
10959098,Virginia Beach,Virginia Beach,1501024716000,36.8,-76.18,Andy,VA,1503873496000,19847832
214325046,Nashville,,1475600138000,36.18,-86.81,Angela Loomis,TN,1478101357000,19847832
204991667,Old Hickory,,1463039650000,36.25,-86.63,Angela Robles,TN,1463039650000,19847832
196816107,Murfreesboro,,1473951049000,35.82,-86.45,Ann,TN,1473951049000,19847832
99924752,Nashville,,1494889595000,36.17,-86.78,Ann Caudill,TN,1498870737000,19847832
205852066,Nashville,,1477263991000,36.17,-86.72,Annette,TN,1507243500000,19847832
57507522,Nashville,Chicago,1475035589000,36.15,-86.87,Annie,TN,1508115875000,19847832
234886740,Nashville,,1503694173000,36.1,-86.66,Annie Davis,TN,1503694173000,19847832
212574672,Nashville,,1473390337000,36.17,-86.78,Ashley,TN,1481686800000,19847832
220777396,Hermitage,,1485469285000,36.19,-86.6,Ashley Ariss,TN,1485469285000,19847832
206299397,Nashville,,1464835074000,36.14,-86.74,Ashley B,TN,1464835074000,19847832
188099142,Nashville,,1473807434000,36.17,-86.72,Ashley Carson Smith,TN,1480773958000,19847832
219053596,Nashville,,1491141000000,36.17,-86.78,Ashley Joritz,TN,1491141000000,19847832
225444846,Brentwood,,1491969350000,36.0,-86.79,Austin ,TN,1492442212000,19847832
162713562,Nashville,"Chicago, IL",1475894672000,36.17,-86.78,Barbara,TN,1503860836000,19847832
220575220,Nashville,,1485364269000,36.17,-86.78,bear shepard,TN,1485364269000,19847832
235043475,Nashville,,1503878934000,36.21,-86.72,Becky Melvin,TN,1505776708000,19847832
238658017,Nashville,,1507740045000,36.17,-86.77,Ben Zoeller,TN,1507740045000,19847832
6967585,Nashville,North Andover,1505053527000,36.17,-86.78,BETH MARTENS,TN,1505053527000,19847832
227486384,Nashville,,1494651040000,36.17,-86.78,Beth Paz,TN,1494651040000,19847832
206832061,Nashville,,1465542370000,36.17,-86.78,Blayze,TN,1465542370000,19847832
238259395,Nashville,,1507309680000,36.17,-86.78,Brandon Aquino,TN,1507309680000,19847832
62418442,Nashville,,1472221444000,36.16,-86.79,Brenda Dillard,TN,1472221444000,19847832
221690308,Nashville,,1492223315000,36.14,-86.8,Brenda Faye Merriweather,TN,1506991644000,19847832
236672401,Nashville,,1505654471000,36.17,-86.78,Brendan,TN,1508173811000,19847832
231609081,Nashville,,1499803931000,36.15,-86.86,Brian York,TN,1499803931000,19847832
219868774,Nashville,,1484332945000,36.17,-86.78,Brianna Nesbitt,TN,1489801735000,19847832
223858171,Nashville,,1489655439000,36.16,-86.79,Brijesh Patel,TN,1489655439000,19847832
194885478,Nashville,,1472931332000,36.08,-86.72,Brittany,TN,1508005547000,19847832
183734253,Nashville,,1503947461000,36.18,-86.74,Brittany,TN,1503947461000,19847832
234521312,Nashville,,1503275533000,36.15,-86.86,Brittni Talley,TN,1503431704000,19847832
213919006,Chicago,Chicago,1478041981000,41.88,-87.62,Brock Zimmermann,IL,1480444366000,19847832
53571572,Mount Juliet,,1493439294000,36.21,-86.52,Bryan baker,TN,1508175663000,19847832
194580322,Nashville,Chicago,1464658055000,36.11,-86.78,Candace,TN,1479594092000,19847832
230532162,Nashville,,1500938023000,36.11,-86.78,Candy Aria,TN,1506184620000,19847832
218345372,Mount Juliet,,1482029918000,36.21,-86.52,Cara Johnson,TN,1482029918000,19847832
219563781,Nashville,,1500477600000,36.13,-86.8,Carleigh Rae,TN,1502998941000,19847832
215365291,Nashville,,1477092735000,36.17,-86.78,Carole,TN,1478974409000,19847832
233701730,Nashville,,1502334946000,36.15,-86.81,Caroline Thiriét,TN,1502334946000,19847832
6780050,Nashville,,1480048366000,36.09,-86.82,Carolyn,TN,1490105496000,19847832
226365310,Nashville,,1493128160000,36.09,-86.82,Carolyn Horne,TN,1494938996000,19847832
226345625,Smyrna,,1493098762000,35.97,-86.51,Catherine Orman,TN,1493098762000,19847832
8333233,Franklin,Chicago,1480991275000,35.93,-86.81,Cathy,TN,1506559533000,19847832
229546184,Nashville,,1497263716000,36.17,-86.78,Chaurette,TN,1507058811000,19847832
208622202,Nashville,,1468000992000,36.15,-86.86,Chenille Bonin,TN,1468000992000,19847832
230628597,Hermitage,,1498610971000,36.19,-86.6,Chris,TN,1498610971000,19847832
218943823,Springfield,,1483149443000,36.52,-86.87,Chris Fox,TN,1494072562000,19847832
228574593,Nashville,,1500152231000,36.17,-86.78,Chris garvey,TN,1503333625000,19847832
210501712,Hermitage,,1470510360000,36.19,-86.6,chris Jamison,TN,1475694760000,19847832
230416412,Mount Juliet,,1498354187000,36.21,-86.52,Christian Beere,TN,1498354187000,19847832
212557807,Gallatin,,1473371686000,36.39,-86.45,Christina U,TN,1507418832000,19847832
87182382,Chicago,,1480290147000,41.88,-87.62,Christine Little,IL,1480297255000,19847832
203785169,Murfreesboro,,1461281305000,35.82,-86.45,Claude Armstrong,TN,1461281305000,19847832
217077405,Manchester,,1479769870000,35.47,-86.08,Clint Page,TN,1479769870000,19847832
73422372,Nashville,,1470733990000,36.08,-86.72,Cole Houchens,TN,1470733990000,19847832
215367772,Nashville,,1477096329000,36.13,-86.8,Colin Klein,TN,1477504328000,19847832
191600216,Nashville,,1476140157000,36.16,-86.8,Colleen Roberts,TN,1505498052000,19847832
204894835,Nashville,,1468269563000,36.16,-86.79,Corey Blaske,TN,1468269563000,19847832
213701255,Nashville,"Round Lake, IL",1474852589000,36.17,-86.78,Corryn M,TN,1474852589000,19847832
229210557,Nashville,,1501180717000,36.21,-86.72,Cory Scheffler,TN,1501180717000,19847832
204941211,Nashville,,1462971693000,36.17,-86.78,Courtney Pitsinger,TN,1462971693000,19847832
212689305,Nashville,,1473548233000,36.17,-86.78,CraigListComedy,TN,1473548233000,19847832
131017252,Nashville,"Chicago, IL",1491012867000,36.17,-86.78,Crystal,TN,1491012867000,19847832
34090932,Hendersonville,"Hendersonville, TN",1481005480000,36.32,-86.61,Curtiss Messer,TN,1485561523000,19847832
13054878,Nashville,Nashville,1503754373000,36.16,-86.79,Cyanne,TN,1508023784000,19847832
190494077,Chicago,,1498862645000,41.85,-87.72,Daisy,IL,1498862645000,19847832
60857612,Nashville,Nashville,1476498520000,36.18,-86.81,Dan,TN,1486227798000,19847832
223031732,Nashville,,1488490800000,36.11,-86.86,Dan Exline,TN,1503180629000,19847832
230018461,Nashville,,1497889489000,36.14,-86.8,Dan Shoman,TN,1502979067000,19847832
208322237,Chicago,,1477929502000,41.88,-87.62,Dana,IL,1492123569000,19847832
223154090,Clarksville,,1488662656000,36.53,-87.35,Dana Ciavarella,TN,1490750436000,19847832
221336770,Russellville,,1486165496000,36.83,-86.92,Daniel Pawley,KY,1486165496000,19847832
54215962,Nashville,"Buffalo Grove, IL",1474337999000,36.17,-86.78,Danielle,TN,1492301986000,19847832
216255211,Nashville,,1478469548000,36.14,-86.74,Danny Klema,TN,1479059549000,19847832
228344388,Thompsons Station,,1495742903000,35.8,-86.9,Dave Hansen,TN,1495742903000,19847832
205663033,Clarksville,,1463946051000,36.53,-87.35,David Host,TN,1466709517000,19847832
223291680,Shelbyville,,1488857119000,35.48,-86.47,David Neal,TN,1490666740000,19847832
216092618,Murfreesboro,,1478213450000,35.85,-86.36,David Palomeque,TN,1479012389000,19847832
217777187,Nashville,,1481664796000,36.06,-86.96,David Piller,TN,1481664796000,19847832
144256692,Nashville,,1498829342000,36.15,-86.86,David VanWie,TN,1498829342000,19847832
236682279,Nashville,,1505590527000,36.17,-86.78,Debbie Twohey Linder,TN,1505590527000,19847832
208012192,Nashville,,1467162435000,36.17,-86.78,Dianaa Cervantes,TN,1467162435000,19847832
234029095,Nashville,,1502727283000,36.17,-86.78,Dimitra Apostolopoulos,TN,1507259595000,19847832
65242542,Naperville,,1504361700000,41.74,-88.12,Doc O'Connor,IL,1506438020000,19847832
222588272,Franklin,,1487863727000,35.92,-86.89,Don Norsworthy,TN,1494910107000,19847832
213198329,Nashville,,1475200502000,36.16,-86.79,Donna ,TN,1477390892000,19847832
220882987,Hopkinsville,,1485614822000,36.87,-87.48,Dorice Only,KY,1485614822000,19847832
151601562,Murfreesboro,,1470417946000,35.82,-86.45,Dorothy,TN,1508620977000,19847832
86790902,Franklin,,1491093449000,35.93,-86.81,Doug Baron,TN,1492020053000,19847832
182570117,Antioch,,1491182778000,36.17,-86.88,doyi,TN,1492020776000,19847832
218468854,Murfreesboro,,1482267306000,35.78,-86.33,Dusti Dodd,TN,1482267306000,19847832
212246335,Nashville,,1472959862000,36.17,-86.78,Dustin Riggle,TN,1472959862000,19847832
215195507,Nashville,,1476835441000,36.1,-86.66,Dvonte Wallace,TN,1476835441000,19847832
216121771,Nashville,,1478265489000,36.17,-86.78,Dylan Lauer,TN,1478265489000,19847832
188360971,Nashville,Nashville,1476205803000,36.16,-86.79,Eliot,TN,1480465160000,19847832
221042734,Nashville,,1485808866000,36.06,-86.96,Elissa Siekmann,TN,1485808866000,19847832
205796911,Smyrna,,1464123601000,35.97,-86.51,elizabeth corcoran,TN,1464123601000,19847832
231842853,Nashville,,1500078611000,36.17,-86.78,ellemnop,TN,1500078611000,19847832
94029142,Nashville,,1467835634000,36.17,-86.78,Ellen,TN,1478270385000,19847832
203874423,Nashville,,1461422116000,36.17,-86.72,Emery98,TN,1483407692000,19847832
198797359,Nashville,,1499434158000,36.09,-86.82,Erica Dee,TN,1499434158000,19847832
190526979,Nashville,Chicago,1475618632000,36.18,-86.81,Erica F.,TN,1508017260000,19847832
11872247,Franklin,,1483559536000,35.93,-86.81,Erica Reed,TN,1483727607000,19847832
208108581,Mount Juliet,,1467300751000,36.21,-86.52,Erik Bock,TN,1497206985000,19847832
217071685,Nashville,,1479762628000,36.07,-86.78,Erika,TN,1479818335000,19847832
209624517,Nashville,,1469310124000,36.06,-86.96,Ethan,TN,1469310124000,19847832
200608653,Nashville,Nashville,1461266850000,36.17,-86.78,fancywink,TN,1461360671000,19847832
239322609,Nashville,,1508509005000,36.17,-86.78,Gay Levine Eisen,TN,1508509005000,19847832
74272472,Mount Juliet,,1476544023000,36.21,-86.52,Gerry,TN,1508009828000,19847832
230896003,Goodlettsville,,1498948948000,36.32,-86.72,Ginger Mack,TN,1498948948000,19847832
211366777,Nashville,,1471789624000,36.13,-86.8,H2,TN,1477245042000,19847832
130567182,Hermitage,"Saint Charles, IL",1476915627000,36.19,-86.6,Ian,TN,1477316326000,19847832
230007540,Franklin,,1497876180000,35.92,-86.89,J Lyle,TN,1497876180000,19847832
234829251,Nashville,,1503621726000,36.17,-86.78,J.T.,TN,1503621726000,19847832
222493343,Spring Hill,,1505445087000,35.77,-86.91,Jacob Kurowski,TN,1505445087000,19847832
182631962,Nashville,,1503621345000,36.16,-86.79,Jaime Spinner,TN,1503621345000,19847832
206910892,Johnstown,,1465658720000,40.34,-104.96,Jake Tomlinson,CO,1465658720000,19847832
222899804,Nashville,,1488303438000,36.17,-86.78,Jaquelin,TN,1488303438000,19847832
219530248,Mount Juliet,,1506853069000,36.22,-86.52,Jason Bockman,TN,1506853069000,19847832
213579548,Nashville,,1474696402000,36.17,-86.78,Jazmine Orozco,TN,1503771074000,19847832
59243932,Brentwood,,1477186364000,36.0,-86.79,Jeff Lowe,TN,1504781328000,19847832
219023549,Murfreesboro,,1483373014000,35.78,-86.33,Jeff shales,TN,1489513908000,19847832
222977119,Louisville,Louisville,1488409423000,38.24,-85.54,Jefferson Moore,KY,1503924523000,19847832
218346515,Gallatin,,1482031774000,36.39,-86.45,Jenita Hughes,TN,1482767200000,19847832
216915832,Hopkinsville,,1479512867000,36.87,-87.49,Jennifer Roman,KY,1481995143000,19847832
219453009,Nashville,,1483809916000,36.17,-86.78,Jenny Kidder,TN,1497437998000,19847832
227785419,Lebanon,,1495046456000,36.21,-86.31,Jenny Ware,TN,1495046456000,19847832
33659822,Franklin,"Chicago, IL",1471625669000,35.92,-86.89,Jessica,TN,1491036424000,19847832
224698415,Nashville,,1490816196000,36.14,-86.81,Jessica Matos,TN,1496717733000,19847832
59190462,Nolensville,,1476557110000,35.94,-86.67,Joanne Beeh Hyatt,TN,1494557708000,19847832
6770985,Nashville,Nashville,1490450369000,36.16,-86.79,Joe,TN,1508025085000,19847832
207030903,Nashville,,1465822781000,36.17,-86.78,Joe Engstrom,TN,1465822781000,19847832
218074151,Hermitage,,1481514705000,36.19,-86.6,Joesph Orr,TN,1507945778000,19847832
209775846,Nashville,,1469499431000,36.16,-86.79,Joey P,TN,1477363935000,19847832
233309762,Hermitage,,1501896291000,36.19,-86.6,John,TN,1501896291000,19847832
224701872,Nashville,,1490820050000,36.17,-86.78,John McEachin III,TN,1490820050000,19847832
228401964,Hendersonville,,1495822900000,36.32,-86.61,jolie,TN,1505079690000,19847832
215808821,Nashville,,1477775310000,36.11,-86.78,Jon Eisen,TN,1477775310000,19847832
212809286,Nashville,,1473705804000,36.17,-86.78,Jordan Speller,TN,1497563853000,19847832
220818716,Hendersonville,Hendersonville,1485530273000,36.32,-86.61,Joseph,TN,1507666507000,19847832
211055674,Fort Campbell,,1471298809000,36.65,-87.46,Joseph Brown,KY,1471298809000,19847832
211684830,Nashville,,1472182256000,36.13,-86.8,Josh Bueno,TN,1472280193000,19847832
221684303,College Grove,,1486610259000,35.77,-86.71,Josh Horchem,TN,1486610259000,19847832
208777243,Nashville,,1468201492000,36.11,-86.86,Joshua Scott Centeno,TN,1468255761000,19847832
238009907,Nashville,,1507043396000,36.17,-86.78,Juan Tejeda,TN,1507043396000,19847832
7907007,Nashville,,1476647175000,36.17,-86.79,Julia Zay,TN,1491173535000,19847832
8335846,Nashville,Chicago,1484181537000,36.15,-86.86,Julie,TN,1484417150000,19847832
190556655,Nashville,Nashville,1495568454000,36.13,-86.8,Kaila W,TN,1498769951000,19847832
223191895,Nashville,,1488734726000,36.16,-86.78,Kaitlyn Elsen,TN,1492527376000,19847832
230968437,Nashville,,1499039256000,36.17,-86.78,Kara Phillip,TN,1502999937000,19847832
196515656,Nashville,Nashville,1485814308000,36.15,-86.86,Karla Dayhoff,TN,1486332721000,19847832
206747330,Nashville,,1465426584000,36.06,-86.96,Karmendi Martin,TN,1465426584000,19847832
184326511,Chicago,,1499015346000,41.9,-87.64,Kate,IL,1499015346000,19847832
220716726,Nashville,,1505070392000,36.14,-86.74,Katelyn,TN,1505070392000,19847832
38269332,Nashville,Nashville,1461554864000,36.16,-86.79,Katey,TN,1478577949000,19847832
209945213,Nashville,,1469729025000,36.06,-86.96,Katie,TN,1474688414000,19847832
213265381,Nashville,,1474295544000,36.17,-86.78,Katie Connolly,TN,1506267013000,19847832
230524526,Nashville,,1498493367000,36.17,-86.78,Katie Register,TN,1498493367000,19847832
219079110,Nashville,,1483411361000,36.08,-86.72,Kayte Spiller,TN,1483411361000,19847832
56997982,Nashville,"Springfield, IL",1478844233000,36.08,-86.72,Keegan Singh,TN,1484438302000,19847832
101997652,Nashville,,1462091205000,36.17,-86.79,Kelly,TN,1464015408000,19847832
212939846,Nashville,,1473874545000,36.17,-86.78,Kelly Cornelius,TN,1477402641000,19847832
231122104,Nashville,,1499225273000,36.17,-86.78,Kelly L,TN,1499317764000,19847832
232746216,Nashville,,1501193591000,36.11,-86.78,Kelsey Sorensen,TN,1506991678000,19847832
212671813,Hendersonville,,1473528247000,36.32,-86.61,Kenneth Graver,TN,1477706233000,19847832
204382578,Hendersonville,,1462164893000,36.32,-86.61,Kenny,TN,1462329919000,19847832
216144561,Nashville,,1478550435000,36.17,-86.78,Kenny James,TN,1507032579000,19847832
230412859,Nashville,,1498349880000,36.17,-86.78,Kent,TN,1498349880000,19847832
214644389,Antioch,,1476038778000,36.04,-86.64,Kevin Bergsmith,TN,1476038778000,19847832
212630035,Murfreesboro,"La Grange, IL",1473468045000,35.78,-86.33,Kevin Kooyenga,TN,1491180676000,19847832
235050920,Nashville,,1503887726000,36.21,-86.72,Kevin Meredith,TN,1503887726000,19847832
238906800,Nashville,,1508027740000,36.16,-86.78,Kevin Wojcik,TN,1508027740000,19847832
131177742,Nashville,,1464715401000,36.18,-86.81,Korlin Thomas Harrison ,TN,1464715401000,19847832
207191509,New York,,1466031999000,40.75,-73.99,Kossie Gardner,NY,1466031999000,19847832
156698942,Nashville,"Danville, IL",1473362776000,36.17,-86.78,Kyla,TN,1475847835000,19847832
238350195,Nashville,,1508011116000,36.11,-86.86,Kyle Rawling,TN,1508698471000,19847832
184218072,Nashville,,1467658148000,36.11,-86.86,Kyle Turco,TN,1475248656000,19847832
207612545,La Vergne,,1466616953000,36.01,-86.57,Larry Schulman,TN,1466616953000,19847832
39583642,Nashville,Chicago,1485701808000,36.11,-86.78,Laura,TN,1508097491000,19847832
209712545,Clarksville,"Clarksville, TN",1469420323000,36.53,-87.35,Laura,TN,1469420323000,19847832
215018677,Nashville,,1476588127000,36.08,-86.72,Lauren Fairand,TN,1477926140000,19847832
203604177,Brentwood,,1461022388000,36.0,-86.79,Lauren G,TN,1495542255000,19847832
204200302,Nashville,San Francisco,1499906672000,36.17,-86.78,Lauren MacArthur,TN,1502998132000,19847832
205662434,Nashville,,1464278537000,36.16,-86.79,Lauren Van Solkema,TN,1471182658000,19847832
210349975,Nashville,,1470280415000,36.17,-86.78,Laurie Lee Sisk,TN,1470280415000,19847832
209509640,Nashville,,1469150768000,36.1,-86.66,Lillian O'Hara,TN,1469150768000,19847832
218627441,Nashville,,1482599466000,36.17,-86.78,Lina,TN,1484427208000,19847832
197313876,Nashville,,1490911572000,36.17,-86.78,Linda,TN,1491178338000,19847832
215982121,Nashville,,1478043345000,36.09,-86.82,Lindsay McDermott,TN,1478384877000,19847832
206410330,Mount Juliet,,1464991767000,36.21,-86.52,Lindsey,TN,1464991767000,19847832
215258860,Nashville,,1476928420000,36.22,-86.77,Lisa Koppenhoefer,TN,1507231269000,19847832
233359153,Nashville,,1505605699000,36.17,-86.78,Lora,TN,1507676806000,19847832
208640648,Nashville,,1468023394000,36.15,-86.86,lucas smith,TN,1468023394000,19847832
210232269,Nashville,,1470114683000,36.17,-86.78,Lynn Jackson Conklin,TN,1470114683000,19847832
215233047,Nashville,,1476895345000,36.17,-86.78,M. Green,TN,1476895345000,19847832
215907095,Nashville,,1477933390000,36.17,-86.78,M. Wilson,TN,1488422043000,19847832
208826192,Mount Juliet,,1468265457000,36.22,-86.52,Machaela Anne Sullivan,TN,1468265457000,19847832
237275231,Clarksville,,1506222615000,36.56,-87.35,Mackenzy Goreham,TN,1506222615000,19847832
223885198,Clarksville,,1489693731000,36.53,-87.35,Maddie ,TN,1489693731000,19847832
210245323,Hendersonville,,1470139743000,36.32,-86.61,Maddie,TN,1470139743000,19847832
209899181,Nashville,,1470163861000,36.13,-86.8,Maddie Massey,TN,1470163861000,19847832
187047020,Spring Hill,"Spring Hill, TN",1472582222000,35.76,-86.88,Marie Mastrodonato,TN,1484018985000,19847832
218312101,Nashville,,1481967338000,36.11,-86.78,Marion Denson Smith,TN,1482079492000,19847832
205338225,Nashville,,1463500581000,36.18,-86.74,Mark Andersson,TN,1488661370000,19847832
9294957,Goodlettsville,Goodlettsville,1488646832000,36.33,-86.74,Mark Bell,TN,1488646832000,19847832
221992344,Nashville,,1487033532000,36.15,-86.86,Marlena Waters,TN,1487033532000,19847832
182480764,Nashville,,1477147126000,36.18,-86.74,Mary,TN,1507253063000,19847832
158877562,Chicago,,1496280321000,41.9,-87.67,mary,IL,1496280321000,19847832
215540369,Nashville,,1477355021000,36.06,-86.96,Maryam Lopez,TN,1478203323000,19847832
209701779,Nashville,,1470191611000,36.18,-86.74,Matt Doherty,TN,1470191611000,19847832
211473521,Franklin,,1471894467000,35.92,-86.89,Matt Jalove,TN,1471894467000,19847832
222086921,Nashville,,1487171762000,36.11,-86.78,Matt Miller,TN,1487171762000,19847832
209422296,Nashville,,1469036990000,36.08,-86.72,Matt Pingel,TN,1469036990000,19847832
214709083,Nashville,,1476133593000,36.17,-86.78,Mauricio Pineda,TN,1478289219000,19847832
27536502,Nashville,Nashville,1505010159000,36.15,-86.86,Mayra Cardenas,TN,1507121255000,19847832
203816615,Nashville,,1498694331000,36.18,-86.81,Megan,TN,1508018354000,19847832
214594755,Nashville,,1475960711000,36.17,-86.78,Meghan,TN,1507410801000,19847832
11378002,Nashville,Illinois ,1503267025000,36.17,-86.79,Melinda Plummer,TN,1503267025000,19847832
214245728,Nashville,,1475506769000,36.17,-86.78,Melissa Cross,TN,1475529452000,19847832
230271678,Nashville,,1498174717000,36.17,-86.77,Melissa Gartner,TN,1498174717000,19847832
33325392,Chicago,,1507001858000,41.9,-87.67,Melissa Karlin,IL,1507770713000,19847832
224946584,Nashville,,1491174414000,36.16,-86.79,Melissa Proctor,TN,1491174414000,19847832
190893752,Nashville,,1462978241000,36.17,-86.78,Meredith,TN,1464013523000,19847832
221273336,Clarksville,,1486166588000,36.53,-87.35,Michael,TN,1488772730000,19847832
216054240,Nashville,,1478154999000,36.13,-86.8,Michael Baron,TN,1478154999000,19847832
224996976,Nashville,"Baileyville, IL",1494100733000,36.21,-86.72,Michael S,TN,1508074310000,19847832
214135279,Nashville,,1475360362000,36.16,-86.79,Michael Shapiro,TN,1492023178000,19847832
195293531,Lemont,,1492049614000,41.7,-88.07,Michelle Lynn,IL,1493009986000,19847832
221058442,Nashville,,1485825781000,36.14,-86.74,mike,TN,1491859938000,19847832
87640112,Spring Hill,,1492959054000,35.76,-86.88,Mitch,TN,1500209954000,19847832
236143352,Nashville,,1505070481000,36.11,-86.78,Molly Schatz,TN,1505070481000,19847832
235102174,Nashville,,1503950258000,36.17,-86.78,Morgan Corbett,TN,1507667735000,19847832
120195702,Nashville,"Joliet, IL",1503935505000,36.16,-86.79,Morgan Radzimanowski,TN,1503935505000,19847832
212355057,Chicago,"Chicago, IL",1474340411000,41.88,-87.62,Ms Raye Turner,IL,1492902768000,19847832
225853802,Clarksville,,1492454315000,36.53,-87.35,Ms. Flip,TN,1492454315000,19847832
52539242,Franklin,,1496541756000,35.99,-86.9,nancy stolt,TN,1497710673000,19847832
223993984,Nashville,,1489854035000,36.07,-86.73,Nas Idder,TN,1489854035000,19847832
4389320,Nashville,Charlotte,1484270410000,36.17,-86.78,Nat,TN,1484270410000,19847832
142417362,Nashville,,1469994836000,36.17,-86.78,Natalie,TN,1506620324000,19847832
226245182,Mount Juliet,,1503875790000,36.22,-86.52,Natalie Gibson,TN,1507256656000,19847832
223510403,Nashville,,1489172657000,36.18,-86.74,Nathan Aikins,TN,1489172657000,19847832
229979437,Nashville,,1497832775000,36.15,-86.86,Nawaf Mulafikh,TN,1497832775000,19847832
197901531,Murfreesboro,,1503840740000,35.78,-86.33,Nick,TN,1505655120000,19847832
216022190,Nashville,,1478108778000,36.17,-86.78,Nick Mendelke,TN,1478108778000,19847832
222852990,Smyrna,,1488235851000,35.97,-86.51,Nick Radtke,TN,1488300311000,19847832
197455409,Lebanon,,1468901015000,36.21,-86.31,Nicole Barton,TN,1468901015000,19847832
224562634,Nashville,,1490637218000,36.13,-86.8,Nina Fowler,TN,1490637218000,19847832
237680030,Nashville,,1506666535000,36.14,-86.8,Nirav Patel,TN,1506666535000,19847832
206164260,Brentwood,,1484347614000,36.0,-86.79,Nitin,TN,1487627236000,19847832
233052829,Nashville,,1501588758000,36.17,-86.78,Norm ,TN,1501588758000,19847832
234168251,Franklin,,1502888222000,35.93,-86.81,Olivia Oetjens,TN,1502888222000,19847832
208133578,Nashville,,1467332222000,36.17,-86.78,pantlessgiraffe,TN,1467332222000,19847832
234321236,Nashville,,1503670608000,36.17,-86.72,Patrick Dye,TN,1506100494000,19847832
29546282,Nashville,,1470092300000,36.17,-86.78,Paul Ficken,TN,1470092300000,19847832
207255733,Chicago,,1467238990000,41.81,-87.71,Paul Frieh,IL,1467238990000,19847832
13349077,Hermitage,"Jonesborough, TN",1504467062000,36.19,-86.6,Rachael Haines,TN,1507227574000,19847832
192449206,Nashville,,1480538128000,36.07,-86.73,Rachel,TN,1482176487000,19847832
206078508,New York,,1464538584000,40.75,-73.99,Rachel Fox,NY,1464538584000,19847832
183562772,Sellersburg,,1495337008000,38.4,-85.77,Rachel Shankle,IN,1495337008000,19847832
206087227,Gallatin,,1464549791000,36.39,-86.45,Rachele,TN,1475324222000,19847832
226635416,Nashville,,1493493194000,36.06,-86.96,rafiq,TN,1493493194000,19847832
224563017,Nashville,,1490637455000,36.08,-86.72,Ravi Teja,TN,1490637455000,19847832
220688853,Nashville,,1485359219000,36.17,-86.78,Raymond Novotny,TN,1485359219000,19847832
212737159,Nashville,,1473615947000,36.17,-86.78,Rayni Lasley,TN,1473615947000,19847832
4272713,Clarksville,Clarksville,1464319076000,36.53,-87.35,Regge,TN,1464319076000,19847832
14103969,Nashville,Nashville,1461105370000,36.08,-86.72,Riane,TN,1505945882000,19847832
196940575,Smyrna,"Rockwood, TN",1468603407000,35.97,-86.51,Richard Montgomery,TN,1508016879000,19847832
216297968,Hendersonville,,1478538649000,36.32,-86.61,Rikki Jo,TN,1478538649000,19847832
186708460,Franklin,,1475245480000,35.93,-86.81,Rita,TN,1475869538000,19847832
136387302,Austin,Austin,1483225568000,30.42,-97.71,Rith Sundar,TX,1483225568000,19847832
214779958,Nashville,,1476235783000,36.18,-86.74,Rob Misora,TN,1476235783000,19847832
227254814,Nashville,,1494339570000,36.14,-86.74,Robert Dehmer,TN,1494339570000,19847832
10593320,Nashville,"Springfield, Tn",1505085889000,36.1,-86.66,Rose Ann,TN,1507682280000,19847832
213428645,Mount Juliet,,1474496721000,36.21,-86.52,russell brown,TN,1474496721000,19847832
215001607,Nashville,,1501873720000,36.06,-86.96,Rylie ,TN,1501873720000,19847832
188988997,San Antonio,,1470194229000,29.49,-98.55,Sam,TX,1492807253000,19847832
207257900,Nashville,,1466277302000,36.17,-86.72,Sarah Campbell,TN,1466816859000,19847832
217658722,Nashville,,1480793598000,36.07,-86.73,Sarah Carrigan,TN,1480793598000,19847832
226966223,Nashville,,1493935111000,36.13,-86.67,Saumya Patel,TN,1495080410000,19847832
193070014,Nashville,,1489259883000,36.21,-86.72,Sean,TN,1489259883000,19847832
213683400,Nashville,,1474833063000,36.13,-86.8,Seana Holt,TN,1476719984000,19847832
227319193,Clarksville,,1494428008000,36.56,-87.41,Selah Ochoa,TN,1494428008000,19847832
189839589,Nashville,,1478237262000,36.17,-86.78,Shannon Rowan,TN,1478237262000,19847832
197233613,Brooklyn,,1478237385000,40.67,-73.92,Shay Sara Benjamin,NY,1478237385000,19847832
197769681,Nashville,,1461196366000,36.17,-86.78,Shealyn,TN,1486527739000,19847832
222418917,Nashville,,1487630560000,36.15,-86.86,Shelby Gaines,TN,1491163024000,19847832
227265978,Nashville,,1494352358000,36.1,-86.66,Stephen Fink,TN,1494352358000,19847832
213260412,Nashville,,1474289559000,36.17,-86.78,Stephen Logan,TN,1474289559000,19847832
188908748,Nashville,,1467662995000,36.17,-86.78,Steve Swanson,TN,1490446466000,19847832
201467977,Birmingham,,1482103526000,33.52,-86.81,Sto Mahoney,AL,1507177186000,19847832
220645848,Nashville,,1485300903000,36.15,-86.81,Talitha Frecker,TN,1485300903000,19847832
195529377,Clarksville,"Constantine, MI",1483449538000,36.6,-87.39,Tamera LeBarre,TN,1483449538000,19847832
213768028,Oak Grove,,1474935701000,36.68,-87.45,Tarshena Rodriguez,KY,1474935701000,19847832
231233914,Nashville,,1499366220000,36.17,-86.78,Tasheka Terry,TN,1499366220000,19847832
126525082,Nashville,,1498414529000,36.13,-86.8,TeamLockhart,TN,1498414529000,19847832
218384976,Clarksville,,1482106138000,36.49,-87.23,THo? Beenboutdat,TN,1482106138000,19847832
218515812,Nashville,,1500912926000,36.17,-86.77,Tiffany Harris,TN,1500912926000,19847832
213508773,Hendersonville,,1474599341000,36.32,-86.61,Tim C,TN,1480382564000,19847832
213734033,Nashville,,1474899124000,36.13,-86.8,Tracey Johnson,TN,1474899124000,19847832
205335742,Nashville,,1463498702000,36.18,-86.74,Tracy A,TN,1488661550000,19847832
195473377,Nashville,,1461186590000,36.14,-86.74,Tracy T.,TN,1477418176000,19847832
234001746,Nashville,,1502689226000,36.11,-86.78,Trazell Townsend,TN,1502689226000,19847832
212132073,Nashville,,1494568090000,36.18,-86.74,Trevor Miller,TN,1494568090000,19847832
48430332,Murfreesboro,Elmhurst,1486076653000,35.76,-86.32,Trisha,TN,1486236556000,19847832
5838751,Nashville,Nashville,1476563860000,36.17,-86.72,Vanessa,TN,1507927727000,19847832
203356091,Nashville,,1461598465000,36.17,-86.78,Vanessa,TN,1463500605000,19847832
210546949,Hermitage,,1470576140000,36.19,-86.6,Vaughn R. Taylor,TN,1473610762000,19847832
219288932,Madison,,1483590061000,36.26,-86.71,Vincent Lewis,TN,1497136965000,19847832
204854476,Nashville,Pittsburgh,1462845449000,36.17,-86.78,Wendy J,TN,1491106029000,19847832
210465942,Spring Hill,,1470453776000,35.76,-86.88,Wes Moore,TN,1471467172000,19847832
206037388,Nashville,,1464474393000,36.17,-86.78,Whitney Basselen,TN,1464474393000,19847832
93521732,Nashville,,1485218300000,36.17,-86.78,Will Campbell,TN,1485218300000,19847832
235104849,Murfreesboro,,1503952848000,35.82,-86.45,Will Fletcher,TN,1503952848000,19847832
218756718,Hermitage,,1482864084000,36.19,-86.6,William Duke,TN,1482975455000,19847832
219275333,Nashville,,1483575368000,36.15,-86.86,Yusuf Gürbüz,TN,1483575368000,19847832
11149295,Nashville,Delphos,1478003187000,36.17,-86.72,Zack Benner,TN,1506428742000,19847832
213010737,Nashville,,1473966466000,36.17,-86.78,Zoë Kaler,TN,1473966466000,19847832
