id,city,hometown,joined,lat,lon,name,state,visited,group_id
220964162,Bowling Green,,1485715112000,37.02,-86.46,Alyssa C,KY,1485715112000,19871462
230452366,Gallatin,,1498413842000,36.39,-86.45,Angie,TN,1498413842000,19871462
215343489,Bowling Green,,1477063772000,36.95,-86.4,Becca Ray Bryant,KY,1477063772000,19871462
224329043,Bowling Green,,1490305252000,36.93,-86.45,Beth L.,KY,1490305252000,19871462
239337839,Goodlettsville,,1508616456000,36.32,-86.72,Bridget McCloud,TN,1508616456000,19871462
226265557,Smithville,,1492996146000,35.96,-85.82,Brittney McComas,TN,1492996146000,19871462
212300031,Gallatin,,1486886761000,36.39,-86.45,Cande,TN,1486886761000,19871462
821311,Nashville,,1501727572000,36.17,-86.78,candiceraines,TN,1501727572000,19871462
15519011,Nashville,,1483199344000,36.17,-86.78,Chantil Huskey,TN,1483199344000,19871462
229580111,Hendersonville,,1497300024000,36.32,-86.61,Courtney Johnson,TN,1497300024000,19871462
93278022,Gallatin,,1492966532000,36.39,-86.45,Donna Hartley Lucas,TN,1492966532000,19871462
65144012,Nashville,,1498616627000,36.16,-86.79,Ebony W,TN,1498616627000,19871462
229983114,Bowling Green,,1497837664000,36.96,-86.37,Elaina Turner,KY,1497837664000,19871462
218978881,Spring Hill,,1483323247000,35.76,-86.88,Fabrienne Ewald,TN,1483323247000,19871462
217933284,Hendersonville,,1481259766000,36.32,-86.61,Heather Lea,TN,1481259766000,19871462
203845689,Nashville,,1494962087000,36.17,-86.78,Isabella,TN,1494962087000,19871462
237025713,Madison,,1505939476000,36.19,-86.74,Jackie Foster,TN,1506192792000,19871462
64390532,Clarksville,Richmond,1476902543000,36.53,-87.35,Jamesha,TN,1486231471000,19871462
204941491,Smyrna,,1499405144000,35.97,-86.51,Janice Martin,TN,1499405144000,19871462
211060628,Nashville,,1471368899000,36.17,-86.78,Jennifer Knowles,TN,1471368899000,19871462
216856742,Nashville,,1479418661000,36.08,-86.72,Jessica Marable,TN,1479418661000,19871462
219998652,Glasgow,,1484503659000,36.97,-85.91,Jessica Massaway,KY,1484503659000,19871462
225830646,Nashville,,1492426127000,36.16,-86.72,Jordan Freer,TN,1492426127000,19871462
125968502,Hendersonville,,1475806489000,36.3,-86.62,Joy DeBose,TN,1475806489000,19871462
212597753,Nashville,,1473429082000,36.17,-86.78,Katana,TN,1473434406000,19871462
228623110,Hendersonville,,1496114549000,36.32,-86.61,Katherine Romines Osborn,TN,1496114549000,19871462
219130385,Nashville,,1483415320000,36.17,-86.78,Kayla Salyer,TN,1483415320000,19871462
219866442,Bowling Green,,1484329244000,37.02,-86.46,Kelly Chapman,KY,1484329244000,19871462
237358432,Clarksville,,1506316493000,36.56,-87.35,Krissy Hughes,TN,1506316493000,19871462
218117263,Bowling Green,,1481589901000,37.02,-86.46,LaDonna Wilburn,KY,1481589901000,19871462
212722637,Nashville,,1473601224000,36.16,-86.79,Lynn,TN,1473601224000,19871462
233626249,Nashville,,1506920228000,36.11,-86.78,Mary Flores,TN,1506920228000,19871462
235346322,Nashville,,1504214240000,36.07,-86.78,Meagan & Eric ,TN,1504214240000,19871462
230783464,Nashville,,1499372404000,36.14,-86.74,Meghann Bumbalough Shipman,TN,1498807286000,19871462
234168251,Franklin,,1502888532000,35.93,-86.81,Olivia Oetjens,TN,1502888532000,19871462
230551261,Bowling Green,,1498520752000,37.02,-86.46,Rhonda Wells,KY,1498520752000,19871462
226661016,Glasgow,,1493527211000,36.97,-85.91,Sassynsweet,KY,1493527211000,19871462
233115350,Portland,,1501663029000,36.57,-86.49,Shane Taco,TN,1501663029000,19871462
222590884,Nashville,,1487868581000,36.07,-86.73,Shaniqua Berry,TN,1487868581000,19871462
227805262,Nashville,,1495068821000,36.17,-86.78,Sharon Hamm,TN,1495068821000,19871462
203831971,Hendersonville,,1461354188000,36.32,-86.61,Stacy Keltner Douglas,TN,1499371236000,19871462
12134295,Nashville,,1506750692000,36.15,-86.86,Suzanne,TN,1506750692000,19871462
226492692,Mc Minnville,,1493294811000,35.68,-85.78,Tiffanie Randolph,TN,1493294811000,19871462
232863892,Nashville,,1501351028000,36.08,-86.72,Wendy Hesselman,TN,1501351028000,19871462
