id,city,hometown,joined,lat,lon,name,state,visited,group_id
190048467,Nashville,,1465262685000,36.17,-86.78,Abby,TN,1465262685000,20025834
206481851,Nashville,,1467249022000,36.17,-86.78,Adia Tigney,TN,1467249022000,20025834
7964302,Missouri City,Nashville,1465176481000,29.54,-95.55,Alecia Stringer,TX,1465176481000,20025834
199892769,Nashville,,1465851500000,36.09,-86.82,Alexis,TN,1465851500000,20025834
183742617,Franklin,,1465392256000,35.99,-86.9,Amanda Romano,TN,1465392256000,20025834
207657823,Franklin,,1466680686000,35.92,-86.89,Amber Stormberg,TN,1466680686000,20025834
207721781,Clarksville,,1466775387000,36.56,-87.41,Amy Crowe,TN,1466775387000,20025834
13752843,Nashville,,1465161006000,36.17,-86.79,Angie Walk,TN,1465818244000,20025834
217258657,Nashville,,1480104811000,36.17,-86.78,Aniela Krzeminska,TN,1480104811000,20025834
208453489,Nashville,,1467770845000,36.17,-86.78,April Meador,TN,1467770845000,20025834
152663212,Nashville,"Birmingham, AL",1465607654000,36.14,-86.82,Ashley,TN,1501352053000,20025834
47530612,La Vergne,La Vergne,1504828961000,36.01,-86.57,Barbara Barnes,TN,1504828961000,20025834
13814459,Nashville,"Paris, TN",1465341336000,36.09,-86.82,Bobo,TN,1465341336000,20025834
179219982,Nashville,Nashville,1466037069000,36.17,-86.78,Bradley Koenen,TN,1466037069000,20025834
133355872,Nashville,,1473977169000,36.17,-86.78,Bree,TN,1473977169000,20025834
223858171,Nashville,,1489656385000,36.16,-86.79,Brijesh Patel,TN,1489656385000,20025834
183585694,Franklin,"Middleboro, MA",1506231563000,35.92,-86.89,Cameron Bartlett,TN,1506231563000,20025834
206507631,Nashville,,1466112680000,36.05,-86.67,Carl D ,TN,1506031942000,20025834
106125902,Nashville,,1508251425000,36.17,-86.72,Cathy Bogan,TN,1508251425000,20025834
238131828,Nashville,,1507174179000,36.08,-86.72,CathyLee,TN,1507174179000,20025834
237135725,Nashville,,1506060222000,36.17,-86.78,Chris Callaghan,TN,1506060222000,20025834
206142566,Nashville,,1465173698000,36.15,-86.86,Christine,TN,1465580106000,20025834
14295814,Hendersonville,Nashville,1465148428000,36.3,-86.62,Christine Kolek,TN,1465148428000,20025834
76557592,Brentwood,"Chicago, IL",1467037175000,36.0,-86.79,CORY BEAL SR,TN,1478559508000,20025834
232524017,Murfreesboro,,1508608345000,35.78,-86.36,Dana J. Smith,TN,1508608345000,20025834
149104712,Smyrna,"Campbellsville, KY",1465229222000,35.97,-86.51,Dana Milby,TN,1475754594000,20025834
195726664,Nashville,,1470708458000,36.18,-86.74,David Lothamer,TN,1470708458000,20025834
13649745,Nashville,Nashville,1469329670000,36.1,-86.66,Doug Deneve,TN,1469329670000,20025834
206523256,Antioch,,1465175072000,36.17,-86.88,duane johnson,TN,1465175072000,20025834
216366125,Brentwood,,1478639679000,36.0,-86.79,Eddie C Cribbs,TN,1478718590000,20025834
238626402,Franklin,,1507741795000,35.93,-86.81,Elle,TN,1507741795000,20025834
10460196,Franklin,,1465478195000,35.92,-86.89,Ellen Krizman,TN,1465478195000,20025834
3189815,Nashville,Detroit,1508427810000,36.08,-86.72,Eric,TN,1508427810000,20025834
220758995,Cincinnati,,1485450008000,39.12,-84.54,Greg Woryk,OH,1485450008000,20025834
206300712,Nashville,,1465157646000,36.08,-86.72,Jared DeLong,TN,1465157646000,20025834
232330298,Brentwood,,1504623160000,36.0,-86.79,Jason,TN,1504623160000,20025834
210057201,Nashville,,1469888180000,36.08,-86.72,Jeffrey Bryan,TN,1469888180000,20025834
43483102,Nashville,,1501368303000,36.17,-86.78,Jesse Adamsn,TN,1501368303000,20025834
59475472,Nashville,,1465147620000,36.08,-86.72,Jessica Jernigan,TN,1508441076000,20025834
238619703,Fort Campbell,,1507693898000,36.65,-87.46,Jorge Aguayo,KY,1507693898000,20025834
233585017,Nashville,,1508383780000,36.22,-86.77,Julia Warwick,TN,1508383780000,20025834
128254422,Nashville,,1465486258000,36.17,-86.78,Kaneisha Sims,TN,1465486258000,20025834
238177306,Nashville,,1507226709000,36.17,-86.72,Kathy Burton Rogers,TN,1507226709000,20025834
216627343,Nashville,,1506952163000,36.22,-86.77,Khalia Taylor,TN,1506952163000,20025834
13911819,Antioch,,1465442467000,36.04,-86.64,Kimberly Del Negro Schroeder,TN,1493397154000,20025834
225957020,Nashville,,1508386605000,36.14,-86.74,King Ukwu,TN,1508386605000,20025834
230625165,Clarksville,,1508105155000,36.53,-87.35,Krystal Richmond,TN,1508105155000,20025834
198499631,Nashville,,1465320718000,36.17,-86.72,Laurie McCabe,TN,1506032489000,20025834
203992572,Brentwood,,1465142363000,36.0,-86.79,LeAnn Wood,TN,1465142363000,20025834
193337680,Clarksville,,1465180569000,36.53,-87.35,Maren Kiemen,TN,1465180569000,20025834
207606292,Nashville,,1466609413000,36.17,-86.78,Marla Daye Vinsant,TN,1466609413000,20025834
73624292,Chattanooga,,1468136187000,35.03,-85.14,Marsha,TN,1468136187000,20025834
225483657,Thompsons Station,,1491939638000,35.8,-86.9,Mary Lou Bradley Casey,TN,1491939638000,20025834
62106992,Nashville,,1505765318000,36.14,-86.74,Melissa Harris,TN,1506533690000,20025834
41002002,Nashville,,1465398654000,36.17,-86.79,Melissa Smithson,TN,1465398654000,20025834
200695272,Nashville,,1465535032000,36.08,-86.72,Michael,TN,1465535032000,20025834
205818011,Cincinnati,,1464879418000,39.15,-84.43,Michelle Hummel,OH,1493176963000,20025834
8017072,Cincinnati,,1493176485000,39.12,-84.54,Michelle Hummel,OH,1507829491000,20025834
54613072,Nashville,,1467306480000,36.08,-86.72,Nan,TN,1467306480000,20025834
59359692,Franklin,Franklin,1465310576000,35.99,-86.9,nan george,TN,1465310576000,20025834
97734162,Murfreesboro,Murfreesboro,1465232044000,35.87,-86.44,Natalie Manor,TN,1465232044000,20025834
188391483,Franklin,,1465249269000,35.92,-86.89,Nick Fiveash,TN,1465249269000,20025834
218042027,Nashville,,1483522207000,36.17,-86.78,Nick Sherron,TN,1483522207000,20025834
186972209,Nashville,,1465234143000,36.17,-86.79,Pete Brown,TN,1465234143000,20025834
203167991,Nashville,,1465226601000,36.09,-86.82,Peter Madden,TN,1465226601000,20025834
32857922,Nashville,New York City,1470250038000,36.17,-86.72,Qwonchia,TN,1470250038000,20025834
197728974,Nashville,,1465411786000,36.17,-86.78,"Randy Tillman, D.C.",TN,1465411786000,20025834
14570291,Nashville,,1465215314000,36.22,-86.86,Rebecca Whitney,TN,1465215314000,20025834
10108476,Nashville,,1465343015000,36.17,-86.72,Renata ,TN,1465343015000,20025834
216399129,Nashville,,1493278955000,36.15,-86.84,Rob Solberg,TN,1493278955000,20025834
206464818,Franklin,,1465068178000,35.92,-86.89,Robin Turner Hawkins,TN,1465068178000,20025834
207599308,Nashville,,1466602020000,36.17,-86.78,Robyn Bigelow,TN,1466703278000,20025834
6548558,Nashville,"Chester, West Virginia",1465145922000,36.13,-86.8,Ron Brunk,TN,1465145922000,20025834
205437540,Franklin,,1465658770000,35.92,-86.89,Rosemary,TN,1465658770000,20025834
10119159,Hermitage,,1465579575000,36.19,-86.6,Ross Jones,TN,1506032624000,20025834
208081061,Franklin,,1467255622000,35.92,-86.89,Ryan McConnell,TN,1467255622000,20025834
161455322,Nashville,,1465953992000,36.21,-86.72,Shrese Brittain,TN,1465953992000,20025834
239303068,Clarksville,,1508482463000,36.56,-87.35,Stephen B,TN,1508482463000,20025834
198834670,Alpharetta,,1499176499000,34.03,-84.24,Sydney ,GA,1499176499000,20025834
237559208,Nashville,,1506532978000,36.22,-86.77,Sylvia ,TN,1506532978000,20025834
187356606,Nashville,,1465152272000,36.09,-86.82,Ted Ciuba,TN,1465152272000,20025834
137230272,Hendersonville,,1465160513000,36.33,-86.66,ted fleming,TN,1469752857000,20025834
13702065,Goodlettsville,"Goodlettsville, TN",1465229036000,36.33,-86.74,Teresa,TN,1508469729000,20025834
5705522,Clarksville,Clarksville,1465236159000,36.49,-87.23,Trina DeSoto,TN,1465380674000,20025834
183752404,Murfreesboro,Murfreesboro,1507764911000,35.82,-86.45,Vivian Hughbanks,TN,1507764911000,20025834
238562101,Nashville,,1508341220000,36.16,-86.79,Yanina Bonetto,TN,1508341220000,20025834
185165830,Nashville,,1465879536000,36.15,-86.86,zarin Buckingham,TN,1465879536000,20025834
