id,city,hometown,joined,lat,lon,name,state,visited,group_id
206619521,Nashville,,1465598997000,36.17,-86.78,Aaron Wagner,TN,1469158782000,20041384
198023758,Lewisburg,,1495127372000,35.45,-86.8,Abby Fleming,TN,1495730449000,20041384
59872972,Brentwood,,1465601008000,36.0,-86.79,Adrienne,TN,1468063150000,20041384
215252811,Nashville,,1476918432000,36.17,-86.78,Amy Hanford,TN,1476918432000,20041384
207612302,Nashville,,1466617659000,36.17,-86.78,Andrew Finlayson,TN,1468975110000,20041384
214725523,Nashville,,1476156145000,36.08,-86.72,anthony fuqua,TN,1476156145000,20041384
152663212,Nashville,"Birmingham, AL",1465607503000,36.14,-86.82,Ashley,TN,1465607503000,20041384
183749942,Nashville,,1466607058000,36.09,-86.82,ayumi fukuda bennett,TN,1508784490000,20041384
8806346,Washington,New York,1468334908000,38.92,-77.04,Blair Hickman,DC,1468334908000,20041384
208813494,Nashville,,1468252603000,36.17,-86.78,Chelsea Amaral,TN,1468252603000,20041384
227509777,Shelbyville,,1494687667000,35.48,-86.47,Chris Dukes,TN,1494687667000,20041384
202552655,Nashville,,1465789466000,36.17,-86.78,D'Vontay,TN,1465789466000,20041384
156626172,Nashville,Nashville,1469488422000,36.11,-86.86,Dan Burger,TN,1504880678000,20041384
206240756,Murfreesboro,,1492485142000,35.87,-86.44,Dara,TN,1502571695000,20041384
40534432,Nashville,Nashville,1465912416000,36.13,-86.8,David P,TN,1469484056000,20041384
231674888,Nashville,,1499881161000,36.17,-86.78,Deedra Lawhead,TN,1499881161000,20041384
192510472,Brentwood,,1474570333000,36.0,-86.79,Denise Siegel,TN,1474570333000,20041384
10263360,Nashville,,1477168589000,36.17,-86.78,Deniz Kofteci,TN,1489253074000,20041384
222981893,Goodlettsville,,1490629931000,36.32,-86.72,Dominique SALANDRE,TN,1502738172000,20041384
227375757,Nashville,,1494500338000,36.19,-86.8,Dong Hong Long,TN,1494500338000,20041384
8936902,Nashville,,1469038912000,36.18,-86.81,Dr. Syb,TN,1469038912000,20041384
190927523,Nashville,,1502660789000,36.06,-86.96,Ed Dodds,TN,1504902748000,20041384
4634755,Nashville,,1465605979000,36.13,-86.8,Ed Dodds,TN,1492374374000,20041384
161708522,Waycross,many places,1465505779000,31.22,-82.36,Elizabeth J.,GA,1502494934000,20041384
216892300,Nashville,,1479480215000,36.17,-86.78,Emily McCormick,TN,1479480215000,20041384
216299376,Lowell,"Malone, NY",1481897222000,42.63,-71.3,Felicia Sullivan,MA,1501270402000,20041384
189431560,Nashville,,1465595902000,36.09,-86.82,Gail Greil,TN,1465595902000,20041384
40988262,Nashville,Nashville,1465504820000,36.18,-86.74,Gina Sigillito,TN,1465504820000,20041384
59202292,Nashville,,1465927721000,36.13,-86.8,Grant Swertfeger,TN,1465927721000,20041384
237100490,Nashville,,1506021794000,36.1,-86.66,Isabel Johnson-Bann,TN,1506021794000,20041384
7915902,Nashville,Nashville,1501229987000,36.22,-86.77,Jacque Lewis,TN,1501229987000,20041384
204700330,Nashville,,1465595964000,36.17,-86.78,James Lauderdale Jr,TN,1465595964000,20041384
12135023,Washington,,1483467187000,38.91,-77.04,Jane McDonnell,DC,1483467187000,20041384
206300712,Nashville,,1465936312000,36.08,-86.72,Jared DeLong,TN,1465936312000,20041384
194153351,Nashville,,1465611569000,36.15,-86.79,Jeff Deskins,TN,1502063726000,20041384
192445737,Nashville,,1465504088000,36.17,-86.77,Jerri Lynn,TN,1465504088000,20041384
181457472,Nashville,"Erie, PA",1467592851000,36.17,-86.78,Joe Mifsud,TN,1467592851000,20041384
189190661,Nashville,,1495505350000,36.11,-86.78,Joe Speer,TN,1497412803000,20041384
185807624,Nashville,Nashville,1504917329000,36.11,-86.86,Jonelly Sharp,TN,1508510219000,20041384
234015150,Murfreesboro,,1502712647000,35.87,-86.44,Jose Tapia,TN,1502712647000,20041384
230555088,Nashville,,1498524783000,36.17,-86.78,Josh,TN,1498524783000,20041384
208846051,Nashville,,1468286881000,36.17,-86.72,Juan Buitrago,TN,1468286881000,20041384
128254422,Nashville,,1465514866000,36.17,-86.78,Kaneisha Sims,TN,1466126131000,20041384
227006595,Nashville,,1493997349000,36.17,-86.78,Kassidy McElheney,TN,1493997349000,20041384
176357922,Nashville,,1480267655000,36.21,-86.72,Katherine McEldoon,TN,1508721414000,20041384
235988652,Phoenix,,1504900448000,33.45,-112.07,Kathy Hayes,AZ,1504900448000,20041384
235671625,Nashville,,1504575826000,36.17,-86.78,Kelly Gilfillan,TN,1504575826000,20041384
5213475,Nashville,St. Louis,1469138115000,36.17,-86.72,Kenisha,TN,1469138115000,20041384
208914401,Nashville,,1468371519000,36.17,-86.72,Kevin Hayes,TN,1468371519000,20041384
201737245,Hermitage,,1502604541000,36.19,-86.6,Kim H,TN,1502604541000,20041384
237749294,Nashville,,1506746385000,36.18,-86.74,Kjay,TN,1506746385000,20041384
4748779,Nashville,,1502289791000,36.17,-86.79,Kleinheider,TN,1502289791000,20041384
6939340,Chattanooga,"Chattanooga, TN",1505254935000,35.07,-85.31,kristy,TN,1505254935000,20041384
208609523,Nashville,,1467985630000,36.21,-86.72,Kyle Reynolds,TN,1467985630000,20041384
187326594,Whites Creek,,1465741380000,36.27,-86.83,Lacey,TN,1476748317000,20041384
239325922,Nashville,,1508511745000,36.11,-86.78,Lance Williams,TN,1508511745000,20041384
209509640,Nashville,,1469150711000,36.1,-86.66,Lillian O'Hara,TN,1469150711000,20041384
230214484,Franklin,,1498096977000,35.92,-86.89,Lindsay Elliott,TN,1498096977000,20041384
13369916,Brentwood,Brentwood,1467738252000,36.0,-86.79,Lucinda Hall,TN,1508516600000,20041384
239174153,Nashville,,1508336273000,36.17,-86.78,Mack Linebaugh,TN,1508336273000,20041384
85603572,New York,,1468348311000,40.75,-73.99,Maki Somosot,NY,1468348311000,20041384
13452195,Nashville,"Birmingham, AL",1492100361000,36.18,-86.81,Marshall A. Latimore,TN,1492549521000,20041384
84558112,Nashville,,1465314127000,36.21,-86.72,MaSovaida Morgan,TN,1470399842000,20041384
228614899,Manchester,,1496105968000,35.47,-86.11,Matthew B Powers,TN,1496105968000,20041384
13142645,Washington,,1465239733000,38.91,-77.02,Meghan Murphy,DC,1479234177000,20041384
232312915,Nashville,,1500661652000,36.13,-86.8,Michael Kennedy,TN,1505140516000,20041384
218552556,Alpharetta,,1488985931000,34.03,-84.24,Milt Capps,GA,1488985931000,20041384
13717998,Nashville,,1467803618000,36.17,-86.78,Milt Capps,TN,1502473028000,20041384
227858343,Nashville,Nashville,1495138395000,36.17,-86.78,Nick,TN,1496186436000,20041384
229920233,Clarksville,,1497747575000,36.53,-87.35,Nick Lee,TN,1497747575000,20041384
58983922,Nashville,NASHVILLE,1465241432000,36.21,-86.72,Nick Lorenson,TN,1505250323000,20041384
117476262,Nashville,Nashville,1502128921000,36.16,-86.79,Niya Moon,TN,1502721372000,20041384
234168251,Franklin,,1502888034000,35.93,-86.81,Olivia Oetjens,TN,1502888034000,20041384
101347382,Washington,Baltimore,1465235532000,38.91,-77.04,Online News Association,DC,1508509864000,20041384
208823383,Nashville,,1468262804000,36.17,-86.78,Paige,TN,1505263057000,20041384
132315422,Murfreesboro,,1484147942000,35.87,-86.34,Parish,TN,1508578037000,20041384
207622461,Nashville,,1466627408000,36.17,-86.78,Rachel Cypher,TN,1466627408000,20041384
34826402,Nashville,Nashville,1466608682000,36.22,-86.77,Rhyne Piggott,TN,1469045840000,20041384
26763592,Nashville,,1465613073000,36.11,-86.86,Sally LaFave,TN,1465613073000,20041384
215065731,Spring Hill,,1492333434000,35.76,-86.88,Sam Lax,TN,1492333434000,20041384
193268755,Nashville,,1487985490000,36.22,-86.86,Samantha,TN,1491526439000,20041384
233002984,Nashville,,1505779796000,36.17,-86.78,Shelby Livingston,TN,1505779796000,20041384
238021936,Nashville,,1507054694000,36.16,-86.79,Sisi Wang,TN,1507054694000,20041384
208618999,Nashville,,1467997167000,36.17,-86.78,Skye McIntyre,TN,1469199902000,20041384
239303068,Clarksville,,1508482464000,36.56,-87.35,Stephen B,TN,1508482464000,20041384
14310125,Nashville,Nashville,1466136615000,36.11,-86.86,T. Blake Braddy,TN,1500656589000,20041384
227581031,Columbia,,1494797428000,35.61,-87.05,Taylor Rhodes White,TN,1495035381000,20041384
200862670,Nashville,,1465514908000,36.16,-86.79,Tiffany,TN,1466114776000,20041384
233826957,Nashville,,1502476719000,36.17,-86.78,Tim Choate,TN,1503005603000,20041384
3955905,Murfreesboro,"Hawthorne, NJ",1465647984000,35.87,-86.44,Todd O'Neill,TN,1466179559000,20041384
19288821,Brentwood,,1465361495000,36.0,-86.79,Tony Gonzalez,TN,1505832616000,20041384
229895339,Fort Campbell,,1497717529000,36.65,-87.46,Trish,KY,1497717529000,20041384
234844203,Portland,,1503641506000,36.57,-86.49,Tyler Johnson,TN,1503641506000,20041384
206600660,Nashville,,1465245651000,36.17,-86.78,Val Hoeppner,TN,1469412241000,20041384
183752404,Murfreesboro,Murfreesboro,1507763202000,35.82,-86.45,Vivian Hughbanks,TN,1507763202000,20041384
222656771,Nashville,"Cairo, Egypt",1500834666000,36.16,-86.79,Wael Hassan,TN,1500834666000,20041384
109091072,Nashville,,1495507031000,36.16,-86.78,Will Hubbs,TN,1505767388000,20041384
11579085,Nashville,,1465588446000,36.08,-86.72,William H. Bowen,TN,1465588446000,20041384
151330032,Nashville,,1466716089000,36.16,-86.79,Yuri Livshitz,TN,1466716089000,20041384
