id,city,hometown,joined,lat,lon,name,state,visited,group_id
204027645,Murfreesboro,"Rochester, MI",1469369860000,35.82,-86.45,Barb Morgan Biggs,TN,1469369860000,20197351
132316772,Murfreesboro,,1483445331000,35.87,-86.34,Bella Estrella,TN,1483445331000,20197351
67706102,Nashville,,1479660203000,36.17,-86.78,Brenda,TN,1479660203000,20197351
199688329,Nashville,,1501928392000,36.08,-86.72,Caroline S,TN,1501928392000,20197351
223111033,Nashville,,1488597190000,36.08,-86.72,Carolyn ,TN,1488597190000,20197351
10055195,Murfreesboro,,1469414784000,35.87,-86.44,Christine,TN,1469414784000,20197351
229580111,Hendersonville,,1497300402000,36.32,-86.61,Courtney Johnson,TN,1497300402000,20197351
182619742,Nashville,Nashville,1495807799000,36.14,-86.74,D. B. DiAngelo,TN,1495807799000,20197351
221508547,Nashville,,1486394920000,36.17,-86.78,Deb Adao,TN,1487002533000,20197351
211811513,Murfreesboro,,1508561448000,35.78,-86.33,Debbie,TN,1508561448000,20197351
208390390,Landrum,landrum,1472915448000,35.17,-82.18,dianne,SC,1484614989000,20197351
203355336,Brentwood,,1489362605000,36.0,-86.79,Donna M. Gotreau,TN,1489362605000,20197351
58087752,Nashville,,1469326227000,36.17,-86.78,Faye Stewart,TN,1469405923000,20197351
1124238,Nashville,,1473213799000,36.18,-86.74,Gloria,TN,1473213799000,20197351
12665790,Nashville,,1469237491000,36.17,-86.79,Holly Miles,TN,1469237491000,20197351
231997258,Smyrna,,1500414121000,35.97,-86.51,Irfan Ali,TN,1500414121000,20197351
184531335,Nashville,"Jacksonville, FL",1478396634000,36.16,-86.79,Jan Goddard,TN,1478396634000,20197351
212947434,Clarksville,,1473880798000,36.53,-87.35,Jermaine Robinson,TN,1473880798000,20197351
138699772,Nashville,,1470097189000,36.16,-86.79,judy baldridge,TN,1476297123000,20197351
34727902,Brentwood,Brentwood,1471908294000,36.0,-86.79,Julie,TN,1473892685000,20197351
223389856,Murfreesboro,,1488998203000,35.87,-86.44,Kaitlyn Mobley,TN,1488998203000,20197351
214273295,Nashville,,1477278037000,36.08,-86.72,Kara ,TN,1477278037000,20197351
13977267,Nashville,Nashville ,1490198001000,36.22,-86.86,Kathy ,TN,1490198001000,20197351
50502232,Nashville,,1472846448000,36.11,-86.86,Katie,TN,1477677229000,20197351
7919271,Nashville,,1472859116000,36.18,-86.74,kd dove,TN,1472859116000,20197351
13069459,Nashville,,1469339691000,36.16,-86.79,Keith Branson,TN,1503321585000,20197351
214204915,Nashville,,1475449169000,36.17,-86.78,Leah Bluestone,TN,1475449169000,20197351
198117708,Madison,,1479382613000,36.26,-86.71,Leslie,TN,1484099570000,20197351
217272053,La Vergne,,1480127288000,36.01,-86.57,Lidia Choc,TN,1480127288000,20197351
9246344,Nashville,"Paterson, NJ",1473018931000,36.06,-86.96,Lilly Castro,TN,1473085206000,20197351
227442993,Nashville,,1499802606000,36.17,-86.78,Mario  Mann,TN,1499802606000,20197351
10123863,Nashville,,1469240694000,36.11,-86.86,Mary,TN,1495743445000,20197351
224880311,Pleasant View,,1491092715000,36.38,-87.04,Michelle Rees,TN,1491092715000,20197351
218560507,Antioch,,1482452802000,36.04,-86.64,Micouri Aranea Silva,TN,1482452802000,20197351
217113701,Nashville,,1479831993000,36.17,-86.72,Mrz Kennetha Patterson,TN,1479831993000,20197351
218438798,Nashville,,1484514886000,36.17,-86.78,Mustafa Hussein,TN,1484514886000,20197351
215915327,Springfield,,1477945035000,36.52,-86.87,Myrt,TN,1477945035000,20197351
184590511,Fairview,,1469236577000,35.97,-87.13,Nashe Edit,TN,1473189407000,20197351
97734162,Murfreesboro,Murfreesboro,1472843237000,35.87,-86.44,Natalie Manor,TN,1473986489000,20197351
222652466,Hermitage,,1487954585000,36.19,-86.6,Pamela Freed,TN,1487954585000,20197351
2331939,Kingston Springs,Kingston Springs,1505470664000,36.09,-87.12,Paolo,TN,1505470664000,20197351
198464515,Mount Juliet,,1472266628000,36.21,-86.52,Peggy Evans,TN,1472266628000,20197351
224342936,Franklin,,1490322786000,35.92,-86.89,Rebecca,TN,1490322786000,20197351
210005463,Nashville,,1469813788000,36.17,-86.78,Rene',TN,1469813788000,20197351
204855840,Nashville,,1470606037000,36.08,-86.72,Rocky Paradise,TN,1476150626000,20197351
155278822,Murfreesboro,Memphis,1482351245000,35.82,-86.45,Romney Dickinson,TN,1484855375000,20197351
219873463,Mount Juliet,,1484337557000,36.21,-86.52,Samantha,TN,1484337557000,20197351
219984145,Nashville,,1484501018000,36.06,-86.96,Sandy,TN,1490875773000,20197351
212226819,Nashville,,1472934184000,36.15,-86.86,Shawna,TN,1499181919000,20197351
213768028,Oak Grove,,1474935892000,36.68,-87.45,Tarshena Rodriguez,KY,1474935892000,20197351
222826023,Goodlettsville,,1488211602000,36.31,-86.72,Vickie Martin,TN,1488211602000,20197351
219275333,Nashville,,1483575368000,36.15,-86.86,Yusuf Gürbüz,TN,1483575368000,20197351
208553095,Nashville,,1468852781000,36.07,-86.78,Zachary Watson,TN,1485207701000,20197351
