id,city,hometown,joined,lat,lon,name,state,visited,group_id
214331812,Goodlettsville,,1475608381000,36.32,-86.72,Alexandria Athena Cain,TN,1475608381000,20224806
180195342,Nashville,"Chattanooga, TN",1471925521000,36.17,-86.78,Aliah,TN,1471925521000,20224806
209886677,Nashville,,1470245270000,36.17,-86.78,Alison Lammot,TN,1470245270000,20224806
73549542,Lewisburg,"Kenner, La",1478145236000,35.45,-86.8,Allen Hutton,TN,1482263784000,20224806
226791775,Nashville,,1493702339000,36.14,-86.74,Allison Russell,TN,1493702339000,20224806
13557253,Nashville,,1470179803000,36.17,-86.78,Alok Chandra,TN,1470179803000,20224806
220426359,Franklin,,1490214699000,35.92,-86.89,Angela White,TN,1494464384000,20224806
221012550,Franklin,,1485775067000,35.92,-86.89,Anna Pop,TN,1485775067000,20224806
229158522,Columbia,,1496773416000,35.61,-87.05,Ashley Fitzgerald,TN,1496773416000,20224806
233636031,Hohenwald,,1502265748000,35.55,-87.55,Babbas Wilson,TN,1502415521000,20224806
47530612,La Vergne,La Vergne,1478806888000,36.01,-86.57,Barbara Barnes,TN,1491621683000,20224806
203909824,Orlando,,1487884728000,28.54,-81.37,BRAD B,FL,1487884728000,20224806
233534591,Nashville,,1502152938000,36.08,-86.72,Caleb Mckenney,TN,1502152938000,20224806
212300031,Gallatin,,1476330267000,36.39,-86.45,Cande,TN,1476330267000,20224806
4128698,Saint Louis,St Louis,1498107461000,38.66,-90.46,Carrie Jeffries,MO,1498107461000,20224806
154287672,Arrington,"Nashville, TN",1470091632000,35.86,-86.66,Carrie Stokes,TN,1470091632000,20224806
193327015,Nashville,,1469880511000,36.13,-86.8,Cassandra Lawson,TN,1498035686000,20224806
188143652,Madison,,1469824159000,36.26,-86.71,Charles Whitnel,TN,1490590653000,20224806
204795329,Hendersonville,,1469818585000,36.32,-86.61,Chip Hysler,TN,1469818585000,20224806
232584990,Nolensville,,1500998978000,35.94,-86.67,Codi-Rick Kyle,TN,1500998978000,20224806
210570887,Nashville,,1470607488000,36.15,-86.81,Cole McKenna,TN,1470607488000,20224806
214027715,Franklin,,1475236850000,35.92,-86.87,Crystal Hyatt,TN,1475236850000,20224806
218221413,Franklin,,1481780620000,35.92,-86.89,Cynthia Marie Woodruff,TN,1481780620000,20224806
230082728,Franklin,,1497963875000,35.92,-86.87,Dane Wallace,TN,1497963875000,20224806
213736929,Franklin,Franklin,1474901983000,35.93,-86.81,Daniel Hofmeister,TN,1474901983000,20224806
187271983,Franklin,"Franklin, TN",1469817257000,35.99,-86.9,Daniel Payne,TN,1470703322000,20224806
2220997,Fairview,"Fairview, TN",1470705392000,35.97,-87.13,Danny,TN,1472962533000,20224806
191319483,Brentwood,,1492618101000,36.0,-86.79,David Goldberg,TN,1492618101000,20224806
144256692,Nashville,,1476412910000,36.15,-86.86,David VanWie,TN,1494524327000,20224806
19366751,Franklin,,1488203775000,35.92,-86.89,Debbie R,TN,1497275473000,20224806
179364462,Antioch,,1469831568000,36.17,-86.88,Debra Barfield,TN,1471962433000,20224806
30802182,Nashville,,1476898161000,36.08,-86.72,Dez Stephens,TN,1478917194000,20224806
13649745,Nashville,Nashville,1469830455000,36.1,-86.66,Doug Deneve,TN,1479321873000,20224806
216366125,Brentwood,,1478639108000,36.0,-86.79,Eddie C Cribbs,TN,1478639108000,20224806
169743132,Nashville,,1483457531000,36.06,-86.96,Eloka,TN,1489847951000,20224806
231042050,Lafayette,,1499128879000,36.52,-86.02,Fédya Khalfaoui,TN,1499128879000,20224806
202462664,Spring Hill,,1470413785000,35.76,-86.88,Gary Mc,TN,1470413785000,20224806
209782174,Franklin,,1469506207000,35.92,-86.89,Genevieve Duenas,TN,1473200441000,20224806
212108339,Spring Hill,,1472766265000,35.76,-86.88,George,TN,1472766265000,20224806
231582835,Nashville,,1499778934000,36.18,-86.74,Hannah Beasley,TN,1502823138000,20224806
209378020,Murfreesboro,,1469910454000,35.87,-86.44,Heather Rue Trotter,TN,1470048715000,20224806
12584282,Nashville,Nashville,1469941378000,36.22,-86.77,heather young,TN,1470813422000,20224806
228687655,Dickson,,1496194251000,36.08,-87.43,Idajeanne,TN,1496194251000,20224806
239286406,Franklin,,1508461843000,35.93,-86.84,Jake Hearnsberger,TN,1508461843000,20224806
209830097,Franklin,,1469584247000,35.92,-86.89,Janice Howell,TN,1494349286000,20224806
226406820,Nashville,,1493176350000,36.17,-86.79,Jason Badger,TN,1493176350000,20224806
36981262,Hendersonville,"Hendersonville, tN ",1479073638000,36.32,-86.61,Jeremy Snyder,TN,1479360088000,20224806
38690452,Nashville,Cypress,1471857138000,36.11,-86.8,Jessica,TN,1472080852000,20224806
59475472,Nashville,,1469819166000,36.08,-86.72,Jessica Jernigan,TN,1470913778000,20224806
237004527,Burns,,1505918064000,36.04,-87.26,John Layne,TN,1505918064000,20224806
20743801,Fontana,,1469557791000,34.09,-117.46,Jose Duenas,CA,1469557791000,20224806
209443823,Franklin,,1469500274000,35.92,-86.89,Jose Duenas,TN,1501416799000,20224806
8736052,Brentwood,"Nashville, TN",1469827477000,36.0,-86.79,Joshua,TN,1469827477000,20224806
82838762,Murfreesboro,Cabo Rojo,1479258860000,35.83,-86.45,Juan R Gomez Hoyos,TN,1479258860000,20224806
10933380,Nashville,Nashville,1469818534000,36.21,-86.72,Justin Cutler,TN,1471751830000,20224806
185874155,Bristol,,1487072702000,36.57,-82.18,Kath WILLIAMS,TN,1487072702000,20224806
201718497,Nashville,,1470600000000,36.17,-86.78,Katie Grace Harris,TN,1470600000000,20224806
233248636,Spring Hill,,1501823864000,35.76,-86.88,Katie Herrel,TN,1501823864000,20224806
218422159,Nashville,,1482180068000,36.14,-86.74,Laton Key,TN,1482180068000,20224806
238803051,Nashville,,1508038330000,36.15,-86.86,Laverne Alexi,TN,1508038330000,20224806
101443692,Nashville,"Ebenezer, Mississippi",1491930397000,36.11,-86.86,Leo Paul,TN,1491930397000,20224806
192993638,Franklin,Franklin TN,1469999027000,35.92,-86.89,Margaret Sparks,TN,1488213877000,20224806
24210092,Memphis,,1473250052000,35.05,-90.07,Maria Jones,TN,1473250052000,20224806
234500939,Nashville,,1503255527000,36.17,-86.78,Marian Ramirez,TN,1503255527000,20224806
203825812,Franklin,,1471184679000,35.93,-86.81,marina distefano,TN,1473016372000,20224806
42133892,Nashville,,1469882416000,36.08,-86.72,Matt Helton,TN,1469882416000,20224806
225640284,Nashville,,1494461786000,36.14,-86.81,Michelle Hadley,TN,1498654007000,20224806
218560507,Antioch,,1482452830000,36.04,-86.64,Micouri Aranea Silva,TN,1482452830000,20224806
217113701,Nashville,,1479831761000,36.17,-86.72,Mrz Kennetha Patterson,TN,1479831761000,20224806
229769286,Murfreesboro,,1497546818000,35.87,-86.44,nancy johns,TN,1497546818000,20224806
4389320,Nashville,Charlotte,1484270926000,36.17,-86.78,Nat,TN,1484270926000,20224806
198714084,Nashville,,1479339191000,36.17,-86.72,Natasha MacDonald,TN,1479339191000,20224806
218042027,Nashville,,1483521999000,36.17,-86.78,Nick Sherron,TN,1483521999000,20224806
234168251,Franklin,,1502888673000,35.93,-86.81,Olivia Oetjens,TN,1502888673000,20224806
3949436,Nashville,Santiago,1471884094000,36.15,-86.86,Pablo,TN,1471884094000,20224806
219848852,La Vergne,,1484307133000,36.01,-86.57,Pegs Patton,TN,1484307133000,20224806
216269148,Brentwood,,1483725779000,36.0,-86.79,Q. White,TN,1483725779000,20224806
214548728,Clarksville,,1475890235000,36.53,-87.35,RA Blair,TN,1475890235000,20224806
230236089,Franklin,,1498131422000,35.92,-86.87,Randy Malinoff,TN,1498131422000,20224806
164319,Nashville,,1469911948000,36.17,-86.78,Ric,TN,1484699819000,20224806
215302362,Nashville,,1476996608000,36.09,-86.82,RK From,TN,1476996608000,20224806
48317042,Nashville,"Skokie, Illinois",1492610708000,36.06,-86.96,Robyn,TN,1492610708000,20224806
220561280,Franklin,,1485204203000,35.93,-86.81,S Beyer,TN,1485204203000,20224806
192823524,Rockvale,Murfreesboro,1470060607000,35.76,-86.55,Sabine Joseph,TN,1470060607000,20224806
215065731,Spring Hill,,1476656702000,35.76,-86.88,Sam Lax,TN,1476656702000,20224806
226849257,Nashville,,1493777852000,36.18,-86.74,Sammie Marler,TN,1493777852000,20224806
190178980,Hermitage,,1469817473000,36.19,-86.6,Samuel Danache,TN,1489975179000,20224806
235901934,Franklin,,1504809720000,35.93,-86.84,Sarah,TN,1504809720000,20224806
5053468,Nashville,,1469821543000,36.06,-86.96,Seth Arkin,TN,1471468066000,20224806
69167772,La Vergne,"Rockford, Illinois",1497477360000,36.01,-86.57,shannon,TN,1498705119000,20224806
150289852,Nashville,,1470082576000,36.17,-86.72,Simone Gonzalez,TN,1471871595000,20224806
7251068,Nashville,,1496174846000,36.11,-86.86,Stan Herring,TN,1496174846000,20224806
211643211,Franklin,,1472165484000,35.92,-86.89,Stephanie Clare,TN,1472166567000,20224806
196176929,Hermitage,,1469819066000,36.19,-86.6,Steve Kozy,TN,1485102196000,20224806
10836686,Nashville,"Tucson, AZ",1469835088000,36.06,-86.96,Steve Rockwell,TN,1469835088000,20224806
218948338,La Vergne,,1483154829000,36.0,-86.57,Steve Scott,TN,1483154829000,20224806
216517160,Nashville,,1478898280000,36.09,-86.82,Taiwanda Bason,TN,1478898280000,20224806
13702065,Goodlettsville,"Goodlettsville, TN",1469905406000,36.33,-86.74,Teresa,TN,1470701889000,20224806
214199656,Franklin,,1475443287000,35.99,-86.9,Theresa,TN,1475443287000,20224806
231076424,Franklin,,1499175601000,35.92,-86.87,Tiffanie Mcdonald,TN,1499175601000,20224806
209819955,Franklin,,1469558335000,36.73,-86.57,Tina Finley Myers,KY,1469558335000,20224806
197420482,Brentwood,,1470056477000,36.0,-86.79,Tracey Cartee,TN,1470056477000,20224806
229526648,Clarksville,,1497235294000,36.53,-87.35,Tricia Hale,TN,1497235294000,20224806
230870575,Antioch,,1498921000000,36.04,-86.64,victor thomas,TN,1498921000000,20224806
171064762,Franklin,,1469928491000,35.93,-86.81,Wendy Hibbard,TN,1469928491000,20224806
6160486,Franklin,,1469830709000,35.92,-86.89,yan fei,TN,1469830709000,20224806
199986051,Franklin,Franklin,1470164917000,35.93,-86.81,Yashpal Chepuri,TN,1470164917000,20224806
