id,city,hometown,joined,lat,lon,name,state,visited,group_id
218544360,Nashville,,1482417813000.0,36.17,-86.78,A. Michelle Harleston,TN,1482417813000.0,20336043
11868640,Nashville,,1487516329000.0,36.13,-86.8,AA,TN,1487516329000.0,20336043
201389794,Nashville,,1488235232000.0,36.17,-86.78,Aara,TN,1488235232000.0,20336043
231191065,Spring Hill,,1499309791000.0,35.76,-86.88,Aaryel Skyi Johnson,TN,1499309791000.0,20336043
220797656,Nashville,,1485493616000.0,36.17,-86.78,Aaryn Hausinger,TN,1485572509000.0,20336043
216200172,Hermitage,,1478385220000.0,36.19,-86.6,Abbie Madamba,TN,1480984100000.0,20336043
233293976,Nashville,,1501879209000.0,36.08,-86.72,Abby F,TN,1505495728000.0,20336043
237410203,Nashville,,1506372414000.0,36.17,-86.72,Abby S,TN,1506475601000.0,20336043
226665772,Nashville,,1493535951000.0,36.15,-86.86,Abigail Beggs,TN,1493535951000.0,20336043
236771355,Goodlettsville,,1506771395000.0,36.32,-86.7,Abonée Parker,TN,1506771395000.0,20336043
213501999,Nashville,,1474590374000.0,36.17,-86.78,Adele Malpert,TN,1474590374000.0,20336043
215738275,Nashville,,1477665468000.0,36.18,-86.81,Adiah M,TN,1477665468000.0,20336043
204173902,Nashville,,1473700578000.0,36.08,-86.72,Afton Crumitie,TN,1473700578000.0,20336043
231250580,Nashville,,1499382626000.0,36.16,-86.79,Agatha Bukowski,TN,1508196934000.0,20336043
214359255,Nashville,,1475632032000.0,36.14,-86.81,Ailie Green,TN,1475632032000.0,20336043
237812072,Nashville,,1506818137000.0,36.07,-86.73,Ainsley Carman,TN,1506818137000.0,20336043
222343053,Nashville,,1487532054000.0,36.14,-86.8,Aisha S K,TN,1487532054000.0,20336043
188472204,Nashville,Nashville,1482183195000.0,36.16,-86.79,Aishwarya,TN,1482183195000.0,20336043
236851400,Nashville,,1505763446000.0,36.16,-86.79,Aja Hyde,TN,1506350280000.0,20336043
9089210,Smyrna,,1502483807000.0,35.97,-86.51,Alana,TN,1502809583000.0,20336043
220370370,Murfreesboro,,1484957121000.0,35.82,-86.45,Alena Campbell,TN,1484973565000.0,20336043
185790102,Nashville,Nashville,1489534854000.0,36.13,-86.8,Alex Boisvert,TN,1493500326000.0,20336043
231471032,Nashville,,1500002820000.0,36.15,-86.86,Alex Hanflink,TN,1500002820000.0,20336043
219754069,Nashville,,1484180238000.0,36.14,-86.74,Alex Johnson,TN,1484180238000.0,20336043
236269317,Nashville,,1505189050000.0,36.14,-86.81,Alex Shaw,TN,1505189050000.0,20336043
234935754,Nashville,,1503757599000.0,36.17,-86.78,Alexa Regina,TN,1503757599000.0,20336043
225260200,Nashville,,1491624488000.0,36.17,-86.78,Alexa S,TN,1491624488000.0,20336043
9219838,Durham,,1484077488000.0,36.0,-78.9,Alexandra,NC,1494863839000.0,20336043
224348267,Nashville,,1490330447000.0,36.17,-86.78,Alexandra Kirby,TN,1490330447000.0,20336043
208417123,Nashville,,1472045077000.0,36.17,-86.78,Alexandra Reed,TN,1472501465000.0,20336043
222363811,Murfreesboro,,1487557487000.0,35.87,-86.34,Alexandria Jones,TN,1489950407000.0,20336043
98369112,Nashville,,1472955472000.0,36.17,-86.78,Alexis Preston,TN,1473221632000.0,20336043
219051525,Nashville,,1483324091000.0,36.11,-86.86,Alexuis Weems,TN,1483324091000.0,20336043
213272753,Nashville,,1474302754000.0,36.17,-86.78,Aleyda,TN,1474302754000.0,20336043
26210332,Nashville,So IL,1475633457000.0,36.11,-86.78,Ali Walton,TN,1499651953000.0,20336043
185314634,Nashville,,1472423200000.0,36.17,-86.78,Alicia Cobb,TN,1488424833000.0,20336043
232964564,Nashville,,1501474367000.0,36.08,-86.72,Alina M Torres,TN,1501474367000.0,20336043
173930692,Nashville,Nashville,1472090802000.0,36.17,-86.72,Alison M.,TN,1472514032000.0,20336043
229381615,Nashville,,1497053394000.0,36.15,-86.81,Alli Joanne,TN,1497053394000.0,20336043
212568688,Nashville,,1473886158000.0,36.17,-86.78,Allie Burnett,TN,1473886158000.0,20336043
238258678,Mount Juliet,,1507309061000.0,36.22,-86.52,Allie Hunter,TN,1507309061000.0,20336043
235119565,Spring Hill,,1503967850000.0,35.76,-86.88,Allie Laughary,TN,1503967850000.0,20336043
234720601,Nashville,,1503506343000.0,36.13,-86.67,Allison Bartlett,TN,1503506343000.0,20336043
217453119,Louisville,Nashville,1481212572000.0,33.0,-82.41,Allison Cobb,GA,1485264368000.0,20336043
229560627,Franklin,,1497280992000.0,35.93,-86.81,Allison Harris,TN,1500612840000.0,20336043
200052480,Nashville,,1472190195000.0,36.17,-86.78,Allison Krandall,TN,1474654140000.0,20336043
211750619,Nashville,"Napa Valley, CA",1472274892000.0,36.17,-86.78,Allison M,TN,1488406916000.0,20336043
232162112,Nashville,,1500476220000.0,36.17,-86.78,Allison Martin,TN,1500476220000.0,20336043
232588197,Nashville,,1501003786000.0,36.17,-86.78,Allison Plattsmier,TN,1506302726000.0,20336043
13248416,Nashville,,1501001155000.0,36.17,-86.78,Allison Quintanilla,TN,1502763782000.0,20336043
185759968,Nashville,,1474848711000.0,36.18,-86.64,Allison Schmitz,TN,1474848711000.0,20336043
226686308,Columbia,,1493567826000.0,35.62,-87.03,Allison Spader,TN,1496709792000.0,20336043
189716705,Nashville,,1478088201000.0,36.17,-86.78,Allison Verre,TN,1478088201000.0,20336043
237953094,Nashville,,1506978408000.0,36.15,-86.81,Ally,TN,1506978408000.0,20336043
237320832,Nashville,,1506278656000.0,36.17,-86.77,Ally Hummel,TN,1506278656000.0,20336043
216425596,Nashville,,1478745920000.0,36.15,-86.86,Ally Sheely,TN,1478745920000.0,20336043
213437717,Nashville,,1474504762000.0,36.07,-86.73,Allyson,TN,1500248317000.0,20336043
207069934,Nashville,nolensville,1474468177000.0,36.08,-86.72,Alpa B Patel,TN,1500914613000.0,20336043
232401175,Nashville,,1500771969000.0,36.17,-86.78,Alysha Garrett,TN,1500771969000.0,20336043
220363069,Nashville,,1484948598000.0,36.21,-86.72,Alyson,TN,1485364368000.0,20336043
224031272,White House,,1489906100000.0,36.48,-86.69,Alyssa,TN,1499996547000.0,20336043
169743202,Nashville,,1502674903000.0,36.17,-86.78,Alyssa Briann,TN,1502674903000.0,20336043
231667524,Nashville,,1499874164000.0,36.13,-86.8,Alyssa Cervantes,TN,1499874164000.0,20336043
225793287,Nashville,,1492368467000.0,36.17,-86.78,Alyssa Lynn,TN,1500468078000.0,20336043
220902681,Nashville,,1485641521000.0,36.08,-86.72,Alyssa Sidebottom,TN,1485641521000.0,20336043
237812084,Nashville,,1506818664000.0,36.17,-86.78,Alyssa Zahka,TN,1506818664000.0,20336043
236759986,Nashville,,1505674907000.0,36.07,-86.78,Amanda ,TN,1505674907000.0,20336043
32644152,Nashville,,1473193345000.0,36.17,-86.78,Amanda,TN,1473615827000.0,20336043
214659685,Nashville,Nashville,1487095631000.0,36.17,-86.72,Amanda,TN,1492455100000.0,20336043
150902602,Nashville,,1485840085000.0,36.17,-86.78,Amanda,TN,1505488494000.0,20336043
187977438,Nashville,,1491503236000.0,36.17,-86.72,Amanda,TN,1498565875000.0,20336043
232887193,Nashville,,1501375273000.0,36.17,-86.78,Amanda,TN,1501375273000.0,20336043
219336374,Nashville,,1486588377000.0,36.11,-86.86,Amanda Bigalk,TN,1497538045000.0,20336043
231555108,Springfield,,1499740091000.0,36.52,-86.87,Amanda Godwin,TN,1501292929000.0,20336043
85390722,Nashville,Nashville,1481337827000.0,36.15,-86.86,Amanda Jay,TN,1496196030000.0,20336043
198580355,Spring Hill,,1472710297000.0,35.76,-86.88,Amanda Nichole Abele,TN,1490567678000.0,20336043
183918006,Nashville,,1499449336000.0,36.08,-86.72,Amanda Parsons,TN,1499449336000.0,20336043
220988847,Smyrna,,1485740835000.0,35.97,-86.51,Amanda Risco,TN,1506743764000.0,20336043
183742617,Franklin,,1473864531000.0,35.99,-86.9,Amanda Romano,TN,1473864531000.0,20336043
212359545,Nashville,,1473728633000.0,36.17,-86.78,Amanda Westhelle,TN,1478040821000.0,20336043
230129311,Antioch,,1501063284000.0,36.08,-86.59,Amanda Williams,TN,1505436176000.0,20336043
235253295,Madison,,1504115089000.0,36.26,-86.71,Amanda Worlds,TN,1504115089000.0,20336043
195649609,Nashville,,1482198434000.0,36.18,-86.81,Amber,TN,1504884839000.0,20336043
233444367,Nolensville,,1502052078000.0,35.94,-86.67,Amber  Saddler,TN,1502052078000.0,20336043
223581048,Franklin,,1489273021000.0,35.92,-86.89,Amber Bartley,TN,1490294362000.0,20336043
237666212,Nashville,,1506648435000.0,36.06,-86.96,Amber Brantley,TN,1506648435000.0,20336043
185953628,Aurora,,1508128658000.0,39.58,-104.76,Amber Gartner,CO,1508128658000.0,20336043
215019900,Nashville,,1476589891000.0,36.09,-86.82,Amber Harbin,TN,1488577595000.0,20336043
218950406,Gallatin,,1483157911000.0,36.39,-86.45,Amber McVicker,TN,1483932610000.0,20336043
228327145,Nashville,,1495722672000.0,36.07,-86.73,Amber Myers,TN,1506443887000.0,20336043
229818980,Nashville,,1497614632000.0,36.18,-86.74,Amber Pacey,TN,1497614632000.0,20336043
215009755,Murfreesboro,,1476575523000.0,35.78,-86.33,Amber Wade,TN,1476575523000.0,20336043
227480102,Nashville,,1494641661000.0,36.17,-86.78,AmberB,TN,1495864302000.0,20336043
190026711,Nashville,,1491103826000.0,36.08,-86.72,Amberlee' Brooks,TN,1491103826000.0,20336043
212099065,Nashville,,1472755052000.0,36.17,-86.78,Amelia Handshoe,TN,1472755052000.0,20336043
211433787,Nashville,,1471838623000.0,36.17,-86.78,Amisha Thomas,TN,1474344126000.0,20336043
222102326,La Vergne,,1487189400000.0,36.0,-86.57,Amy Brewer Hodge,TN,1489194934000.0,20336043
232126408,Murfreesboro,,1500427541000.0,35.87,-86.44,Amy C.,TN,1502790387000.0,20336043
198655679,Antioch,Nashville,1484765574000.0,36.04,-86.64,Amy Carpenter,TN,1484765574000.0,20336043
229667750,Spring Hill,,1497405608000.0,35.76,-86.88,Amy Dempe,TN,1497405608000.0,20336043
63038952,Nashville,Nashville,1503059303000.0,36.06,-86.96,Amy Garrison,TN,1503059303000.0,20336043
226225588,Nashville,,1492947496000.0,36.16,-86.78,Amy Householder,TN,1492947496000.0,20336043
231383257,Nashville,,1499544458000.0,36.17,-86.78,Amy Kay,TN,1499544458000.0,20336043
12992627,Hendersonville,,1475957110000.0,36.3,-86.62,Amy Landrus Edwards,TN,1483473049000.0,20336043
231080742,Nashville,,1499180323000.0,36.17,-86.78,Amy Meade Mayfield,TN,1499180323000.0,20336043
226402285,Goodlettsville,,1493167395000.0,36.32,-86.72,Amy Munguia,TN,1493167395000.0,20336043
235910104,Hendersonville,,1504856157000.0,36.32,-86.61,Amy Page,TN,1505445404000.0,20336043
231249359,Franklin,,1499381553000.0,35.93,-86.81,Amy Saffell,TN,1499381553000.0,20336043
235498868,Nashville,,1504390759000.0,36.17,-86.78,anchorbelow,TN,1504390759000.0,20336043
238683922,Nashville,,1507769311000.0,36.17,-86.78,Andi A,TN,1507957182000.0,20336043
3550993,Nashville,,1489518388000.0,36.17,-86.78,Andrea,TN,1504221807000.0,20336043
14674691,Nashville,,1486163822000.0,36.17,-86.78,Andrea,TN,1499982180000.0,20336043
126488972,Nashville,"Saint Louis, MO",1497498416000.0,36.17,-86.78,Andrea,TN,1497498416000.0,20336043
192780665,Nashville,Nashville,1499373649000.0,36.08,-86.72,Andrea A,TN,1499458959000.0,20336043
231006367,Gallatin,,1499091946000.0,36.39,-86.45,Andrea Kus George,TN,1499091946000.0,20336043
228205967,Nashville,,1495565323000.0,36.18,-86.81,Andrea Law,TN,1502819723000.0,20336043
232746995,Nashville,,1506482344000.0,36.17,-86.78,Andrea McFadden,TN,1506482344000.0,20336043
160845252,Murfreesboro,,1502215371000.0,35.78,-86.33,Andrea Moore,TN,1502215371000.0,20336043
215963771,Nashville,,1478029278000.0,36.06,-86.96,Andrea Petre,TN,1478029278000.0,20336043
213030935,Nashville,,1473990771000.0,36.17,-86.78,Andria Mathis Strickland,TN,1473990771000.0,20336043
212554835,Nashville,,1473365984000.0,36.17,-86.78,Angel ,TN,1473365984000.0,20336043
235261736,Hermitage,,1504121634000.0,36.19,-86.6,Angel Koenig,TN,1504121634000.0,20336043
214790765,Guthrie,,1476254519000.0,36.7,-87.18,Angel LaVeya,KY,1476254519000.0,20336043
224331482,Nashville,,1490568399000.0,36.17,-86.78,Angel Madden,TN,1500430429000.0,20336043
219088133,Franklin,,1483375543000.0,35.92,-86.89,Angela,TN,1483375543000.0,20336043
9242404,Nashville,,1492231587000.0,36.13,-86.7,Angela,TN,1495285204000.0,20336043
235707884,Nashville,,1504618123000.0,36.17,-86.78,Angela Brown,TN,1505099587000.0,20336043
225016712,Brentwood,,1491270368000.0,36.0,-86.79,Angela Hurt Gordon,TN,1493743651000.0,20336043
214325046,Nashville,,1475600139000.0,36.18,-86.81,Angela Loomis,TN,1493067627000.0,20336043
153556432,Anniston,"Fort Wayne, IN",1473645956000.0,33.66,-85.77,Angela M Morales,AL,1475442232000.0,20336043
213028888,Nashville,,1488593457000.0,36.17,-86.78,Angela Ott,TN,1490662761000.0,20336043
225421891,Nashville,,1492437242000.0,36.16,-86.79,Angela Renee,TN,1492437242000.0,20336043
215846841,West Palm Beach,,1477841851000.0,26.64,-80.24,Angelica Guzman,FL,1477841851000.0,20336043
233174862,Nashville,,1501731698000.0,36.15,-86.86,Angelina Contreras,TN,1501731698000.0,20336043
230452366,Gallatin,,1498405313000.0,36.39,-86.45,Angie,TN,1500302682000.0,20336043
215314541,Nashville,,1477012856000.0,36.06,-86.96,Angie Hogue,TN,1477012856000.0,20336043
235731189,Clarksville,,1504637629000.0,36.49,-87.23,Angie Rawlins,TN,1504637629000.0,20336043
224749493,Nashville,,1490890286000.0,36.08,-86.72,Anita D,TN,1490890286000.0,20336043
213733293,Mount Juliet,,1474899448000.0,36.21,-86.52,Anita Fisher,TN,1474918887000.0,20336043
186210983,Nashville,,1499715121000.0,36.18,-86.81,Anjelica Gipson,TN,1500584633000.0,20336043
99924752,Nashville,,1472516981000.0,36.17,-86.78,Ann Caudill,TN,1501576347000.0,20336043
228303901,Nashville,,1495685872000.0,36.11,-86.86,Anna Avery,TN,1506135651000.0,20336043
217472838,Mitchellville,,1480465544000.0,36.63,-86.54,Anna Catherine,TN,1480465544000.0,20336043
38729372,Franklin,,1472127046000.0,35.92,-86.89,Anna Rutledge ,TN,1500658747000.0,20336043
225934455,Murfreesboro,,1492550284000.0,35.78,-86.33,Anne,TN,1492550284000.0,20336043
236763004,Brentwood,,1505677489000.0,36.0,-86.79,Anne Shermam,TN,1505677489000.0,20336043
216527939,Nashville,,1506479155000.0,36.08,-86.72,Annette,TN,1507292447000.0,20336043
205852066,Nashville,,1497964091000.0,36.17,-86.72,Annette,TN,1506740612000.0,20336043
198188049,Franklin,,1486330907000.0,35.93,-86.81,Annette,TN,1506506030000.0,20336043
212118303,Nashville,,1472778787000.0,36.16,-86.79,Annette Griffin,TN,1472778787000.0,20336043
215530663,Nashville,,1477343021000.0,36.17,-86.78,Annette Pulford,TN,1487120281000.0,20336043
215251139,Nashville,,1476916390000.0,36.16,-86.79,Annie S. Lee,TN,1476922719000.0,20336043
232171964,Nashville,,1500485516000.0,36.07,-86.73,Annikki Merritt,TN,1505305127000.0,20336043
218489682,Nashville,,1482304894000.0,36.08,-86.72,Anqunette Hollins,TN,1506482416000.0,20336043
217823050,Mount Juliet,,1481065093000.0,36.21,-86.52,April,TN,1506439844000.0,20336043
192501596,Murfreesboro,,1507873610000.0,35.82,-86.45,April Faircloth Collier,TN,1507873610000.0,20336043
225895863,Clarksville,,1492512084000.0,36.53,-87.34,April Lewis,TN,1498008585000.0,20336043
226866303,Hendersonville,,1493808681000.0,36.32,-86.58,April Martinez Weis,TN,1502657487000.0,20336043
228001013,Nashville,,1495332974000.0,36.17,-86.78,Ari,TN,1503631886000.0,20336043
230547052,Nashville,,1498572611000.0,36.17,-86.78,Ariana Hand,TN,1498572611000.0,20336043
192733804,Franklin,,1499830465000.0,35.93,-86.81,Arlena Clausi,TN,1504715085000.0,20336043
239498305,Brentwood,,1508707620000.0,36.0,-86.79,Arrettia Winters Bourne,TN,1508707620000.0,20336043
33793832,Nashville,"Nashville, TN ",1477929637000.0,36.18,-86.74,Ashley,TN,1477929637000.0,20336043
102037312,Nashville,,1472075290000.0,36.17,-86.78,Ashley,TN,1472433128000.0,20336043
217448682,Nashville,Nashville,1480433303000.0,36.08,-86.72,Ashley Adkins,TN,1480433303000.0,20336043
209824760,Nashville,Nashville TN,1488222072000.0,36.17,-86.78,Ashley Foree,TN,1507141784000.0,20336043
211907159,Nashville,,1472747109000.0,36.17,-86.78,Ashley Garth,TN,1472747109000.0,20336043
227267693,Clarksville,,1494353929000.0,36.56,-87.35,Ashley Gravatt,TN,1494353929000.0,20336043
216799446,Nashville,,1479328985000.0,36.16,-86.79,Ashley Hendricks Pulley,TN,1480612729000.0,20336043
160539472,Nashville,,1504030518000.0,36.17,-86.78,Ashley J.,TN,1506743144000.0,20336043
235437927,Nashville,,1504319601000.0,36.07,-86.78,Ashley Jaafar,TN,1504319601000.0,20336043
211849974,Hendersonville,,1472430739000.0,36.32,-86.61,Ashley Johnson,TN,1472430739000.0,20336043
222557379,Nashville,,1487813288000.0,36.06,-86.96,Ashley King,TN,1487813288000.0,20336043
214804758,Portland,,1476280524000.0,36.57,-86.49,Ashley Lund,TN,1476280524000.0,20336043
217726758,Nashville,,1480909312000.0,36.22,-86.86,ASHLEY OLDS,TN,1498684452000.0,20336043
211770956,Nashville,,1472311371000.0,36.17,-86.78,Ashley Rose,TN,1472311371000.0,20336043
238417571,Nashville,,1507483482000.0,36.11,-86.86,Ashley Sanford,TN,1507483482000.0,20336043
8293022,Nashville,West Hartford,1496094480000.0,36.18,-86.79,Ashley Sanyal,TN,1507465900000.0,20336043
225947555,Nashville,,1492565349000.0,36.07,-86.73,Ashley Seiss,TN,1492565349000.0,20336043
183163500,Unadilla,,1495757336000.0,32.26,-83.75,Ashley Sinyard,GA,1495757336000.0,20336043
229468743,Nashville,,1497161303000.0,36.07,-86.73,Ashley Smith,TN,1497161303000.0,20336043
233608487,Nashville,,1502233792000.0,36.08,-86.72,Ashley Wise,TN,1502233792000.0,20336043
238746275,Nashville,,1507839518000.0,36.06,-86.96,Ashli,TN,1507839518000.0,20336043
227022050,Nashville,,1494017289000.0,36.17,-86.78,Ashlinn Romagnoli,TN,1494017289000.0,20336043
229327085,Antioch,,1496982818000.0,36.04,-86.64,Ashten Pearson,TN,1496982818000.0,20336043
11991821,Nashville,Nashville ,1508380505000.0,36.11,-86.86,Aubrey Livingston,TN,1508380505000.0,20336043
218061057,Nashville,,1481494105000.0,36.17,-86.78,Aubrie Davis,TN,1481494105000.0,20336043
233387655,Brentwood,,1501986776000.0,36.03,-86.79,Audrey,TN,1502682170000.0,20336043
226742107,Murfreesboro,,1493644087000.0,35.87,-86.34,Audrey Spann,TN,1496329020000.0,20336043
219028927,Kingston Springs,,1483298130000.0,36.09,-87.12,Auga Roark Gossett,TN,1483298130000.0,20336043
234415752,Nashville,,1503158625000.0,36.08,-86.72,Autumn Lawson,TN,1503158625000.0,20336043
238571578,Nashville,,1507648817000.0,36.17,-86.78,Averie James,TN,1507648817000.0,20336043
229656360,Nashville,,1497393302000.0,36.17,-86.78,Azaria Robinson,TN,1497393302000.0,20336043
14114560,Nashville,,1472082431000.0,36.18,-86.74,barbara,TN,1506554174000.0,20336043
237082154,Nashville,,1508176461000.0,36.17,-86.78,Barbara,TN,1508176461000.0,20336043
235987023,Franklin,,1504898795000.0,35.92,-86.89,barbara,TN,1505265818000.0,20336043
222247315,Clarksville,,1490831313000.0,36.56,-87.41,Barbara Russell,TN,1506525006000.0,20336043
216126045,Antioch,,1478272044000.0,36.04,-86.64,Barbi Millard,TN,1478272044000.0,20336043
226903957,Nashville,,1493852327000.0,36.17,-86.78,Bea Barksdale ,TN,1500268917000.0,20336043
231900180,La Vergne,,1500152979000.0,36.01,-86.57,Beate Geyermann-braun,TN,1500152979000.0,20336043
232804005,Nashville,,1501270115000.0,36.11,-86.86,Becky Fleckenstein,TN,1501270115000.0,20336043
203544072,Hermitage,,1507675957000.0,36.19,-86.6,Becky Garland,TN,1507675957000.0,20336043
237885545,Madison,,1506902942000.0,36.26,-86.71,Becky Merin,TN,1506902942000.0,20336043
236160823,Gallatin,,1505085531000.0,36.39,-86.45,Beka Thorpe,TN,1505085531000.0,20336043
229519041,Nashville,,1497225964000.0,36.07,-86.78,Bekah,TN,1497225964000.0,20336043
221953683,Nashville,,1486991842000.0,36.17,-86.78,Belinda Nydahl,TN,1486991842000.0,20336043
15143171,Nashville,,1493863647000.0,36.17,-86.72,Beth,TN,1507830382000.0,20336043
208753729,Brentwood,,1496578205000.0,36.0,-86.79,Beth,TN,1499292827000.0,20336043
189321985,Nashville,,1500031438000.0,36.15,-86.86,Beth,TN,1502759889000.0,20336043
10876998,Nashville,,1499196591000.0,36.17,-86.78,Beth G.,TN,1500301650000.0,20336043
220288461,Nashville,,1484848800000.0,36.17,-86.72,Beth Lewis,TN,1484848800000.0,20336043
227486384,Nashville,,1494651040000.0,36.17,-86.78,Beth Paz,TN,1494651040000.0,20336043
222171588,Nashville,,1487284252000.0,36.08,-86.72,Beth Pinkerton,TN,1497794011000.0,20336043
236814848,Fort Campbell,,1505735813000.0,36.65,-87.46,Bethany Baker,KY,1505735813000.0,20336043
222787751,Gallatin,,1488145978000.0,36.39,-86.45,Bethany Ball,TN,1488145978000.0,20336043
210342572,Nashville,,1472300576000.0,36.15,-86.86,Bethany Christensen,TN,1475069206000.0,20336043
227129757,Nashville,,1494172058000.0,36.21,-86.72,Bethany Grimes,TN,1494172058000.0,20336043
92043092,Brentwood,"Brentwood, TN",1501849923000.0,36.0,-86.79,BethFerguson,TN,1503493074000.0,20336043
11729439,Nashville,,1490068461000.0,36.16,-86.79,betty ,TN,1500237210000.0,20336043
226948064,Nashville,,1493915630000.0,36.11,-86.86,Betty Atwell,TN,1493915630000.0,20336043
235973153,Nashville,,1504886710000.0,36.08,-86.72,Betty B,TN,1504886710000.0,20336043
130777342,Pleasant View,,1497672656000.0,36.38,-87.03,Beverly,TN,1503662611000.0,20336043
233781461,Mount Juliet,,1508350113000.0,36.22,-86.52,Beverly,TN,1508350113000.0,20336043
237553990,Nashville,,1506528893000.0,36.17,-86.78,Bianca Grant,TN,1506528893000.0,20336043
222289339,Nashville,,1487453819000.0,36.17,-86.72,Birtha Street,TN,1487453819000.0,20336043
10477850,Nashville,,1504875215000.0,36.18,-86.74,bnmeintn,TN,1508265502000.0,20336043
220821801,Spring Hill,,1485532438000.0,35.76,-86.88,Bobbie James-Borener,TN,1485532438000.0,20336043
13814459,Nashville,"Paris, TN",1496266357000.0,36.09,-86.82,Bobo,TN,1496266357000.0,20336043
216494258,Nashville,,1482501829000.0,36.17,-86.78,boiaryntseva,TN,1482501829000.0,20336043
237740810,Mount Juliet,,1506735355000.0,36.21,-86.52,Bonnie Jackanicz,TN,1506735355000.0,20336043
234052718,Nashville,,1502750045000.0,36.06,-86.96,Brandee Carney,TN,1502803596000.0,20336043
145097032,Nashville,,1474721436000.0,36.17,-86.78,Brandi Bruner,TN,1474721436000.0,20336043
159161292,Brentwood,"Brentwood, TN",1501720532000.0,36.0,-86.79,Brandy ,TN,1505054288000.0,20336043
212348977,Nashville,,1473730156000.0,36.17,-86.78,Brandy Dufrane,TN,1473730156000.0,20336043
147250582,Bowling Green,,1498350715000.0,37.02,-86.46,Brandy Keating,KY,1507944653000.0,20336043
133355872,Nashville,,1473977393000.0,36.17,-86.78,Bree,TN,1473977393000.0,20336043
198722559,Nashville,,1473710622000.0,36.17,-86.78,Brenda,TN,1487867017000.0,20336043
62418442,Nashville,,1472221248000.0,36.16,-86.79,Brenda Dillard,TN,1472221248000.0,20336043
233379479,Madison,,1501977434000.0,36.26,-86.71,Brenda Lee,TN,1501977434000.0,20336043
237503196,Nashville,,1507012991000.0,36.15,-86.81,Brenna Durr,TN,1507177850000.0,20336043
231255376,Antioch,,1499388089000.0,36.04,-86.64,Bri,TN,1499388089000.0,20336043
2709042,Madison,Pflugerville,1471739292000.0,36.26,-86.71,Briana Bays,TN,1471739292000.0,20336043
192227033,Nashville,Nashville,1485211673000.0,36.17,-86.78,Briana Buenzli,TN,1487566695000.0,20336043
233171899,Nashville,,1501728295000.0,36.17,-86.78,briandu,TN,1501728295000.0,20336043
64455192,Mount Juliet,Los Angeles,1472127723000.0,36.21,-86.52,Brianna,TN,1506449520000.0,20336043
227409992,Franklin,,1494544792000.0,35.92,-86.89,Bridget,TN,1502825108000.0,20336043
239337839,Goodlettsville,,1508616456000.0,36.32,-86.72,Bridget McCloud,TN,1508616456000.0,20336043
227509736,Nashville,,1494688095000.0,36.17,-86.78,Bridgett Buckles,TN,1494688095000.0,20336043
203619085,Nashville,,1506895444000.0,36.16,-86.78,Brie Ana Vogt,TN,1506895444000.0,20336043
233169061,Nashville,,1501724629000.0,36.17,-86.78,Britany Ann Mcklemurry,TN,1501724629000.0,20336043
197966717,Franklin,,1503545815000.0,35.92,-86.89,Britney,TN,1505481143000.0,20336043
221147127,Nashville,,1485976622000.0,36.17,-86.8,Britney Clem,TN,1486180252000.0,20336043
214993642,Mount Juliet,,1476555267000.0,36.22,-86.52,Britney Purkey,TN,1484376414000.0,20336043
189813772,Nashville,,1500916953000.0,36.13,-86.8,Britni,TN,1506616549000.0,20336043
218779530,Nashville,,1482897465000.0,36.16,-86.77,Britt,TN,1482897465000.0,20336043
154488962,Nashville,,1472051455000.0,36.17,-86.78,Brittany,TN,1483471722000.0,20336043
216086789,Old Hickory,,1478206127000.0,36.25,-86.63,Brittany Brandle,TN,1478206127000.0,20336043
147801092,Murfreesboro,,1504659058000.0,35.91,-86.38,"Brittany Lee, Ph.D.",TN,1506304980000.0,20336043
223954493,Hermitage,,1489790465000.0,36.19,-86.6,Brittany Martin,TN,1489790465000.0,20336043
227859656,Mount Juliet,,1500492597000.0,36.21,-86.52,Brittany Millsaps,TN,1500580338000.0,20336043
187445713,Nashville,,1506018630000.0,36.08,-86.72,Brittany Purvis,TN,1506018630000.0,20336043
219831987,Hendersonville,,1484276873000.0,36.32,-86.61,Brittney Nichole Hill,TN,1485262658000.0,20336043
234521312,Nashville,,1503275534000.0,36.15,-86.86,Brittni Talley,TN,1503275534000.0,20336043
236389949,Murfreesboro,,1505305180000.0,35.87,-86.34,Brook Breece,TN,1507839883000.0,20336043
215875831,Nashville,,1477878753000.0,36.17,-86.78,Brooke,TN,1477878753000.0,20336043
234109439,Nashville,,1502818150000.0,36.07,-86.73,Brooke Ellis,TN,1502818150000.0,20336043
233884207,Hendersonville,,1502561372000.0,36.32,-86.61,Brooke Mullinix,TN,1502561372000.0,20336043
225402801,Nashville,,1491839948000.0,36.1,-86.66,Caitlin ,TN,1491839948000.0,20336043
223626487,Clarksville,,1489341054000.0,36.53,-87.35,caitlin nightingale,TN,1490924359000.0,20336043
12777110,Nashville,,1500436173000.0,36.17,-86.78,Cameron,TN,1500436173000.0,20336043
232539666,Nashville,,1500941914000.0,36.17,-86.78,Camille Hackney,TN,1500941914000.0,20336043
24207352,Mount Juliet,,1496842898000.0,36.21,-86.52,Candace,TN,1496842898000.0,20336043
212300031,Gallatin,,1486886779000.0,36.39,-86.45,Cande,TN,1494634300000.0,20336043
233426938,Nashville,,1502330281000.0,36.15,-86.81,Candice Ardoin,TN,1508291827000.0,20336043
821311,Nashville,,1501727571000.0,36.17,-86.78,candiceraines,TN,1501727571000.0,20336043
229296141,Nashville,,1496946808000.0,36.17,-86.78,Candra K,TN,1496946808000.0,20336043
236032127,Nashville,,1507372276000.0,36.17,-86.78,Caren,TN,1507372276000.0,20336043
213445859,Franklin,,1481476236000.0,35.92,-86.89,Carey,TN,1487719590000.0,20336043
227094703,Brentwood,,1494117326000.0,36.0,-86.79,Carin Lachiver,TN,1494117326000.0,20336043
239591147,Nashville,,1508804934000.0,36.17,-86.78,Carissa Boone,TN,1508804934000.0,20336043
231122725,Nashville,,1499225946000.0,36.09,-86.82,Carleen Cunio,TN,1499225946000.0,20336043
79976092,Nashville,,1502743543000.0,36.17,-86.78,Carlie wright,TN,1502846320000.0,20336043
229204306,Hermitage,,1496830975000.0,36.19,-86.6,Carma,TN,1496830975000.0,20336043
211861635,Hermitage,,1472429781000.0,36.19,-86.6,Carma Mattadeen,TN,1480984891000.0,20336043
219733550,Nashville,,1498791322000.0,36.17,-86.78,Carol ,TN,1506691034000.0,20336043
50452172,Nashville,Nashville,1486317305000.0,36.17,-86.72,Carol M.,TN,1505488791000.0,20336043
212329432,Gallatin,,1473077650000.0,36.39,-86.45,Carol Walker,TN,1474239038000.0,20336043
207378421,Saint Augustine,,1483935787000.0,29.83,-81.27,Caroline ,FL,1483935787000.0,20336043
207125310,Nashville,,1486498957000.0,36.16,-86.79,Caroline,TN,1502694893000.0,20336043
213613891,Gallatin,"Gallatin, TN",1486333920000.0,36.39,-86.45,Caroline Betts,TN,1501031091000.0,20336043
231219889,Nashville,,1499352887000.0,36.08,-86.72,Caroline Colquhoun,TN,1499352887000.0,20336043
215369338,Lebanon,Lebanon,1507186895000.0,36.21,-86.31,Caroline Dodson,TN,1507644901000.0,20336043
233318819,Nashville,,1501907756000.0,36.11,-86.78,Caroline Mayhew,TN,1501907756000.0,20336043
233701730,Nashville,,1502334946000.0,36.15,-86.81,Caroline Thiriét,TN,1502334946000.0,20336043
226365310,Nashville,,1493128160000.0,36.09,-86.82,Carolyn Horne,TN,1493128160000.0,20336043
8820774,Nashville,Nashville,1503672313000.0,36.17,-86.72,Carrie,TN,1507057692000.0,20336043
231900139,Nashville,,1500153207000.0,36.16,-86.78,Carrie Bohnert,TN,1500153207000.0,20336043
60315652,Nashville,,1484083987000.0,36.17,-86.78,Carrie Sporck,TN,1490978214000.0,20336043
228483325,Nashville,,1495930852000.0,36.17,-86.78,Casey Brands,TN,1495930852000.0,20336043
238594431,Nashville,,1507667153000.0,36.07,-86.78,Cassandra Renee French,TN,1507667153000.0,20336043
213951450,Nashville,,1475581757000.0,36.17,-86.78,Cassidy Mitchiner,TN,1493140331000.0,20336043
232508580,Nashville,,1503431019000.0,36.17,-86.78,Cassie Roberts,TN,1503431019000.0,20336043
227993162,Nashville,,1495321519000.0,36.14,-86.81,Cat Rainford,TN,1496623916000.0,20336043
12128207,Franklin,"Columbia, SC",1505790005000.0,35.93,-86.81,Catherine,TN,1505790005000.0,20336043
209918649,Nashville,,1480046869000.0,36.17,-86.78,Catherine Johnson,TN,1484498981000.0,20336043
236062321,Nashville,,1504981642000.0,36.15,-86.79,Catherine McDonald,TN,1504981642000.0,20336043
233685259,Mount Juliet,,1502317886000.0,36.22,-86.52,Catherine Smith,TN,1502317886000.0,20336043
224519666,Nashville,,1490576519000.0,36.17,-86.78,Cathy,TN,1490576519000.0,20336043
232538888,Nashville,,1500941061000.0,36.13,-86.8,Cathy Ellis,TN,1500941061000.0,20336043
233099453,Nashville,,1501639937000.0,36.11,-86.86,Cebrina Johnson,TN,1501639937000.0,20336043
223612740,Clarksville,,1489323073000.0,36.56,-87.41,CeDoanne,TN,1489323073000.0,20336043
199865946,Nashville,,1498567165000.0,36.21,-86.72,Celeste Greene,TN,1498567165000.0,20336043
178835872,Nashville,,1472054765000.0,36.17,-86.78,Chaitra,TN,1506286929000.0,20336043
232662148,Nashville,,1501092410000.0,36.11,-86.78,Chaneice Jackson,TN,1501092410000.0,20336043
185609845,Nashville,Oakfield,1502639833000.0,36.13,-86.67,Charli Crocker,TN,1502639833000.0,20336043
56958452,Nashville,,1472869346000.0,36.17,-86.78,Charlotte O.,TN,1473189381000.0,20336043
230799737,Nashville,,1498833407000.0,36.17,-86.78,Chasity,TN,1505656376000.0,20336043
230585005,Nashville,,1498566816000.0,36.17,-86.78,Chasity Nichole,TN,1498566816000.0,20336043
225284443,Nashville,,1491667936000.0,36.09,-86.64,Chaundra,TN,1506805144000.0,20336043
14836911,Nashville,,1491582045000.0,36.08,-86.72,Chelsea,TN,1491582045000.0,20336043
185553370,Fort Collins,,1495326110000.0,40.53,-105.04,Chelsea,CO,1495798094000.0,20336043
220860948,Nashville,,1485578014000.0,36.17,-86.78,Chelsea Hubbell,TN,1487261504000.0,20336043
231113614,Nashville,,1499214417000.0,36.16,-86.77,Chelsea Kirby,TN,1499214417000.0,20336043
220316045,Nashville,,1484880418000.0,36.06,-86.96,Chelsea Monique,TN,1493073077000.0,20336043
40187702,Nashville,Memphis,1474658374000.0,36.17,-86.78,Chelsea Steinaway,TN,1475096955000.0,20336043
110810002,Nashville,"Saline, MI",1494368527000.0,36.17,-86.78,Chelsea T,TN,1494554846000.0,20336043
217750419,Franklin,,1480954137000.0,35.93,-86.81,Chelsey Arnold,TN,1480954137000.0,20336043
239525920,Nashville,,1508736705000.0,36.17,-86.78,Chelsey Souder,TN,1508736705000.0,20336043
223212081,Nashville,,1488759488000.0,36.15,-86.81,Chelsey Wolf,TN,1488759488000.0,20336043
222000686,Nashville,,1487044806000.0,36.17,-86.78,Chelsie Walker,TN,1493431611000.0,20336043
229358239,Nashville,,1497027543000.0,36.17,-86.78,Cherokee Couple,TN,1505438847000.0,20336043
9676649,Smyrna,"Smyrna, TN",1478260473000.0,35.97,-86.51,Cheryl,TN,1504609243000.0,20336043
238166851,Nashville,,1507221566000.0,36.16,-86.78,Cheryl Polk,TN,1507221566000.0,20336043
239273906,Nashville,,1508447896000.0,36.16,-86.79,Chrissy N,TN,1508447896000.0,20336043
227167757,Smyrna,,1494218913000.0,35.97,-86.51,Christi Carrico,TN,1494218913000.0,20336043
232944954,Nashville,,1501451105000.0,36.17,-86.78,Christianna,TN,1505927944000.0,20336043
234441139,Nashville,"Encinitas, CA",1503183764000.0,36.14,-86.74,Christina,TN,1506630779000.0,20336043
221830992,Mount Juliet,,1486821863000.0,36.21,-86.52,Christina Ayotte,TN,1497421893000.0,20336043
188932442,Hendersonville,,1479094976000.0,35.32,-82.49,Christina Bogdanova,NC,1479094976000.0,20336043
234342633,Nashville,,1503083493000.0,36.25,-86.77,Christina Collier,TN,1503083493000.0,20336043
209847376,Clarksville,,1475291541000.0,36.53,-87.35,Christina DeLapp,TN,1481343983000.0,20336043
9381626,Nashville,,1497299443000.0,36.13,-86.8,Christina Hamilton,TN,1497299443000.0,20336043
231380156,Nashville,,1499541659000.0,36.18,-86.81,Christina Hopkins,TN,1500408537000.0,20336043
224958573,Nashville,,1491190091000.0,36.08,-86.72,Christina Rivera,TN,1491190091000.0,20336043
239416086,Murfreesboro,,1508613516000.0,35.85,-86.4,christina Sandoval,TN,1508613516000.0,20336043
219290165,Nashville,,1492778103000.0,36.15,-86.68,Christina Shoptaw,TN,1498681481000.0,20336043
216944488,Antioch,,1505264702000.0,36.17,-86.88,Christina Thomas,TN,1506461792000.0,20336043
183166107,Brentwood,,1507902589000.0,36.0,-86.79,Christine,TN,1507902589000.0,20336043
235337152,Nashville,,1504203590000.0,36.18,-86.74,Christine Coughlin,TN,1504203590000.0,20336043
232121093,Nashville,Nashville,1500422648000.0,36.13,-86.8,Christine Joy,TN,1502143850000.0,20336043
12657684,Nashville,,1472155989000.0,36.16,-86.79,Christine Rhodes Partch,TN,1490912743000.0,20336043
239215257,Goodlettsville,,1508381377000.0,36.32,-86.72,Christine Swenson,TN,1508381377000.0,20336043
187707213,Nashville,,1472167451000.0,36.1,-86.66,Christy,TN,1487262668000.0,20336043
214145537,Nashville,,1475372987000.0,36.17,-86.78,Christy Johnson,TN,1497555251000.0,20336043
228658938,Murfreesboro,,1496163453000.0,35.78,-86.33,Christy Loyd,TN,1496163453000.0,20336043
229672964,Hermitage,,1497412026000.0,36.19,-86.6,Christy Whitworth,TN,1497412026000.0,20336043
218969750,Nashville,,1483197214000.0,36.16,-86.66,Ciara Cyr,TN,1483197214000.0,20336043
8722844,Nashville,"Moorpark, California",1472128831000.0,36.17,-86.78,Cindie  ,TN,1498690047000.0,20336043
226063903,Nashville,,1492723969000.0,36.15,-86.86,Cindy,TN,1492723969000.0,20336043
234270401,Nashville,,1502999685000.0,36.16,-86.66,Cindy Langdon,TN,1505495594000.0,20336043
221452659,Nashville,,1493124774000.0,36.17,-86.78,Cindy Martin,TN,1506957434000.0,20336043
217779389,White House,,1480993656000.0,36.48,-86.69,Cindy T,TN,1494949777000.0,20336043
214316739,Nashville,,1475600634000.0,36.17,-86.78,CJ Watson,TN,1483592675000.0,20336043
223362642,Old Hickory,,1488956313000.0,36.25,-86.63,Claire Long,TN,1503073444000.0,20336043
236352728,Nashville,,1505263529000.0,36.18,-86.74,Claire Warner,TN,1505263529000.0,20336043
166378182,Nashville,,1490592525000.0,36.18,-86.74,Clarice,TN,1490605322000.0,20336043
230262776,Franklin,,1498163561000.0,35.99,-86.9,Coleen Fry,TN,1502733372000.0,20336043
231003709,Nashville,,1499089587000.0,36.17,-86.78,Colleen,TN,1502890979000.0,20336043
235899565,Nashville,,1505161427000.0,36.16,-86.79,Colleen Gruendel,TN,1505161427000.0,20336043
218305128,Madison,,1481950156000.0,36.26,-86.71,Colleen Hawthorn,TN,1483137988000.0,20336043
182763054,Arrington,,1474216808000.0,35.86,-86.66,Connie Rhinehart,TN,1496268313000.0,20336043
231515620,Nashville,,1499702020000.0,36.17,-86.78,Constance,TN,1502415551000.0,20336043
235658842,Nashville,,1504563651000.0,36.18,-86.81,Constance DeRamus,TN,1504819039000.0,20336043
119306562,Murfreesboro,,1488435406000.0,35.78,-86.33,Corey G,TN,1504482500000.0,20336043
238100577,Nashville,,1507141256000.0,36.17,-86.78,Corie Korin,TN,1507141256000.0,20336043
212573162,Lascassas,,1473387363000.0,35.94,-86.27,Corina Needham,TN,1473387363000.0,20336043
216451847,Nashville,,1478797229000.0,36.17,-86.78,Corisa,TN,1501070309000.0,20336043
85992782,Nashville,,1502577284000.0,36.17,-86.78,Corrie Tyner Taliaferro,TN,1506305343000.0,20336043
230045695,Nashville,,1500606644000.0,36.08,-86.72,Courtney,TN,1505670056000.0,20336043
226216826,Nashville,,1493002515000.0,36.17,-86.78,Courtney,TN,1493593589000.0,20336043
216372401,Nashville,,1478648816000.0,36.17,-86.78,Courtney Albs,TN,1478648816000.0,20336043
234683257,Nashville,,1503458074000.0,36.06,-86.96,Courtney Hill,TN,1503458074000.0,20336043
215267014,Nashville,nashville,1499965536000.0,36.09,-86.82,Courtney Kolinsky,TN,1501468775000.0,20336043
239595679,Nashville,,1508810377000.0,36.16,-86.79,Courtney Swim,TN,1508810377000.0,20336043
232877964,Antioch,,1501364891000.0,36.04,-86.64,creshia Hunt,TN,1501364891000.0,20336043
7596537,Nashville,Nashville,1471761135000.0,36.18,-86.74,cristina campanella,TN,1475827093000.0,20336043
234419823,Nashville,,1505075762000.0,36.17,-86.78,Cristina Landry,TN,1505177883000.0,20336043
131017252,Nashville,"Chicago, IL",1491012867000.0,36.17,-86.78,Crystal,TN,1491012867000.0,20336043
228194872,Franklin,,1495553546000.0,35.93,-86.81,Crystal Howe,TN,1495553546000.0,20336043
208672655,Chattanooga,"Hixson, TN",1472277617000.0,35.04,-85.31,Crystal Taylor,TN,1472322726000.0,20336043
8015885,Nashville,Somerset,1489860923000.0,36.17,-86.78,Cynthia Sparks,TN,1489860923000.0,20336043
205174256,Antioch,,1489524629000.0,36.17,-86.88,D,TN,1507146093000.0,20336043
118495742,Nashville,"Portland, OR",1491701579000.0,36.16,-86.79,Dallas Jessup,TN,1498499259000.0,20336043
183646839,Brentwood,"Thomaston, GA",1506962463000.0,36.0,-86.79,Dallas Salter Bunger,TN,1506962463000.0,20336043
175947482,Mount Juliet,nolensville,1471740962000.0,36.22,-86.52,Dana B,TN,1499883191000.0,20336043
236066631,Nashville,,1504985419000.0,36.06,-86.96,Dana Bomgardner,TN,1505447656000.0,20336043
215816594,Nashville,,1477786521000.0,36.17,-86.78,Dana Campos,TN,1478751695000.0,20336043
232524017,Murfreesboro,,1508625594000.0,35.78,-86.36,Dana J. Smith,TN,1508625594000.0,20336043
228051169,Nashville,,1495401773000.0,36.11,-86.86,Dana Sulonen,TN,1506566912000.0,20336043
235365244,Nashville,,1504234442000.0,36.19,-86.8,Dani McQuoid,TN,1504234442000.0,20336043
192951527,Nashville,,1506612753000.0,36.15,-86.8,Daniela Lewis,TN,1508337647000.0,20336043
34536962,Nashville,Philadelphia ,1501298076000.0,36.14,-86.8,Danielle,TN,1501956833000.0,20336043
238350207,Hermitage,,1507405974000.0,36.19,-86.6,Danielle Adkisson,TN,1507405974000.0,20336043
207933227,Brentwood,,1488512525000.0,36.0,-86.79,Danielle Blauvelt,TN,1496197189000.0,20336043
223813180,Nashville,,1489594953000.0,36.17,-86.78,Danielle Clement,TN,1506450114000.0,20336043
177112382,Brentwood,Brentwood,1502053136000.0,36.0,-86.79,Danielle Jackson,TN,1502053136000.0,20336043
231233191,Nashville,,1499365270000.0,36.08,-86.72,Danielle Kehner,TN,1507239868000.0,20336043
189553220,Nashville,,1472695282000.0,36.15,-86.86,Danielle M,TN,1472695282000.0,20336043
224516911,Nashville,,1490572196000.0,36.17,-86.78,Danielle Royalty,TN,1490572196000.0,20336043
231410046,Thompsons Station,,1499573820000.0,35.8,-86.9,Danielle Voss,TN,1506447603000.0,20336043
202597783,Nashville,,1490308988000.0,36.18,-86.74,Danni,TN,1490326314000.0,20336043
227032006,Antioch,,1494026908000.0,36.04,-86.64,Darby Kelly,TN,1494381840000.0,20336043
226569699,Thompsons Station,,1493402823000.0,35.8,-86.9,Darla Morrison,TN,1493402823000.0,20336043
231526447,Spring Hill,,1499712154000.0,35.76,-86.88,darlene thompson,TN,1506805111000.0,20336043
217835407,Nashville,,1483455500000.0,36.18,-86.81,Darryl Johnson,TN,1483455500000.0,20336043
235207377,Hermitage,,1504067992000.0,36.19,-86.6,davanh,TN,1504067992000.0,20336043
229743553,White Bluff,,1497519063000.0,36.12,-87.23,Dawn Carr,TN,1497609496000.0,20336043
189401341,Nashville,Nashville,1472154910000.0,36.21,-86.72,Dawn Draper Lawson,TN,1502550484000.0,20336043
112536222,Murfreesboro,Murfreesboro,1471738416000.0,35.87,-86.34,Dawn Felicia,TN,1471738416000.0,20336043
234363081,Nashville,,1503093864000.0,36.15,-86.79,Dawn Griffith,TN,1503093864000.0,20336043
9099804,Antioch,"Louisville, KY",1501023172000.0,36.04,-86.64,DC,TN,1501023172000.0,20336043
237246224,Nashville,,1506190972000.0,36.13,-86.8,Ddr Mgb,TN,1506190972000.0,20336043
209551949,Smyrna,"Syracuse, NY",1475028066000.0,35.97,-86.51,Deanna,TN,1505445863000.0,20336043
218239541,Nashville,,1481821446000.0,36.07,-86.73,Deanna Ervin,TN,1481821446000.0,20336043
222315505,Nashville,,1487491332000.0,36.17,-86.78,Deanna Hall Peach,TN,1487491332000.0,20336043
25565622,Nashville,Washington,1472008497000.0,36.17,-86.78,Deanna T.,TN,1490540216000.0,20336043
233790959,Nashville,,1502430822000.0,36.14,-86.74,Deasia Spikes,TN,1502430822000.0,20336043
11210408,Franklin,,1474205216000.0,35.92,-86.89,Deb,TN,1508163823000.0,20336043
79961632,Spring Hill,"Nashville, TN",1483375419000.0,35.76,-86.88,Deb Mannix,TN,1507146378000.0,20336043
233492820,Hermitage,,1502111363000.0,36.19,-86.6,Debbie,TN,1502846524000.0,20336043
211811513,Murfreesboro,,1508561850000.0,35.78,-86.33,Debbie,TN,1508561850000.0,20336043
225020136,Nashville,,1492482089000.0,36.08,-86.72,Debbie Boe,TN,1492482089000.0,20336043
234367391,Nashville,,1503099194000.0,36.07,-86.73,Debi Avalon,TN,1506439919000.0,20336043
233282946,Nashville,,1503434842000.0,36.16,-86.79,Deborah,TN,1506335369000.0,20336043
58372122,Nashville,Nashville TN,1492891631000.0,36.09,-86.82,Deborah,TN,1498562527000.0,20336043
180528962,Madison,,1497648735000.0,36.26,-86.71,Deborah Gooch,TN,1497648735000.0,20336043
217864958,Nashville,,1481139647000.0,36.19,-86.8,Deborah Lederman,TN,1483403882000.0,20336043
54922622,Nashville,"Johnson City, TN",1483622985000.0,36.17,-86.78,Debra,TN,1483796149000.0,20336043
179364462,Antioch,,1472153025000.0,36.17,-86.88,Debra Barfield,TN,1502760205000.0,20336043
14074694,Lebanon,,1502151757000.0,36.21,-86.31,Dede,TN,1502151757000.0,20336043
229810315,Madison,,1497598483000.0,36.26,-86.71,Dee Thomas,TN,1497598483000.0,20336043
208586836,Clarksville,,1496042460000.0,36.49,-87.23,DEE-Nice,TN,1508586301000.0,20336043
232822199,Antioch,,1501291140000.0,36.04,-86.64,Demetria Williams,TN,1501291140000.0,20336043
186148103,Springfield,,1494153688000.0,36.52,-86.87,Demika Smith,TN,1494456151000.0,20336043
222687115,Nashville,,1488000246000.0,36.08,-86.72,Demitry Tamimi,TN,1488000246000.0,20336043
220066132,Mount Juliet,,1484586540000.0,36.21,-86.52,Denay Kelley,TN,1484586540000.0,20336043
217974131,Nashville,,1481335784000.0,36.17,-86.78,Denise Freitag,TN,1505581189000.0,20336043
227101162,Nashville,,1494126879000.0,36.08,-86.72,Denise Michelle Jackson,TN,1494126879000.0,20336043
51741882,Nashville,,1497774060000.0,36.21,-86.72,Denise Miller,TN,1506502721000.0,20336043
220157863,Nashville,,1484690781000.0,36.11,-86.78,Denise Robinson ,TN,1489616463000.0,20336043
10263360,Nashville,,1477167234000.0,36.17,-86.78,Deniz Kofteci,TN,1480893787000.0,20336043
213196131,Nashville,,1474212022000.0,36.17,-86.72,Destini,TN,1476671158000.0,20336043
232460165,Nashville,,1500847913000.0,36.17,-86.78,Devi Garrett,TN,1500847913000.0,20336043
237123058,Franklin,,1508729708000.0,35.92,-86.89,Devon Lopez,TN,1508729708000.0,20336043
229386751,Nashville,,1497060241000.0,36.08,-86.72,Dharani Ranganathan,TN,1502214946000.0,20336043
232740275,Nashville,,1501187668000.0,36.17,-86.78,Diana,TN,1501187668000.0,20336043
8730254,Brentwood,Irvine,1498747375000.0,36.0,-86.79,Diana,TN,1506520446000.0,20336043
232746220,Nashville,,1501193694000.0,36.17,-86.78,Diane Funsch,TN,1502758500000.0,20336043
232260405,Nashville,,1500590770000.0,36.07,-86.73,Diane Spaeth,TN,1506557935000.0,20336043
144627432,Franklin,,1499447876000.0,35.99,-86.9,Diane Woods,TN,1502758812000.0,20336043
212511248,Mount Juliet,,1473303156000.0,36.21,-86.52,dianna arnold,TN,1473303156000.0,20336043
233434024,Nashville,,1502049290000.0,36.14,-86.81,Dianne Hotvedt,TN,1502049290000.0,20336043
206367591,Franklin,,1498074170000.0,35.92,-86.89,Dina Hill,TN,1498074170000.0,20336043
232797729,Nashville,,1501262625000.0,36.21,-86.72,Dixie Wells,TN,1501262625000.0,20336043
190525436,Nashville,NYC,1493741413000.0,36.14,-86.74,DM,TN,1493741413000.0,20336043
214615945,Nashville,,1475993434000.0,36.18,-86.74,domi henderson,TN,1475993434000.0,20336043
227488510,Nashville,,1494654825000.0,36.16,-86.79,donita oliver,TN,1494654825000.0,20336043
1566444,Nashville,Nashville,1485531295000.0,36.07,-86.78,donna,TN,1503271533000.0,20336043
213346624,Nashville,,1474392048000.0,36.17,-86.78,Donna Ava Marie,TN,1474392048000.0,20336043
211280912,Brentwood,,1489265697000.0,36.0,-86.79,Donna C,TN,1507838346000.0,20336043
235317620,Hendersonville,,1508396965000.0,36.3,-86.62,Donna jackson,TN,1508396965000.0,20336043
227808163,Nashville,,1495072109000.0,36.16,-86.79,Donna Morton,TN,1495813757000.0,20336043
239447554,Nashville,,1508648705000.0,36.07,-86.78,Donna stevenson,TN,1508648705000.0,20336043
228621538,Nashville,,1496113030000.0,36.15,-86.81,Donna Xia,TN,1496113030000.0,20336043
234981969,Nashville,,1503807418000.0,36.11,-86.78,Drew Ford,TN,1503807418000.0,20336043
236890256,Nashville,,1505797260000.0,36.18,-86.81,Eboni,TN,1505797260000.0,20336043
238160510,Hendersonville,,1507211590000.0,36.3,-86.62,Eboni Grant ,TN,1507211590000.0,20336043
220028394,Gladeville,,1484536730000.0,36.19,-86.28,eiliaine riley,TN,1484536730000.0,20336043
184357684,Nashville,,1474124380000.0,36.17,-86.78,Elaine Gray,TN,1479182531000.0,20336043
214531141,Nashville,,1477461962000.0,36.17,-86.78,Elaine M.,TN,1479182621000.0,20336043
211363204,Nashville,,1472506310000.0,36.05,-86.7,Elana,TN,1473806013000.0,20336043
231995908,Nashville,,1500273297000.0,36.17,-86.78,Elena Maria Lewis,TN,1500273297000.0,20336043
193318165,Nashville,,1494123012000.0,36.17,-86.78,Elida A. Kalugendo,TN,1505650780000.0,20336043
81951732,Nashville,,1500057371000.0,36.17,-86.78,Elisa Beagle,TN,1500057371000.0,20336043
191273612,Nashville,,1498743939000.0,36.15,-86.84,Elisabeth Shook,TN,1499450115000.0,20336043
85547942,Nashville,,1506735030000.0,36.17,-86.78,Elise,TN,1506868381000.0,20336043
151000432,Nashville,,1484714610000.0,36.17,-86.78,Elise,TN,1487200918000.0,20336043
209701316,Nashville,,1473178136000.0,36.11,-86.78,Elise Smith,TN,1497494993000.0,20336043
3718771,Santee,,1475632834000.0,32.85,-116.99,Elizabeth,CA,1475632834000.0,20336043
211835233,Nashville,,1472399455000.0,36.16,-86.79,Elizabeth Browne,TN,1472399455000.0,20336043
216073015,Hermitage,,1478188334000.0,36.19,-86.6,Elizabeth Butler,TN,1485629210000.0,20336043
219271561,Nashville,,1483570579000.0,36.17,-86.78,Elizabeth Gordon,TN,1483570579000.0,20336043
190000436,Antioch,,1507684336000.0,36.04,-86.64,Elizabeth Manning,TN,1507684336000.0,20336043
221305732,Nashville,,1486136438000.0,36.15,-86.8,Elizabeth Roosevelt,TN,1487066249000.0,20336043
225729295,Nashville,,1492268907000.0,36.17,-86.78,Elizabeth Walston,TN,1503625783000.0,20336043
237699995,Nashville,,1506693424000.0,36.17,-86.78,Ella Schaub,TN,1506693424000.0,20336043
205913902,Nashville,,1504221713000.0,36.13,-86.8,Ellen,TN,1504221713000.0,20336043
217783541,Nashville,,1480998969000.0,36.15,-86.79,Ellen,TN,1481333186000.0,20336043
10460196,Franklin,,1473773133000.0,35.92,-86.89,Ellen Krizman,TN,1508682081000.0,20336043
188306868,Nashville,,1478469781000.0,36.14,-86.74,Ellen Larson,TN,1478469781000.0,20336043
114251932,Franklin,"Auburn, WA",1508647758000.0,35.93,-86.81,Elyse R.,TN,1508647758000.0,20336043
213632516,Nashville,,1474765132000.0,36.14,-86.74,Emilee Thomas,TN,1494499814000.0,20336043
119628662,Nashville,,1500907072000.0,36.08,-86.72,emily,TN,1504016206000.0,20336043
194256498,Franklin,"Plano, TX",1490280869000.0,35.92,-86.89,Emily,TN,1490280869000.0,20336043
229571330,Hermitage,,1497291565000.0,36.17,-86.6,Emily,TN,1499568878000.0,20336043
230552926,Nashville,,1498522448000.0,36.06,-86.96,Emily,TN,1498522448000.0,20336043
204470903,Nashville,,1500640194000.0,36.14,-86.81,Emily Bhutiani,TN,1500640194000.0,20336043
219359431,Murfreesboro,,1483682985000.0,35.85,-86.36,Emily Darcy,TN,1483727742000.0,20336043
234175225,Nashville,,1502895523000.0,36.06,-86.96,Emily Ginger,TN,1502895523000.0,20336043
218642174,Antioch,,1482633597000.0,36.04,-86.64,Emily Hicks,TN,1493554898000.0,20336043
215294045,Brentwood,,1477326860000.0,36.0,-86.79,Emily Lemons,TN,1489702549000.0,20336043
225339707,Nashville,,1491747322000.0,36.09,-86.65,Emily M,TN,1492707372000.0,20336043
218169104,Murfreesboro,,1481681595000.0,35.87,-86.34,Emily Michelle Davis,TN,1481681595000.0,20336043
231485603,Nashville,,1499662379000.0,36.15,-86.86,Emily Olds,TN,1499662379000.0,20336043
227863295,Nashville,,1495142948000.0,36.16,-86.78,Emily Pasko,TN,1495142948000.0,20336043
235369007,Nashville,,1504238171000.0,36.11,-86.86,Emily Patridge,TN,1504273895000.0,20336043
236845714,Nashville,,1505758773000.0,36.08,-86.72,Emily Pierce,TN,1505758773000.0,20336043
230097787,Nashville,,1497977323000.0,36.13,-86.67,Emily Pona,TN,1497977323000.0,20336043
236078797,Nashville,,1504996829000.0,36.17,-86.72,Emily Tressler,TN,1504996829000.0,20336043
213492210,Nashville,,1474579138000.0,36.09,-86.82,Emily Yoko,TN,1474579138000.0,20336043
231245218,Nashville,,1499376879000.0,36.17,-86.78,Emilyy Shemayett,TN,1499376879000.0,20336043
219920529,Nashville,,1484404062000.0,36.17,-86.77,Emma Dwyer Reynolds,TN,1489937484000.0,20336043
227746355,Fairview,,1494995005000.0,35.97,-87.13,Emma Ladd,TN,1494995005000.0,20336043
224317722,Nashville,,1490292463000.0,36.17,-86.78,Emmy Matthews,TN,1490292463000.0,20336043
188151523,Mount Juliet,,1480301802000.0,36.22,-86.52,Erica,TN,1500580622000.0,20336043
13787464,La Vergne,"Three Oaks, MI",1472082997000.0,35.99,-86.57,Erica,TN,1481494535000.0,20336043
235472141,Nashville,,1504364421000.0,36.15,-86.86,Erica Johnson,TN,1504364421000.0,20336043
62538732,Hermitage,,1498618663000.0,36.17,-86.6,Erica Lewis,TN,1502884849000.0,20336043
11872247,Franklin,,1483559537000.0,35.93,-86.81,Erica Reed,TN,1483559537000.0,20336043
215366898,Nashville,,1477095264000.0,36.15,-86.79,Erica Smikes,TN,1477095264000.0,20336043
236883111,Nashville,,1505789426000.0,36.17,-86.78,Erica Stark,TN,1505789426000.0,20336043
14450255,Nashville,,1475600495000.0,36.14,-86.74,Erika,TN,1475600495000.0,20336043
217836065,Clarksville,,1481085638000.0,36.56,-87.41,Erika Ortiz,TN,1481085638000.0,20336043
216587007,Hendersonville,,1479005887000.0,36.3,-86.62,Erin,TN,1479005887000.0,20336043
13418382,Mount Juliet,,1486132772000.0,36.22,-86.52,ERIN,TN,1486132772000.0,20336043
216754816,Nashville,,1479258097000.0,36.17,-86.79,Erin ,TN,1502373677000.0,20336043
212801507,Nashville,,1473698204000.0,36.08,-86.72,Erin Bean,TN,1474391043000.0,20336043
218488055,Mount Juliet,,1482301086000.0,36.21,-86.52,Erin Brown,TN,1484067415000.0,20336043
194692499,Nashville,Greenville,1490240977000.0,36.02,-86.71,Erin Garrison,TN,1490240977000.0,20336043
231534874,Nashville,,1499719879000.0,36.15,-86.86,Erin Olinger,TN,1499719879000.0,20336043
212178512,Memphis,,1472864534000.0,35.02,-89.87,Erlinda Barrios,TN,1472864534000.0,20336043
123638552,Franklin,,1500584411000.0,35.92,-86.89,Eryn Duffee-Braun,TN,1500584411000.0,20336043
231849870,Nashville,,1500087435000.0,36.1,-86.66,Esther Niebel,TN,1500087435000.0,20336043
87567792,Nashville,Nashville,1486096422000.0,36.15,-86.86,Eva,TN,1505437433000.0,20336043
229530894,Nashville,,1497240379000.0,36.07,-86.73,Eva Wei,TN,1497240379000.0,20336043
7865879,Nashville,,1504185312000.0,36.16,-86.79,Evy Mellichamp,TN,1506792034000.0,20336043
218629272,Nashville,,1482603696000.0,36.17,-86.78,Faith Evans,TN,1482603696000.0,20336043
30688912,Navarre,,1488216504000.0,30.5,-86.9,Faye Knochenmus,FL,1507080747000.0,20336043
218721101,Nashville,,1482801122000.0,36.17,-86.78,Felicity Gewalt Strunce,TN,1497354688000.0,20336043
229376349,Murfreesboro,,1497047382000.0,35.82,-86.45,Felisha Johnson,TN,1497047382000.0,20336043
217357747,Nashville,,1480282038000.0,36.17,-86.78,FiFi,TN,1480282038000.0,20336043
219272046,Nashville,,1483572231000.0,36.17,-86.78,Fiona G,TN,1485437863000.0,20336043
148713572,Murfreesboro,,1479190310000.0,35.78,-86.33,Fiorella Lunita,TN,1486662101000.0,20336043
223405779,Murfreesboro,,1489017267000.0,35.82,-86.45,Fran Levron,TN,1489017267000.0,20336043
214896475,Nashville,,1476406278000.0,36.14,-86.81,Frances Baiza,TN,1476406278000.0,20336043
213986114,Nashville,,1475189826000.0,36.17,-86.78,Francesca Carter,TN,1475189826000.0,20336043
229002747,Antioch,,1496593242000.0,36.04,-86.64,Gabby Jakub,TN,1496593242000.0,20336043
215947278,Clarksville,,1477998535000.0,36.56,-87.41,Garland Cain,TN,1477998535000.0,20336043
235899809,Nashville,,1504807962000.0,36.14,-86.8,Genesis Santos,TN,1505492475000.0,20336043
235550167,Nashville,,1504454244000.0,36.17,-86.78,Genevieve,TN,1506284270000.0,20336043
191784086,Tempe,,1489666422000.0,33.37,-111.93,Genevieve M. Gamboa,AZ,1505490047000.0,20336043
220794138,Nashville,,1485488490000.0,36.13,-86.67,Genoa Larcher,TN,1485488490000.0,20336043
238880832,Antioch,,1508000881000.0,36.04,-86.64,George G,TN,1508000881000.0,20336043
9370740,Nashville,,1505314692000.0,36.08,-86.72,Georgia Cross,TN,1505314692000.0,20336043
237184061,Nashville,,1506116243000.0,36.15,-86.79,Georgia Nilsson,TN,1506116243000.0,20336043
232866982,Smyrna,,1501352846000.0,35.97,-86.51,Georgianna Gaither,TN,1505499171000.0,20336043
235797729,Brentwood,,1504706718000.0,36.0,-86.79,GFH,TN,1504822324000.0,20336043
226510444,Nashville,,1493316414000.0,36.06,-86.96,Gina Renee,TN,1499058615000.0,20336043
230896003,Goodlettsville,,1498948711000.0,36.32,-86.72,Ginger Mack,TN,1498948711000.0,20336043
223615271,Pegram,,1489326408000.0,36.12,-87.03,Ginger Ohlman,TN,1490286182000.0,20336043
223465784,Hermitage,,1489105006000.0,36.19,-86.6,Giulia Vernaschi,TN,1489105006000.0,20336043
225337164,Goodlettsville,Panama City Beach,1491743926000.0,36.33,-86.74,Glenda Lester Welch,TN,1494850075000.0,20336043
216082734,Madison,,1478200459000.0,36.19,-86.74,Glory C,TN,1478200459000.0,20336043
215656849,Nashville,,1487457665000.0,36.13,-86.8,Grace,TN,1498608640000.0,20336043
235181990,Nashville,,1504041854000.0,36.17,-86.78,Grace,TN,1505482784000.0,20336043
232313099,Nashville,,1500661416000.0,36.11,-86.78,Grace Cummings,TN,1500661416000.0,20336043
211594974,New York,,1472059335000.0,40.75,-73.99,Grace E. Chase,NY,1472059335000.0,20336043
236020975,Nashville,,1504935301000.0,36.17,-86.78,Grace Harrison,TN,1504935301000.0,20336043
218349039,Nashville,,1498171497000.0,36.09,-86.82,Grace Lee,TN,1507250751000.0,20336043
219479192,Nashville,,1483837292000.0,36.1,-86.66,Gretta Anderson,TN,1484616411000.0,20336043
232551944,Brentwood,,1500955193000.0,36.0,-86.79,H Cook,TN,1500955193000.0,20336043
230223054,Nashville,,1498107863000.0,36.13,-86.8,Hadley Peterson,TN,1498413077000.0,20336043
183260836,Nashville,Nashville,1472583082000.0,36.18,-86.81,Hailey ,TN,1472665662000.0,20336043
221852294,Nashville,,1487004932000.0,36.08,-86.72,Hailey,TN,1487004932000.0,20336043
211502983,Gallatin,,1471930153000.0,36.39,-86.45,Halee ,TN,1471930153000.0,20336043
198026056,Nashville,,1480973384000.0,36.17,-86.72,Haley Wright,TN,1480973384000.0,20336043
169794282,Hendersonville,,1498597245000.0,36.32,-86.61,HaleyJ,TN,1498597245000.0,20336043
230361754,Nashville,,1498286027000.0,36.15,-86.81,Hallie,TN,1498364669000.0,20336043
230520808,Bon Aqua,"Dickson, TN",1498489620000.0,35.93,-87.25,Hallie D,TN,1498489620000.0,20336043
225865908,Nashville,,1492467782000.0,36.15,-86.86,Hallie Hillemann,TN,1492467782000.0,20336043
214283308,Nashville,,1475547675000.0,36.08,-86.72,Haluk Alk??,TN,1476577259000.0,20336043
186859207,Nashville,Pittsburgh,1491671447000.0,36.11,-86.78,Hannah,TN,1491698439000.0,20336043
231582835,Nashville,,1499778093000.0,36.18,-86.74,Hannah Beasley,TN,1499778093000.0,20336043
219254567,Hendersonville,,1483553343000.0,36.32,-86.61,Hannah Nuiver,TN,1483553343000.0,20336043
212116863,Nashville,,1472776657000.0,36.17,-86.78,Hanwen Zhang,TN,1486972496000.0,20336043
84443762,Franklin,,1479245161000.0,35.92,-86.89,Harshal Kalgutkar,TN,1496154319000.0,20336043
60642752,Hendersonville,,1485187172000.0,36.32,-86.61,Hattie,TN,1495162298000.0,20336043
228236122,Nashville,,1495599107000.0,36.11,-86.78,Hayley Grossman,TN,1508714478000.0,20336043
216818633,Nashville,,1479356094000.0,36.19,-86.8,Hayley Johnson,TN,1479356094000.0,20336043
237469985,Nashville,,1506438569000.0,36.16,-86.79,Hayley Justinak,TN,1506438569000.0,20336043
1165291,Nashville,,1483921009000.0,36.17,-86.78,hcuff,TN,1502059169000.0,20336043
198141676,Nashville,,1502297805000.0,36.15,-86.79,Heather,TN,1502297805000.0,20336043
200493376,Nashville,,1479691829000.0,36.17,-86.78,Heather E.,TN,1502634438000.0,20336043
238414972,Nashville,,1507481254000.0,36.07,-86.73,Heather Hayes,TN,1507481254000.0,20336043
215482346,Nashville,,1477271433000.0,36.17,-86.78,Heather Roe,TN,1477271433000.0,20336043
229114253,Lyles,,1496716101000.0,35.89,-87.34,Heather Tidwell,TN,1496716101000.0,20336043
235402264,Nashville,,1504282559000.0,36.16,-86.78,Heather Vandergrift,TN,1504282559000.0,20336043
55696782,Goodlettsville,,1483716426000.0,36.33,-86.74,Heather Weber,TN,1495140315000.0,20336043
12119342,Brentwood,Brentwood,1475784836000.0,36.0,-86.79,Heidi Matthewman,TN,1476190950000.0,20336043
221615733,Nashville,,1486519620000.0,36.17,-86.78,Helen B.,TN,1486519620000.0,20336043
227377517,Nashville,,1494504395000.0,36.08,-86.72,Helen Miles,TN,1498303808000.0,20336043
207952729,Nashville,,1472212941000.0,36.11,-86.78,Hellen Willett,TN,1502721653000.0,20336043
195831058,Nashville,,1476126043000.0,36.14,-86.81,Holly ,TN,1476388328000.0,20336043
212043415,Nashville,,1488504574000.0,36.07,-86.73,Holly molly,TN,1488504574000.0,20336043
164128362,Nashville,,1472085795000.0,36.16,-86.79,Holly Schario,TN,1507126976000.0,20336043
109215322,Nashville,,1478233551000.0,36.13,-86.8,Hope,TN,1508246631000.0,20336043
219985636,Brentwood,,1484489529000.0,36.0,-86.79,Hope Patonis,TN,1484489529000.0,20336043
230958672,Nashville,,1499028935000.0,36.17,-86.78,India A.,TN,1499028935000.0,20336043
220366940,Nashville,,1484952827000.0,36.17,-86.78,Indigo Harris,TN,1484952827000.0,20336043
230309457,Nashville,,1498224406000.0,36.15,-86.81,Indu Bal,TN,1498224406000.0,20336043
217076065,Nashville,,1479770899000.0,36.08,-86.72,Iregirl Breezy,TN,1480748206000.0,20336043
216761163,Spring Hill,,1479266819000.0,35.76,-86.88,Irenea Fitzgerald,TN,1479266819000.0,20336043
231298188,Nashville,,1499445366000.0,36.16,-86.79,Iris Kaye McKenzi Toon,TN,1505841253000.0,20336043
236343325,Nashville,,1505254976000.0,36.17,-86.78,Isabel Barnett,TN,1505254976000.0,20336043
230217879,Nashville,,1498101175000.0,36.22,-86.77,It's Lush Boutique,TN,1498101175000.0,20336043
204917959,Birmingham,,1491779353000.0,33.46,-86.81,Ivana Joyce,AL,1504803192000.0,20336043
225940579,Spring Hill,,1492556626000.0,35.76,-86.88,Ivy ,TN,1506904447000.0,20336043
213002314,Nashville,,1473959132000.0,36.17,-86.78,Ivy Dean,TN,1473959132000.0,20336043
224141232,Nashville,,1490050220000.0,36.13,-86.8,J. Rosep,TN,1490050220000.0,20336043
229221844,Greenbrier,,1496852754000.0,36.43,-86.8,Jaben Campbell,TN,1496852754000.0,20336043
207349390,Mount Juliet,,1489528384000.0,36.21,-86.52,Jacey Terpstra,TN,1489528384000.0,20336043
215818895,Nashville,"Shelby Township, Michigan",1477793560000.0,36.08,-86.72,Jackie,TN,1485269501000.0,20336043
128461512,Nashville,,1471735700000.0,36.13,-86.8,Jackie Belair,TN,1508724893000.0,20336043
237025713,Madison,,1505939476000.0,36.19,-86.74,Jackie Foster,TN,1508256630000.0,20336043
228792315,Nashville,,1496332427000.0,36.11,-86.78,Jackie Pang,TN,1496729585000.0,20336043
230036342,Nashville,,1497907918000.0,36.08,-86.89,Jade,TN,1497907918000.0,20336043
219578866,Nashville,,1483964945000.0,36.17,-86.78,Jade,TN,1505100333000.0,20336043
11529466,Webster,,1491082404000.0,42.05,-71.87,Jaime,MA,1491705813000.0,20336043
219487295,Goodlettsville,,1483847457000.0,36.32,-86.72,Jaime,TN,1483847457000.0,20336043
206179761,Nashville,,1472705109000.0,36.17,-86.78,Jalisa Haggins,TN,1490841930000.0,20336043
227875181,Nashville,,1495156660000.0,36.08,-86.72,Jamaine Bell,TN,1495156660000.0,20336043
232668216,Nashville,,1501096509000.0,36.22,-86.77,Jamesha Peebles,TN,1501096509000.0,20336043
13125423,Nashville,,1472064344000.0,36.17,-86.78,Jamie,TN,1499268530000.0,20336043
20921241,Nashville,"Clarksville, TN",1492409701000.0,36.14,-86.74,Jamie Armistead,TN,1508729863000.0,20336043
225392414,Nashville,,1491821633000.0,36.17,-86.72,jamie byrd,TN,1491821633000.0,20336043
225790038,Murfreesboro,,1492365431000.0,35.84,-86.39,Jamie Dodich,TN,1495413535000.0,20336043
222965774,Cottontown,,1488396859000.0,36.49,-86.59,Jamie Marie Scott,TN,1488396859000.0,20336043
184531335,Nashville,"Jacksonville, FL",1478393662000.0,36.16,-86.79,Jan Goddard,TN,1498830538000.0,20336043
223024938,Nashville,,1488481657000.0,36.17,-86.78,Jan Iyengar,TN,1491354233000.0,20336043
221407375,Nashville,,1486256281000.0,36.11,-86.86,Jan Wolff,TN,1489811711000.0,20336043
217544179,Nashville,,1483281913000.0,36.11,-86.78,jane,TN,1483281913000.0,20336043
194827396,Nashville,,1508361756000.0,36.09,-86.94,Jane Lee,TN,1508361756000.0,20336043
154107732,Decatur,,1489370714000.0,33.77,-84.3,Jane Murphy,GA,1490842395000.0,20336043
223707821,Nashville,,1489445136000.0,36.17,-86.72,Jane Y,TN,1489445136000.0,20336043
104872952,Nashville,,1505132128000.0,36.17,-86.72,Janelle Douglas,TN,1505132128000.0,20336043
222801738,Nashville,,1488163376000.0,36.17,-86.78,Janessa,TN,1499808537000.0,20336043
233855889,Ridgetop,,1502508748000.0,36.4,-86.77,Janet Brewster,TN,1503432557000.0,20336043
191872417,Nashville,,1506201300000.0,36.08,-86.72,Janice D,TN,1506201300000.0,20336043
204941491,Smyrna,,1499405144000.0,35.97,-86.51,Janice Martin,TN,1499405144000.0,20336043
222899804,Nashville,,1488303009000.0,36.17,-86.78,Jaquelin,TN,1488303009000.0,20336043
229586043,Nashville,,1497305968000.0,36.07,-86.73,Jasmin Weideling,TN,1497455092000.0,20336043
178002692,Nashville,,1487794916000.0,36.16,-86.66,Jasmine,TN,1487794916000.0,20336043
234061700,Mount Juliet,,1502760033000.0,36.22,-86.52,Jazmin Campbell,TN,1502760033000.0,20336043
229368921,Franklin,,1497038875000.0,35.93,-86.84,Jazmine Batten,TN,1497038875000.0,20336043
213579548,Nashville,,1474696402000.0,36.17,-86.78,Jazmine Orozco,TN,1481251891000.0,20336043
230287867,College Grove,,1498192853000.0,35.77,-86.71,Jean Dumont,TN,1498192853000.0,20336043
206323545,La Vergne,,1490975126000.0,36.01,-86.57,Jeaneen Yenter,TN,1490975126000.0,20336043
214526062,North Versailles,,1475884892000.0,40.39,-79.83,Jeanna Sizemore,PA,1485236592000.0,20336043
13904981,Old Hickory,Greenbrier,1472287680000.0,36.25,-86.63,Jeannette,TN,1500962954000.0,20336043
223823830,Nashville,,1489606596000.0,36.16,-86.79,Jemina L,TN,1489606596000.0,20336043
217106058,Nashville,,1479819359000.0,36.09,-86.82,Jen Jawor,TN,1500378986000.0,20336043
232532737,Nashville,,1500934574000.0,36.15,-86.86,Jenifer Dodd,TN,1500934574000.0,20336043
220229585,Nashville,,1484775428000.0,36.11,-86.86,Jenn Córdova,TN,1484775428000.0,20336043
22954131,Nashville,Orlando,1496603556000.0,36.17,-86.78,Jenn Shepherd,TN,1506483920000.0,20336043
238454070,Franklin,,1507520164000.0,35.93,-86.84,Jenn Sulcer,TN,1507520164000.0,20336043
66111522,Nashville,"Marietta, GA",1476256642000.0,36.11,-86.86,Jenn Thomas,TN,1487560806000.0,20336043
205433583,Nashville,,1472430756000.0,36.15,-86.86,Jenna,TN,1472430756000.0,20336043
196225723,Nashville,,1472055055000.0,36.08,-86.72,Jenna,TN,1502756508000.0,20336043
238207631,Murfreesboro,,1507250847000.0,35.82,-86.45,Jenna Barton,TN,1507420819000.0,20336043
223401948,Murfreesboro,,1489013104000.0,35.78,-86.33,Jenna Ognenoff,TN,1489013104000.0,20336043
3575885,Nashville,Great Neck NY,1500502247000.0,36.11,-86.86,Jenna R,TN,1500502247000.0,20336043
214060088,Nashville,,1475267436000.0,36.17,-86.78,Jenna Smith,TN,1494506181000.0,20336043
9102758,Nashville,,1479613543000.0,36.17,-86.78,Jennifer,TN,1479613543000.0,20336043
44903772,Mount Juliet,"Gainesville, Florida ",1502848302000.0,36.18,-86.54,Jennifer C.,TN,1502905006000.0,20336043
215849048,Hendersonville,,1477846760000.0,36.32,-86.61,Jennifer Cogle,TN,1477846760000.0,20336043
212974424,Hermitage,,1473913104000.0,36.19,-86.6,Jennifer Gailey,TN,1507583556000.0,20336043
218665942,Mount Pleasant,Mount Pleasant,1482697842000.0,35.54,-87.21,Jennifer Garner Greer,TN,1482697842000.0,20336043
230980084,Mount Juliet,,1499053759000.0,36.21,-86.52,Jennifer Jones,TN,1499053759000.0,20336043
214582672,Nashville,,1475947604000.0,36.09,-86.82,Jennifer Justice,TN,1475947604000.0,20336043
214420525,Spring Hill,,1475703476000.0,35.76,-86.88,Jennifer Lynn Knutson,TN,1475703476000.0,20336043
237388904,Brentwood,,1506353321000.0,36.0,-86.79,Jennifer McMillan,TN,1506353321000.0,20336043
211692175,Nashville,,1472195220000.0,36.17,-86.79,Jennifer Meier,TN,1473905245000.0,20336043
220927435,Brentwood,,1485664727000.0,36.0,-86.79,Jennifer Morrow,TN,1487034825000.0,20336043
232205840,Nashville,,1500521701000.0,36.21,-86.72,Jennifer Rowan,TN,1500845473000.0,20336043
161612412,Nashville,,1491243233000.0,36.17,-86.78,Jennifer Tate,TN,1491243233000.0,20336043
145467432,Nashville,Raleigh,1496636196000.0,36.17,-86.78,Jenny,TN,1496636196000.0,20336043
233752750,Nashville,,1502394340000.0,36.17,-86.78,Jenny Dyer Vinson,TN,1502394340000.0,20336043
213097552,Nashville,,1474082461000.0,36.17,-86.78,Jenny G.,TN,1474513667000.0,20336043
221477320,Nashville,,1486347527000.0,36.16,-86.77,Jenny Lee,TN,1491304499000.0,20336043
227785419,Lebanon,,1495046456000.0,36.21,-86.31,Jenny Ware,TN,1495046456000.0,20336043
229794944,White House,,1497577548000.0,36.48,-86.69,Jerri Findley,TN,1498078964000.0,20336043
222645364,Nashville,,1487944954000.0,36.11,-86.86,Jerri Hopper,TN,1487944954000.0,20336043
222804391,Nashville,,1488167051000.0,36.17,-86.78,Jess,TN,1488167051000.0,20336043
219770635,Madison,,1484197103000.0,36.26,-86.71,Jess Keller,TN,1484197103000.0,20336043
216840880,Nashville,,1479398471000.0,36.14,-86.81,Jessamyn Davis,TN,1479398471000.0,20336043
182867375,Mount Juliet,,1506607922000.0,36.16,-86.51,Jessica,TN,1506807084000.0,20336043
38690452,Nashville,Cypress,1472053705000.0,36.11,-86.8,Jessica,TN,1505057904000.0,20336043
38253472,Franklin,Dallas,1476583041000.0,35.96,-86.81,Jessica,TN,1477773534000.0,20336043
209671691,Spring Hill,Spring Hill,1493702704000.0,35.76,-86.88,Jessica,TN,1494614737000.0,20336043
230524749,Hendersonville,Hendersonville ,1501978419000.0,36.32,-86.61,Jessica,TN,1502819980000.0,20336043
208259976,Nashville,,1496458776000.0,36.14,-86.8,Jessica,TN,1496458776000.0,20336043
76499972,Nashville,,1508195823000.0,36.17,-86.78,Jessica,TN,1508195823000.0,20336043
231379450,Hendersonville,,1499540864000.0,36.32,-86.61,Jessica ,TN,1499540864000.0,20336043
58895692,Clarksville,,1505092324000.0,36.53,-87.35,Jessica,TN,1505092324000.0,20336043
230847870,Smyrna,,1498888167000.0,35.97,-86.51,Jessica Cole,TN,1498888167000.0,20336043
207706447,Nashville,,1489033114000.0,36.17,-86.78,Jessica Davis,TN,1489033114000.0,20336043
226267458,Hendersonville,,1492997216000.0,36.32,-86.61,Jessica Fuller-Murphy,TN,1492997216000.0,20336043
207509906,Nashville,,1472055314000.0,36.17,-86.78,Jessica Gong,TN,1498326774000.0,20336043
230559568,Nashville,,1498529473000.0,36.06,-86.96,Jessica Lea Nicholson,TN,1498529473000.0,20336043
193569128,Clarksville,,1482974076000.0,36.53,-87.35,Jessica Lowe,TN,1482974076000.0,20336043
216856742,Nashville,,1479418333000.0,36.08,-86.72,Jessica Marable,TN,1479418333000.0,20336043
184029284,Brentwood,,1500654605000.0,36.0,-86.79,Jessica McRoy O'Brien,TN,1504623452000.0,20336043
188156923,Goodlettsville,,1492189889000.0,36.33,-86.74,Jessica Musser,TN,1493828771000.0,20336043
220334912,Nashville,,1484912484000.0,36.14,-86.74,Jessica Pike,TN,1484912484000.0,20336043
237409523,Smyrna,,1506371141000.0,35.97,-86.51,Jessica Rice,TN,1506371141000.0,20336043
213683799,Spring Hill,,1474833186000.0,35.76,-86.88,Jessica Rimas,TN,1474833186000.0,20336043
33264492,Nashville,,1471778019000.0,36.06,-86.96,Jessica Rudolph,TN,1506865234000.0,20336043
223392766,Brentwood,,1489000686000.0,36.0,-86.79,Jessica Sams,TN,1489000686000.0,20336043
222403103,Nashville,,1487613720000.0,36.17,-86.78,Jessica Shutt,TN,1487613720000.0,20336043
231687790,Nashville,,1499893642000.0,36.17,-86.78,Jessica Suchon,TN,1499893642000.0,20336043
212893195,Nashville,,1473808182000.0,36.17,-86.78,Jessica Taylor,TN,1475444769000.0,20336043
219131855,Nashville,,1483417291000.0,36.17,-86.78,Jessie Bullard,TN,1483417291000.0,20336043
232376470,Nashville,,1500744472000.0,36.17,-86.78,Jessie Valentino,TN,1500744472000.0,20336043
232262275,Nashville,,1500592983000.0,36.17,-86.78,Jewel Scruggs,TN,1500865462000.0,20336043
223357531,Nashville,,1493432232000.0,36.17,-86.78,Jill,TN,1495138905000.0,20336043
230014838,Nashville,,1497885212000.0,36.17,-86.78,Jill M,TN,1499608397000.0,20336043
220642342,Franklin,,1502911835000.0,35.93,-86.81,Jill McNeal Johnson,TN,1502911835000.0,20336043
216811342,Nashville,,1479345413000.0,36.16,-86.79,Jill Stockton,TN,1479345413000.0,20336043
6944107,Nashville,Old Hickory,1500665198000.0,36.17,-86.78,Joan D,TN,1506550101000.0,20336043
221675713,Nashville,,1486599508000.0,36.15,-86.86,Joanna Collins,TN,1487615113000.0,20336043
211590094,Bethpage,,1472054392000.0,36.51,-86.32,JoAnna Nichols,TN,1472580547000.0,20336043
193272991,Brooklyn,,1497633851000.0,40.68,-73.95,Joanna P.,NY,1502975347000.0,20336043
238365408,Nashville,,1507421613000.0,36.14,-86.74,jode vallejos,TN,1507421613000.0,20336043
212481739,Nashville,,1473269073000.0,36.17,-86.78,Jody Chilton-Wright,TN,1491955340000.0,20336043
229161419,Brentwood,,1496777007000.0,36.0,-86.79,Jody Paar,TN,1506007381000.0,20336043
237668267,Nashville,,1506651378000.0,36.17,-86.78,Johanna,TN,1506651378000.0,20336043
108297612,Nashville,"Nashville, TN",1478948509000.0,36.17,-86.78,Jordan,TN,1491532080000.0,20336043
115483452,New York,brentwood,1484892551000.0,40.75,-73.99,Jordan Hathaway,NY,1484892551000.0,20336043
229506679,Nashville,,1497211997000.0,36.17,-86.78,Jordan Rose,TN,1497211997000.0,20336043
223466193,Clarksville,,1489112848000.0,36.53,-87.35,Juanita Charles,TN,1490811371000.0,20336043
146040842,Nashville,,1472262945000.0,36.18,-86.64,Judy,TN,1489538442000.0,20336043
138699772,Nashville,,1472062632000.0,36.16,-86.79,judy baldridge,TN,1477924876000.0,20336043
211933176,Hendersonville,,1472524382000.0,36.32,-86.61,Judy Manalastas,TN,1472601537000.0,20336043
229804753,Nashville,,1497623901000.0,36.17,-86.78,Julia,TN,1508116683000.0,20336043
223938560,Nashville,,1489769063000.0,36.09,-86.82,Julia Frys,TN,1501913200000.0,20336043
234130786,Nashville,,1502838662000.0,36.15,-86.86,Julianne Cantrell,TN,1502838662000.0,20336043
186397441,Nashville,,1480625697000.0,36.15,-86.86,Julie K,TN,1480908639000.0,20336043
147873502,Nashville,,1490577393000.0,36.17,-86.78,Julisa M,TN,1490577393000.0,20336043
231238569,Mount Juliet,,1499371235000.0,36.21,-86.52,K Nielsen,TN,1499371235000.0,20336043
221294024,Nashville,,1486118277000.0,36.17,-86.78,Kaden White,TN,1486129995000.0,20336043
229857702,Nashville,,1497659999000.0,36.16,-86.78,Kai Pruitte,TN,1497659999000.0,20336043
12347749,Nashville,,1471733598000.0,36.08,-86.72,Kaileigh,TN,1507078315000.0,20336043
222300007,Nashville,,1487466990000.0,36.13,-86.8,Kailey Miller,TN,1487466990000.0,20336043
229251364,Nashville,,1496885406000.0,36.16,-86.78,Kait Riggle,TN,1496885406000.0,20336043
210281742,Nashville,,1472421623000.0,36.17,-86.78,Kaitlin,TN,1472421623000.0,20336043
229457228,Nashville,,1497152479000.0,36.17,-86.79,Kaitlin Kemmerly,TN,1498507195000.0,20336043
223191895,Nashville,,1488734727000.0,36.16,-86.78,Kaitlyn Elsen,TN,1488734727000.0,20336043
224219499,Franklin,,1490149811000.0,35.92,-86.89,Kaitlyn King,TN,1490149811000.0,20336043
236764916,Nashville,,1505679130000.0,36.17,-86.78,kaity p,TN,1507235950000.0,20336043
129731552,Nashville,,1496271689000.0,36.17,-86.78,Kali Hudson,TN,1496271689000.0,20336043
215522657,Nashville,,1477334666000.0,36.11,-86.86,Kara Cooper,TN,1477334666000.0,20336043
220971826,Nashville,,1485722709000.0,36.17,-86.78,Kara Sanders,TN,1485722709000.0,20336043
191894025,Nashville,Kokomo,1472076676000.0,36.11,-86.86,Kara T,TN,1477348176000.0,20336043
88991382,Nashville,Nashville,1506832977000.0,36.18,-86.74,Karen,TN,1506881161000.0,20336043
217584699,Nashville,,1491059696000.0,36.17,-86.78,Karen,TN,1491340853000.0,20336043
212350913,Mount Juliet,,1473101359000.0,36.21,-86.52,Karen,TN,1507071249000.0,20336043
5655924,Nashville,,1472100278000.0,36.17,-86.78,karen,TN,1503668020000.0,20336043
220583756,Nashville,,1485232721000.0,36.17,-86.78,Karen,TN,1485232721000.0,20336043
214054857,Nashville,,1475262535000.0,36.13,-86.67,Karen Burke,TN,1475262535000.0,20336043
225126935,College Grove,,1491742503000.0,35.77,-86.71,Karen Collier,TN,1495806207000.0,20336043
188181337,Nashville,,1472073347000.0,36.11,-86.78,Karen Risley,TN,1489464650000.0,20336043
227180294,Nashville,,1496964543000.0,36.16,-86.79,Karen Thorpe,TN,1496964543000.0,20336043
231482976,Nashville,,1499659402000.0,36.08,-86.75,Karen Yeargin,TN,1499659402000.0,20336043
154895632,Hendersonville,,1485897415000.0,36.32,-86.61,Kari,TN,1493117081000.0,20336043
221378384,Antioch,,1486223770000.0,36.04,-86.64,Karina Diaz,TN,1486223770000.0,20336043
228486424,Nashville,,1495935203000.0,36.13,-86.67,Karli Ladwig,TN,1495935203000.0,20336043
190325907,Nashville,,1486693804000.0,36.16,-86.79,Karyn,TN,1489191120000.0,20336043
228140788,Nashville,,1495484715000.0,36.16,-86.77,Kasey,TN,1497963722000.0,20336043
227006595,Nashville,,1493997407000.0,36.17,-86.78,Kassidy McElheney,TN,1493997407000.0,20336043
230219048,Hermitage,,1498102771000.0,36.19,-86.6,Kate Childress,TN,1502766308000.0,20336043
13510929,Boston,Boston,1489452060000.0,42.36,-71.07,Kate Crawford ,MA,1489452060000.0,20336043
230258907,Antioch,,1498159300000.0,36.04,-86.64,Kate Ellis,TN,1498159300000.0,20336043
237885987,Nashville,,1506903722000.0,36.17,-86.79,Kate Jablonski,TN,1506903722000.0,20336043
26592722,Nashville,"Nashville, TN",1474248123000.0,36.09,-86.82,Kate Ramsaur,TN,1484545837000.0,20336043
144843312,Jacksonville,,1499176962000.0,30.33,-81.77,Katee Elizabeth,FL,1499176962000.0,20336043
2807913,Franklin,"Tulsa, OK",1502136035000.0,35.93,-86.81,Katelin C.,TN,1502136035000.0,20336043
220592067,Nashville,,1485239047000.0,36.18,-86.74,Katherine,TN,1485239047000.0,20336043
238084563,Franklin,,1507126581000.0,35.92,-86.87,Katherine Bloomfield,TN,1507126581000.0,20336043
220914499,Nashville,,1485648467000.0,36.11,-86.86,Katherine Proctor,TN,1485648467000.0,20336043
236768957,Brentwood,,1505682787000.0,36.0,-86.79,Kathie Duffer,TN,1505682787000.0,20336043
227202996,Nashville,,1494267797000.0,36.17,-86.78,Kathleen Duffy,TN,1494537639000.0,20336043
6697866,Franklin,"Nashville, TN",1472054870000.0,35.92,-86.89,Kathryn Alexander,TN,1484613950000.0,20336043
223716349,Nashville,San Clemente,1498663129000.0,36.11,-86.78,Kathryn Jones,TN,1503889986000.0,20336043
236336280,Old Hickory,,1505911528000.0,36.25,-86.63,Kathryn Muhammad,TN,1506530373000.0,20336043
212054650,Nashville,Nashville,1486090801000.0,36.17,-86.72,Kathy,TN,1506519700000.0,20336043
238177306,Nashville,,1507226814000.0,36.17,-86.72,Kathy Burton Rogers,TN,1507226814000.0,20336043
215484062,Nashville,,1477278258000.0,36.08,-86.72,Kathy D,TN,1493059850000.0,20336043
214821542,Nashville,,1476302488000.0,36.17,-86.78,Kathy McTear,TN,1476302488000.0,20336043
227214166,Goodlettsville,,1494280534000.0,36.32,-86.72,Katie,TN,1495149138000.0,20336043
187804395,Nashville,,1506888493000.0,36.17,-86.78,Katie,TN,1506888493000.0,20336043
209014467,Nashville,,1476921476000.0,36.17,-86.78,Katie,TN,1502899133000.0,20336043
201336011,Nashville,,1472076841000.0,36.17,-86.78,Katie,TN,1476730967000.0,20336043
226266764,Nashville,,1492996471000.0,36.17,-86.78,Katie B,TN,1493170724000.0,20336043
228060438,Nolensville,,1495412989000.0,35.94,-86.67,Katie Clark,TN,1495412989000.0,20336043
213265381,Nashville,,1474295544000.0,36.17,-86.78,Katie Connolly,TN,1502293789000.0,20336043
205355080,Nashville,,1472499450000.0,36.17,-86.78,Katie Fiore,TN,1473779392000.0,20336043
184905213,Thompsons Station,,1502679611000.0,35.8,-86.9,Katie King,TN,1502679611000.0,20336043
227939684,Nashville,,1495245876000.0,36.1,-86.66,Katie Lane,TN,1495245876000.0,20336043
226117812,Nashville,,1501294342000.0,36.17,-86.78,Katie Maclay,TN,1501294342000.0,20336043
229591830,Nashville,,1497311861000.0,36.14,-86.8,Katie Schimmel,TN,1497311861000.0,20336043
217037417,Nashville,,1479709647000.0,36.17,-86.78,Katie Schram,TN,1479709647000.0,20336043
219888778,Nashville,,1484354718000.0,36.17,-86.78,Katie Waisanen,TN,1484354718000.0,20336043
233605926,Nashville,,1502581692000.0,36.15,-86.86,Katrina,TN,1502754729000.0,20336043
239256345,Nashville,,1508431127000.0,36.15,-86.8,Katy Williams-Wyant,TN,1508431127000.0,20336043
206409967,Hermitage,,1474738676000.0,36.19,-86.6,Kay Weeks,TN,1495837120000.0,20336043
196780088,Nashville,,1472140885000.0,36.17,-86.72,Kay Williams,TN,1473181636000.0,20336043
179567572,Nashville,,1472162936000.0,36.16,-86.79,Kayla,TN,1472162936000.0,20336043
59892862,Nashville,,1474008422000.0,36.13,-86.8,Kayla Bruyn,TN,1498729306000.0,20336043
212050245,Nashville,,1472682184000.0,36.17,-86.78,Kayla Collins,TN,1472682184000.0,20336043
192500388,Nashville,,1488900998000.0,36.17,-86.78,Kayla Ramos,TN,1488900998000.0,20336043
11987946,Nashville,Nashville,1472114390000.0,36.17,-86.72,Kayla Seaborn,TN,1472114390000.0,20336043
217108964,Nashville,,1479824206000.0,36.11,-86.78,Kaylee Urban,TN,1479824206000.0,20336043
233265210,Nashville,,1501849244000.0,36.13,-86.8,Kayleigh,TN,1501849244000.0,20336043
231619106,Nashville,,1499813642000.0,36.06,-86.96,Kayli Ann Miller,TN,1505436542000.0,20336043
224592375,Nashville,,1490668921000.0,36.17,-86.78,KC,TN,1490668921000.0,20336043
232389217,Nashville,,1500758439000.0,36.17,-86.78,Keenan Elizabeth Kennedy,TN,1501615061000.0,20336043
208189715,Pflugerville,,1487639437000.0,30.44,-97.63,Keirra Ewah,TX,1487639437000.0,20336043
221615032,Nashville,,1486519496000.0,36.09,-86.82,Kelcey ,TN,1486519496000.0,20336043
239048908,Chapel Hill,,1508190025000.0,35.62,-86.62,Kelley Wallace Briggs,TN,1508190025000.0,20336043
226532277,Nashville,,1493341734000.0,36.06,-86.96,Kelli Kitchens,TN,1493341734000.0,20336043
222677104,Nolensville,,1487987169000.0,35.94,-86.67,Kelli Rai,TN,1490403477000.0,20336043
146791582,Nashville,,1483769400000.0,36.17,-86.78,Kellie,TN,1500598288000.0,20336043
4464888,Nashville,,1477147123000.0,36.17,-86.78,Kelly,TN,1508018768000.0,20336043
222377817,Nashville,,1487578834000.0,36.17,-86.78,Kelly,TN,1487578834000.0,20336043
221261734,Nashville,,1486078778000.0,36.11,-86.78,Kelly B,TN,1486078778000.0,20336043
199491149,Nashville,,1499394744000.0,36.22,-86.71,Kelly B.,TN,1499394744000.0,20336043
234130045,Nashville,,1502837325000.0,36.17,-86.78,Kelly Clifford,TN,1502837325000.0,20336043
237698036,Nashville,,1506691047000.0,36.15,-86.86,kelly coty,TN,1506691047000.0,20336043
220009926,Hermitage,,1484517206000.0,36.19,-86.6,Kelly Gibbar,TN,1494489100000.0,20336043
61410712,Nashville,,1500357109000.0,36.08,-86.72,Kelly Hinojosa,TN,1500839992000.0,20336043
235669902,Nashville,,1504574574000.0,36.17,-86.78,Kelly Kraisinger,TN,1505448069000.0,20336043
231122104,Nashville,,1499225132000.0,36.17,-86.78,Kelly L,TN,1500993536000.0,20336043
231902205,Nashville,,1500155514000.0,36.17,-86.78,Kellye Chyrall,TN,1504717019000.0,20336043
213666696,Nashville,,1474828238000.0,36.17,-86.78,Kelsey,TN,1475850630000.0,20336043
230982334,Nashville,,1499056760000.0,36.18,-86.74,Kelsey Horick,TN,1499056760000.0,20336043
230764231,Nashville,,1498779247000.0,36.17,-86.78,Kelsey Joan,TN,1498779247000.0,20336043
215866373,Nashville,,1484354935000.0,36.17,-86.78,Kelsey L.,TN,1493340266000.0,20336043
229568589,Nashville,,1497288985000.0,36.17,-86.78,Kelsey May,TN,1497288985000.0,20336043
230340497,Nashville,,1498258071000.0,36.07,-86.73,Kelsey Reiner,TN,1498258071000.0,20336043
232746216,Nashville,,1501193592000.0,36.11,-86.78,Kelsey Sorensen,TN,1505435496000.0,20336043
212564014,Madison,,1473376570000.0,36.26,-86.71,Kelsey Waite,TN,1473376570000.0,20336043
218798419,Columbia,Spring Hill,1482936396000.0,35.63,-87.01,Kena Smith,TN,1482936396000.0,20336043
228361456,Nashville,,1495762700000.0,36.17,-86.78,Kenchele Fountain,TN,1495762700000.0,20336043
219958660,Nashville,,1484446700000.0,36.15,-86.86,Kendall Coppage,TN,1486264370000.0,20336043
221512303,Nashville,,1486399062000.0,36.08,-86.72,Kenna,TN,1486399062000.0,20336043
214473622,Nashville,,1475779654000.0,36.08,-86.72,Kenna McConnell,TN,1478012681000.0,20336043
221839696,Nashville,,1486832636000.0,36.17,-86.78,Kennedy Whitney,TN,1486845579000.0,20336043
44025552,Nashville,,1475683603000.0,36.17,-86.79,Kenya,TN,1475683603000.0,20336043
189601160,Nashville,,,36.24,-86.74,,TN,,20336043
226166306,Nashville,,1492868932000.0,36.16,-86.79,Kenzie Winter,TN,1492868932000.0,20336043
215441361,Hermitage,,1477214647000.0,36.19,-86.6,Kerianna Fleming,TN,1500169966000.0,20336043
238291968,Nashville,,1507339380000.0,36.17,-86.78,Kerri Rose,TN,1507339380000.0,20336043
234177294,Nashville,,1502897537000.0,36.17,-86.78,Kerstyn Motter,TN,1502897537000.0,20336043
230626975,Nashville,,1498609280000.0,36.17,-86.78,Kim,TN,1498609280000.0,20336043
9822376,Hermitage,"Orlando, FL",1479852238000.0,36.17,-86.6,Kim,TN,1506778953000.0,20336043
216202489,Mount Juliet,,1478393098000.0,36.14,-86.5,Kim almond,TN,1505658821000.0,20336043
118630572,Nashville,"Lowell, IN",1503434847000.0,36.18,-86.81,Kim B.,TN,1505937948000.0,20336043
232123376,Nashville,,1500424380000.0,36.13,-86.67,Kim Burrell,TN,1506447214000.0,20336043
224343876,Nashville,,1490324058000.0,36.21,-86.72,Kim Flory,TN,1490324058000.0,20336043
201737245,Hermitage,,1474676861000.0,36.19,-86.6,Kim H,TN,1502326198000.0,20336043
221853088,Madison,,1486848089000.0,36.26,-86.71,Kim Poole,TN,1486848089000.0,20336043
224577109,Mount Juliet,,1490652504000.0,36.22,-86.52,Kim Turner,TN,1490652504000.0,20336043
35234632,Nashville,"Detroit, MI",1473326405000.0,36.15,-86.86,Kim Wallace Thompson,TN,1481386653000.0,20336043
234136071,Nashville,,1502846045000.0,36.17,-86.78,Kimberley J,TN,1502846045000.0,20336043
222369692,Nashville,,1487565270000.0,36.07,-86.78,Kimberly ,TN,1487565270000.0,20336043
190072127,La Vergne,,1485919916000.0,36.01,-86.57,Kimberly,TN,1485919916000.0,20336043
201164832,Nashville,,1472136601000.0,36.13,-86.8,Kimberly Gaines Wichern,TN,1507664209000.0,20336043
239107079,Franklin,,1508258702000.0,35.92,-86.89,Kimberly Vair,TN,1508258702000.0,20336043
223401012,New Orleans,New Orleans,1489011027000.0,30.01,-90.11,Kimberly Vezina,LA,1489011027000.0,20336043
239477733,White House,,1508688444000.0,36.48,-86.69,Kinsey Kaplan Vazquez,TN,1508688444000.0,20336043
230872371,Nashville,,1498923479000.0,36.06,-86.96,Klare Mueller,TN,1507481124000.0,20336043
231126169,Nashville,,1499230818000.0,36.17,-86.78,Kourtney Hedden-Kaehuaea,TN,1499230818000.0,20336043
11106970,Antioch,,1485720272000.0,36.04,-86.64,Kris Collier,TN,1506820821000.0,20336043
229939928,Nashville,,1497781727000.0,36.17,-86.78,Kris Sanchez,TN,1497781727000.0,20336043
230699203,Smyrna,,1498697354000.0,35.97,-86.51,Krishna Sanders,TN,1498697354000.0,20336043
231948028,Murfreesboro,,1500218929000.0,35.78,-86.33,Krista,TN,1500218929000.0,20336043
213287213,Gallatin,,1474316868000.0,36.39,-86.45,Krista Lutzick,TN,1474316868000.0,20336043
194383344,Goodlettsville,,1483490973000.0,36.33,-86.74,Kristen,TN,1483490973000.0,20336043
139071612,Nashville,,1472211763000.0,36.13,-86.8,Kristen Daniel,TN,1472211763000.0,20336043
217714304,Nashville,,1480889964000.0,36.17,-86.78,Kristen Glass,TN,1501985483000.0,20336043
233001692,Nashville,,1501524666000.0,36.14,-86.8,Kristen Lemaster,TN,1502654971000.0,20336043
232523612,Nashville,,1501636969000.0,36.08,-86.72,Kristen Murray,TN,1501636969000.0,20336043
223636023,Antioch,,1489351423000.0,36.04,-86.64,Kristen Rodgers,TN,1490388252000.0,20336043
219865791,Nashville,,1484328305000.0,36.17,-86.78,Kristen Schrenk,TN,1484328305000.0,20336043
217470740,Nashville,,1480462085000.0,36.16,-86.66,Kristen Sisco,TN,1480462085000.0,20336043
239277966,Nashville,,1508452045000.0,36.08,-86.72,Kristi Martin,TN,1508452045000.0,20336043
231038200,Nashville,,1499124155000.0,36.06,-86.96,Kristi W,TN,1499124155000.0,20336043
203849999,Mount Juliet,,1475549415000.0,36.26,-86.53,Kristin,TN,1475549415000.0,20336043
232306222,Nashville,,1501726139000.0,36.17,-86.78,Kristin,TN,1502315991000.0,20336043
187709460,Nashville,,1488432063000.0,36.08,-86.72,Kristin Foster,TN,1488432063000.0,20336043
236701865,Nashville,,1505610786000.0,36.15,-86.81,Kristin Granier,TN,1505610786000.0,20336043
235004636,Antioch,,1503840407000.0,36.04,-86.64,Kristin Martin,TN,1503840407000.0,20336043
221617309,Nashville,,1486521470000.0,36.22,-86.74,Kristin Montenegro,TN,1486521470000.0,20336043
10812648,Nashville,Nashville,1475004584000.0,36.08,-86.72,Kristin Reed,TN,1493047274000.0,20336043
79701252,Antioch,,1504841012000.0,36.04,-86.64,Kristina,TN,1505436296000.0,20336043
229002525,Nashville,,1496592667000.0,36.17,-86.78,Kristina Dodson Chetkovich,TN,1500584815000.0,20336043
147258732,Nashville,,1489353996000.0,36.17,-86.78,Kristina Hoertner,TN,1489353996000.0,20336043
229030228,Clarksville,,1496620888000.0,36.53,-87.35,Kristina Masibo-Roling,TN,1500746990000.0,20336043
221025303,Nashville,,1485791728000.0,36.06,-86.96,Kristina Nicole,TN,1488311501000.0,20336043
211663138,Nashville,,1472153603000.0,36.18,-86.74,Kristina Niven Martin,TN,1472153603000.0,20336043
119901662,Nashville,,1501558368000.0,36.18,-86.74,Kristina P,TN,1501558368000.0,20336043
231461448,Nashville,,1499635455000.0,36.15,-86.81,Kristina Porydzy,TN,1499635455000.0,20336043
196628920,Nashville,,1481043111000.0,36.17,-86.78,Kristina Spitzer,TN,1498172829000.0,20336043
221789220,Nashville,,1487553464000.0,36.17,-86.72,Kristy,TN,1505443594000.0,20336043
223913920,Nashville,,1489728377000.0,36.22,-86.77,Kristy Wilson,TN,1499827620000.0,20336043
217960005,Nashville,,1481312669000.0,36.16,-86.66,Kristyn Budds,TN,1481312669000.0,20336043
219233639,Nashville,,1483528735000.0,36.07,-86.73,Kristyn Sharber,TN,1496563870000.0,20336043
212908227,Smyrna,"Ashland City, TN",1473826545000.0,35.97,-86.51,Krystal Moses,TN,1473826545000.0,20336043
230625165,Clarksville,,1498607076000.0,36.53,-87.35,Krystal Richmond,TN,1508104782000.0,20336043
231470757,Nashville,,1499645156000.0,36.15,-86.8,Kurstyn Morley,TN,1499645156000.0,20336043
220545268,Nashville,,1485187939000.0,36.17,-86.79,Kyle Ashley Johnson,TN,1485187939000.0,20336043
220092691,Nashville,,1484613320000.0,36.06,-86.96,Kylie Zimmerman,TN,1494455138000.0,20336043
228682424,Nashville,,1496188286000.0,36.1,-86.66,Kyra Blank,TN,1500596445000.0,20336043
237745791,Murfreesboro,,1506742076000.0,35.82,-86.45,Lacey Ketelsen,TN,1506742076000.0,20336043
213074174,Brentwood,,1474053670000.0,36.0,-86.79,Lacey Meeks,TN,1474053670000.0,20336043
219288875,Nashville,,1488178756000.0,36.17,-86.78,Lacy,TN,1508430744000.0,20336043
7463441,Nashville,,1472178233000.0,36.08,-86.72,Laeh-J,TN,1505565604000.0,20336043
12765211,Nashville,Nashville,1484776628000.0,36.18,-86.81,Laine,TN,1493646703000.0,20336043
115765052,Madison,,1500986486000.0,36.25,-86.71,LaLa ,TN,1500986486000.0,20336043
224704251,Nashville,,1490822215000.0,36.17,-86.78,Lana Hathaway Carnevale,TN,1490822215000.0,20336043
229794869,Nashville,,1497586737000.0,36.17,-86.78,LaShundra Alexander,TN,1497586737000.0,20336043
224864985,Clarksville,,1491060995000.0,36.56,-87.35,Latanya Allen,TN,1491060995000.0,20336043
229292442,Nashville,,1496943521000.0,36.15,-86.79,Latha,TN,1496943521000.0,20336043
228862351,Nashville,,1496419098000.0,36.17,-86.72,Latonral Hardin,TN,1496419098000.0,20336043
223104498,Murfreesboro,,1488588506000.0,35.78,-86.33,LaTonya Reed,TN,1488588506000.0,20336043
7895045,Antioch,"Evansville, IN",1493437744000.0,36.04,-86.64,LaToya Tramill,TN,1497413411000.0,20336043
224595019,Clarksville,,1490672507000.0,36.56,-87.35,Latoyer Brewer,TN,1490672507000.0,20336043
188401888,Franklin,,1472132343000.0,35.93,-86.81,Laura,TN,1506439914000.0,20336043
65179532,Nashville,,1488836716000.0,36.18,-86.74,Laura,TN,1502033108000.0,20336043
231381868,Mount Juliet,,1499570927000.0,36.11,-86.52,Laura Bell,TN,1503765379000.0,20336043
233514386,Nashville,,1502132115000.0,36.16,-86.78,Laura Evans,TN,1503064122000.0,20336043
21255541,Nashville,"Chagrin Falls, OH",1472148492000.0,36.18,-86.81,Laura G.,TN,1501940694000.0,20336043
235724786,Nashville,,1504631737000.0,36.17,-86.78,Laura Gigliotti,TN,1504631737000.0,20336043
234872657,Antioch,,1503679118000.0,36.04,-86.64,Laura Greenberg,TN,1503679118000.0,20336043
227731708,Nashville,,1495156347000.0,36.17,-86.78,Laura Guzman,TN,1495273872000.0,20336043
222787811,Carthage,,1488145957000.0,36.26,-85.99,Laura Jean Mangiofico,TN,1488145957000.0,20336043
235930217,Brentwood,,1504837008000.0,36.0,-86.79,Laura Kelsey Bartlett,TN,1504837008000.0,20336043
205086561,Murfreesboro,"Circleville, Ohio",1478311028000.0,35.82,-86.45,Laura Klitzka,TN,1486359617000.0,20336043
212981554,Nashville,,1473926595000.0,36.17,-86.78,Laura Larson,TN,1473926595000.0,20336043
148246182,Nashville,,1487491592000.0,36.17,-86.72,Laura Leigh,TN,1497921141000.0,20336043
207135665,Sussex,,1478378300000.0,41.24,-74.6,Laura Masson,NJ,1478388275000.0,20336043
229799515,Nashville,,1497581416000.0,36.16,-86.77,Laura Provost,TN,1497581416000.0,20336043
197648259,Nashville,,1485756497000.0,36.17,-86.78,Laura Scott,TN,1485756497000.0,20336043
211856088,Mount Juliet,,1472422729000.0,36.22,-86.52,Laura Stutzman Stott,TN,1472422729000.0,20336043
216377695,Nashville,,1478656760000.0,36.15,-86.79,Laura Voltz,TN,1478656760000.0,20336043
218470947,Hendersonville,,1485556622000.0,36.32,-86.61,laura.rambles.on,TN,1497792155000.0,20336043
211956406,Nashville,,1472561798000.0,36.17,-86.78,Lauren,TN,1472561798000.0,20336043
222806574,Nashville,,1488171897000.0,36.17,-86.78,Lauren,TN,1493915920000.0,20336043
205328859,Nashville,,1479236314000.0,36.19,-86.8,Lauren,TN,1479268462000.0,20336043
78791602,Murfreesboro,,1483122450000.0,35.82,-86.45,Lauren,TN,1483122450000.0,20336043
215467007,Hendersonville,,1477253286000.0,36.32,-86.61,Lauren,TN,1477348877000.0,20336043
238423198,Smyrna,,1507491795000.0,35.97,-86.51,Lauren Cootes,TN,1507491795000.0,20336043
220280832,Hendersonville,,1484840594000.0,36.32,-86.61,Lauren Moore,TN,1484840594000.0,20336043
226331718,Nashville,,1493080204000.0,36.09,-86.82,Lauren O'Shaughnessy,TN,1506479531000.0,20336043
220509360,Nashville,,1485137849000.0,36.16,-86.78,Lauren Poole,TN,1485137849000.0,20336043
208585463,Nashville,,1472595493000.0,36.17,-86.78,Lauren Richards,TN,1472595493000.0,20336043
218802736,Nashville,,1482942876000.0,36.17,-86.78,Lauren Sharpe,TN,1482942876000.0,20336043
224017553,Clarksville,,1490160912000.0,36.53,-87.34,Laurenh,TN,1490160912000.0,20336043
29906712,Nashville,,1475281999000.0,36.17,-86.78,Laurie,TN,1505373090000.0,20336043
228783681,Spring Hill,,1497011355000.0,35.76,-86.88,Laurie Krause,TN,1498766234000.0,20336043
216422974,Nashville,,1482929775000.0,36.08,-86.72,Laurie McCabe,TN,1491398282000.0,20336043
214164320,Nashville,,1475404778000.0,36.17,-86.78,Laurie Reeves,TN,1475404778000.0,20336043
97477172,Hendersonville,Columbus,1498413882000.0,36.32,-86.61,Laurie Shope,TN,1505782941000.0,20336043
229900974,Nashville,,1497724260000.0,36.17,-86.72,Laurie Sturzenbecker McIntyre,TN,1498572500000.0,20336043
233376747,Old Hickory,,1501975223000.0,36.25,-86.63,LaVette Sales,TN,1501975223000.0,20336043
182770563,Nashville,,1472139150000.0,36.15,-86.86,LaVon Bowen,TN,1498572233000.0,20336043
185026771,Mount Juliet,,1502826531000.0,36.22,-86.52,Lea,TN,1503073343000.0,20336043
220002813,Nashville,,1500989109000.0,36.13,-86.8,Leah,TN,1502721160000.0,20336043
236112940,Mount Juliet,,1505039130000.0,36.21,-86.52,Leah Browne,TN,1505039130000.0,20336043
215516732,Nashville,,1477327716000.0,36.15,-86.8,Leah Jones,TN,1477430522000.0,20336043
12808939,Lenox,,1503983465000.0,42.36,-73.27,Leandra Collier,MA,1503983465000.0,20336043
191666776,Nashville,,1496893620000.0,36.11,-86.86,Lee,TN,1496893620000.0,20336043
214329634,Nashville,,1475604593000.0,36.14,-86.8,Leena Hobbs,TN,1475604593000.0,20336043
218829868,Nashville,,1482982005000.0,36.21,-86.77,Lenore Ellsworth,TN,1482982005000.0,20336043
222739109,Nashville,,1488074954000.0,36.14,-86.74,Lese Jenea,TN,1488074954000.0,20336043
222496767,Murfreesboro,,1487731872000.0,35.87,-86.34,Lesleah Bechtel Fields,TN,1487731872000.0,20336043
214586614,Nashville,,1475950579000.0,36.17,-86.78,Leslie Harris,TN,1475972874000.0,20336043
214253208,Nashville,,1475515059000.0,36.09,-86.82,Leslie Toth,TN,1475515059000.0,20336043
226756550,Hermitage,,1493660217000.0,36.19,-86.6,Lexi Bolinski,TN,1493953019000.0,20336043
234102044,Nashville,,1502811853000.0,36.21,-86.72,Lexi Montoya,TN,1502811853000.0,20336043
217418236,Nashville,,1480378810000.0,36.13,-86.8,Lia Bella,TN,1480378810000.0,20336043
238419693,Nashville,,1507485983000.0,36.06,-86.96,Liann Cates,TN,1507485983000.0,20336043
222804111,Nashville,,1488166804000.0,36.15,-86.86,Libby,TN,1488166804000.0,20336043
236329969,Nashville,,1505244917000.0,36.17,-86.78,Libby Ford,TN,1505244917000.0,20336043
217272053,La Vergne,,1480127276000.0,36.01,-86.57,Lidia Choc,TN,1480127276000.0,20336043
229662757,Murfreesboro,,1497399474000.0,35.85,-86.36,Lin H,TN,1497399474000.0,20336043
218627441,Nashville,,1482599466000.0,36.17,-86.78,Lina,TN,1482599466000.0,20336043
230452063,Nashville,,1498405046000.0,36.17,-86.72,Lindsay Davis,TN,1498405046000.0,20336043
212597551,New York,,1473428314000.0,40.75,-73.99,Lindsay Denmark,NY,1473428314000.0,20336043
221780427,Nashville,,1486748941000.0,36.17,-86.78,Lindsay France,TN,1486748941000.0,20336043
220011250,Nashville,,1484516735000.0,36.15,-86.8,Lindsay Gueth,TN,1484516735000.0,20336043
220949609,Nashville,,1485699209000.0,36.17,-86.72,Lindsay Stevens,TN,1485699209000.0,20336043
230899717,Nashville,,1498952404000.0,36.16,-86.77,Lindsey Bender,TN,1498952404000.0,20336043
218812356,Nashville,,1482957430000.0,36.17,-86.78,Lindsey Johnson Gray,TN,1482957430000.0,20336043
221968365,Franklin,,1487009653000.0,35.93,-86.81,Lindsey White,TN,1487009653000.0,20336043
192828286,Nashville,Nashville,1508206092000.0,36.17,-86.72,Lisa,TN,1508206092000.0,20336043
67178522,Clarksville,,1487388647000.0,36.49,-87.23,Lisa,TN,1502830128000.0,20336043
109546292,Hendersonville,,1486403554000.0,36.32,-86.61,Lisa,TN,1493388675000.0,20336043
17430341,Nashville,Nashville,1484783156000.0,36.17,-86.78,Lisa,TN,1500298199000.0,20336043
225307571,Franklin,,1491700129000.0,35.92,-86.85,Lisa,TN,1506872086000.0,20336043
225378632,Nashville,,1491796177000.0,36.17,-86.78,Lisa,TN,1491796177000.0,20336043
218143633,Nashville,,1481641668000.0,36.17,-86.78,Lisa Starlight Star,TN,1481641668000.0,20336043
14452729,Nashville,,1483494504000.0,36.17,-86.78,Lisa A.,TN,1483896207000.0,20336043
238165729,Nashville,,1507217051000.0,36.16,-86.79,Lisa Accardi,TN,1507217051000.0,20336043
221746937,Hermitage,,1486692303000.0,36.19,-86.6,Lisa Baeza,TN,1486692303000.0,20336043
222180532,Brentwood,,1487294784000.0,36.0,-86.79,lisa beaudet,TN,1487294784000.0,20336043
101211042,Nashville,,1472125577000.0,36.17,-86.72,Lisa Bennett,TN,1472125577000.0,20336043
228475652,White House,,1495921167000.0,36.48,-86.69,Lisa Heaven,TN,1499177322000.0,20336043
230316537,Brentwood,,1498231682000.0,36.0,-86.79,Lisa Hebert Landry Combs,TN,1499828836000.0,20336043
70223892,Murfreesboro,Atlanta,1474228637000.0,35.78,-86.33,Lisa L,TN,1474228637000.0,20336043
191550232,Kingston Springs,,1492488833000.0,36.09,-87.12,Lise McLean,TN,1502060165000.0,20336043
182627091,Nashville,,1500860883000.0,36.17,-86.78,Liz,TN,1500860883000.0,20336043
236715254,Nashville,,1505627201000.0,36.17,-86.78,Liz Anderson,TN,1505627201000.0,20336043
212804959,Nashville,,1473702043000.0,36.17,-86.78,Lizzi Gordon,TN,1473702043000.0,20336043
202919711,Madison,Seattle,1472328996000.0,36.26,-86.71,Lizzie (Lizabeth),TN,1490298900000.0,20336043
33968802,Franklin,,1491191420000.0,35.92,-86.89,Lola,TN,1496606726000.0,20336043
212900581,Nashville,,1473816540000.0,36.08,-86.72,Lola Becton,TN,1477580589000.0,20336043
234035865,Nashville,,1502738759000.0,36.17,-86.78,Lolly Henry Thompson ,TN,1502738759000.0,20336043
217048653,Nashville,,1479730288000.0,36.11,-86.86,Lonnie Sisler,TN,1479730288000.0,20336043
213627962,Nashville,,1474760117000.0,36.17,-86.78,Lori,TN,1490753433000.0,20336043
202372842,Goodlettsville,,1494093721000.0,36.33,-86.74,Lori Baker ,TN,1494527206000.0,20336043
224137058,Franklin,,1490043913000.0,35.93,-86.84,Lori Grover,TN,1490043913000.0,20336043
158401652,Nashville,"Cleveland, OH",1472055067000.0,36.17,-86.78,Lori Singleton,TN,1502815986000.0,20336043
212038445,Nashville,,1483030699000.0,36.09,-86.82,Lorraine Seta,TN,1493578992000.0,20336043
12820769,Nashville,,1472121814000.0,36.18,-86.74,louan,TN,1491767725000.0,20336043
210749273,Hermitage,,1477058225000.0,36.19,-86.6,Louise Swann,TN,1477450246000.0,20336043
230700009,Franklin,,1498698363000.0,35.91,-86.84,lstarr,TN,1500579307000.0,20336043
229792583,Nashville,,1497572452000.0,36.15,-86.86,Lucy Hassel,TN,1497572452000.0,20336043
221470886,Nashville,,1486338662000.0,36.17,-86.78,LuLu Gordon,TN,1486338662000.0,20336043
224862228,Clarksville,,1491057965000.0,36.53,-87.35,luvpups,TN,1491353702000.0,20336043
223840402,Nashville,,1490146163000.0,36.17,-86.78,Lyndsey,TN,1490146163000.0,20336043
231320357,Nashville,,1499466489000.0,36.14,-86.81,Lyndsy Hatfield,TN,1499466489000.0,20336043
212722637,Nashville,,1473599951000.0,36.16,-86.79,Lynn,TN,1473599951000.0,20336043
9854394,Clarksville,"Lynnville, IN",1476627580000.0,36.53,-87.35,Lynn Bridgewater,TN,1480513094000.0,20336043
224182119,Murfreesboro,,1490107771000.0,35.78,-86.33,M Carroll,TN,1490107771000.0,20336043
223678307,Nashville,,1489407375000.0,36.19,-86.8,Macie Smith,TN,1505660291000.0,20336043
227677814,Midland,,1494913418000.0,43.63,-84.27,Mackenzie,MI,1502682159000.0,20336043
218827167,Nashville,,1482978019000.0,36.17,-86.78,Mackenzie Evans,TN,1482978019000.0,20336043
193962388,Nashville,,1473220511000.0,36.17,-86.78,MacKenzie Gartner,TN,1476541984000.0,20336043
233599190,Clarksville,,1502225100000.0,36.53,-87.35,Madam Casha Ming,TN,1502225100000.0,20336043
210245323,Hendersonville,,1472095270000.0,36.32,-86.61,Maddie,TN,1472095270000.0,20336043
219095369,Nashville,,,36.15,-86.78,,TN,,20336043
217031974,Nashville,,1479699070000.0,36.15,-86.8,Maddie Rich,TN,1488319317000.0,20336043
227604918,Nashville,,,36.22,-86.73,,TN,,20336043
212240630,Nashville,,1472952127000.0,36.17,-86.78,Madeline Hickey,TN,1483409244000.0,20336043
224518294,Nashville,,1490574127000.0,36.11,-86.86,Madison Anderson,TN,1490574127000.0,20336043
219052488,West Hollywood,,1502035158000.0,34.09,-118.38,Madison Merritt,CA,1502035158000.0,20336043
221514308,Franklin,,1489250629000.0,35.93,-86.84,Madison Morris,TN,1489765340000.0,20336043
221615967,Nashville,,1486519512000.0,36.06,-86.96,Maggie,TN,1486519512000.0,20336043
227943178,Brentwood,Antioch,1495250506000.0,36.0,-86.79,Maggie Beilfuss,TN,1506533464000.0,20336043
218197063,Nashville,,1481739522000.0,36.17,-86.78,Maggie Ehrenreich,TN,1487255916000.0,20336043
221135747,Gallatin,,1485920659000.0,36.39,-86.45,Maggie Hasting,TN,1485920659000.0,20336043
220564175,Nashville,,1485206778000.0,36.14,-86.74,Maia Barbier,TN,1485215762000.0,20336043
226566946,Clarksville,,1493396412000.0,36.56,-87.41,Maiya,TN,1493396412000.0,20336043
216636561,Nashville,,1479083844000.0,36.11,-86.78,Mala Siri,TN,1479083844000.0,20336043
237599603,Nashville,,1506741933000.0,36.09,-86.82,Malerie McDowell,TN,1506741933000.0,20336043
12580609,Nashville,Nashville,1472560474000.0,36.17,-86.78,Mallory,TN,1507861094000.0,20336043
217163600,Murfreesboro,,1479915347000.0,35.87,-86.44,Mandi Fletcher,TN,1479915347000.0,20336043
236319543,Franklin,,1505237030000.0,35.92,-86.87,Mandy Garland,TN,1505237030000.0,20336043
212617012,Nashville,,1473451438000.0,36.17,-86.78,Mandy Hernandez,TN,1481122124000.0,20336043
17876981,Nashville,"Westland, MI",1472005469000.0,36.17,-86.78,Mandy Long,TN,1504128623000.0,20336043
216371152,Nashville,,1478646790000.0,36.16,-86.79,Mandy Robinson Walley,TN,1478646790000.0,20336043
197154740,Nashville,"Killen, AL",1501821477000.0,36.17,-86.72,Mandy Weigart,TN,1501821477000.0,20336043
189867506,Nashville,"Elizabethtown, KY",1508676944000.0,36.15,-86.86,Marchele Rowe,TN,1508676944000.0,20336043
201944644,Nashville,,1472039155000.0,36.17,-86.78,Marci,TN,1502456349000.0,20336043
208508577,Brentwood,Brentwood,1499989622000.0,36.0,-86.79,Marcia Jolly,TN,1503584507000.0,20336043
62581282,Clarksville,,1483404468000.0,36.53,-87.35,Marcie,TN,1502812496000.0,20336043
230104582,Nashville,,1504717735000.0,36.17,-86.78,Margaret,TN,1504868967000.0,20336043
107126142,Nashville,Nashville,1500395628000.0,36.11,-86.86,Margaux,TN,1502817204000.0,20336043
211785155,Thompsons Station,,1472326784000.0,35.8,-86.9,Mariah,TN,1476322406000.0,20336043
235836965,Murfreesboro,,1504740803000.0,35.85,-86.36,Mariah Cornish,TN,1504740803000.0,20336043
235548524,Nashville,,1504452459000.0,36.16,-86.79,Mariah Souder,TN,1504452459000.0,20336043
228942697,Nashville,,1496516753000.0,36.13,-86.8,Marian D.,TN,1496516753000.0,20336043
237516745,Nashville,,1506483827000.0,36.17,-86.78,Marianne LaBarre,TN,1506483827000.0,20336043
124311612,Nashville,,1473002737000.0,36.17,-86.78,Maricruz Flores ,TN,1473002737000.0,20336043
50564612,Lebanon,"Pittsburgh, PA",1502241308000.0,36.21,-86.31,Marie Chiaramonte,TN,1502241308000.0,20336043
225818397,Antioch,,1492406079000.0,36.04,-86.64,Marie Kimbro,TN,1492406079000.0,20336043
228151328,Nashville,,1495495648000.0,36.18,-86.74,Mariella Warwick,TN,1495495648000.0,20336043
48247552,Nashville,,1501346249000.0,36.17,-86.78,Marissa,TN,1507082857000.0,20336043
206973408,Hendersonville,,1508334790000.0,36.32,-86.61,Marissa Swanson,TN,1508334790000.0,20336043
226344016,Murfreesboro,,1493095706000.0,35.78,-86.33,Marissa Williams,TN,1495339834000.0,20336043
230280950,Nashville,,1498184453000.0,36.16,-86.77,Maritza,TN,1500557641000.0,20336043
239102806,Nashville,,1508679322000.0,36.17,-86.78,Marjorie,TN,1508679322000.0,20336043
224194374,Hendersonville,,1490120958000.0,36.32,-86.61,Marjorie Anderson Abraham,TN,1490120958000.0,20336043
227734948,Nashville,,1497583639000.0,36.09,-86.82,Marsha,TN,1506738418000.0,20336043
239512135,Nashville,,1508733141000.0,36.15,-86.8,Marta,TN,1508733141000.0,20336043
172073332,Nashville,,1472060771000.0,36.17,-86.78,Martha Hicks-Robinson,TN,1503506966000.0,20336043
49394562,Brentwood,Brentwood,1488070879000.0,36.0,-86.79,Martha Psutka-George,TN,1488070879000.0,20336043
40749602,Franklin,"Kansas City, MO",1497218417000.0,35.92,-86.89,Mary,TN,1507147074000.0,20336043
178518922,Hendersonville,"Brookston, IN",1499798727000.0,36.32,-86.61,Mary,TN,1500124776000.0,20336043
233231433,Nashville,,1504137454000.0,36.17,-86.78,Mary Ann G,TN,1505068083000.0,20336043
233073476,Nashville,,1501611748000.0,36.16,-86.66,Mary Corbitt Smith,TN,1501611748000.0,20336043
220538343,Franklin,,1485179975000.0,35.92,-86.89,Mary Johns,TN,1493060391000.0,20336043
235032983,Nashville,,1503868200000.0,36.13,-86.8,Mary Kristen Moore,TN,1503868200000.0,20336043
225483657,Thompsons Station,,1491938498000.0,35.8,-86.9,Mary Lou Bradley Casey,TN,1491938498000.0,20336043
14225093,Nashville,Nashville,1505222974000.0,36.06,-86.96,Mary M,TN,1506598311000.0,20336043
215540369,Nashville,,1477355021000.0,36.06,-86.96,Maryam Lopez,TN,1477365564000.0,20336043
69351852,Franklin,Brentwood,1487637368000.0,35.99,-86.9,MaryAnn,TN,1487637368000.0,20336043
225524652,Hendersonville,,1492000729000.0,36.32,-86.61,Marybeth Curl,TN,1492000729000.0,20336043
238859932,Clarksville,,1507977140000.0,36.53,-87.35,Masalu Jacob,TN,1507977140000.0,20336043
15022801,Nashville,"Wauwatosa, WI",1502812963000.0,36.17,-86.78,Maura Kean,TN,1502812963000.0,20336043
214137530,Nashville,,1475363356000.0,36.14,-86.8,Maura Murphy,TN,1487380394000.0,20336043
215035614,Nashville,,1476620057000.0,36.17,-86.78,Maxwell Johnson,TN,1476620057000.0,20336043
11319897,New York,NYC,1485563815000.0,40.75,-73.98,Maya Torabi,NY,1485563815000.0,20336043
133365382,Nashville,,1474307874000.0,36.17,-86.78,Mayra Alexandra Rivera,TN,1500555472000.0,20336043
220252348,Nashville,,1484799631000.0,36.11,-86.86,Mayuko  Matsuda,TN,1484799631000.0,20336043
235346322,Nashville,,1504214167000.0,36.07,-86.78,Meagan & Eric ,TN,1504214167000.0,20336043
238951395,Nashville,,1508085378000.0,36.17,-86.78,Meah Aijalon,TN,1508085378000.0,20336043
228423326,Clarksville,,1495847571000.0,36.56,-87.41,Mechell Seals,TN,1502411514000.0,20336043
212421588,Nashville,,1473189581000.0,36.21,-86.72,Meg,TN,1473189581000.0,20336043
212630994,Nashville,,1473468978000.0,36.17,-86.78,Meg Garner,TN,1473468978000.0,20336043
210211333,Nashville,,1472055292000.0,36.17,-86.78,Meg Williams,TN,1473015512000.0,20336043
8468018,Nashville,"Nashville, TN",1473171662000.0,36.08,-86.72,Megan,TN,1503363920000.0,20336043
12310830,Nashville,Bloomington-Normal,1479590081000.0,36.18,-86.76,Megan Baker,TN,1479590081000.0,20336043
222611893,Nashville,,1487891084000.0,36.21,-86.72,Megan Canty,TN,1487891084000.0,20336043
216077243,Nashville,,1478193923000.0,36.22,-86.77,Megan Davis,TN,1478193923000.0,20336043
223782947,Nashville,,1490489421000.0,36.17,-86.78,Megan Hord,TN,1490572878000.0,20336043
232451864,Nashville,,1500839201000.0,36.13,-86.8,Megan Mathews Cook,TN,1500839201000.0,20336043
225755252,Nashville,,1492304057000.0,36.17,-86.78,Megan McGonagill,TN,1492304057000.0,20336043
215637739,Nashville,,1477504217000.0,36.17,-86.78,Megan McKeever,TN,1487091693000.0,20336043
25848642,Hermitage,"Goodlettsville, TN",1473683327000.0,36.19,-86.6,Megan Williams,TN,1475465145000.0,20336043
198518474,Nashville,,1472417730000.0,36.09,-86.82,Meggan Bess Sullivan,TN,1502814461000.0,20336043
222531934,Florence,,1487785316000.0,34.82,-87.66,Meggin Major,AL,1491427453000.0,20336043
6042535,Nashville,,1494523953000.0,36.17,-86.78,Megha Bradley,TN,1494523953000.0,20336043
221894385,Nashville,,1486911392000.0,36.17,-86.78,Meghan Beebe,TN,1486911392000.0,20336043
237860970,Spring Hill,,1506879176000.0,35.76,-86.88,Meghan Coyle,TN,1506879176000.0,20336043
221469278,Nashville,,1486336906000.0,36.17,-86.72,Meghan Marvinny,TN,1505836116000.0,20336043
178169942,Nashville,,1480480325000.0,36.17,-86.78,Meghan Sullivan,TN,1508437816000.0,20336043
214885625,Nashville,,1476391767000.0,36.17,-86.78,Meghan Sullivan,TN,1476391767000.0,20336043
222533916,Nashville,,1487785995000.0,36.17,-86.78,Meghana Thunga,TN,1487785995000.0,20336043
115115482,Nashville,,1499472936000.0,36.14,-86.8,Melaine Sebastian,TN,1499472936000.0,20336043
67655902,Nashville,Nashville,1490247320000.0,36.08,-86.72,Melanie,TN,1501963317000.0,20336043
219937583,Nashville,,1484423599000.0,36.17,-86.77,Melanie Traster,TN,1484630321000.0,20336043
233148506,Nashville,,1501702716000.0,36.17,-86.78,Melinda Higgins,TN,1501702716000.0,20336043
11378002,Nashville,Illinois ,1503269063000.0,36.17,-86.79,Melinda Plummer,TN,1503269063000.0,20336043
3190152,La Vergne,"LaVergne, TN",1498254109000.0,36.01,-86.57,Melissa,TN,1508413126000.0,20336043
225368181,Hixson,,1493084589000.0,35.16,-85.21,Melissa,TN,1494131865000.0,20336043
187624182,Nashville,,1472214092000.0,36.15,-86.86,Melissa,TN,1501065517000.0,20336043
229828869,Nashville,,1497627382000.0,36.17,-86.78,Melissa Bledsoe,TN,1497627382000.0,20336043
214820156,Nashville,,1476301006000.0,36.17,-86.78,Melissa Ferguson,TN,1476810964000.0,20336043
230271678,Nashville,,1498174718000.0,36.17,-86.77,Melissa Gartner,TN,1498174718000.0,20336043
194119079,White Bluff,,1508084439000.0,36.12,-87.23,Melissa H.,TN,1508610371000.0,20336043
235673106,Fort Campbell,,1504577381000.0,36.65,-87.46,Melissa Hoffman,KY,1504577381000.0,20336043
221023144,Nashville,,1485788672000.0,36.19,-86.8,Melissa Hoppel,TN,1485788672000.0,20336043
221181213,Nashville,,1485982697000.0,36.11,-86.86,Melissa L.,TN,1500592464000.0,20336043
229512175,Nashville,,1497360570000.0,36.17,-86.78,Melissa Raines,TN,1497930416000.0,20336043
219391834,Nashville,,1483729868000.0,36.16,-86.66,Melissa Sanders,TN,1483729868000.0,20336043
232534406,Nashville,,1500936713000.0,36.17,-86.78,Melly Daniels,TN,1500936713000.0,20336043
182970988,Nashville,,1471992636000.0,36.17,-86.78,Melodie Rahmeyer,TN,1475699906000.0,20336043
223848537,Nashville,,1489636820000.0,36.08,-86.72,Melody Bailey,TN,1504474434000.0,20336043
237302915,Nashville,,1506259854000.0,36.09,-86.82,Meneka Kumari,TN,1508589989000.0,20336043
81008572,Franklin,"Franklin, TN",1503864136000.0,35.93,-86.81,Mercedes,TN,1503864136000.0,20336043
238160598,Nashville,,1507211834000.0,36.17,-86.78,Mia Muschek,TN,1507211834000.0,20336043
237535427,Pleasant View,,1506509496000.0,36.38,-87.04,Micaela Allen,TN,1506509496000.0,20336043
212065431,Nashville,,1472702922000.0,36.17,-86.72,Micfro,TN,1476425725000.0,20336043
227780445,Nashville,,1495040893000.0,36.11,-86.78,Michaun Olliver,TN,1495040893000.0,20336043
228954490,Nashville,,1496529495000.0,36.17,-86.79,Michele McCann,TN,1496529495000.0,20336043
195621446,Nashville,,1490023677000.0,36.15,-86.81,Michelle,TN,1490587428000.0,20336043
225640284,Nashville,,1492135119000.0,36.14,-86.81,Michelle Hadley,TN,1498654032000.0,20336043
216766077,Hendersonville,,1479275239000.0,36.3,-86.62,Michelle Hampton,TN,1481729647000.0,20336043
233239578,Nashville,,1501892824000.0,36.17,-86.78,Michelle Hughes,TN,1503434380000.0,20336043
211811367,Nashville,,1476755782000.0,36.17,-86.78,Michelle J,TN,1492966155000.0,20336043
217159433,Antioch,,1479909333000.0,36.04,-86.64,Michelle Kilgore,TN,1480613955000.0,20336043
224832034,Fort Campbell,,1491007088000.0,36.65,-87.46,Michelle Lucas,KY,1491007088000.0,20336043
46486792,Nashville,,1491146028000.0,36.17,-86.78,Michelle McManus,TN,1491146028000.0,20336043
190646018,Nashville,,1472943975000.0,36.17,-86.78,Michelle Pray,TN,1472943975000.0,20336043
239525867,Smyrna,,1508736685000.0,35.97,-86.51,michelle reynolds,TN,1508736685000.0,20336043
232405534,Nashville,,1500779153000.0,36.17,-86.78,Michelle Sharoian McConnell,TN,1502237300000.0,20336043
223103141,Nashville,,1488585267000.0,36.17,-86.78,Michelle weaver,TN,1488585267000.0,20336043
213499145,Nashville,,1474586325000.0,36.17,-86.78,Mina Jackson,TN,1474586325000.0,20336043
233819941,Nashville,,1502469542000.0,36.17,-86.78,Miranda Foster,TN,1502469542000.0,20336043
222545777,Nashville,,1487799377000.0,36.17,-86.78,Miranda Rich,TN,1487799377000.0,20336043
9236917,Nashville,,1507169816000.0,36.08,-86.72,Miss Ashleigh,TN,1508781914000.0,20336043
215521264,Nashville,,1477332137000.0,36.17,-86.78,Missie Holland Babb,TN,1490565201000.0,20336043
205925930,Nashville,,1472079229000.0,36.17,-86.78,Misty Freeman,TN,1486693493000.0,20336043
183381715,Nashville,Memphis,1476467039000.0,36.08,-86.72,Miyana,TN,1477950600000.0,20336043
231378327,Nashville,,1499540618000.0,36.17,-86.78,Mo B. McAlpine,TN,1499540618000.0,20336043
236143352,Nashville,,1505070481000.0,36.11,-86.78,Molly Schatz,TN,1505070481000.0,20336043
106819122,Antioch,,1501769517000.0,36.04,-86.64,Monica King,TN,1505468884000.0,20336043
8986286,Chesterfield,,1500379973000.0,38.63,-90.62,monique Bernstein,MO,1500379973000.0,20336043
238613159,Nashville,,1507687187000.0,36.17,-86.78,Monique Rivers Williams,TN,1507687187000.0,20336043
66885242,Brentwood,,1473761361000.0,36.0,-86.79,Monta b,TN,1475442031000.0,20336043
158986022,Nashville,,1475291126000.0,36.14,-86.82,Morgan,TN,1475291126000.0,20336043
123197602,Nashville,,1498274319000.0,36.1,-86.66,Ms. Z,TN,1498274319000.0,20336043
233383958,Nashville,,1501982180000.0,36.22,-86.74,Nadia Dunlap,TN,1501982180000.0,20336043
192223710,Nashville,,1473477883000.0,36.15,-86.79,Nadyne,TN,1473477883000.0,20336043
214994263,Nashville,,1476557504000.0,36.07,-86.78,Nah Rutledge,TN,1476667498000.0,20336043
227811546,Hermitage,,1495076111000.0,36.19,-86.6,Nakeya Franklin,TN,1495076111000.0,20336043
219727514,Spring Hill,,1484149425000.0,35.76,-86.88,nancy,TN,1484149425000.0,20336043
233514294,Nashville,,1502132222000.0,36.17,-86.78,Nancy Bringe Tidwell,TN,1502132222000.0,20336043
229425712,Mount Juliet,,1497114826000.0,36.22,-86.52,Nancy Law,TN,1497114826000.0,20336043
33807992,Hermitage,"Pleasant View, TN",1491879720000.0,36.19,-86.6,Nancy Neal,TN,1499047643000.0,20336043
236136183,Nashville,,1505063435000.0,36.18,-86.74,Nancy Short,TN,1505063435000.0,20336043
215584268,Smyrna,,1477421142000.0,35.97,-86.51,Nancy Whitman,TN,1477421142000.0,20336043
4389320,Nashville,Charlotte,1484271464000.0,36.17,-86.78,Nat,TN,1485911865000.0,20336043
238102882,Thompsons Station,,1507144223000.0,35.8,-86.9,Natalie,TN,1507144223000.0,20336043
213218849,Nashville,,1474235154000.0,36.23,-86.74,Natalie,TN,1474417485000.0,20336043
142417362,Nashville,,1505002484000.0,36.17,-86.78,Natalie,TN,1505002484000.0,20336043
237153627,Franklin,,1506085258000.0,35.92,-86.89,Natalie,TN,1506085258000.0,20336043
226632291,Nashville,,1493490266000.0,36.11,-86.86,Natalie Davant,TN,1493490266000.0,20336043
185075060,Brentwood,,1504586295000.0,36.0,-86.79,Natalie Elefante,TN,1504586295000.0,20336043
223161983,Pleasant View,,1488671918000.0,36.38,-87.04,Natalie Hudgens,TN,1502707821000.0,20336043
75967532,Franklin,,1493784857000.0,35.95,-86.8,Natalie Michelle,TN,1505960084000.0,20336043
198065324,Nashville,,1507780603000.0,36.17,-86.78,Natalie Moore,TN,1507780603000.0,20336043
236227207,Murfreesboro,,1505153604000.0,35.82,-86.45,Natalie Scothern,TN,1505153604000.0,20336043
218094479,Nashville,,1481556181000.0,36.16,-86.79,Natalie Traylor Peake,TN,1501910415000.0,20336043
53071102,Nashville,Nashville ,1472145415000.0,36.17,-86.72,Natalya,TN,1500324297000.0,20336043
190974710,Murray,,1491178608000.0,36.62,-88.25,Natasha ,KY,1491178608000.0,20336043
220560147,Nashville,,1487458217000.0,36.18,-86.81,Natasha W,TN,1502212428000.0,20336043
220688734,Nashville,,1485359495000.0,36.17,-86.78,Natasha Williams,TN,1485359495000.0,20336043
192394999,Nashville,,1495024518000.0,36.08,-86.72,Neali,TN,1496867229000.0,20336043
201161632,Nashville,,1487813582000.0,36.08,-86.72,Nechole Thompson,TN,1496231105000.0,20336043
233741064,Nashville,,1502384564000.0,36.08,-86.72,Netje Benjamin,TN,1502384564000.0,20336043
158694102,Nashville,,1475553564000.0,36.17,-86.78,Nichole Broadhacker,TN,1475553564000.0,20336043
213201717,Nashville,,1474219815000.0,36.17,-86.78,Nichole Jaffee,TN,1474815862000.0,20336043
219481090,Antioch,,1483844081000.0,36.04,-86.64,Nicki Ricci,TN,1483844081000.0,20336043
116454722,Nashville,East Lansing,1505337111000.0,36.16,-86.79,Nicole,TN,1506555053000.0,20336043
221847746,Nashville,,1501021717000.0,36.15,-86.81,Nicole,TN,1504551970000.0,20336043
224921490,Nashville,,1491145567000.0,36.15,-86.81,Nicole ,TN,1491145567000.0,20336043
210433198,Nashville,,1472002904000.0,36.17,-86.78,Nicole,TN,1472002904000.0,20336043
185758770,Mount Juliet,,1472160247000.0,36.22,-86.52,Nicole,TN,1486765050000.0,20336043
57875492,Franklin,Franklin,1479896205000.0,35.93,-86.81,Nicole Bond,TN,1500684667000.0,20336043
199877089,Antioch,,1499337407000.0,36.04,-86.64,Nicole Guziak,TN,1506682695000.0,20336043
225123645,Franklin,,1491422873000.0,35.93,-86.81,Nicole Kramp,TN,1491422873000.0,20336043
224886962,Nashville,,1491183828000.0,36.14,-86.74,Nicole Marie,TN,1491183828000.0,20336043
209405212,Nashville,,1501973406000.0,36.17,-86.72,Nicole Simmons,TN,1501973406000.0,20336043
70832122,Nashville,,1489447556000.0,36.17,-86.78,Nicole Waite,TN,1496587009000.0,20336043
227589928,Mount Juliet,,1502404965000.0,36.21,-86.52,Nikki,TN,1502912701000.0,20336043
222275164,Nashville,,1487436728000.0,36.15,-86.79,Nilay Holloway,TN,1487436728000.0,20336043
53631422,Nashville,Boulder,1498098648000.0,36.16,-86.79,Nina,TN,1506352236000.0,20336043
217855562,Nashville,,1489421152000.0,36.17,-86.78,Nisea Thomas,TN,1489421152000.0,20336043
230314872,Nashville,,1498230011000.0,36.17,-86.78,Nishita Dsouza,TN,1498230011000.0,20336043
189602965,Nashville,,1475633583000.0,36.08,-86.72,Nuha,TN,1475633583000.0,20336043
227262615,Nashville,,1504819537000.0,36.17,-86.78,Office Evolution Nashville,TN,1504819537000.0,20336043
13501170,Franklin,Franklin,1493383915000.0,35.92,-86.89,Olga ,TN,1503839394000.0,20336043
231786471,Hendersonville,,1500005959000.0,36.32,-86.61,Olivia Buschkotter,TN,1500005959000.0,20336043
230482421,Nashville,,1498437805000.0,36.11,-86.86,Olivia Cowan,TN,1498437805000.0,20336043
234168251,Franklin,,1502888222000.0,35.93,-86.81,Olivia Oetjens,TN,1502888222000.0,20336043
211491865,Nashville,,1471915510000.0,36.17,-86.72,Olivia Pramas,TN,1471915510000.0,20336043
220569396,Nashville,,1485213353000.0,36.16,-86.77,Onkea Harvell,TN,1490658230000.0,20336043
191466325,Nashville,,1507182386000.0,36.17,-86.78,Oscar,TN,1507182386000.0,20336043
234489079,Nashville,,1503243776000.0,36.13,-86.67,Paige Daniel,TN,1503243776000.0,20336043
234933073,Old Hickory,,1503754533000.0,36.25,-86.63,Pam Gibson,TN,1503754533000.0,20336043
234066699,Nashville,,1502766179000.0,36.15,-86.81,Pam Mattox,TN,1503546132000.0,20336043
211358914,Nashville,,1471734970000.0,36.17,-86.78,Pam Teague Brown,TN,1505473938000.0,20336043
8334399,Nashville,"Huntsville, AL",1488320401000.0,36.17,-86.78,Pamela,TN,1488320401000.0,20336043
239140757,Madison,,1508292830000.0,36.26,-86.71,Pamela Cross,TN,1508379785000.0,20336043
222652466,Hermitage,,1487954585000.0,36.19,-86.6,Pamela Freed,TN,1488309590000.0,20336043
235495939,Hendersonville,,1504387313000.0,36.32,-86.61,Pamela Wallace,TN,1505079343000.0,20336043
230975729,Nashville,,1499048273000.0,36.08,-86.72,Pantless Thundergoose,TN,1499048273000.0,20336043
226763687,Franklin,,1493667619000.0,35.99,-86.9,Paris Long,TN,1493667619000.0,20336043
211735645,Nashville,,1472254388000.0,36.17,-86.78,Pat Haller,TN,1472254388000.0,20336043
13614935,Mount Juliet,"Gaithersburg, MD",1478274677000.0,36.21,-86.58,Patricia,TN,1508136599000.0,20336043
182697438,Nashville,,1483479044000.0,36.1,-86.66,Patricia Waters,TN,1502697390000.0,20336043
201259535,Nashville,Las Vegas,1473005565000.0,36.22,-86.77,Patsi-Ann Bova,TN,1491157212000.0,20336043
221994412,Nashville,,1487035639000.0,36.17,-86.78,Patty ,TN,1489081831000.0,20336043
223575948,Murfreesboro,,1489265805000.0,35.82,-86.45,Patty Gray,TN,1489265805000.0,20336043
28686572,Murfreesboro,Murfreesboro,1474660247000.0,35.87,-86.34,Paula,TN,1474660247000.0,20336043
35276942,Nashville,Painesdale Michigan,1472514985000.0,36.17,-86.72,Paula,TN,1500138592000.0,20336043
231255836,Nashville,,1499389509000.0,36.17,-86.78,Peggy Maihafer,TN,1505437113000.0,20336043
236532848,Chapmansboro,,1505431490000.0,36.37,-87.14,Penny Kong,TN,1506292599000.0,20336043
212378653,Nashville,,1473131275000.0,36.17,-86.78,Persephanie Celiene Rogers,TN,1473131275000.0,20336043
232051047,Nashville,,1500338493000.0,36.17,-86.78,Phoebe C,TN,1501012006000.0,20336043
197832363,Franklin,,1492610890000.0,35.92,-86.89,PJ,TN,1492610890000.0,20336043
220563622,Nashville,,1485206539000.0,36.11,-86.78,Princess,TN,1493649715000.0,20336043
9746334,Nashville, West Tn,1489774035000.0,36.06,-86.96,Priscilla Morris,TN,1489774035000.0,20336043
218420062,Nashville,,1482176262000.0,36.15,-86.81,pzmqskfus,TN,1482176262000.0,20336043
205735599,Nashville,,1503183773000.0,36.08,-86.72,Queen Amidala,TN,1503183773000.0,20336043
196827773,Nashville,Nashville,1489972622000.0,36.17,-86.78,R. Smith,TN,1501112817000.0,20336043
213197220,Nashville,,1474213259000.0,36.17,-86.72,Rach Marie,TN,1474213259000.0,20336043
184106582,Nashville,,1485027606000.0,36.17,-86.78,Rachel,TN,1485027606000.0,20336043
192449206,Nashville,,1480449660000.0,36.07,-86.73,Rachel,TN,1480449660000.0,20336043
72952872,Nashville,,1491958760000.0,36.14,-86.74,Rachel,TN,1491958760000.0,20336043
82319282,Nashville,,1490359740000.0,36.17,-86.79,Rachel Ann Miller,TN,1494525230000.0,20336043
229470537,Clarksville,,1497164319000.0,36.56,-87.35,Rachel Blake ,TN,1505495902000.0,20336043
220451730,Nashville,,1485066751000.0,36.06,-86.96,Rachel Browning,TN,1497527670000.0,20336043
212085215,La Vergne,,1472738321000.0,36.01,-86.57,Rachel Grace,TN,1472738321000.0,20336043
216069491,Nashville,,1480887571000.0,36.14,-86.74,Rachel Harbin ,TN,1484109116000.0,20336043
215124979,Nashville,,1476739452000.0,36.19,-86.8,Rachel Harville,TN,1476739452000.0,20336043
224821281,Nashville,,1490993429000.0,36.16,-86.79,Rachel Kent,TN,1490993429000.0,20336043
228742071,Nashville,,1496265001000.0,36.17,-86.78,Rachel Mallard,TN,1496265001000.0,20336043
220525339,Nashville,,1485160363000.0,36.17,-86.78,Rachel Manssur,TN,1503429930000.0,20336043
32707172,Nashville,,1475539072000.0,36.17,-86.78,Rachel Miller,TN,1475539072000.0,20336043
160719742,Old Hickory,,1472096722000.0,36.25,-86.63,Rachel Thomason,TN,1477937859000.0,20336043
236782030,Clarksville,,1505695656000.0,36.53,-87.34,Rachel Wheaton,TN,1505695656000.0,20336043
231983954,Nashville,,1500256966000.0,36.08,-86.72,Rafael Jimenez,TN,1506439985000.0,20336043
235577723,Clarksville,,1504480895000.0,36.56,-87.35,Rakida Sims,TN,1504480895000.0,20336043
224457330,Nashville,,1490486807000.0,36.17,-86.79,Rana Coffey,TN,1490491580000.0,20336043
200811347,Nashville,,1506827084000.0,36.13,-86.78,Randa,TN,1506827084000.0,20336043
220658564,Nashville,,1485355441000.0,36.17,-86.78,Ranee,TN,1495135883000.0,20336043
212737159,Nashville,,1474451626000.0,36.17,-86.78,Rayni Lasley,TN,1487615930000.0,20336043
215493026,Nashville,,1477288773000.0,36.1,-86.66,Rebeca Medina,TN,1477542166000.0,20336043
226495399,Spring Hill,,1493298723000.0,35.76,-86.88,Rebecca,TN,1493298723000.0,20336043
221167176,Nashville,,1485966849000.0,36.13,-86.8,Rebecca Augustine,TN,1485966849000.0,20336043
221454220,Dickson,,1486321140000.0,36.08,-87.43,Rebecca Daugherty,TN,1486321140000.0,20336043
225783565,Nashville,,1492355033000.0,36.11,-86.86,Rebecca Davis Harris,TN,1492355033000.0,20336043
227807892,Nashville,,1495071534000.0,36.17,-86.78,Rebecca Duke,TN,1498786835000.0,20336043
178780962,Nashville,,1497533777000.0,36.17,-86.78,Rebecca Kutz,TN,1497533777000.0,20336043
213961223,Clarksville,,1475174560000.0,36.53,-87.35,Rebecca Stevens,TN,1475174560000.0,20336043
222681978,Nashville,,1487994449000.0,36.17,-86.78,Rebecca Ware,TN,1487994449000.0,20336043
212830489,Hendersonville,,1473728303000.0,36.32,-86.61,Rebekah,TN,1477528123000.0,20336043
226268765,Nashville,,1492999198000.0,36.13,-86.8,Renee,TN,1493067287000.0,20336043
221161925,Clarksville,,1485961145000.0,36.56,-87.41,Renee Palicia,TN,1485961145000.0,20336043
223784622,Nashville,Murfreesboro,1489546639000.0,36.06,-86.96,Renee S. Queary,TN,1489546639000.0,20336043
195712751,Nashville,,1472928117000.0,36.22,-86.77,renna,TN,1506340237000.0,20336043
237342428,Nashville,,1506298005000.0,36.08,-86.72,Rhiannon Ramos,TN,1506298005000.0,20336043
218975482,Nashville,,1483206302000.0,36.17,-86.72,rhoda,TN,1490194473000.0,20336043
217706956,Nashville,,1480880000000.0,36.15,-86.86,Rhonda Reed,TN,1485391171000.0,20336043
216297968,Hendersonville,,1478538649000.0,36.32,-86.61,Rikki Jo,TN,1483454060000.0,20336043
232047062,Nashville,,1507123577000.0,36.13,-86.8,Riley Ahlstrand,TN,1507123577000.0,20336043
233161849,Nashville,,1501716647000.0,36.15,-86.81,Rina,TN,1508727174000.0,20336043
221480100,Nashville,,1486351412000.0,36.07,-86.73,Rita Escue,TN,1490837190000.0,20336043
13371408,Antioch,"Antioch, TN",1506471905000.0,36.04,-86.64,RJ,TN,1508708414000.0,20336043
222721189,Nashville,,1488051925000.0,36.21,-86.72,RLB,TN,1488051925000.0,20336043
239503801,Murfreesboro,,1508713485000.0,35.82,-86.44,Robin,TN,1508713485000.0,20336043
154091172,Nashville,,1489162479000.0,36.17,-86.78,Robin,TN,1491428408000.0,20336043
134380742,Murfreesboro,,1478209317000.0,35.78,-86.33,Robin Webb,TN,1480547225000.0,20336043
230384577,Nashville,,1498320249000.0,36.17,-86.78,Robyn,TN,1499533853000.0,20336043
78131812,Franklin,,1501424025000.0,35.93,-86.81,Rochelle,TN,1506733165000.0,20336043
237089656,Smyrna,,1506011970000.0,35.97,-86.51,Ronda Groogan,TN,1506011970000.0,20336043
215082380,Smyrna,,1476680079000.0,35.97,-86.51,Ronicka Brooks,TN,1476680079000.0,20336043
220857141,Dallas,,1485573268000.0,32.79,-96.8,Rose Love,TX,1485578026000.0,20336043
233088804,Nashville,,1501631139000.0,36.07,-86.73,Ruth Cante,TN,1501631139000.0,20336043
87595972,Nashville,,1485571897000.0,36.17,-86.78,Ryan,TN,1506706050000.0,20336043
161561332,Murray,,1496971986000.0,36.62,-88.25,Sabrina,KY,1496971986000.0,20336043
224887394,Murfreesboro,,1491088936000.0,35.82,-86.45,Sabrina Adams,TN,1491088936000.0,20336043
140903702,Nashville,,1502418012000.0,36.16,-86.81,Sabrina Guy,TN,1508640869000.0,20336043
190378097,Nashville,"Lake City, FL",1502236989000.0,36.17,-86.78,Sabrina Owens,TN,1502236989000.0,20336043
236403566,Nashville,,1505315621000.0,36.15,-86.86,Sade Wilson,TN,1505315621000.0,20336043
197736523,Nashville,,1476393693000.0,36.08,-86.72,Sadie,TN,1478094767000.0,20336043
71456132,Nashville,,1487637243000.0,36.17,-86.78,Sadie,TN,1504329119000.0,20336043
222872208,Nashville,,1488260548000.0,36.15,-86.86,Sai Clayton,TN,1488260548000.0,20336043
183094903,Hendersonville,"Kansas City, MO",1499615234000.0,36.26,-86.63,Sam,TN,1499615234000.0,20336043
228213759,Brentwood,,1495573600000.0,36.0,-86.79,Sam Bowers,TN,1495573600000.0,20336043
228465329,Nashville,,1507432023000.0,36.17,-86.78,Sam K,TN,1507432023000.0,20336043
229259590,Rockvale,,1496896189000.0,35.76,-86.55,Samantha,TN,1498104415000.0,20336043
188547480,Nashville,,1500562205000.0,36.11,-86.86,Samantha ,TN,1506955260000.0,20336043
237036927,Cedar Hill,,1505948936000.0,36.51,-87.02,Samantha Coomer,TN,1505948936000.0,20336043
226010619,Nashville,,1492648617000.0,36.17,-86.72,Samantha Duso,TN,1494722874000.0,20336043
232270953,Antioch,,1500603486000.0,36.04,-86.64,Samantha Marie Whittaker,TN,1502080413000.0,20336043
218388916,Hermitage,,1486925932000.0,36.19,-86.6,Samantha Marsh,TN,1500853113000.0,20336043
224156767,Clarksville,,1490066485000.0,36.56,-87.41,Samantha Ramsey,TN,1490070099000.0,20336043
233404896,Nashville,,1502009221000.0,36.14,-86.8,Samantha Rohman,TN,1505435692000.0,20336043
231888974,Nashville,,1500142072000.0,36.21,-86.72,Samantha Smith,TN,1500142072000.0,20336043
216271633,Westmoreland,,1478492483000.0,36.57,-86.22,Samantha Thompson,TN,1479179091000.0,20336043
226409711,Clarksville,,1493924242000.0,36.49,-87.23,Samjeanmccordjohnson,TN,1493924242000.0,20336043
207488739,Nashville,,1479168329000.0,36.11,-86.78,Sammi Bosler,TN,1479514390000.0,20336043
238815972,Nashville,,1507922571000.0,36.16,-86.77,Sammy D,TN,1508262920000.0,20336043
133286,Nashville,,1492033978000.0,36.26,-86.77,Sammyw.,TN,1492033978000.0,20336043
216498970,Murfreesboro,,1478874281000.0,35.82,-86.45,San Roberts,TN,1505234166000.0,20336043
8563523,Nashville,nashville tn,1478998834000.0,36.07,-86.73,sandra,TN,1478998834000.0,20336043
217504286,Nashville,,1480524297000.0,36.17,-86.78,Sandy Brothers,TN,1485407986000.0,20336043
221482535,Nashville,,1486355149000.0,36.21,-86.72,Sandy Hughes Bradley,TN,1486355149000.0,20336043
184816149,Mount Juliet,,1471747832000.0,36.22,-86.52,Sandy M,TN,1488168949000.0,20336043
226937410,Nashville,,1493902330000.0,36.17,-86.78,sandy Overton,TN,1493902330000.0,20336043
213044479,Nashville,,1474013108000.0,36.17,-86.72,Sara,TN,1480433054000.0,20336043
223867991,Nashville,,1504453372000.0,36.08,-86.72,Sara,TN,1504453372000.0,20336043
148199842,Nashville,Nashville,1498525715000.0,36.16,-86.79,Sara,TN,1500580324000.0,20336043
230400053,Hendersonville,,1498335629000.0,36.3,-86.62,Sara Lynn York,TN,1498335629000.0,20336043
233896930,Nashville,,1502561920000.0,36.13,-86.8,Sara Smallwood,TN,1502561920000.0,20336043
220645489,Nashville,,1485300362000.0,36.17,-86.78,Sarah,TN,1486066653000.0,20336043
10250256,Kingston Springs,San Antonio,1487383923000.0,36.08,-87.12,Sarah,TN,1487383923000.0,20336043
7137746,Lebanon,"Johnson City, TN",1491961472000.0,36.15,-86.32,Sarah,TN,1497979475000.0,20336043
214772119,Nashville,,1476225048000.0,36.17,-86.78,Sarah,TN,1482957123000.0,20336043
229042076,Nashville,,1496634379000.0,36.17,-86.78,Sarah Ann,TN,1499195256000.0,20336043
229385290,Franklin,,1499042987000.0,35.92,-86.89,Sarah Ascher,TN,1499042987000.0,20336043
209224665,Nashville,,1472090642000.0,36.08,-86.72,Sarah Ashley Christian,TN,1500472070000.0,20336043
225940719,Old Hickory,,1492557159000.0,36.25,-86.63,Sarah Corum,TN,1492557159000.0,20336043
225124086,Murfreesboro,,1491423677000.0,35.87,-86.34,Sarah Doolittle,TN,1491423677000.0,20336043
217416910,Gladeville,,1480377261000.0,36.19,-86.28,Sarah Elizabeth Osuch,TN,1480377261000.0,20336043
222471606,Nashville,,1487703055000.0,36.17,-86.78,Sarah Flynn,TN,1487703055000.0,20336043
182615865,Nashville,,1502072216000.0,36.08,-86.72,Sarah Grabar,TN,1502072216000.0,20336043
13708926,Nashville,,1484437073000.0,36.16,-86.66,Sarah Gravely,TN,1484475849000.0,20336043
89609732,Nashville,,1501345574000.0,36.14,-86.84,Sarah Jack,TN,1501345574000.0,20336043
231371988,Franklin,,1499573157000.0,35.92,-86.87,Sarah Jo Brinson,TN,1499573157000.0,20336043
227740916,Smyrna,,1494988165000.0,35.97,-86.51,Sarah Johnson,TN,1494988165000.0,20336043
237405520,Antioch,,1506367770000.0,36.04,-86.64,Sarah Lindley,TN,1506367770000.0,20336043
191233632,Nashville,Nashville,1472056526000.0,36.16,-86.79,Sarah Merritt,TN,1490074932000.0,20336043
220177539,Nashville,,1484712118000.0,36.06,-86.96,Sarah Ritzhaupt,TN,1485353960000.0,20336043
217528080,Nashville,,1480559115000.0,36.07,-86.73,Sarah S,TN,1480559115000.0,20336043
225391149,Nashville,,1500656024000.0,36.17,-86.78,Sarah Zavattero,TN,1505055315000.0,20336043
228726272,Nashville,,1496248121000.0,36.16,-86.78,Saria Shannon,TN,1496248121000.0,20336043
193287149,Brentwood,,1506985175000.0,36.0,-86.79,Sasha,TN,1507136791000.0,20336043
223721709,Lebanon,,1489460194000.0,36.21,-86.31,Savannah H,TN,1489460194000.0,20336043
219820286,Murfreesboro,,1484262971000.0,35.87,-86.34,Savannah Holley,TN,1487888011000.0,20336043
230023190,Nolensville,,1497895304000.0,35.94,-86.67,Savannah LaMey,TN,1497895304000.0,20336043
236446194,Madison,,1505349758000.0,36.26,-86.71,Schyler Moore,TN,1505958660000.0,20336043
219148445,Nashville,,1483442645000.0,36.08,-86.72,Sean Williams,TN,1483442645000.0,20336043
214764664,Gallatin,,1476221631000.0,36.39,-86.45,Selena ,TN,1476221631000.0,20336043
214578793,Antioch,,1480128627000.0,36.04,-86.64,Shalee Marshall,TN,1483411177000.0,20336043
234261618,Nashville,,1502994332000.0,36.13,-86.67,Shalita Dalton,TN,1502994332000.0,20336043
212640488,Nashville,,1473513943000.0,36.17,-86.78,Shanet,TN,1476200963000.0,20336043
216477312,Murfreesboro,,1478831115000.0,35.87,-86.44,Shann,TN,1478883706000.0,20336043
208519114,Franklin,,1493395986000.0,35.92,-86.89,Shannon,TN,1500580296000.0,20336043
104299812,Nashville,Waikoloa,1490327935000.0,36.17,-86.78,Shannon,TN,1506739377000.0,20336043
135446852,Brentwood,,1487212064000.0,36.0,-86.69,Shannon,TN,1504321702000.0,20336043
233107064,Goodlettsville,,1501649496000.0,36.32,-86.72,Shannon Allbritton,TN,1501649496000.0,20336043
216374980,Nashville,,1478652762000.0,36.15,-86.79,Shannon Lutes,TN,1478652762000.0,20336043
185997095,Brentwood,,1473390511000.0,36.0,-86.79,Shannon Marie,TN,1490969014000.0,20336043
233609822,Nashville,,1502235085000.0,36.17,-86.78,Shannon Stuart,TN,1502235085000.0,20336043
234675643,Nashville,,1503449728000.0,36.13,-86.8,Shantal Francis,TN,1503449728000.0,20336043
229728317,Gallatin,,1497485986000.0,36.39,-86.45,Shantel King,TN,1497485986000.0,20336043
184279207,Nashville,,1488508467000.0,36.17,-86.78,Shara Murphy,TN,1488508467000.0,20336043
233966572,Hendersonville,,1502648858000.0,36.32,-86.61,Sharon,TN,1502648858000.0,20336043
10460311,Nashville,,1472744047000.0,36.16,-86.79,Sharon ,TN,1472744047000.0,20336043
221392349,Nashville,,1488071542000.0,36.17,-86.78,Sharon Bryant,TN,1488071542000.0,20336043
227805262,Nashville,,1495068539000.0,36.17,-86.78,Sharon Hamm,TN,1495068539000.0,20336043
232134606,Clarksville,,1500437565000.0,36.53,-87.35,sharon heaphy,TN,1500437565000.0,20336043
116582132,Franklin,,1473978895000.0,35.92,-86.89,Sharrie,TN,1499533178000.0,20336043
223139602,Spring Hill,,1488645328000.0,35.76,-86.88,Shayna Clemmer,TN,1488645328000.0,20336043
214837875,Fort Campbell,,1476323864000.0,36.65,-87.46,Shayna Stone-Collins,KY,1476323864000.0,20336043
212094707,Nashville,,1472749586000.0,36.15,-86.86,Shea Wages,TN,1472749586000.0,20336043
129588192,Nashville,,1473276451000.0,36.17,-86.78,Sheila Jones,TN,1477268021000.0,20336043
183394574,Mount Juliet,Mount Juliet,1471757968000.0,36.22,-86.52,Sheila R.,TN,1506308028000.0,20336043
231090650,Hermitage,,1499189837000.0,36.19,-86.6,Sheila Solomon,TN,1499189837000.0,20336043
226134797,La Vergne,,1492823268000.0,36.01,-86.57,Shelbi Cox,TN,1492823268000.0,20336043
151199082,Nashville,,1494261782000.0,36.17,-86.78,Shelby,TN,1494261782000.0,20336043
222418917,Nashville,,1487630560000.0,36.15,-86.86,Shelby Gaines,TN,1487630560000.0,20336043
221869810,Nashville,,1486869286000.0,36.1,-86.66,Shelby Hepner,TN,1487961104000.0,20336043
216944027,Nashville,,1479564802000.0,36.06,-86.76,Shelby McCarthy,TN,1483580192000.0,20336043
40863952,Franklin,,1504150737000.0,35.92,-86.89,Sherri Joyce,TN,1504150737000.0,20336043
188571365,Smyrna,,1479786461000.0,35.97,-86.51,Sherry Brewer,TN,1507599088000.0,20336043
57803282,Hendersonville,,1477416688000.0,36.32,-86.61,Sheryl Kirkland,TN,1498191467000.0,20336043
109282952,Franklin,,1489008549000.0,35.99,-86.9,Shona,TN,1489008549000.0,20336043
218237602,Nashville,,1505357803000.0,36.17,-86.78,Sidney Jane,TN,1505357803000.0,20336043
209301011,Nashville,Land O Lakes,1473969081000.0,36.06,-86.96,Sierra Pricher,TN,1476809062000.0,20336043
150289852,Nashville,,1497227279000.0,36.17,-86.72,Simone Gonzalez,TN,1506735576000.0,20336043
100195752,Nashville,,1483766033000.0,36.15,-86.86,Sissy K,TN,1508776244000.0,20336043
232030889,Nashville,,1500317742000.0,36.16,-86.66,Skyla Spencer,TN,1500317742000.0,20336043
215741026,Nashville,,1477680920000.0,36.08,-86.72,Skylar Spisak,TN,1488836778000.0,20336043
223904173,Nashville,,1489717300000.0,36.17,-86.78,Skyler Levine,TN,1489717300000.0,20336043
226005472,Nashville,,1492642450000.0,36.17,-86.78,Sne ,TN,1492642450000.0,20336043
223474108,Nashville,,1489116314000.0,36.17,-86.78,Sommer Cornell,TN,1489116314000.0,20336043
232956266,Nashville,,1501464287000.0,36.06,-86.96,Sonia Alam,TN,1501464287000.0,20336043
37880142,Cypress,"Spanish fort, al",1480982394000.0,29.97,-95.7,Sonia Moore,TX,1491525702000.0,20336043
190702716,Nashville,,1506700652000.0,36.22,-86.7,Sonya Nelson,TN,1506729789000.0,20336043
230401159,Nashville,,1498336909000.0,36.13,-86.8,Sophia H,TN,1498336909000.0,20336043
235850554,Antioch,,1504754153000.0,36.04,-86.64,Sophia Valenta,TN,1504754153000.0,20336043
220258483,Nashville,,1498544632000.0,36.17,-86.72,SRWard,TN,1499163749000.0,20336043
41162462,Gallatin,"Hendersonville, TN",1472059227000.0,36.41,-86.48,Stacey,TN,1498237300000.0,20336043
231633162,Murfreesboro,,1504459999000.0,35.78,-86.33,Stacey Blythe,TN,1504459999000.0,20336043
224221252,Nashville,,1490152346000.0,36.1,-86.66,Stacey Brown,TN,1490152346000.0,20336043
224685747,Nashville,,1490805783000.0,36.15,-86.79,Stacie Quick,TN,1507303033000.0,20336043
230338234,Nashville,,1498255860000.0,36.17,-86.78,Stacy,TN,1498255860000.0,20336043
222835085,Mount Juliet,,1488217919000.0,36.21,-86.52,Stacy Hall,TN,1488217919000.0,20336043
134211552,Nashville,"Boston, MA",1501475645000.0,36.11,-86.86,Stacy Pendola,TN,1502820406000.0,20336043
212767968,Orlando,,1473650625000.0,28.54,-81.37,Stacytakesnashville,FL,1473650625000.0,20336043
8206235,Nashville,Pittsburgh,1473192637000.0,36.06,-86.96,Stefanie,TN,1473716555000.0,20336043
224859828,Nashville,,1491054792000.0,36.17,-86.78,Stephanie,TN,1502812284000.0,20336043
216945897,Nashville,,1479774731000.0,36.11,-86.78,Stephanie ,TN,1497574725000.0,20336043
70340222,Nashville,Nashville,1501173270000.0,36.16,-86.79,Stephanie,TN,1501173270000.0,20336043
236345512,Nashville,,1505256892000.0,36.17,-86.78,Stephanie A,TN,1505256892000.0,20336043
197157597,Nashville,,1499302859000.0,36.08,-86.72,Stephanie Conway,TN,1506745008000.0,20336043
228470335,Nashville,,1505520267000.0,36.17,-86.78,Stephanie Harvey,TN,1505520267000.0,20336043
8304651,Nashville,,1472311977000.0,36.17,-86.78,Stephanie James,TN,1505487817000.0,20336043
13303434,Hendersonville,,1498191960000.0,36.32,-86.61,Stephanie Lee,TN,1498191960000.0,20336043
212633438,Mount Juliet,,1473472491000.0,36.21,-86.52,Stephanie Scott,TN,1473552394000.0,20336043
220955139,Nashville,,1485706594000.0,36.11,-86.78,Stephanie Trail,TN,1485706594000.0,20336043
232315457,Nashville,,1500663734000.0,36.17,-86.78,Stevey Sullivan,TN,1501426387000.0,20336043
217963953,Nashville,,1481318860000.0,36.08,-86.72,Stevie Fennessee,TN,1487868193000.0,20336043
204480621,Franklin,Franklin,1491103402000.0,35.92,-86.89,Sucharitha Rajendran,TN,1494816268000.0,20336043
229114345,Franklin,,1496716751000.0,35.92,-86.89,Sue Manley Lombardo,TN,1496716751000.0,20336043
229529069,Clarksville,,1497237802000.0,36.49,-87.23,Sue Slawson,TN,1504401472000.0,20336043
237511254,Mount Juliet,,1506477160000.0,36.21,-86.52,Suelee Balmer,TN,1506477160000.0,20336043
216840260,Brentwood,,1479399401000.0,36.0,-86.79,Summer Butler,TN,1479399401000.0,20336043
183001285,Nashville,,1477709055000.0,36.17,-86.78,Summer Evonne Reese,TN,1477709055000.0,20336043
230331244,Hendersonville,,1498247833000.0,36.32,-86.61,Summer Willis,TN,1498247833000.0,20336043
232018049,Nashville,,1500304698000.0,36.14,-86.74,Sumter Barbour,TN,1500304698000.0,20336043
221933184,Nashville,,1486957190000.0,36.13,-86.8,Susan Bradley,TN,1486957190000.0,20336043
186187494,Nashville,,1480196419000.0,36.17,-86.78,Susan Hewett,TN,1480196419000.0,20336043
230596187,Gallatin,,1498578343000.0,36.39,-86.45,Susan Hunter,TN,1498578343000.0,20336043
231981067,Nashville,,1500254087000.0,36.08,-86.72,Susan L Brown,TN,1500254087000.0,20336043
238268603,Franklin,,1507318478000.0,35.92,-86.89,Susan M,TN,1507318478000.0,20336043
221969621,Nashville,,1487011075000.0,36.07,-86.73,Susan Rogers Anderson,TN,1487011075000.0,20336043
225097483,Nashville,,1491390535000.0,36.21,-86.72,Susan Ulrich,TN,1491390535000.0,20336043
226782929,Joelton,,1496248382000.0,36.33,-86.91,Susanne,TN,1506527521000.0,20336043
239188825,Brentwood,,1508351402000.0,36.0,-86.79,Susanne,TN,1508351402000.0,20336043
12251270,Nashville,,1472512351000.0,36.17,-86.78,Suz Dav,TN,1474462234000.0,20336043
12134295,Nashville,,1475647932000.0,36.15,-86.86,Suzanne,TN,1508613656000.0,20336043
231160934,Franklin,,1499284358000.0,35.92,-86.89,Suzanne,TN,1506307563000.0,20336043
170909182,Nashville,,1496022287000.0,36.17,-86.78,Suzanne,TN,1498495547000.0,20336043
48908772,Mount Juliet,Knoxville,1473111938000.0,36.23,-86.49,suzanne c,TN,1473111938000.0,20336043
227546162,Franklin,,1494734655000.0,35.92,-86.89,Suzanne Tieder,TN,1494734655000.0,20336043
216049466,Hermitage,,1478145023000.0,36.19,-86.6,Suzie Rae Jackman,TN,1478145023000.0,20336043
237196112,Nashville,,1506129939000.0,36.06,-86.96,Sweets,TN,1506129939000.0,20336043
216953831,Nashville,,1497297452000.0,36.17,-86.78,Sydney Campbell,TN,1497376418000.0,20336043
226270477,Murfreesboro,,1493001592000.0,35.78,-86.33,T Davis,TN,1493001592000.0,20336043
212671036,Nashville,,1473528570000.0,36.17,-86.78,T Faye,TN,1484080265000.0,20336043
231401681,Nashville,,1499564670000.0,36.17,-86.78,TaKeiah Biddix,TN,1499564670000.0,20336043
204360367,Nashville,,1474723527000.0,36.22,-86.77,Takisha A.,TN,1474723527000.0,20336043
215658641,Nashville,,1477531301000.0,36.11,-86.67,Tal Geni,TN,1477531301000.0,20336043
228190851,Springfield,,1495550123000.0,36.52,-86.87,Tamara Beard,TN,1500580171000.0,20336043
3049771,Nashville,Spring Lake,1472058010000.0,36.17,-86.72,Tamlin Lorenz,TN,1505494842000.0,20336043
234154899,Franklin,,1508399259000.0,35.92,-86.89,Tanya Parsley,TN,1508399259000.0,20336043
225305550,Franklin,,1491691208000.0,35.93,-86.84,Tara,TN,1491691208000.0,20336043
225198680,Murfreesboro,,1491532344000.0,35.78,-86.33,Tari Arrington,TN,1491532344000.0,20336043
213768028,Oak Grove,,1474935815000.0,36.68,-87.45,Tarshena Rodriguez,KY,1474935815000.0,20336043
231390675,Whites Creek,,1499551970000.0,36.27,-86.83,Taryn Cade,TN,1503004680000.0,20336043
215477450,Nashville,,1477264802000.0,36.07,-86.73,Tasha McNutt,TN,1489531099000.0,20336043
231233914,Nashville,,1499366178000.0,36.17,-86.78,Tasheka Terry,TN,1499366178000.0,20336043
231185329,Hermitage,,1499476188000.0,36.19,-86.6,Tasia Elias,TN,1506439958000.0,20336043
185139711,Sterling,,1499979477000.0,39.01,-77.39,Tatiana,VA,1505140203000.0,20336043
218288930,Nashville,,1481920351000.0,36.17,-86.78,Tayla ,TN,1481920351000.0,20336043
223721981,Murfreesboro,Murfreesboro,1489460362000.0,35.87,-86.44,Taylor Hadley,TN,1489460362000.0,20336043
227861075,Nashville,,1496241575000.0,36.08,-86.72,Taylor M.,TN,1496241575000.0,20336043
220668813,Nashville,,1485330132000.0,36.18,-86.81,Taylor Mosley,TN,1496325064000.0,20336043
233810004,Columbia,,1502459412000.0,35.61,-87.05,Tayzha Collier,TN,1502459412000.0,20336043
211861206,Nashville,,1472430155000.0,36.11,-86.86,Teal,TN,1472430155000.0,20336043
171363482,Whites Creek,"Cardington, Ohio",1489332130000.0,36.27,-86.83,Teddilynn Greene,TN,1489332130000.0,20336043
236365873,Nashville,,1505276204000.0,36.15,-86.86,Tekari Kelley,TN,1505276204000.0,20336043
238194928,Gallatin,,1507237197000.0,36.39,-86.45,Tera P,TN,1507237197000.0,20336043
11046645,Nashville,,1506992728000.0,36.16,-86.77,Teresa,TN,1506992728000.0,20336043
222330959,Nashville,Nashville,1487517392000.0,36.15,-86.86,Teresa,TN,1487517392000.0,20336043
233531017,Nashville,,1502148522000.0,36.06,-86.96,Teresarah,TN,1502148522000.0,20336043
215689453,Nashville,,1477585170000.0,36.16,-86.79,Terisa Thorpe,TN,1477585170000.0,20336043
228691755,Nashville,,1496590679000.0,36.17,-86.78,Terri,TN,1502852086000.0,20336043
225699722,Nashville,,1492216868000.0,36.17,-86.78,Terri g,TN,1492216868000.0,20336043
226807635,Brentwood,,1493730349000.0,36.0,-86.79,Terry Bowers,TN,1503955219000.0,20336043
226696145,Nashville,,1493578531000.0,36.15,-86.81,Tess Hugoboom,TN,1493578531000.0,20336043
213998998,Nashville,,1475201237000.0,36.15,-86.79,Tess Wilson,TN,1475506226000.0,20336043
228481365,Nashville,,1495928874000.0,36.17,-86.78,Tessa,TN,1495928874000.0,20336043
182516979,Franklin,,1492782978000.0,35.95,-86.8,Teyana,TN,1503628520000.0,20336043
230758145,Franklin,,1498772540000.0,35.93,-86.84,Thacia Guilherme,TN,1498772540000.0,20336043
227165725,Ridgetop,,1494216974000.0,36.4,-86.77,Thao Tran,TN,1507433533000.0,20336043
81924252,Nashville,,1472395502000.0,36.17,-86.78,Theresa,TN,1507586490000.0,20336043
218173548,Nashville,,1481689258000.0,36.17,-86.78,Theresa Miller Douglas,TN,1481689258000.0,20336043
6294796,Mount Juliet,,1485218952000.0,36.22,-86.52,Theresia,TN,1485218952000.0,20336043
213603718,Nashville,,1474732759000.0,36.17,-86.78,Tiffany,TN,1475018480000.0,20336043
13612163,Nashville,madison,1485368613000.0,36.17,-86.78,Tiffany,TN,1485368613000.0,20336043
229252958,Nashville,,1496887613000.0,36.16,-86.66,Tiffany H,TN,1496887613000.0,20336043
218515812,Nashville,,1482357035000.0,36.17,-86.77,Tiffany Harris,TN,1484617896000.0,20336043
219348153,Murfreesboro,,1484841983000.0,35.87,-86.44,Tiffany Haywood,TN,1484841983000.0,20336043
103192352,Nashville,,1501071274000.0,36.17,-86.79,Tiffany Jordan,TN,1502812255000.0,20336043
94461312,Nashville,franklin,1471971850000.0,36.17,-86.78,Tiffini Smith,TN,1481582143000.0,20336043
230441028,Nashville,,1498390764000.0,36.17,-86.72,Timberly Rider,TN,1507776985000.0,20336043
5317212,Nashville,"Dearborn, MI",1481770247000.0,36.22,-86.77,Tina Belli,TN,1487622829000.0,20336043
111458472,Franklin,,1508428387000.0,35.95,-86.8,Tina Edwards,TN,1508428387000.0,20336043
237699891,Mount Juliet,,1506693089000.0,36.21,-86.52,Tina Guererri,TN,1506693089000.0,20336043
221222440,Hermitage,,1486039487000.0,36.19,-86.6,Tina O'Donnell,TN,1486039487000.0,20336043
190363814,Nashville,,1472121579000.0,36.1,-86.66,Tina R.,TN,1501634850000.0,20336043
216947723,Mount Juliet,,1479569879000.0,36.22,-86.52,tinghui zhang,TN,1479569879000.0,20336043
231231323,Nashville,,1499363558000.0,36.14,-86.81,Tisha Coggin,TN,1500524424000.0,20336043
194923584,Nashville,"Nashville, TN",1492052654000.0,36.17,-86.78,Toni,TN,1492052654000.0,20336043
215712691,Bowling Green,Bowling green,1488832548000.0,36.96,-86.37,Toni Capelli,KY,1497749755000.0,20336043
216828935,Nashville,,1479378149000.0,36.17,-86.78,Toni Jewell,TN,1479378149000.0,20336043
221410405,Spring Hill,,1486259630000.0,35.76,-86.88,Toni Wachtl,TN,1506121936000.0,20336043
236738974,Nashville,,1505657179000.0,36.22,-86.74,Toni Wheeler,TN,1507155739000.0,20336043
103151362,Goodlettsville,,1504877499000.0,36.35,-86.7,Toniesha Friday,TN,1504877499000.0,20336043
67870732,Nashville,,1473430440000.0,36.17,-86.78,Tonya,TN,1502222908000.0,20336043
219240872,Nashville,,1483539066000.0,36.17,-86.78,Tonya McDonald,TN,1484830805000.0,20336043
225935828,Nashville,,1492553333000.0,36.07,-86.73,Tori Shaw,TN,1492553333000.0,20336043
238024246,Nashville,,1507056852000.0,36.18,-86.81,Toya Covington,TN,1507056852000.0,20336043
239102624,Mount Juliet,,1508254950000.0,36.21,-86.52,Tracey,TN,1508254950000.0,20336043
233156192,Hendersonville,,1501710490000.0,36.31,-86.59,Traci Poston,TN,1507089227000.0,20336043
140330762,Hermitage,"Charlotte, NC",1472446935000.0,36.2,-86.59,Tracy,TN,1504321273000.0,20336043
214476377,Nashville,,1475784671000.0,36.17,-86.78,TRACY,TN,1476884628000.0,20336043
234996882,Gallatin,,1503830266000.0,36.39,-86.45,Tracy Cramer,TN,1503830266000.0,20336043
216364108,Nashville,,1478636599000.0,36.07,-86.73,Tracy Delk,TN,1478636599000.0,20336043
118600512,Philadelphia,,1485143792000.0,40.09,-75.2,Tracy Ellen,PA,1488374849000.0,20336043
238938943,Nashville,,1508072604000.0,36.15,-86.86,Tricia,TN,1508072604000.0,20336043
45213252,Hermitage,Hermitage,1471752709000.0,36.19,-86.6,Tricia Henley Garven,TN,1483413953000.0,20336043
206303435,Lebanon,,1474460423000.0,36.21,-86.31,Trina Michelle Clancy,TN,1474496184000.0,20336043
229895339,Fort Campbell,,1497717529000.0,36.65,-87.46,Trish,KY,1497717529000.0,20336043
201255563,Nashville,,1472175772000.0,36.19,-86.8,Trish,TN,1491012646000.0,20336043
216530200,La Vergne,,1478916116000.0,36.0,-86.57,Trish Allen,TN,1478916116000.0,20336043
219835964,Nashville,,1484282401000.0,36.18,-86.74,Trisha Brantley,TN,1485977101000.0,20336043
195345829,Lebanon,"Jackson, MS",1499106188000.0,36.15,-86.32,Tyesha Brooks,TN,1499106188000.0,20336043
224584454,Lebanon,,1500079531000.0,36.15,-86.32,Urmila Patel,TN,1500385758000.0,20336043
233840658,Madison,,1502491319000.0,36.26,-86.71,Valarie Geneice Randle,TN,1502491319000.0,20336043
212149154,Nashville,,1472829029000.0,36.18,-86.74,Valerie Detwiler,TN,1472829029000.0,20336043
223825312,Nashville,,1489608106000.0,36.14,-86.81,Valerie Harbin,TN,1496083768000.0,20336043
212325478,Nashville,,1473071085000.0,36.17,-86.78,Valerie Sanders,TN,1473071085000.0,20336043
235551188,Nashville,,1504454825000.0,36.14,-86.8,Valliene Shelton,TN,1504454825000.0,20336043
195439258,Mount Juliet,"Lebanon, TN",1476463716000.0,36.22,-86.52,Vanessa,TN,1506332577000.0,20336043
159239302,Nashville,,1472054793000.0,36.16,-86.79,Vanessa,TN,1481210435000.0,20336043
235368725,Mount Juliet,,1504237923000.0,36.21,-86.52,Vanessa Niu,TN,1506732329000.0,20336043
232642581,Antioch,,1501068607000.0,36.04,-86.64,Vanessa Ray,TN,1501068607000.0,20336043
212988199,Franklin,,1473938709000.0,35.93,-86.81,Velvet Buinicky Bechard,TN,1474494717000.0,20336043
61089152,Franklin,,1486433456000.0,35.95,-86.8,Verena,TN,1505872593000.0,20336043
33080742,Nashville,"Dayton, OH",1502248815000.0,36.09,-86.66,Veronica Caldwell - Boone,TN,1508624340000.0,20336043
219621715,Nashville,,1484010491000.0,36.18,-86.74,Veronica Cuellar,TN,1484346124000.0,20336043
54255552,Nashville,,1477916716000.0,36.15,-86.86,Veronica Rodriguez,TN,1477916716000.0,20336043
223464410,Old Hickory,,1489102960000.0,36.25,-86.63,Vicki Joubert,TN,1489102960000.0,20336043
215396406,Nashville,,1477197788000.0,36.17,-86.78,Vicky,TN,1477197788000.0,20336043
215224901,Fort Campbell,,,36.65,-87.46,,KY,,20336043
186752127,Nashville,,1501888597000.0,36.18,-86.74,Victoria Lam,TN,1501888597000.0,20336043
218430591,Nashville,,1494990970000.0,36.09,-86.82,Victoria Mehren,TN,1506971692000.0,20336043
223599428,Springfield,,1489296164000.0,36.52,-86.87,victoria riley,TN,1489296164000.0,20336043
232447752,Antioch,,1500834909000.0,36.04,-86.64,Victoria W,TN,1502661092000.0,20336043
182943766,Nashville,,1490108288000.0,36.11,-86.86,Virginia,TN,1490108288000.0,20336043
9384740,Nashville,,1474461604000.0,36.17,-86.72,Wanda,TN,1479497061000.0,20336043
230026046,Nashville,,1497897319000.0,36.16,-86.79,Wanessa Altei,TN,1497897319000.0,20336043
105128952,Hermitage,,1502719643000.0,36.18,-86.6,Wendi Reynolds-Donahue,TN,1502719643000.0,20336043
231903830,Gordonsville,,1500157698000.0,36.17,-85.93,Wendy Claiborne,TN,1500157698000.0,20336043
232863892,Nashville,,1501350458000.0,36.08,-86.72,Wendy Hesselman,TN,1501350458000.0,20336043
9904375,Hermitage,Hermitage,1472407146000.0,36.19,-86.6,Wendy Humphrey,TN,1477434143000.0,20336043
231471383,Hermitage,,1499645326000.0,36.19,-86.6,Wendy Jeup,TN,1503154277000.0,20336043
12589080,Nashville,Nashville,1497209780000.0,36.17,-86.72,Wendy Paulson,TN,1498306720000.0,20336043
225478443,Knoxville,,1491977294000.0,35.95,-83.93,Whitney Hope Marshall,TN,1493183267000.0,20336043
216927741,White House,,1479531754000.0,36.48,-86.69,Winnie Elberson,TN,1503072953000.0,20336043
217652167,Nashville,,1480784299000.0,36.07,-86.73,Yadira Vizcaya,TN,1498559155000.0,20336043
216195162,Nashville,,,36.07,-86.72,,TN,,20336043
211433007,Nashville,,1471839240000.0,36.07,-86.73,Yasmin Rivera,TN,1491880884000.0,20336043
199547904,Hermitage,,1494096569000.0,36.19,-86.6,Yasminne,TN,1494096569000.0,20336043
231103049,Nashville,,1499202723000.0,36.17,-86.78,Yeraldy Marcano,TN,1499202723000.0,20336043
222268763,Nashville,,1487429219000.0,36.17,-86.78,Ying Fu,TN,1487429219000.0,20336043
237108269,Nashville,,1506030112000.0,36.17,-86.79,Yohana Temesghen,TN,1506030112000.0,20336043
237379332,Nashville,,1506344129000.0,36.13,-86.8,yuhan chen,TN,1506344129000.0,20336043
219275333,Nashville,,1483575369000.0,36.15,-86.86,Yusuf Gürbüz,TN,1488090732000.0,20336043
221454263,Antioch,,1486320340000.0,36.04,-86.64,Yusuf Yusuf,TN,1486320340000.0,20336043
216948129,Nashville,,1479570757000.0,36.18,-86.74,Zoe Spafford,TN,1479570757000.0,20336043
209917652,Nashville,St. Paul,1500170232000.0,36.17,-86.78,Zuliat Owoade,TN,1500170232000.0,20336043
211871855,Smyrna,,1472443721000.0,35.97,-86.51,Zuly,TN,1472443721000.0,20336043
237575678,Nashville,,1506547048000.0,36.13,-86.8,??,TN,1506547048000.0,20336043
