id,city,hometown,joined,lat,lon,name,state,visited,group_id
235577075,Nashville,,1504479994000,36.07,-86.73,Abi Firestone,TN,1504479994000,20348898
208665030,Nashville,,1473939737000,36.17,-86.78,Abraham,TN,1502656821000,20348898
235831507,Nashville,,1504735379000,36.16,-86.78,AD Wilson,TN,1504735379000,20348898
230330902,Hendersonville,,1498247307000,36.3,-86.62,Allen Alexander,TN,1499605681000,20348898
219133058,Antioch,,1483418585000,36.04,-86.64,Amani Murph,TN,1483418585000,20348898
232741884,Nashville,,1501188738000,36.17,-86.78,Amy A B.,TN,1501188738000,20348898
235910104,Hendersonville,,1504836366000,36.32,-86.61,Amy Page,TN,1505445426000,20348898
214325046,Nashville,,1475600138000,36.18,-86.81,Angela Loomis,TN,1490385065000,20348898
224077245,Nashville,,1489968010000,36.13,-86.8,Anne Carney,TN,1489968010000,20348898
7898365,Nashville,,1472355087000,36.11,-86.86,Arnold Joseph White,TN,1507151404000,20348898
229573848,Nashville,,1497294393000,36.11,-86.78,aubrey d,TN,1497294393000,20348898
210369841,Madison,,1472433157000,36.26,-86.71,Autumm Sunshine,TN,1489873701000,20348898
198451006,Brentwood,,1474218934000,36.0,-86.79,Bethany Smith,TN,1474218934000,20348898
237553990,Nashville,,1506529081000,36.17,-86.78,Bianca Grant,TN,1506529081000,20348898
215257978,Nashville,,1476926274000,36.15,-86.79,Brett Hansen,TN,1476926274000,20348898
225431589,Nashville,,1491869085000,36.17,-86.78,Brian Fenix,TN,1491869085000,20348898
226345715,Nashville,,1493098695000,36.17,-86.78,Cason Grace,TN,1493098695000,20348898
238594431,Nashville,,1507667152000,36.07,-86.78,Cassandra Renee French,TN,1507667152000,20348898
67711392,Cookeville,Cookeville,1472404974000,36.2,-85.52,Cécile Muller,TN,1492352967000,20348898
239215257,Goodlettsville,,1508381377000,36.32,-86.72,Christine Swenson,TN,1508381377000,20348898
229717665,Columbia,,1497473755000,35.61,-87.05,Chuck Crisco,TN,1497473755000,20348898
182619742,Nashville,Nashville,1495806406000,36.14,-86.74,D. B. DiAngelo,TN,1495806406000,20348898
227478188,Nashville,,1494639192000,36.17,-86.78,Daniel Coleman,TN,1494639192000,20348898
224028743,Nashville,,1489900636000,36.17,-86.78,Dave,TN,1489900636000,20348898
12896013,Whites Creek,,1472524994000,36.27,-86.83,dave edwards,TN,1472524994000,20348898
216073015,Hermitage,,1478188333000,36.19,-86.6,Elizabeth Butler,TN,1478188333000,20348898
10099597,Mount Juliet,,1490316130000,36.16,-86.51,Elizabeth E.,TN,1500590361000,20348898
231006792,Southside,,1499091855000,36.36,-87.3,Gabi Lesher,TN,1499091855000,20348898
9627667,Nashville,,1472313628000,36.15,-86.86,Garrett ,TN,1495667236000,20348898
231059352,Nashville,,1499151025000,36.17,-86.78,Gene Robinson,TN,1499151025000,20348898
223055995,Nashville,,1488513890000,36.14,-86.81,Geoffrey Li,TN,1488513890000,20348898
232866982,Smyrna,,1501352846000,35.97,-86.51,Georgianna Gaither,TN,1501352846000,20348898
228068237,Mount Juliet,Albuquerque ,1495423126000,36.21,-86.52,Grace Brown,TN,1495423126000,20348898
215482346,Nashville,,1477271432000,36.17,-86.78,Heather Roe,TN,1477271432000,20348898
200260845,Nashville,,1500257238000,36.17,-86.78,Herby,TN,1507139658000,20348898
214418310,Hermitage,,1475700915000,36.19,-86.6,J Allen,TN,1475700915000,20348898
234338863,Nashville,,1503079695000,36.16,-86.79,Jack Rogers,TN,1503079695000,20348898
215228197,Hendersonville,,1476888948000,36.3,-86.62,Jb Hawk,TN,1476888948000,20348898
13631520,Nashville,"St Thomas, VI",1490463310000,36.17,-86.78,Jeffrey J,TN,1505227243000,20348898
203188227,Marcy,Syracuse,1507648425000,43.15,-75.25,Jenean,NY,1507648425000,20348898
223392766,Brentwood,,1489000686000,36.0,-86.79,Jessica Sams,TN,1489000686000,20348898
10469071,Murfreesboro,Murfreesboro,1472470726000,35.87,-86.34,"John A. Hoffs, M.A.",TN,1472470726000,20348898
222099947,Nashville,,1487189837000,36.16,-86.78,John-David Morgan,TN,1487377344000,20348898
214424164,Clarksville,,1475707205000,36.56,-87.35,Jonathan Klein,TN,1489889874000,20348898
234271422,Westmoreland,,1503000334000,36.57,-86.22,Jordan Taylar,TN,1503000334000,20348898
111792152,Linden,,1489063687000,38.02,-121.09,josh luck,CA,1489063687000,20348898
212495047,Hollywood,,1473283312000,26.02,-80.2,Julie Rose,FL,1473283312000,20348898
214441419,Russellville,,1475731394000,36.83,-86.92,Kara,KY,1475731394000,20348898
238177306,Nashville,,1507226809000,36.17,-86.72,Kathy Burton Rogers,TN,1507226809000,20348898
235592830,Greenbrier,,1504497819000,36.43,-86.8,Kelsey Duncan,TN,1504497819000,20348898
228361456,Nashville,,1495762783000,36.17,-86.78,Kenchele Fountain,TN,1495762783000,20348898
221445918,Hermitage,,1486311452000,36.19,-86.6,Lance Liu,TN,1486311452000,20348898
229799515,Nashville,,1497581416000,36.16,-86.77,Laura Provost,TN,1497581416000,20348898
214164320,Nashville,,1475404778000,36.17,-86.78,Laurie Reeves,TN,1475404778000,20348898
233376747,Old Hickory,,1501975223000,36.25,-86.63,LaVette Sales,TN,1501975223000,20348898
232137196,Columbia,,1500440793000,35.61,-87.05,Leah Hayward,TN,1500440793000,20348898
232947964,Franklin,,1501454385000,35.99,-86.9,Lindsay Curtis,TN,1502663593000,20348898
184458412,Nashville,,1472516173000,36.17,-86.78,lonnie,TN,1472516173000,20348898
211810798,Nashville,,1472360140000,36.17,-86.78,Magda,TN,1472360140000,20348898
209355111,Antioch,,1507948105000,36.05,-86.59,Mark Fuqua,TN,1507948105000,20348898
207672817,Nashville,,1477250302000,36.17,-86.78,Mark Horan,TN,1508711658000,20348898
227472857,Hendersonville,,1494631446000,36.32,-86.61,Matt,TN,1494631446000,20348898
175908252,Nashville,,1490580180000,36.15,-86.86,Matt,TN,1506469353000,20348898
25848642,Hermitage,"Goodlettsville, TN",1481191786000,36.19,-86.6,Megan Williams,TN,1487815088000,20348898
233472336,Nashville,,1502081580000,36.08,-86.72,Meredith Rice,TN,1502132855000,20348898
226770365,Nashville,,1493675469000,36.17,-86.77,Micah LeeAnn,TN,1493675469000,20348898
2256087,Nashville,Seattle,1503518654000,36.17,-86.78,Micah Redding,TN,1503518654000,20348898
86702422,Murfreesboro,"Nashville, TN",1490445571000,35.82,-86.45,Michael Sullivan,TN,1490445571000,20348898
4389320,Nashville,Charlotte,1485911164000,36.17,-86.78,Nat,TN,1485911164000,20348898
221208385,Nashville,,1486015685000,36.21,-86.72,Natalie Montano,TN,1486015685000,20348898
223510403,Nashville,,1489172657000,36.18,-86.74,Nathan Aikins,TN,1489172657000,20348898
189770400,Antioch,,1483826351000,36.17,-86.88,Nathaniel oboh,TN,1501864374000,20348898
226776004,Nashville,,1499664863000,36.15,-86.86,Olivia,TN,1499664863000,20348898
234168251,Franklin,,1502888658000,35.93,-86.81,Olivia Oetjens,TN,1502888658000,20348898
235159191,Nashville,,1504017457000,36.11,-86.78,Olivia Zemer,TN,1504017457000,20348898
9476534,Nashville,,1472403301000,36.17,-86.78,rebecca harter,TN,1502392003000,20348898
164319,Nashville,,1472358638000,36.17,-86.78,Ric,TN,1473007770000,20348898
186473570,Goodlettsville,,1472046180000,36.33,-86.74,Robert McLaurine,TN,1508796839000,20348898
191860934,Fort Campbell,,1496929911000,36.65,-87.46,Rodriques,KY,1496929911000,20348898
229259590,Rockvale,,1496896189000,35.76,-86.55,Samantha,TN,1499732915000,20348898
229728317,Gallatin,,1497485986000,36.39,-86.45,Shantel King,TN,1497485986000,20348898
235675134,Nashville,,1504579189000,36.13,-86.82,Shea Wilson,TN,1504579189000,20348898
235850554,Antioch,,1504754153000,36.04,-86.64,Sophia Valenta,TN,1504754153000,20348898
216302134,Nashville,,1484458728000,36.11,-86.86,Stephanie Neumann,TN,1484458728000,20348898
106513552,Nashville,"Los Angeles, CA",1472421929000,36.22,-86.83,Stephie G.,TN,1508184042000,20348898
12134295,Nashville,,1501532735000,36.15,-86.86,Suzanne,TN,1503971385000,20348898
213768028,Oak Grove,,1474935802000,36.68,-87.45,Tarshena Rodriguez,KY,1474935802000,20348898
235052699,Nashville,,1503889533000,36.07,-86.73,Taylor Womack,TN,1503889533000,20348898
231184784,Nashville,,1499305023000,36.17,-86.78,Tiffany Erwin,TN,1499305023000,20348898
76842942,Nashville,,1477434419000,36.17,-86.78,Tim Catchim,TN,1489755270000,20348898
98964012,Jersey City,,1502294549000,40.73,-74.07,Tommy,NJ,1502294549000,20348898
211253047,Nashville,,1472657889000,36.17,-86.78,Tori Leggett,TN,1472657889000,20348898
223983684,Nashville,,1489840318000,36.18,-86.74,Whitney Burrel Davis,TN,1489840318000,20348898
91626512,Nashville,Nashville,1472355983000,36.1,-86.66,Woodrow Lucas,TN,1508790723000,20348898
220216586,Nashville,"Columbus, GA",1489161946000,36.17,-86.78,Zac Slay,TN,1490196269000,20348898
