id,city,hometown,joined,lat,lon,name,state,visited,group_id
146146052,Nashville,"Barnstead, NH",1482951413000,36.13,-86.8,Alex Dudley,TN,1482951413000,20352209
216627823,Nashville,,1479073749000,36.09,-86.82,Alex Thompson,TN,1486231457000,20352209
80121572,Goodlettsville,,1488862431000,36.29,-86.69,Alexander Baker,TN,1488862431000,20352209
211612797,Nashville,,1472428419000,36.16,-86.79,Ben Cooper,TN,1472428419000,20352209
37016152,Nashville,,1472427130000,36.17,-86.79,Bill Bernstein,TN,1476376294000,20352209
219277661,Murfreesboro,,1483576960000,35.85,-86.4,Brandon Short,TN,1483576960000,20352209
62418442,Nashville,,1472221453000,36.16,-86.79,Brenda Dillard,TN,1472221453000,20352209
211665926,Tolleson,"Phoenix, AZ",1472475780000,33.42,-112.24,Brian Cole,AZ,1476041974000,20352209
189578984,Madison,,1488053718000,36.26,-86.71,Brian York,TN,1488071633000,20352209
190647576,Murfreesboro,,1473108814000,35.78,-86.33,Brittany Cupp,TN,1473108814000,20352209
226345715,Nashville,,1493099775000,36.17,-86.78,Cason Grace,TN,1493099775000,20352209
4185197,Nashville,,1491157839000,36.15,-86.86,Cassandra,TN,1491157839000,20352209
224719543,Clarksville,,1490841297000,36.53,-87.35,Cassidy LaDuke,TN,1491532081000,20352209
218668159,Franklin,,1482701405000,35.93,-86.81,Chaitanya Pawar,TN,1482701405000,20352209
231247631,Nashville,,1501610328000,36.07,-86.78,Cynthia Ring,TN,1501610328000,20352209
41855402,Nashville,"Elizabethtown, KY",1472426993000,36.13,-86.7,Dan Meredith,TN,1484289180000,20352209
215387405,Hendersonville,,1477132076000,36.32,-86.61,David Vincent,TN,1477333181000,20352209
185266203,Hendersonville,,1472816604000,36.32,-86.61,Dina Eddy,TN,1480615478000,20352209
220595441,Nashville,,1485243268000,36.17,-86.78,ELHILALY  EHIMIR,TN,1485243268000,20352209
209552266,Nashville,,1472429078000,36.17,-86.78,Eric,TN,1472429078000,20352209
210762515,Nashville,,1475100265000,36.17,-86.78,Gary Duff,TN,1476638856000,20352209
224615629,Nashville,,1490706843000,36.17,-86.78,Graham,TN,1503036095000,20352209
218658723,Nashville,,1482681196000,36.17,-86.72,Grant Medeiros,TN,1482681196000,20352209
12974037,Nashville,Louisville,1472431733000,36.08,-86.72,Gregory E Seneff Sr,TN,1472520009000,20352209
214283308,Nashville,,1475547674000,36.08,-86.72,Haluk Alk??,TN,1475547674000,20352209
219943390,Nashville,,1484429123000,36.17,-86.72,hayden t,TN,1484429123000,20352209
226208034,Lansing,,1492917010000,41.57,-87.55,Hyzler,IL,1492997326000,20352209
198019999,Nashville,,1472430225000,36.22,-86.77,James (Jim) Simpson,TN,1472430225000,20352209
214954905,Nashville,,1476493482000,36.11,-86.86,James Rich,TN,1476493482000,20352209
218783050,Gallatin,,1482902969000,36.39,-86.45,Jayson Anderson,TN,1482902969000,20352209
7398966,Nashville,,1472783379000,36.17,-86.72,Jeff,TN,1506312290000,20352209
219737251,Elkton,,1484160028000,36.87,-87.18,Jesse,KY,1484160028000,20352209
222768144,Nashville,,1488122686000,36.17,-86.78,Jeuneybear20,TN,1488122686000,20352209
202995456,Nashville,,1472449141000,36.15,-86.86,Joe Costello,TN,1472449141000,20352209
209677555,Joelton,,1472349403000,36.33,-86.91,John Stark,TN,1474237599000,20352209
222628113,Mount Juliet,"South Bend, Indiana",1490059140000,36.22,-86.52,Katie Sidorowicz,TN,1490059140000,20352209
210999895,Lebanon,,1481395154000,36.21,-86.31,keith korzec,TN,1481395154000,20352209
226865472,Antioch,,1493805233000,36.04,-86.64,Keno,TN,1493805233000,20352209
216627343,Nashville,,1479072168000,36.22,-86.77,Khalia Taylor,TN,1479072168000,20352209
223401012,New Orleans,New Orleans,1489011086000,30.01,-90.11,Kimberly Vezina,LA,1489011086000,20352209
230552555,Antioch,,1498707137000,36.17,-86.88,Kyle Robinson,TN,1502702745000,20352209
213074174,Brentwood,,1474053669000,36.0,-86.79,Lacey Meeks,TN,1474053669000,20352209
5532807,Nashville,Nashville,1472434152000,36.1,-86.66,Levi Self,TN,1474839582000,20352209
216554781,Nashville,,1478962107000,36.22,-86.77,Lynette Larkin,TN,1478962107000,20352209
220300566,Nashville,,1484861885000,36.17,-86.78,Madeline G.,TN,1484861885000,20352209
215224458,Nashville,,1476884188000,36.17,-86.79,Marc Garfield,TN,1476884188000,20352209
22535251,Nashville,,1472431321000,36.08,-86.72,Maria Stevens,TN,1472431321000,20352209
221212756,Nashville,,1486023238000,36.17,-86.78,Martynas Šustavi?ius,TN,1486023238000,20352209
198216622,Hendersonville,,1472123983000,36.32,-86.61,Matt,TN,1484152061000,20352209
194060004,Hermitage,,1472442966000,36.19,-86.6,Matt L.,TN,1473908265000,20352209
223338863,Brentwood,,1488923025000,36.0,-86.79,Matthew Goodwin,TN,1499352673000,20352209
135387592,Nashville,,1472469026000,36.08,-86.72,Meagan,TN,1493117165000,20352209
216874551,Clarksville,,1479444786000,36.56,-87.41,Merritt Jones,TN,1479444786000,20352209
183200992,Franklin,"Franklin, TN",1472559646000,35.93,-86.81,Michelle Lynn Michaud,TN,1478634496000,20352209
221833929,Greenbrier,,1486825393000,36.43,-86.8,Mish Mosh,TN,1504022174000,20352209
14337821,Brentwood,Nashville,1498648852000,36.0,-86.79,Missy V,TN,1498648852000,20352209
214994263,Nashville,,1476557503000,36.07,-86.78,Nah Rutledge,TN,1476557503000,20352209
234168251,Franklin,,1502888317000,35.93,-86.81,Olivia Oetjens,TN,1502888317000,20352209
211885518,Antioch,,1472468485000,36.04,-86.64,Pa'Shua Mayo,TN,1472477836000,20352209
28686572,Murfreesboro,Murfreesboro,1488395079000,35.87,-86.34,Paula,TN,1488395079000,20352209
207876272,Antioch,,1472509212000,36.17,-86.88,Peggy Min,TN,1482844553000,20352209
89572372,Athens,,1483383040000,37.98,23.73,Peri Samosurfer,,1483383040000,20352209
203147374,Nashville,,1472474335000,36.15,-86.86,Ric Sandlet,TN,1472474335000,20352209
224355927,Fort Campbell,,1490345580000,36.65,-87.46,Rick Marquez,KY,1490345580000,20352209
219210654,Thompsons Station,,1483496385000,35.8,-86.9,Rob Atkinson,TN,1483496385000,20352209
57744742,Nashville,,1486811304000,36.17,-86.79,Robert Jarrell,TN,1486811304000,20352209
21052731,Pegram,,1472437215000,36.12,-87.03,Robin Ray,TN,1473154909000,20352209
4760607,Nashville,,1472680426000,36.17,-86.78,Rod Williams,TN,1477428197000,20352209
219984145,Nashville,,1486246442000,36.06,-86.96,Sandy,TN,1486246442000,20352209
184224662,Nashville,Los Angeles,1489784092000,36.15,-86.69,Sean,TN,1489784092000,20352209
92953232,Nashville,,1472529203000,36.06,-86.96,Shelia P.,TN,1475984866000,20352209
215741026,Nashville,,1491621181000,36.08,-86.72,Skylar Spisak,TN,1491621181000,20352209
223653322,Nashville,,1489369675000,36.17,-86.78,Southerns Seven,TN,1489369675000,20352209
222168198,Nashville,,1487278960000,36.17,-86.78,Steven H,TN,1487278960000,20352209
213392064,Smyrna,,1474450073000,35.97,-86.51,Tc,TN,1476022321000,20352209
213445120,Nashville,,1474513050000,36.17,-86.78,Toledo Crawford,TN,1474513050000,20352209
211957037,Nashville,,1472561803000,36.17,-86.78,Tom B,TN,1472561803000,20352209
201930849,Nashville,,1484451923000,36.17,-86.77,Vane Quiroz,TN,1484451923000,20352209
102083542,Bowling Green,,1475009278000,37.02,-86.46,Vaughan Richards,KY,1478277946000,20352209
