id,city,hometown,joined,lat,lon,name,state,visited,group_id
216258208,Nashville,,1478473234000.0,36.17,-86.78,Abigail Brown,TN,1478473234000.0,20377949
228618128,Nashville,,1496109467000.0,36.06,-86.96,Aidan Desmarais,TN,1496109467000.0,20377949
227152667,Nashville,,1494198669000.0,36.18,-86.64,Akash Vardhan,TN,1494198669000.0,20377949
227473810,Nashville,,1501977653000.0,36.17,-86.78,Alex Wylder,TN,1501977653000.0,20377949
11901340,Nashville,Nashville,1488849815000.0,36.17,-86.79,Allen,TN,1488849815000.0,20377949
229592871,Hendersonville,,1497313171000.0,36.3,-86.62,Allen Alexander,TN,1497313171000.0,20377949
236788920,Nashville,,1505702004000.0,36.17,-86.78,Amanda Williams,TN,1505702004000.0,20377949
206821679,Nashville,nashville,1492984787000.0,36.16,-86.79,Amani,TN,1497313452000.0,20377949
185953628,Aurora,,1508128618000.0,39.58,-104.76,Amber Gartner,CO,1508128618000.0,20377949
12914861,Franklin,,1496023454000.0,35.92,-86.89,Amy Brinson,TN,1496023454000.0,20377949
230568170,Nashville,,1498540803000.0,36.1,-86.66,Amy Reese Latham,TN,1498540803000.0,20377949
192875871,Pelham,,1485388423000.0,42.73,-71.29,Andie,NH,1489322813000.0,20377949
232789752,Nashville,,1501253909000.0,36.1,-86.66,Andrew Wells,TN,1501253909000.0,20377949
229319103,Nashville,,1496972884000.0,36.17,-86.78,andy dsouza,TN,1496972884000.0,20377949
231213558,Fort Campbell,,1499344377000.0,36.65,-87.46,Angelo Fazio,KY,1499344377000.0,20377949
230452366,Gallatin,,1498410630000.0,36.39,-86.45,Angie,TN,1498705787000.0,20377949
164593582,Hartsville,"Dallas, TX",1505616596000.0,36.39,-86.16,Annette Bales,TN,1505616596000.0,20377949
226712782,Franklin,,1493598542000.0,35.92,-86.89,Apurv ,TN,1493598542000.0,20377949
227496236,Nashville,,1494668630000.0,36.08,-86.72,ARi Lyon,TN,1494668630000.0,20377949
226503054,Nashville,,1493307881000.0,36.15,-86.86,Ashlie Baird,TN,1493307881000.0,20377949
218218935,Nashville,,1482980553000.0,36.16,-86.77,Ashly Badgett,TN,1499095492000.0,20377949
233387655,Brentwood,,1501986775000.0,36.03,-86.79,Audrey,TN,1501986775000.0,20377949
224804829,Nashville,,1490979605000.0,36.17,-86.78,Audrey Bounds,TN,1490979605000.0,20377949
186890127,Nashville,,1489375208000.0,36.07,-86.73,Austin,TN,1489704790000.0,20377949
221691689,Nashville,,1486618086000.0,36.09,-86.82,Austin Gilpin,TN,1506001146000.0,20377949
219378411,Springfield,,1483714857000.0,36.52,-86.87,Bernie Sands,TN,1483714857000.0,20377949
219123091,Nashville,,1483409515000.0,36.17,-86.78,Blake0138,TN,1488328115000.0,20377949
228839158,Ridgetop,,1496387316000.0,36.4,-86.77,Bobbie Dorris,TN,1496552638000.0,20377949
13814459,Nashville,"Paris, TN",1480980107000.0,36.09,-86.82,Bobo,TN,1489014086000.0,20377949
145097032,Nashville,,1474721436000.0,36.17,-86.78,Brandi Bruner,TN,1474721436000.0,20377949
224956308,Springfield,,1491279356000.0,36.52,-86.87,Brandon LaRoque,TN,1491279356000.0,20377949
222928001,Nashville,,1488337838000.0,36.18,-86.81,Brandon Newton,TN,1488337838000.0,20377949
3029194,Nashville,,1485743003000.0,36.18,-86.79,Breanna Suess,TN,1485743003000.0,20377949
202424309,Nashville,,1483563586000.0,36.11,-86.78,Brent ,TN,1483563586000.0,20377949
220023560,Hendersonville,,1484532080000.0,36.32,-86.61,Brenton Robar,TN,1484532080000.0,20377949
102878332,Nashville,,1496527017000.0,36.11,-86.86,Bria,TN,1496527017000.0,20377949
227045748,Murfreesboro,,1494047440000.0,35.87,-86.44,Brian Meade,TN,1494047440000.0,20377949
10319436,Nashville,Nashville,1492062279000.0,36.16,-86.79,Brian Szucs,TN,1498866897000.0,20377949
231268787,Nashville,,1499404587000.0,36.16,-86.79,Bridgett Brown,TN,1499479217000.0,20377949
183734253,Nashville,,1503947461000.0,36.18,-86.74,Brittany,TN,1503947461000.0,20377949
53571572,Mount Juliet,,1493415837000.0,36.21,-86.52,Bryan baker,TN,1498974284000.0,20377949
230711885,Nashville,,1498713055000.0,36.17,-86.78,Bryna Oleshansky,TN,1498713055000.0,20377949
215419568,Murfreesboro,,1477465741000.0,35.84,-86.39,Buck Buckly,TN,1477465741000.0,20377949
228123593,Hendersonville,,1495469540000.0,36.32,-86.61,Caleb Dossman,TN,1495469540000.0,20377949
233426938,Nashville,,1506126294000.0,36.15,-86.81,Candice Ardoin,TN,1506482974000.0,20377949
224458931,Murfreesboro,"Winnie, TX",1490489605000.0,35.78,-86.33,Carl Keating,TN,1497647271000.0,20377949
225794967,Nashville,,1492369928000.0,36.13,-86.67,Carlos Romero,TN,1492369928000.0,20377949
226345715,Nashville,,1493098265000.0,36.17,-86.78,Cason Grace,TN,1493098265000.0,20377949
12128207,Franklin,"Columbia, SC",1505790603000.0,35.93,-86.81,Catherine,TN,1505790603000.0,20377949
226345625,Smyrna,,1493099046000.0,35.97,-86.51,Catherine Orman,TN,1493099046000.0,20377949
213007867,Nashville,,1473963383000.0,36.18,-86.74,Cecil Porter,TN,1473995276000.0,20377949
233900522,Antioch,,1507574493000.0,36.04,-86.64,Celeste LaReau,TN,1507574493000.0,20377949
7816806,Marietta,Atlanta,1487388351000.0,33.93,-84.46,Cesar G.,GA,1498948484000.0,20377949
879954,Nashville,,1473217067000.0,36.17,-86.78,Chad Riden,TN,1505982532000.0,20377949
182041312,Nashville,,1482988518000.0,36.17,-86.78,chadmc,TN,1487251840000.0,20377949
220209900,Madison,,1484755792000.0,36.26,-86.71,Charlie Murphey,TN,1484755792000.0,20377949
14836911,Nashville,,1491582045000.0,36.08,-86.72,Chelsea,TN,1491582045000.0,20377949
40187702,Nashville,Memphis,1474658374000.0,36.17,-86.78,Chelsea Steinaway,TN,1474658374000.0,20377949
229358239,Nashville,,1497027542000.0,36.17,-86.78,Cherokee Couple,TN,1497027542000.0,20377949
226766788,Nashville,,1493670494000.0,36.18,-86.74,Chloë Stillwell,TN,1495308636000.0,20377949
184735550,Antioch,,1486525640000.0,36.17,-86.88,Chris,TN,1486525640000.0,20377949
224212207,Nashville,,1490141345000.0,36.16,-86.79,Chris Hailey,TN,1490141345000.0,20377949
221830992,Mount Juliet,,1486821879000.0,36.21,-86.52,Christina Ayotte,TN,1488576237000.0,20377949
209847376,Clarksville,,1489391985000.0,36.53,-87.35,Christina DeLapp,TN,1494852998000.0,20377949
223354162,Nashville,,1488942513000.0,36.17,-86.78,Christine,TN,1489372683000.0,20377949
225999934,Clarksville,,1492636229000.0,36.53,-87.35,Christopher Davis,TN,1494943150000.0,20377949
212544424,Antioch,,1504556259000.0,36.17,-86.88,Christopher Greed,TN,1504556259000.0,20377949
225983640,Manchester,,1492618772000.0,35.47,-86.08,Christy Hart,TN,1492618772000.0,20377949
212837638,Nashville,,1473735859000.0,36.17,-86.78,Cillea Houghton,TN,1473735859000.0,20377949
3334174,Nashville,Nashville,1487641066000.0,36.1,-86.66,Cindi,TN,1492789908000.0,20377949
226789173,Nashville,,1493697550000.0,36.17,-86.78,Cindy Boyd,TN,1493697550000.0,20377949
225249722,Old Hickory,,1491610082000.0,36.25,-86.63,Cj Caruthers,TN,1491610082000.0,20377949
224919839,Brentwood,,1491143262000.0,36.0,-86.79,CJ Six,TN,1491143262000.0,20377949
219768097,Franklin,,1490010805000.0,35.92,-86.87,Collier Gary,TN,1491173229000.0,20377949
157920832,Nashville,,1498763631000.0,36.18,-86.74,Corey Alexander Perry,TN,1498763631000.0,20377949
226051116,Nashville,,1492709521000.0,36.11,-86.78,Corey Rich,TN,1492709521000.0,20377949
212820761,Nashville,,1487520049000.0,36.17,-86.79,Cortney Warner,TN,1487520049000.0,20377949
222352075,Nashville,,1488316511000.0,36.17,-86.78,Cortney Warner,TN,1504044228000.0,20377949
219943617,Nashville,,1490671968000.0,36.15,-86.86,Courtney G,TN,1507215728000.0,20377949
212689305,Nashville,,1473548154000.0,36.17,-86.78,CraigListComedy,TN,1486610073000.0,20377949
236356882,Nashville,,1505267334000.0,36.08,-86.89,Crys,TN,1507766584000.0,20377949
214666374,Nashville,"Dayton, OH",1476069372000.0,36.17,-86.78,Dallas Pritt,TN,1476069372000.0,20377949
219145772,Nashville,,1484255372000.0,36.19,-86.8,Dana Baker,TN,1484255372000.0,20377949
9251409,Columbus,,1501715672000.0,40.08,-82.98,Danni,OH,1501715672000.0,20377949
227518458,Fort Campbell,,1494697725000.0,36.65,-87.46,David Bullard,KY,1494697725000.0,20377949
36676802,Nashville,,1473627292000.0,36.17,-86.72,David Hall,TN,1481944580000.0,20377949
231032601,Fort Campbell,,1499117986000.0,36.65,-87.46,David Matthew,KY,1499117986000.0,20377949
9099804,Antioch,"Louisville, KY",1480547346000.0,36.04,-86.64,DC,TN,1480547346000.0,20377949
222315505,Nashville,,1487491341000.0,36.17,-86.78,Deanna Hall Peach,TN,1487491341000.0,20377949
217864958,Nashville,,1481139646000.0,36.19,-86.8,Deborah Lederman,TN,1482406988000.0,20377949
208586836,Clarksville,,1496042509000.0,36.49,-87.23,DEE-Nice,TN,1508586391000.0,20377949
183223448,Fort Campbell,,1475417752000.0,36.65,-87.46,Demetrius Rashaad Smith,KY,1481602679000.0,20377949
220157863,Nashville,,1484690781000.0,36.11,-86.78,Denise Robinson ,TN,1489616485000.0,20377949
214728832,Nashville,,1476161226000.0,36.16,-86.79,Derick Blakely,TN,1482781778000.0,20377949
212511248,Mount Juliet,,1473303155000.0,36.21,-86.52,dianna arnold,TN,1474119138000.0,20377949
229028653,Nashville,,1496619187000.0,36.08,-86.72,Diedra Polston Walker,TN,1496619187000.0,20377949
222736534,Nashville,,1489413288000.0,36.07,-86.73,Dillon Morris,TN,1489413288000.0,20377949
227488510,Nashville,,1494655012000.0,36.16,-86.79,donita oliver,TN,1494655012000.0,20377949
215142321,Cross Plains,,1476760782000.0,36.56,-86.68,Doodle Eakes,TN,1476760782000.0,20377949
227789875,Nashville,,1495053447000.0,36.18,-86.74,Dustin Wheeless,TN,1505848009000.0,20377949
213749534,Madison,,1474914940000.0,36.26,-86.71,Edgar Quebrado,TN,1474914940000.0,20377949
226525108,Nashville,,1495286875000.0,36.17,-86.78,Edward Rust,TN,1495286875000.0,20377949
85547942,Nashville,,1478004096000.0,36.17,-86.78,Elise,TN,1506412318000.0,20377949
151000432,Nashville,,1484714603000.0,36.17,-86.78,Elise,TN,1484714603000.0,20377949
222909171,Nashville,,1488314673000.0,36.08,-86.72,Elizabeth,TN,1488314673000.0,20377949
234443545,Nashville,,1503186069000.0,36.13,-86.8,Elliott Helm,TN,1503186069000.0,20377949
119331282,Nashville,,1492268712000.0,36.16,-86.78,Elwyn Gonzalez,TN,1492268712000.0,20377949
224463556,Mount Juliet,,1490495324000.0,36.22,-86.52,Emily Boaz,TN,1490495324000.0,20377949
223325598,Clarksville,,1488907907000.0,36.53,-87.35,Eric Torres,TN,1488907907000.0,20377949
220762811,Nashville,,1485455115000.0,36.14,-86.74,Erica Gaudin,TN,1487257610000.0,20377949
230955215,Hendersonville,,1499043740000.0,36.3,-86.62,Erick Desjardins,TN,1499043740000.0,20377949
233856912,Murfreesboro,,1502510409000.0,35.78,-86.33,Essence Gregory,TN,1502510409000.0,20377949
224917739,Hermitage,,1491140286000.0,36.19,-86.6,Eve Nelson,TN,1491140286000.0,20377949
148713572,Murfreesboro,,1479190753000.0,35.78,-86.33,Fiorella Lunita,TN,1479190753000.0,20377949
189569960,Nashville,,1479592065000.0,36.17,-86.78,Franchelle Kershaw,TN,1479592065000.0,20377949
210469769,Nashville,Nashville,1490394771000.0,36.19,-86.8,Frank,TN,1490394771000.0,20377949
105268702,Nashville,,1473477199000.0,36.17,-86.78,Gail B,TN,1506557093000.0,20377949
187253542,Nashville,,1473599356000.0,36.08,-86.72,Gene B,TN,1473714400000.0,20377949
235837616,Murfreesboro,,1504740976000.0,35.78,-86.33,GrizzlyXTC 615,TN,1506020447000.0,20377949
225865908,Nashville,,1492467781000.0,36.15,-86.86,Hallie Hillemann,TN,1492467781000.0,20377949
235766088,Hendersonville,,1504669049000.0,36.32,-86.61,Heidi Redenius,TN,1504669049000.0,20377949
217572070,Nashville,,1480638784000.0,36.11,-86.86,Hollie Ann,TN,1481693701000.0,20377949
230873941,Nashville,,1498928545000.0,36.15,-86.8,Jabari,TN,1498928545000.0,20377949
214699652,Hermitage,,1506575901000.0,36.17,-86.6,Jake Dunphy,TN,1506575901000.0,20377949
227601117,Murfreesboro,,1494816200000.0,35.87,-86.44,James Barnett,TN,1494816200000.0,20377949
232924546,Clarksville,,1501429145000.0,36.53,-87.34,James Daniel McGrath,TN,1501429145000.0,20377949
216023098,Franklin,,1478110439000.0,35.92,-86.89,James Mitchell,TN,1478110439000.0,20377949
214954905,Nashville,,1476493633000.0,36.11,-86.86,James Rich,TN,1476493633000.0,20377949
216620710,Hendersonville,,1479481290000.0,36.32,-86.61,James Snyder,TN,1485111264000.0,20377949
211869676,Nashville,,1476145033000.0,36.18,-86.74,James stevens,TN,1508203912000.0,20377949
184316944,Nashville,,1488590055000.0,36.16,-86.66,Jamie B,TN,1488590055000.0,20377949
142336972,Nashville,,1499067823000.0,36.17,-86.78,Jamie Parker,TN,1499067823000.0,20377949
82148382,Madison,Nashville,1473507513000.0,36.26,-86.71,Janice,TN,1484127569000.0,20377949
106911182,Nashville,,1479489862000.0,36.17,-86.79,Jared Tullos,TN,1479489862000.0,20377949
238192504,Nashville,,1507236269000.0,36.16,-86.79,Jay,TN,1507236269000.0,20377949
225301297,Brentwood,,1491687719000.0,36.0,-86.79,Jeff McCance,TN,1491687719000.0,20377949
218988882,Hendersonville,,1507906722000.0,36.32,-86.61,Jen,TN,1507906722000.0,20377949
213620854,Nashville,,1474752002000.0,36.17,-86.78,Jenkinsharold26,TN,1474752002000.0,20377949
3575885,Nashville,Great Neck NY,1492817758000.0,36.11,-86.86,Jenna R,TN,1492817758000.0,20377949
9102758,Nashville,,1479595951000.0,36.17,-86.78,Jennifer,TN,1479613062000.0,20377949
218262429,Lewisburg,,1484274346000.0,35.45,-86.8,Jennifer Caldwell,TN,1488639367000.0,20377949
230980084,Mount Juliet,,1499053758000.0,36.21,-86.52,Jennifer Jones,TN,1499053758000.0,20377949
219453009,Nashville,,1492190521000.0,36.17,-86.78,Jenny Kidder,TN,1502132509000.0,20377949
213204090,Nashville,,1474219986000.0,36.18,-86.74,Jessi Rae Braswell,TN,1474219986000.0,20377949
190043499,Nashville,"New York, NY",1500005593000.0,36.18,-86.74,Jessica Emily D'Eugenio,TN,1500005593000.0,20377949
222272100,Nashville,,1487433162000.0,36.17,-86.78,Jessica M,TN,1488587979000.0,20377949
223392766,Brentwood,,1489000686000.0,36.0,-86.79,Jessica Sams,TN,1489000686000.0,20377949
230386545,Franklin,,1498321284000.0,35.92,-86.89,Jessica Tedesco,TN,1498321284000.0,20377949
212637773,Nashville,,1473477293000.0,36.17,-86.78,Jessy Zizzo,TN,1483294572000.0,20377949
230014838,Nashville,,1497885211000.0,36.17,-86.78,Jill M,TN,1497885211000.0,20377949
13965211,Nashville,Nashville,1499051695000.0,36.13,-86.8,Jim McAnally,TN,1499051695000.0,20377949
213616712,Hendersonville,,1474746606000.0,36.32,-86.61,Jim Seals,TN,1476630626000.0,20377949
223543636,Nashville,,1489217281000.0,36.17,-86.78,jim zaher,TN,1489217281000.0,20377949
218054797,Nashville,,1481485428000.0,36.16,-86.79,Joann Young,TN,1487261586000.0,20377949
152016152,Boston,,1473595936000.0,42.36,-71.07,Joanne,MA,1473595936000.0,20377949
14037464,Murfreesboro,"Columbia, SC",1476449280000.0,35.82,-86.45,Joe Brown,TN,1476449280000.0,20377949
55056732,Franklin,"Daytona Beach, FL",1480764977000.0,35.99,-86.9,John De Marco,TN,1480771747000.0,20377949
215808821,Nashville,,1477775315000.0,36.11,-86.78,Jon Eisen,TN,1488769290000.0,20377949
238171512,Clarksville,,1507222070000.0,36.53,-87.35,Juanita Evans,TN,1507222070000.0,20377949
217628960,Nashville,,1480736221000.0,36.17,-86.78,Jude J Mena,TN,1482380822000.0,20377949
93810182,Dickson,Santa Ana,1487576439000.0,36.08,-87.43,Judes Jordan,TN,1487605951000.0,20377949
229804753,Nashville,,1497625157000.0,36.17,-86.78,Julia,TN,1506003251000.0,20377949
222218547,Nashville,,1487375615000.0,36.15,-86.79,Julia,TN,1499119722000.0,20377949
216633253,Nashville,,1479100745000.0,36.15,-86.79,Julia Racanelli,TN,1479100745000.0,20377949
198489483,Nashville,,1508615991000.0,36.17,-86.78,Julie K,TN,1508615991000.0,20377949
131712502,Nashville,Reno ,1500622022000.0,36.14,-86.81,Julie Stavas,TN,1500622022000.0,20377949
225335017,Antioch,Antioch,1491740336000.0,36.04,-86.64,Just Askme,TN,1491740336000.0,20377949
222124762,Nashville,,1487217260000.0,36.13,-86.8,Kainani Littlejohn,TN,1488045549000.0,20377949
220971826,Nashville,,1485723511000.0,36.17,-86.78,Kara Sanders,TN,1489463145000.0,20377949
233993402,Nashville,,,36.17,-86.78,,TN,,20377949
196515656,Nashville,Nashville,1487385265000.0,36.15,-86.86,Karla Dayhoff,TN,1487430806000.0,20377949
201385508,Nashville,,1483148106000.0,36.11,-86.78,Kashia Miller,TN,1487120455000.0,20377949
234036492,Gallatin,,1502734830000.0,36.39,-86.45,Katherine Mendez,TN,1502734830000.0,20377949
238177306,Nashville,,1507226895000.0,36.17,-86.72,Kathy Burton Rogers,TN,1507226895000.0,20377949
198216733,Nashville,,1480066603000.0,36.08,-86.72,Kathy Hilliard ,TN,1488711844000.0,20377949
116341612,Nashville,,1487455285000.0,36.08,-86.72,Kayla,TN,1489890905000.0,20377949
183560521,Franklin,"Austin, TX",1492982099000.0,35.92,-86.89,Kelly,TN,1492982099000.0,20377949
230340497,Nashville,,1498258071000.0,36.07,-86.73,Kelsey Reiner,TN,1498258071000.0,20377949
134447782,Nashville,,1473486001000.0,36.13,-86.8,Kensuke Nakamura,TN,1482108017000.0,20377949
44025552,Nashville,,1475876410000.0,36.17,-86.79,Kenya,TN,1475876410000.0,20377949
231089525,Nashville,,1499189240000.0,36.11,-86.78,Kevin Slattery,TN,1499189240000.0,20377949
201737245,Hermitage,,1474676795000.0,36.19,-86.6,Kim H,TN,1486064709000.0,20377949
230362508,Nashville,,1498287531000.0,36.17,-86.78,Kim Latinik- Ayers,TN,1498836148000.0,20377949
233828439,Nashville,,1502478395000.0,36.17,-86.78,KimberlyB,TN,1502478395000.0,20377949
49863072,Hermitage,,1476268688000.0,36.19,-86.6,kiran,TN,1489795470000.0,20377949
221836342,Nashville,,1486833106000.0,36.07,-86.73,Krisse,TN,1488766666000.0,20377949
227210681,Nashville,,1494276499000.0,36.09,-86.82,Kyle Mills,TN,1494276499000.0,20377949
218620473,Clarksville,,1482582002000.0,36.49,-87.23,Laugh And Lounge,TN,1482582002000.0,20377949
39583642,Nashville,Chicago,1491027087000.0,36.11,-86.78,Laura,TN,1505652547000.0,20377949
65179532,Nashville,,1488836685000.0,36.18,-86.74,Laura,TN,1490062043000.0,20377949
238423198,Smyrna,,1507490973000.0,35.97,-86.51,Lauren Cootes,TN,1507490973000.0,20377949
11085011,Glendale,"Pennsville, NJ",1486034749000.0,33.54,-112.18,Laurie Goldman,AZ,1487709846000.0,20377949
214164320,Nashville,,1475404778000.0,36.17,-86.78,Laurie Reeves,TN,1475404778000.0,20377949
239149538,Nashville,,1508308896000.0,36.17,-86.78,Lawrence Coley,TN,1508308896000.0,20377949
230675473,Nashville,,1498672207000.0,36.17,-86.78,Lea Lucas,TN,1502084454000.0,20377949
218829868,Nashville,,1482982005000.0,36.21,-86.77,Lenore Ellsworth,TN,1482982005000.0,20377949
100212992,Clarksville,,1480883983000.0,36.53,-87.35,Lisa,TN,1486887026000.0,20377949
231462896,Smyrna,,1499636624000.0,35.97,-86.51,Lisa Williams,TN,1499636624000.0,20377949
218682612,Nashville,,1482730339000.0,36.17,-86.78,Luke Hall,TN,1482730339000.0,20377949
101056562,Nashville,"Niceville, FL",1485758710000.0,36.11,-86.86,Maegan,TN,1505943291000.0,20377949
12580609,Nashville,Nashville,1473640126000.0,36.17,-86.78,Mallory,TN,1502599317000.0,20377949
216371152,Nashville,,1478647443000.0,36.16,-86.79,Mandy Robinson Walley,TN,1478647443000.0,20377949
5459777,Brentwood,,1504555734000.0,36.0,-86.79,Maria,TN,1504872657000.0,20377949
222033982,Nashville,,1498999759000.0,36.17,-86.78,Marie,TN,1503767693000.0,20377949
48247552,Nashville,,1501346363000.0,36.17,-86.78,Marissa,TN,1504964201000.0,20377949
11013940,Nashville,Nashville,1504960276000.0,36.15,-86.86,Mark,TN,1504996600000.0,20377949
24382582,Mount Juliet,Mount Juliet,1502329531000.0,36.22,-86.52,Mark,TN,1502329531000.0,20377949
227089335,Nashville,,1494110495000.0,36.17,-86.78,Markus Lich,TN,1494110495000.0,20377949
221212756,Nashville,,1486023394000.0,36.17,-86.78,Martynas ustavi?ius,TN,1486023394000.0,20377949
218687832,Nashville,,1482743462000.0,36.07,-86.73,Marwen Ben Jeddou,TN,1482743462000.0,20377949
85927732,Lexington,Lexington,1482337907000.0,38.0,-84.48,Mary,KY,1482361270000.0,20377949
212031851,Nashville,,1472754968000.0,36.18,-86.74,Mary Jay Berger,TN,1505319578000.0,20377949
225483657,Thompsons Station,,1491939233000.0,35.8,-86.9,Mary Lou Bradley Casey,TN,1491939233000.0,20377949
222367515,Clarksville,,1487562365000.0,36.53,-87.35,mary schillo,TN,1487562365000.0,20377949
230839591,Nashville,,1498878072000.0,36.11,-86.86,Matt Boyle,TN,1504487655000.0,20377949
225175771,Nashville,,1491502606000.0,36.07,-86.73,Matthew Alsup,TN,1491502606000.0,20377949
228614899,Manchester,,1496106761000.0,35.47,-86.11,Matthew B Powers,TN,1496106761000.0,20377949
222547301,Nashville,,1487800869000.0,36.17,-86.78,Matthew B. Long,TN,1487800869000.0,20377949
221469278,Nashville,,1486411200000.0,36.17,-86.72,Meghan Marvinny,TN,1487174783000.0,20377949
222533916,Nashville,,1487785995000.0,36.17,-86.78,Meghana Thunga,TN,1487785995000.0,20377949
230783464,Nashville,,1498806983000.0,36.14,-86.74,Meghann Bumbalough Shipman,TN,1498806983000.0,20377949
9527842,Franklin,Los Angeles,1477895023000.0,35.92,-86.89,Melanie Dean,TN,1501478346000.0,20377949
214820156,Nashville,,1476300968000.0,36.17,-86.78,Melissa Ferguson,TN,1489625738000.0,20377949
229512175,Nashville,,1497218482000.0,36.17,-86.78,Melissa Raines,TN,1498099487000.0,20377949
10586591,Nashville,,1473609845000.0,36.17,-86.72,Michael,TN,1474397943000.0,20377949
232312915,Nashville,,1500662572000.0,36.13,-86.8,Michael Kennedy,TN,1500662572000.0,20377949
46486792,Nashville,,1491146078000.0,36.17,-86.78,Michelle McManus,TN,1491146078000.0,20377949
28759292,Nashville,Philadelphia,1473391680000.0,36.06,-86.96,Mike Ginsberg,TN,1488778212000.0,20377949
215814349,Nashville,,1477783470000.0,36.13,-86.8,Millie Fullmer,TN,1477783470000.0,20377949
231378327,Nashville,,1499541084000.0,36.17,-86.78,Mo B. McAlpine,TN,1499541084000.0,20377949
224381711,Nashville,,1490382513000.0,36.17,-86.78,Monica,TN,1501973287000.0,20377949
51842792,Nashville,,1497637156000.0,36.17,-86.78,Montana,TN,1497637156000.0,20377949
200722699,Nashville,,1475066179000.0,36.09,-86.82,Morgan,TN,1479143162000.0,20377949
223161983,Pleasant View,,1488671918000.0,36.38,-87.04,Natalie Hudgens,TN,1488671918000.0,20377949
53071102,Nashville,Nashville ,1481484272000.0,36.17,-86.72,Natalya,TN,1482336665000.0,20377949
220982534,Lebanon,,1485762008000.0,36.21,-86.31,Nicholas Stinson,TN,1485762008000.0,20377949
197901531,Murfreesboro,,1487033368000.0,35.78,-86.33,Nick,TN,1487033368000.0,20377949
224637668,Nashville,,1490731661000.0,36.13,-86.8,Nick Stone,TN,1490731661000.0,20377949
214757095,Nashville,,1476323766000.0,36.15,-86.86,Nicki Rumanek,TN,1476323766000.0,20377949
223884983,Nashville,,1489693089000.0,36.16,-86.66,Nickie Denning,TN,1492101856000.0,20377949
213128831,Nashville,,1474127380000.0,36.17,-86.78,Nicole,TN,1474127380000.0,20377949
221727351,Madison,,1486668204000.0,36.26,-86.71,Nora Harris,TN,1486668204000.0,20377949
234168251,Franklin,,1502888667000.0,35.93,-86.81,Olivia Oetjens,TN,1502888667000.0,20377949
222652466,Hermitage,,1487954585000.0,36.19,-86.6,Pamela Freed,TN,1487954585000.0,20377949
231482868,Nashville,,1499658417000.0,36.07,-86.73,Patrick O'Brien,TN,1500065056000.0,20377949
32044662,Nashville,"Bryan, TX",1473680204000.0,36.1,-86.66,Patrick Saxon,TN,1488601765000.0,20377949
184531258,Nashville,Knoxville,1502576002000.0,36.17,-86.78,Paul Paulus,TN,1502670506000.0,20377949
128376312,Nashville,,1473513497000.0,36.16,-86.79,Peter Kremer,TN,1473513497000.0,20377949
137411322,Nashville,,1473562187000.0,36.17,-86.72,Phillip R. Jones,TN,1506034635000.0,20377949
4278530,Nashville,,1489687428000.0,36.17,-86.72,Pratik,TN,1489687428000.0,20377949
4901266,Murfreesboro,"Flint, MI",1474238731000.0,35.78,-86.33,QuietBob,TN,1474238731000.0,20377949
222710182,Nashville,,1488039548000.0,36.17,-86.78,Qumeasha Williams,TN,1488039548000.0,20377949
238792314,Nashville,,1507897687000.0,36.15,-86.86,Rachel Baker,TN,1507897687000.0,20377949
228742071,Nashville,,1496265111000.0,36.17,-86.78,Rachel Mallard,TN,1496265111000.0,20377949
226635416,Nashville,,1493493194000.0,36.06,-86.96,rafiq,TN,1493493194000.0,20377949
78741522,Brentwood,"Glendale, California",1479614404000.0,36.0,-86.79,Randy Tashjian,TN,1479614404000.0,20377949
233125062,Murfreesboro,,1501677911000.0,35.87,-86.44,Ray Davidson,TN,1501677911000.0,20377949
214079627,Nashville,,1475289612000.0,36.17,-86.72,Ray W,TN,1475289612000.0,20377949
196940575,Smyrna,"Rockwood, TN",1486347450000.0,35.97,-86.51,Richard Montgomery,TN,1506633149000.0,20377949
234599113,Nashville,,1503366578000.0,36.15,-86.86,Rickco Forbes,TN,1503366578000.0,20377949
218782366,Nashville,,1482901535000.0,36.15,-86.81,Ro Whi,TN,1502198997000.0,20377949
232259583,Murfreesboro,,1500590529000.0,35.78,-86.33,Ron Bronson,TN,1500590529000.0,20377949
6437259,Murfreesboro,,1502415703000.0,35.78,-86.33,ron wells,TN,1505790600000.0,20377949
220831516,Nashville,,1485543187000.0,36.17,-86.78,Ross Hamilton,TN,1508353898000.0,20377949
230829884,Nashville,,1498866309000.0,36.17,-86.78,Ross Oreto,TN,1499542839000.0,20377949
183564319,Nashville,,1482005135000.0,36.14,-86.8,Ryan Murray,TN,1492792507000.0,20377949
226241618,Clarksville,,1492966916000.0,36.53,-87.35,S.O'Donnell,TN,1492966916000.0,20377949
236403566,Nashville,,1505315621000.0,36.15,-86.86,Sade Wilson,TN,1505315621000.0,20377949
221128997,Nashville,,1499023725000.0,36.17,-86.78,Sandeep Reddy,TN,1499023725000.0,20377949
233756224,Nashville,,1503100921000.0,36.21,-86.72,Sandra Jordan,TN,1503100921000.0,20377949
219984145,Nashville,,1484500929000.0,36.06,-86.96,Sandy,TN,1489929021000.0,20377949
148199842,Nashville,Nashville,1499306810000.0,36.16,-86.79,Sara,TN,1502564417000.0,20377949
191823767,Dimock,,1476765285000.0,41.74,-75.9,Sara Kistner,PA,1476765285000.0,20377949
232666571,Mount Juliet,,1501095005000.0,36.22,-86.52,Sarah Worden,TN,1501117022000.0,20377949
212790320,Nashville,,1473704499000.0,36.11,-86.86,Scott Field,TN,1486865957000.0,20377949
219745067,Nashville,,1484168509000.0,36.17,-86.78,Scott Oldham,TN,1484168509000.0,20377949
132277862,Nashville,,1482339537000.0,36.17,-86.78,Scotty Wright,TN,1482900155000.0,20377949
184224662,Nashville,Los Angeles,1490924591000.0,36.15,-86.69,Sean,TN,1494458939000.0,20377949
225255212,Nashville,,1491616718000.0,36.13,-86.8,Shah Gaurav,TN,1491616718000.0,20377949
214578793,Antioch,,1492540872000.0,36.04,-86.64,Shalee Marshall,TN,1492788021000.0,20377949
222590884,Nashville,,1487872944000.0,36.07,-86.73,Shaniqua Berry,TN,1487872944000.0,20377949
166317072,Nashville,,1473689320000.0,36.17,-86.79,shawn goodman,TN,1475268078000.0,20377949
191758521,Goodlettsville,,1473458321000.0,36.32,-86.72,Sheri,TN,1503429457000.0,20377949
225946632,Smyrna,,1492564280000.0,35.97,-86.51,Sherry Stoel,TN,1494898719000.0,20377949
213921929,Nashville,,1475125847000.0,36.21,-86.72,Sierra Mercedes,TN,1475125847000.0,20377949
222610499,Nashville,,1487889912000.0,36.08,-86.72,Sis Odland,TN,1487889912000.0,20377949
224221252,Nashville,,1490152345000.0,36.1,-86.66,Stacey Brown,TN,1490152345000.0,20377949
232897749,Antioch,,1503870924000.0,36.17,-86.88,Stephanie P.,TN,1503870924000.0,20377949
232764022,Mount Juliet,,1501215328000.0,36.22,-86.52,Stephen Broyles,TN,1501215328000.0,20377949
10836686,Nashville,"Tucson, AZ",1473741777000.0,36.06,-86.96,Steve Rockwell,TN,1473741777000.0,20377949
181238062,Nashville,,1479851484000.0,36.21,-86.72,Susan,TN,1479851484000.0,20377949
214956696,Nashville,,1476496362000.0,36.11,-86.78,Susan Rhodes-Alexander,TN,1482100531000.0,20377949
110335242,Franklin,,1501477568000.0,35.93,-86.81,Tammy Hart,TN,1501971291000.0,20377949
234154899,Franklin,,1508399258000.0,35.92,-86.89,Tanya Parsley,TN,1508399258000.0,20377949
222330959,Nashville,Nashville,1487517688000.0,36.15,-86.86,Teresa,TN,1487517688000.0,20377949
215689453,Nashville,,1477585552000.0,36.16,-86.79,Terisa Thorpe,TN,1477585552000.0,20377949
222052657,Nashville,,1487116641000.0,36.22,-86.86,Terrance Campbell,TN,1487116641000.0,20377949
218888359,Nashville,,1483077018000.0,36.15,-86.86,Terrell Pinkerton,TN,1502462254000.0,20377949
98067032,Westmoreland,,1503812941000.0,36.57,-86.22,Terri Shelton,TN,1503812941000.0,20377949
227806705,Franklin,,1495071207000.0,35.99,-86.9,Theodore Brittan,TN,1495071207000.0,20377949
81924252,Nashville,,1474871689000.0,36.17,-86.78,Theresa,TN,1507698336000.0,20377949
218173548,Nashville,,1481689258000.0,36.17,-86.78,Theresa Miller Douglas,TN,1481689258000.0,20377949
222476453,Nashville,,1487709766000.0,36.17,-86.78,Thomas Ribar,TN,1487709766000.0,20377949
213950048,Nashville,,1475161128000.0,36.17,-86.78,Tiffany Sanderson ,TN,1475247973000.0,20377949
201159172,Chicago,,1473431820000.0,41.92,-87.65,Tim ,IL,1473431820000.0,20377949
8386,Nashville,Nashville,1475159225000.0,36.07,-86.78,Tim,TN,1487127606000.0,20377949
230441028,Nashville,,1498390764000.0,36.17,-86.72,Timberly Rider,TN,1498528886000.0,20377949
213445120,Nashville,,1474513050000.0,36.17,-86.78,Toledo Crawford,TN,1474513050000.0,20377949
214599886,Nashville,,1475967959000.0,36.18,-86.74,ToniMarie Folan,TN,1475967959000.0,20377949
7537601,Nashville,Nashville,1473495045000.0,36.16,-86.79,Tony,TN,1473545791000.0,20377949
225301911,Nashville,,1491686542000.0,36.17,-86.78,Tony Hughes,TN,1491686542000.0,20377949
221635132,Nashville,,1486549855000.0,36.15,-86.86,Tony Hunt,TN,1486549855000.0,20377949
225864502,Lebanon,,1492466325000.0,36.21,-86.31,Tressie Johnson,TN,1492466325000.0,20377949
215935360,Riverdale,,1477973730000.0,33.57,-84.43,Trevor Cobb,GA,1477973730000.0,20377949
177242892,Nashville,Titusville,1498095209000.0,36.17,-86.78,Tyler Jennings,TN,1498095209000.0,20377949
227026234,Nashville,,1501077085000.0,36.08,-86.72,Van Hickman,TN,1501077085000.0,20377949
5838751,Nashville,Nashville,1497192713000.0,36.17,-86.72,Vanessa,TN,1498142841000.0,20377949
215396406,Nashville,,1477198110000.0,36.17,-86.78,Vicky,TN,1477198110000.0,20377949
206595101,Hopkinsville,"Hopkinsville, KY",1476399301000.0,36.87,-87.48,Victoria,KY,1476399301000.0,20377949
219950046,Nashville,,1484438021000.0,36.13,-86.8,Vivek,TN,1484964829000.0,20377949
176581692,Nashville,,1487697153000.0,36.11,-86.86,Wesley Belden,TN,1502549173000.0,20377949
221116594,Nashville,,1486294346000.0,36.14,-86.74,willie gordon,TN,1489019643000.0,20377949
19567601,Nashville,Philadelphia,1502306113000.0,36.13,-86.8,Winslow Newman,TN,1502306113000.0,20377949
208766369,Nashville,,1479595885000.0,36.17,-86.78,Yang,TN,1479595885000.0,20377949
219275333,Nashville,,1483575368000.0,36.15,-86.86,Yusuf Gürbüz,TN,1487377017000.0,20377949
