id,city,hometown,joined,lat,lon,name,state,visited,group_id
10567319,Antioch,Murfreesboro,1473270857000,36.04,-86.64,Allyson Gilbert,TN,1474682566000,20387034
108780202,Nashville,,1488304718000,36.17,-86.78,Ambrea,TN,1488304718000,20387034
229180677,Mount Juliet,,1496796026000,36.21,-86.52,Amy Matherly,TN,1496796026000,20387034
94453162,Smyrna,"Rockland, MA",1474043486000,35.97,-86.51,Amy T,TN,1488832720000,20387034
216009790,Smyrna,,1478092047000,35.97,-86.51,Ariana Vandenburgh,TN,1478092047000,20387034
9506423,Antioch,,1473627542000,36.04,-86.64,Barbara Belden,TN,1473627542000,20387034
183204721,La Vergne,,1473303823000,36.01,-86.57,Becky,TN,1500570238000,20387034
189865755,Nashville,Nashville,1495480691000,36.06,-86.96,Beth Smith,TN,1497451100000,20387034
212273793,Smyrna,,1473002777000,35.97,-86.51,Cricket L,TN,1505783299000,20387034
201436943,Antioch,,1481253334000,36.04,-86.64,David Barton,TN,1497264823000,20387034
97440942,Murfreesboro,,1475613285000,35.82,-86.45,Eileen Chalmers,TN,1475698894000,20387034
217659976,Murfreesboro,,1480817489000,35.82,-86.45,Grecia Luna,TN,1480981792000,20387034
232087948,Antioch,,1500486273000,36.04,-86.64,Hopi Zapico,TN,1500486273000,20387034
224028980,Smyrna,,1489900830000,35.97,-86.51,Jeanne Hinrichs Nichols,TN,1489900830000,20387034
216262588,Antioch,,1492871456000,36.17,-86.88,Jenny Dewald Wise,TN,1498013516000,20387034
212547602,Nashville,Nashville,1473357451000,36.22,-86.77,JoeyM,TN,1473357451000,20387034
4795733,Decherd,,1480707128000,35.21,-86.08,Jonathon McNeil,TN,1480707128000,20387034
60670372,Nashville,,1473265470000,36.15,-86.86,Karen Daniel,TN,1473265470000,20387034
229018770,Murfreesboro,,1496609365000,35.87,-86.44,Kari Reneè,TN,1496609365000,20387034
213134215,Murfreesboro,,1475543091000,35.83,-86.44,Kasey Lee,TN,1475543091000,20387034
222496548,Shelbyville,,1489284370000,35.48,-86.47,Kathie Haber,TN,1489284370000,20387034
214998978,Nashville,,1476562500000,36.17,-86.78,Kathleen,TN,1476562500000,20387034
213817748,La Vergne,,1475002682000,36.01,-86.57,Kristin Bennett,TN,1475002682000,20387034
221418300,Murfreesboro,,1497717746000,35.78,-86.33,Laura Maas,TN,1497717746000,20387034
97477172,Hendersonville,Columbus,1499722129000,36.32,-86.61,Laurie Shope,TN,1499722129000,20387034
70223892,Murfreesboro,Atlanta,1474228638000,35.78,-86.33,Lisa L,TN,1474228638000,20387034
219701769,Murfreesboro,,1488165705000,35.78,-86.33,Madelynn M,TN,1488165705000,20387034
99829952,Murfreesboro,,1485876465000,35.78,-86.33,Megan Sewak ,TN,1486056166000,20387034
140274692,Nashville,,1484775355000,36.17,-86.78,Melanie,TN,1484775355000,20387034
61402882,Ashland City,St Louis,1473352760000,36.28,-87.07,Monika Farmer,TN,1496549215000,20387034
180027122,La Vergne,,1489800135000,36.01,-86.57,nyrja,TN,1489800135000,20387034
234168251,Franklin,,1502888354000,35.93,-86.81,Olivia Oetjens,TN,1502888354000,20387034
22693271,Smyrna,,1473357485000,35.97,-86.51,Penny Belden,TN,1473357485000,20387034
193505843,Smyrna,,1475502943000,35.97,-86.51,Phyllis ,TN,1494591114000,20387034
214270147,Liberty,,1475532025000,36.01,-85.97,Sheri,TN,1475684861000,20387034
235066696,Murfreesboro,,1503912085000,35.87,-86.34,Sonja Clemons,TN,1503912085000,20387034
11590846,Nashville,,1475538499000,36.17,-86.78,Stephanie,TN,1497680433000,20387034
226492692,Mc Minnville,,1493294905000,35.68,-85.78,Tiffanie Randolph,TN,1493294905000,20387034
213662941,Nashville,,1474811736000,36.17,-86.78,Vinéecia Buchanan,TN,1474811736000,20387034
193151266,Smyrna,"Hiroshima, Japan",1473276476000,35.97,-86.51,Yoko F.,TN,1500832807000,20387034
