id,city,hometown,joined,lat,lon,name,state,visited,group_id
143624072,Nashville,Philadelphia,1484509126000,36.22,-86.77,Adrienne,TN,1508112588000,21933145
82028462,Nashville,Chincoteague,1499647702000,36.17,-86.78,Alicia Thompson,TN,1506615524000,21933145
14317847,Nashville,,1484585967000,36.1,-86.66,Amanda,TN,1485318290000,21933145
12673677,Nashville,,1484954617000,36.06,-86.96,Amanda,TN,1485231140000,21933145
190102817,Nashville,,1499647788000,36.18,-86.74,Amanda,TN,1497927743000,21933145
14004196,Clarksville,Clarksville,1491016815000,36.56,-87.41,Amanda Murphy,TN,1490903116000,21933145
151630072,Murfreesboro,,1508112629000,35.82,-86.45,Amanda R,TN,1508333442000,21933145
33994092,Murfreesboro,"Fort Oglethorpe, GA",1484954616000,35.78,-86.33,Amy LeTellier,TN,1485444730000,21933145
197786219,Nashville,,1492548876000,36.15,-86.86,Amy Lewter ,TN,1503198792000,21933145
161699322,Nashville,,1493148180000,36.17,-86.78,Amy Purifoy,TN,1493039452000,21933145
182574366,Nashville,Nashville,1484585991000,36.11,-86.78,Andrea,TN,1503155240000,21933145
216507950,Nashville,,1502926559000,36.22,-86.86,Andrea Davidson,TN,1506538208000,21933145
218873173,Nashville,,1484954617000,36.17,-86.78,Angel Iwanowski,TN,1484954634000,21933145
230452366,Gallatin,,1499647723000,36.39,-86.45,Angie,TN,1498414126000,21933145
45178062,Nashville,"Columbus, OH",1502926550000,36.17,-86.78,Ann,TN,1506492521000,21933145
228303901,Nashville,,1506170701000,36.11,-86.86,Anna Avery,TN,1506136297000,21933145
196757272,Nashville,Nashville,1497566676000,36.18,-86.81,Anna Maliere,TN,1497517645000,21933145
215530663,Nashville,,1484954616000,36.17,-86.78,Annette Pulford,TN,1486267439000,21933145
205361764,Madison,,1499647694000,36.26,-86.71,Ashleigh,TN,1499802684000,21933145
204027645,Murfreesboro,"Rochester, MI",1484585991000,35.82,-86.45,Barb Morgan Biggs,TN,1506258626000,21933145
6370505,Old Hickory,Nashville,1496199974000,36.25,-86.63,Barbara Lanz,TN,1506604694000,21933145
12628517,Gallatin,"Pawtucket, RI",1490674800000,36.39,-86.45,Becca T,TN,1490726687000,21933145
222171588,Nashville,,1487827869000,36.08,-86.72,Beth Pinkerton,TN,1487287605000,21933145
199190565,Nashville,,1496199974000,36.17,-86.78,Brandi Montgomery,TN,1495942922000,21933145
9188552,Nashville,,1499813558000,36.08,-86.72,Brenda Kerr,TN,1499759149000,21933145
52190822,Nashville,,1494623574000,36.11,-86.78,Carla Williams,TN,1503666611000,21933145
48990822,Nashville,,1499715170000,36.16,-86.79,Cayce Harlow,TN,1500040028000,21933145
84009862,Franklin,Indianapolis,1484585991000,35.92,-86.89,Cheryl Ingram,TN,1484583781000,21933145
221125818,Murfreesboro,,1485911027000,35.78,-86.33,Cheryl Smith,TN,1485909868000,21933145
151830242,Nolensville,,1502926580000,35.94,-86.67,Christine,TN,1500916537000,21933145
187707213,Nashville,,1484954616000,36.1,-86.66,Christy,TN,1496789492000,21933145
231382039,Nashville,,1499647629000,36.17,-86.78,Christy Fike,TN,1499542961000,21933145
186136233,Nashville,,1500222301000,36.18,-86.73,Clementyne Howard,TN,1500215692000,21933145
213799336,Nashville,,1484954617000,36.06,-86.96,Dawn,TN,1485042340000,21933145
192437112,Nashville,,1503452137000,36.18,-86.74,Dawn Creech,TN,1503419684000,21933145
174993022,Hendersonville,,1496682855000,36.32,-86.61,Debra,TN,1496455006000,21933145
224881576,Nolensville,,1492548876000,35.94,-86.67,Denise Siegel,TN,1491081505000,21933145
61821252,Nashville,Nashville,1499647661000,36.06,-86.96,Devora,TN,1501119101000,21933145
30802182,Nashville,,1484670351000,36.08,-86.72,Dez Stephens,TN,1485625254000,21933145
231087163,Franklin,,1506041390000,35.92,-86.89,Doreathea Haraguchi,TN,1506133797000,21933145
218637215,Nashville,,1484954617000,36.09,-86.82,dru markle,TN,1484666860000,21933145
198404843,Smyrna,,1484954616000,35.97,-86.51,Dusty Donalson,TN,1485301990000,21933145
68121142,Nashville,,1484628667000,36.14,-86.74,Elizabeth(Tootie)Hagan,TN,1490283613000,21933145
233168572,Mount Juliet,,1506041390000,36.21,-86.52,Erika,TN,1506538394000,21933145
163627542,Franklin,"Springville, UT",1484954617000,35.92,-86.89,Éva Grace,TN,1485196406000,21933145
10416961,Nashville,,1493148180000,36.18,-86.74,eva watler,TN,1493066400000,21933145
215166569,Nashville,,1486132085000,36.17,-86.78,Felicia Fay King,TN,1486051888000,21933145
200570818,Nashville,,1492548876000,36.1,-86.66,Franchesa Kirkpatrick,TN,1492399775000,21933145
179023992,Nashville,Lebanon,1484954617000,36.17,-86.78,Gabrielle,TN,1484708637000,21933145
191514326,Nashville,,1496199974000,36.17,-86.78,Gina Marchando,TN,1502942377000,21933145
1124238,Nashville,,1484954616000,36.18,-86.74,Gloria,TN,1499725591000,21933145
186626847,Murfreesboro,,1491016815000,35.87,-86.34,Grace Bluerock,TN,1490744669000,21933145
232404689,Nashville,,1502926533000,36.16,-86.79,Grace E. Lewis,TN,1500778178000,21933145
217090867,Nashville,,1484954617000,36.22,-86.86,Haley Stone,TN,1484706017000,21933145
190224939,Nashville,,1507857022000,36.15,-86.86,Hannah Younger,TN,1507510891000,21933145
162810822,Nashville,,1492833215000,36.18,-86.74,J,TN,1492858966000,21933145
13912713,Nashville,Nashville,1487827869000,36.17,-86.78,Jacqueline Scully,TN,1499699210000,21933145
210611404,Nashville,,1487029439000,36.17,-86.78,Jacqueline Sneed ,TN,1487031836000,21933145
8869875,Nashville,,1502926589000,36.07,-86.78,Jamie M.,TN,1500913531000,21933145
41124132,Nashville,,1490674866000,36.16,-86.79,jani,TN,1489615568000,21933145
168557422,Nashville,,1506041390000,36.15,-86.86,Jasmine,TN,1504099296000,21933145
42509372,Nashville,,1486486886000,36.08,-86.72,Jayme E. Gwaltney,TN,1486482340000,21933145
7298299,Nashville,NASHVILLE,1493148179000,36.06,-86.96,Jenn Marie,TN,1508650383000,21933145
13313321,Murfreesboro,Crawfordsville,1484585991000,35.87,-86.34,Jenny Davis,TN,1484582449000,21933145
39650492,Smyrna,,1493148180000,35.95,-86.48,Jess Johnson,TN,1493083121000,21933145
189106538,Smyrna,,1492548876000,35.97,-86.51,Jessica,TN,1491504516000,21933145
220156153,Nashville,,1484954617000,36.17,-86.78,Jillian,TN,1485307529000,21933145
14456725,Columbia,,1484954617000,35.61,-87.05,JoAnn Watters,TN,1484963923000,21933145
180207482,Brentwood,,1487029439000,35.96,-86.75,Jocelyn Allton,TN,1499732612000,21933145
214104576,Braintree,,1499647775000,42.21,-71.0,Jodi Marinilli,MA,1508627390000,21933145
192545605,Nashville,"Hallowell, ME",1485543930000,36.04,-86.97,Joy Rose,TN,1506539976000,21933145
10045708,Kingston Springs,"Kingston Springs, TN",1497566720000,36.09,-87.12,Julie,TN,1497571905000,21933145
152480352,Nashville,,1487103732000,36.17,-86.78,Julie,TN,1487662978000,21933145
217584699,Nashville,,1492548876000,36.17,-86.78,Karen,TN,1505957166000,21933145
45273412,Nashville,,1484585991000,36.21,-86.72,Karen Stevens,TN,1484604725000,21933145
17882281,Nashville,,1484954616000,36.17,-86.78,Kari Hoffman,TN,1485134724000,21933145
213270054,Nashville,,1485130088000,36.17,-86.78,Karolina,TN,1484968790000,21933145
58358532,Nashville,,1485908279000,36.21,-86.72,Kate,TN,1498405102000,21933145
236336280,Old Hickory,,1507857005000,36.25,-86.63,Kathryn Muhammad,TN,1507743056000,21933145
59621072,Nashville,Nashville,1502926571000,36.18,-86.74,Kathryn Peters,TN,1501179527000,21933145
24106652,Murfreesboro,,1484954617000,35.82,-86.45,Kathy Andrews,TN,1484960678000,21933145
222123828,Thompsons Station,,1487827869000,35.8,-86.9,Kathy Dance,TN,1491343672000,21933145
217407473,Hermitage,,1488571965000,36.19,-86.6,Katie Norris,TN,1491844128000,21933145
202009518,Nashville,,1508112660000,36.17,-86.78,Kayla Neal,TN,1507942772000,21933145
7908284,Nashville,"nashville, tn",1499647603000,36.15,-86.86,kelly,TN,1499570909000,21933145
220009926,Hermitage,,1493675205000,36.19,-86.6,Kelly Gibbar,TN,1497310146000,21933145
4644865,Nashville,,1499647798000,36.18,-86.74,Kendall,TN,1505532854000,21933145
220194759,Antioch,,1484954617000,36.04,-86.64,Kendall Burroughs,TN,1484737346000,21933145
206739605,Nashville,,1499647733000,36.17,-86.78,Kennedi,TN,1503851372000,21933145
220257096,Nashville,,1484954617000,36.17,-86.78,Keri Lyndi Abby Little,TN,1484806047000,21933145
8311912,Nashville,,1500222333000,36.17,-86.78,kermy73,TN,1503372504000,21933145
12327389,Nashville,,1484954617000,36.08,-86.72,Kristen Colby,TN,1495042550000,21933145
675332,Nashville,Nashville,1484954616000,36.17,-86.78,Kristie,TN,1496155804000,21933145
183346706,Nashville,,1484954616000,36.18,-86.74,Leslie L,TN,1499539578000,21933145
202633909,Goodlettsville,,1500222319000,36.32,-86.72,Leslie Smith,TN,1500223268000,21933145
234509087,Paducah,,1503452151000,37.04,-88.71,Lindsay Harper,KY,1503262285000,21933145
129983482,Nashville,,1499647650000,36.18,-86.74,Madison White,TN,1499325417000,21933145
220512977,Nashville,,1486047010000,36.21,-86.72,Marielle,TN,1495398064000,21933145
210296670,Franklin,,1484954617000,35.92,-86.89,Marti Webster,TN,1507643093000,21933145
30872932,Nashville,"Massena,NY/Burlington, VT",1485210126000,36.17,-86.72,Mary,TN,1490732982000,21933145
40749602,Franklin,"Kansas City, MO",1497566692000,35.92,-86.89,Mary,TN,1508289943000,21933145
10266159,Nashville,Nashville ,1490674833000,36.15,-86.86,Maryam K,TN,1502929643000,21933145
6042535,Nashville,,1484954616000,36.17,-86.78,Megha Bradley,TN,1496765654000,21933145
211209647,Nashville,,1484954617000,36.17,-86.78,Melanie M.,TN,1498209633000,21933145
205925930,Nashville,,1487029439000,36.17,-86.78,Misty Freeman,TN,1491759176000,21933145
238646830,Nashville,,1507857012000,36.08,-86.72,N'Digo Kali,TN,1508779815000,21933145
175159382,Clarksville,"Hopkinsville, KY",1496199974000,36.56,-87.41,Natasha Thompson,TN,1503600785000,21933145
9256855,Nashville,Clearwater,1484585991000,36.14,-86.81,Pam Steele,TN,1484786587000,21933145
158252002,Nashville,,1484954616000,36.07,-86.78,PamelaC,TN,1490740894000,21933145
53883542,Clarksville,,1490674771000,36.49,-87.23,Patricia Winn,TN,1490357157000,21933145
218779859,Goodlettsville,,1497566705000,36.32,-86.72,Patti,TN,1496847362000,21933145
190717209,Nashville,,1485543930000,36.17,-86.78,Pendry,TN,1493403265000,21933145
73111552,Orlando,,1485908279000,28.56,-81.36,Priscilla Mullins,FL,1485652376000,21933145
226920452,Nashville,Nashville,1494623580000,36.08,-86.72,Rachel,TN,1508082103000,21933145
214321618,Nashville,,1485130088000,36.14,-86.74,Rachel,TN,1485110638000,21933145
185660591,Nashville,,1487827869000,36.17,-86.78,Rachel Jackson,TN,1487788835000,21933145
238098040,Nashville,,1507856997000,36.17,-86.79,Randi Rosack,TN,1508382492000,21933145
185439469,Nashville,,1484954616000,36.18,-86.74,Reagan,TN,1485624105000,21933145
8119630,Nashville,,1499647618000,36.18,-86.74,Renee,TN,1499554139000,21933145
224686397,Murfreesboro,,1491016815000,35.82,-86.45,Ri Ri,TN,1490803184000,21933145
222742815,Nashville,,1488571965000,36.16,-86.79,robin,TN,1489021157000,21933145
190378097,Nashville,"Lake City, FL",1507857029000,36.17,-86.78,Sabrina Owens,TN,1507502920000,21933145
204309846,Nashville,,1502926608000,36.17,-86.78,Sam,TN,1496370617000,21933145
130793422,Nashville,,1487103732000,36.11,-86.78,Sarah G.,TN,1487643125000,21933145
13576044,Nashville,"Washington, DC",1485908279000,36.17,-86.78,Stephanie Grinmanis,TN,1489390084000,21933145
230373206,Nashville,,1499647714000,36.08,-86.72,Susan,TN,1500175061000,21933145
204820668,Nashville,,1484954617000,36.06,-86.96,Tain Love,TN,1484750066000,21933145
207502987,Nashville,,1484954617000,36.1,-86.66,Tamesha Stewart,TN,1491868883000,21933145
1575535,Nashville,,1502926506000,36.09,-86.82,tammy,TN,1502411058000,21933145
53452882,Nashville,,1484585991000,36.08,-86.72,Tammy LaPoint-O'Brien,TN,1484584392000,21933145
90079182,Franklin,"Franklin, TN",1499647672000,35.93,-86.81,Tassel Shanebrook Baldwin,TN,1499191344000,21933145
190227441,Nashville,Chattanooga,1484954616000,36.15,-86.86,Taylor,TN,1488230275000,21933145
220878794,Nashville,,1485908279000,36.21,-86.72,Tiffany C.,TN,1492694534000,21933145
132757602,Nashville,,1484954617000,36.06,-86.96,Tracy,TN,1484760226000,21933145
219835964,Nashville,,1484954617000,36.18,-86.74,Trisha Brantley,TN,1485977134000,21933145
185712481,Nashville,,1492548876000,36.17,-86.78,Usha,TN,1492549617000,21933145
147250832,Nashville,,1484954616000,36.17,-86.72,Valerie Pieroni,TN,1484958776000,21933145
5593336,Asheville,"Mount Airy, MD",1487029398000,35.58,-82.61,Virginia,NC,1487019919000,21933145
