id,city,hometown,joined,lat,lon,name,state,visited,group_id
223343566,Antioch,Nashville,1488928852000,36.04,-86.64,Aaron Banks,TN,1488928852000,22608632
110999952,Atlanta,,1493235252000,33.75,-84.31,Adrienne Lowe,GA,1493235252000,22608632
229319103,Nashville,,1496972815000,36.17,-86.78,andy dsouza,TN,1496972815000,22608632
223858171,Nashville,,1489655392000,36.16,-86.79,Brijesh Patel,TN,1489655392000,22608632
166303192,Nashville,Nashville,1494285658000,36.11,-86.78,Carolyn,TN,1494866689000,22608632
220767081,Indianapolis,,1493238125000,39.77,-86.11,Cheryl Harris,IN,1494340851000,22608632
226881337,Nashville,,1493825378000,36.16,-86.79,Derek Graff,TN,1497289850000,22608632
130333862,Nashville,,1488903273000,36.17,-86.78,Eman Walton,TN,1488903273000,22608632
227258923,Nashville,,1494343874000,36.16,-86.79,Grey Stepp,TN,1494343874000,22608632
226185646,Nashville,,1492889556000,36.16,-86.79,Hawi,TN,1492889556000,22608632
164128362,Nashville,,1488156019000,36.16,-86.79,Holly Schario,TN,1488156019000,22608632
231253444,Nashville,,1499386664000,36.17,-86.78,Infinity Essence,TN,1499386664000,22608632
234338863,Nashville,,1503079592000,36.16,-86.79,Jack Rogers,TN,1503079592000,22608632
200369160,Nashville,,1488077790000,36.11,-86.86,Jennifer Price,TN,1488077790000,22608632
96894542,Hendersonville,"Tipp City, OH",1506042505000,36.32,-86.61,Jill Nesbitt,TN,1506042505000,22608632
213477474,Chicago,,1494378144000,41.88,-87.62,John Warne,IL,1494378144000,22608632
82838762,Murfreesboro,Cabo Rojo,1494981138000,35.83,-86.45,Juan R Gomez Hoyos,TN,1494981138000,22608632
224808631,Mount Juliet,,1493303001000,36.21,-86.52,Kendra Gene Motycka,TN,1494432500000,22608632
224246050,Nashville,,1490196233000,36.17,-86.72,Kenton Klockenga,TN,1490196233000,22608632
227342942,Nashville,,1494454636000,36.16,-86.79,Kyle Floyd,TN,1497388004000,22608632
168578872,Nashville,Nashville,1487980656000,36.21,-86.72,Lance Conzett,TN,1494618594000,22608632
7979701,Brentwood,"Riverside, CA",1508192115000,36.0,-86.79,Landon Hale,TN,1508192115000,22608632
217193943,Bell Buckle,,1488148987000,35.6,-86.41,Leslie,TN,1494437768000,22608632
216357060,Franklin,,1488199195000,35.95,-86.82,Linda Totok,TN,1488199195000,22608632
6034599,Nashville,,1488229118000,36.17,-86.78,Lizzie Keiper,TN,1497288829000,22608632
223015434,Nashville,,1488469803000,36.16,-86.79,Lori Barratt,TN,1488469803000,22608632
188530638,Nashville,,1488089652000,36.17,-86.78,Matt Brown,TN,1488089652000,22608632
214899373,Nashville,,1488891452000,36.16,-86.77,Matti Gilmore,TN,1488891452000,22608632
223721571,Madison,,1489638574000,36.26,-86.71,Mekia Hickman,TN,1489638574000,22608632
222899940,Franklin,,1488302838000,35.92,-86.89,Michael Heyen,TN,1494366668000,22608632
232312915,Nashville,,1500662159000,36.13,-86.8,Michael Kennedy,TN,1500662159000,22608632
234168251,Franklin,,1502888581000,35.93,-86.81,Olivia Oetjens,TN,1502888581000,22608632
13671112,Nashville,Nashville,1493403255000,36.18,-86.74,Rachel Rogers,TN,1493403255000,22608632
226750529,Nashville,,1493653238000,36.16,-86.79,Ryan Mullins,TN,1494360578000,22608632
191257257,Yuma,,1501532267000,32.7,-114.65,Sally Reid,AZ,1501532267000,22608632
226843582,Nashville,,1493769799000,36.16,-86.79,Shannon Hassell,TN,1493813452000,22608632
222833437,Nashville,,1488214493000,36.16,-86.79,Tammy Roberts,TN,1488214493000,22608632
12221290,Nashville,Nashville,1493815273000,36.18,-86.74,Taylor Chew,TN,1493815273000,22608632
126066112,Nashville,Nashville,1488065488000,36.17,-86.78,Taylor Michael Matson,TN,1488065488000,22608632
21627131,Nashville,"McMinnville, OR",1493322206000,36.18,-86.74,Tomiko Peirano,TN,1499871652000,22608632
184332334,Nashville,,1492624116000,36.17,-86.78,Tremaine James,TN,1492624116000,22608632
236439846,Nashville,,1505343243000,36.16,-86.79,Whitney Thompson,TN,1505343243000,22608632
219156214,Murfreesboro,,1488155017000,35.87,-86.44,William McNeal,TN,1494448787000,22608632
192113085,Nashville,,1488295560000,36.08,-86.72,Zack Wright,TN,1488295560000,22608632
