id,city,hometown,joined,lat,lon,name,state,visited,group_id
221847659,Franklin,,1489165959000,35.93,-86.81,Aaron Duncan,TN,1506694594000,22643488
10109351,Nashville,,1489021602000,36.21,-86.72,Adam Troxler,TN,1489021602000,22643488
222905651,Cleveland,,1488309632000,41.49,-81.67,Allison Hunter Kultaeva,OH,1488309632000,22643488
62675552,Nashville,,1503519254000,36.16,-86.79,Amanda Ellingsen,TN,1504662904000,22643488
31139542,Nashville,,1505193567000,36.14,-86.74,Amber,TN,1505249992000,22643488
235269212,Nashville,,1504147710000,36.08,-86.72,Amber Walters,TN,1504147710000,22643488
220541705,Springfield,nashville,1489281468000,36.52,-86.87,Ashley Douglas,TN,1495591085000,22643488
209415416,Jackson,,1489425442000,35.61,-88.82,awno ka,TN,1493911758000,22643488
230404803,Nashville,,1499149514000,36.17,-86.78,banjoryan,TN,1502502213000,22643488
220624758,Nashville,,1488415993000,36.14,-86.74,BCaldwell,TN,1506634853000,22643488
206415452,Nashville,,1494903667000,36.11,-86.78,Ben Heatley,TN,1494903667000,22643488
14058848,Nashville,Nashville,1506132468000,36.07,-86.73,Ben Perlin,TN,1506723373000,22643488
222171588,Nashville,,1488315154000,36.08,-86.72,Beth Pinkerton,TN,1490894525000,22643488
4141201,Nashville,,1506470047000,36.11,-86.86,brian,TN,1508428747000,22643488
216892372,Murfreesboro,,1507244573000,35.85,-86.36,Casey Tomberlin,TN,1507244573000,22643488
185694785,Nashville,Fort Collins,1499974719000,36.16,-86.77,Cat,TN,1506891484000,22643488
219752641,Goodlettsville,,1488316864000,36.33,-86.74,Chad Wick,TN,1496117444000,22643488
237550056,Nashville,,1506524417000,36.18,-86.74,Chris cooke ,TN,1506524417000,22643488
2619141,Nashville,,1489798152000,36.08,-86.94,Chris M,TN,1490983161000,22643488
187707213,Nashville,,1488343367000,36.1,-86.66,Christy,TN,1493695469000,22643488
223166666,New York,,1488678912000,40.74,-73.99,Daniel Castellanos,NY,1488678912000,22643488
232043973,Nashville,,1500502423000,36.18,-86.81,Danny Lozano,TN,1500930031000,22643488
224887560,Nashville,?,1503408538000,36.16,-86.79,Darek,TN,1507944045000,22643488
192437112,Nashville,,1503419845000,36.18,-86.74,Dawn Creech,TN,1503419845000,22643488
233334811,Atlanta,,1502837979000,33.86,-84.4,Dre Plays,GA,1502837979000,22643488
221065359,Nashville,,1499754027000,36.06,-86.96,Edde  Theory,TN,1499754027000,22643488
224594670,Nashville,,1490671595000,36.18,-86.74,Elias,TN,1505330547000,22643488
148882412,Nashville,,1489475097000,36.06,-86.96,Elizabeth,TN,1489640252000,22643488
220422771,Nashville,,1489504220000,36.17,-86.78,Gem Davis,TN,1489504220000,22643488
223465784,Hermitage,,1489105006000,36.19,-86.6,Giulia Vernaschi,TN,1489105006000,22643488
193825984,Nashville,,1490418352000,36.17,-86.78,Harrison P,TN,1502725698000,22643488
219028986,Nashville,,1488390532000,36.18,-86.74,Jack,TN,1492488920000,22643488
197405466,Nashville,,1490323189000,36.17,-86.72,Jacob,TN,1491962463000,22643488
4728956,Nashville,,1494333689000,36.08,-86.72,Jason James,TN,1494333689000,22643488
214413844,Nashville,,1488300161000,36.17,-86.78,Jayke,TN,1503321562000,22643488
229509118,Orlando,,1497215196000,28.54,-81.37,Jessica Joy,FL,1497215196000,22643488
196267339,Nashville,,1489766380000,36.08,-86.72,Jim Sippo Cipollini,TN,1490903551000,22643488
14456725,Columbia,,1488509384000,35.61,-87.05,JoAnn Watters,TN,1494078243000,22643488
85320102,La Vergne,,1489600881000,36.01,-86.57,John Raymond,TN,1491014195000,22643488
220281586,Murfreesboro,,1488394715000,35.78,-86.33,Jon Spikes,TN,1490827645000,22643488
223573820,Nashville,,1489262002000,36.18,-86.74,Josh Holly,TN,1490044412000,22643488
111792152,Linden,,1489063687000,38.02,-121.09,josh luck,CA,1489063687000,22643488
132938082,Nashville,,1488392543000,36.22,-86.86,Julia Matthews,TN,1501349112000,22643488
213762376,Nashville,,1488396607000,36.17,-86.78,Katie,TN,1488396607000,22643488
212621817,Nashville,,1489248139000,36.17,-86.78,Krestofer,TN,1496499447000,22643488
78011072,Minneapolis,"Minneapolis, MN",1501167770000,44.95,-93.34,Lacy,MN,1501693599000,22643488
237594722,Nashville,,1506567738000,36.06,-86.96,Laken Mangrum,TN,1506653830000,22643488
219677925,Nashville,,1506372494000,36.08,-86.72,Lancaster,TN,1506372494000,22643488
41099822,Nashville,Richmond,1488390209000,36.14,-86.74,Larry I. Jones,TN,1495592012000,22643488
39583642,Nashville,Chicago,1494167738000,36.11,-86.78,Laura,TN,1506441083000,22643488
227402543,Harriman,,1506267943000,35.94,-84.5,Logan Thier,TN,1506267943000,22643488
197154740,Nashville,"Killen, AL",1500467377000,36.17,-86.72,Mandy Weigart,TN,1500467377000,22643488
12796969,Nashville,Birmingham,1506722716000,36.16,-86.79,Marcus Handy,TN,1506722716000,22643488
11680475,Nashville,,1488413047000,36.08,-86.72,Mark,TN,1488413047000,22643488
223153097,Hermitage,,1488661069000,36.19,-86.6,Mark Hoke,TN,1492563723000,22643488
222963933,Nashville,,1488865075000,36.18,-86.74,Mark Horwitz,TN,1488865075000,22643488
215291693,Nashville,Nashville ,1490814588000,36.06,-86.96,Matt Gale,TN,1502398604000,22643488
235767563,Nashville,,1504670398000,36.13,-86.8,Max Garrett,TN,1504670398000,22643488
238307989,Nashville,,1507359561000,36.17,-86.78,Micah Isham,TN,1507359561000,22643488
222992580,Nashville,,1488430349000,36.17,-86.78,Michelle Williams,TN,1488430349000,22643488
12993439,Madison,Global,1488636258000,36.26,-86.71,Mike S,TN,1494533713000,22643488
109733082,Moscow,Odessa,1489892478000,55.75,37.62,Mikhail,,1489892478000,22643488
185075060,Brentwood,,1504587139000,36.0,-86.79,Natalie Elefante,TN,1504587139000,22643488
208650130,Hendersonville,Hendersonville,1492058879000,36.32,-86.61,nathaniel stewart,TN,1492835606000,22643488
218042027,Nashville,,1490887198000,36.17,-86.78,Nick Sherron,TN,1492022666000,22643488
109486962,Nashville,"Dallas, TX",1488925649000,36.14,-86.79,Omair,TN,1495754860000,22643488
158252002,Nashville,,1488305219000,36.07,-86.78,PamelaC,TN,1492539050000,22643488
223838526,Nashville,,1489623164000,36.17,-86.78,Pat Riley,TN,1490751824000,22643488
226330623,Nashville,,1493211562000,36.18,-86.74,Paul DeBeer,TN,1494242290000,22643488
190717209,Nashville,,1489155340000,36.17,-86.78,Pendry,TN,1506871949000,22643488
223363210,Nashville,,1488957515000,36.07,-86.73,Petra Moreno-Frasca,TN,1488957515000,22643488
223577385,Clarksville,,1489266530000,36.53,-87.35,Rachel Caldwell,TN,1489266530000,22643488
934398,Murfreesboro,Murfreesboro,1488408193000,35.87,-86.34,Randle,TN,1506737565000,22643488
2652159,Smyrna,Smyrna,1489513497000,35.97,-86.51,Russell,TN,1496114141000,22643488
191998263,Nashville,,1490602357000,36.17,-86.78,Ryan Sullivan,TN,1490762713000,22643488
221928491,Austin,,1488242692000,30.22,-97.75,SarahG,TX,1503754401000,22643488
185130227,Huntsville,,1490482438000,34.71,-86.61,Sebastian Ramirez,AL,1497994661000,22643488
237726487,Nashville,,1506719310000,36.18,-86.74,Shaun Guttridge,TN,1506719310000,22643488
225555724,Nashville,,1498043840000,36.09,-86.82,Stephanie Simmons,TN,1498104681000,22643488
61326392,Cottage Grove,,1492013585000,44.84,-92.89,Stephy Jean Moore,MN,1492013585000,22643488
2703855,Nashville,"Owensboro, KY",1500698731000,36.18,-86.74,"Steve Roehm, MHt, MNLP, CMT",TN,1506637477000,22643488
234154899,Franklin,,1508400436000,35.92,-86.89,Tanya Parsley,TN,1508400436000,22643488
140543192,Nashville,Atlanta,1488128960000,36.18,-86.74,Taylor Davis,TN,1503490804000,22643488
61321162,Knoxville,,1488979932000,35.97,-84.11,Taylor Humes,TN,1490978226000,22643488
126066112,Nashville,Nashville,1494640398000,36.17,-86.78,Taylor Michael Matson,TN,1495600156000,22643488
9717745,Nashville,,1490914574000,36.1,-86.66,teri ,TN,1491752720000,22643488
230758145,Franklin,,1498772974000,35.93,-86.84,Thacia Guilherme,TN,1499404295000,22643488
226934197,Nashville,,1493898139000,36.1,-86.66,Thomas Felts,TN,1493898139000,22643488
42804802,Nashville,,1489315471000,36.1,-86.66,Thomas J Ward,TN,1489454327000,22643488
9310012,Goodlettsville,Goodlettsville TN,1493914085000,36.33,-86.74,Trab,TN,1493914085000,22643488
227375527,Clarksville,,1504050825000,36.53,-87.35,Travis Powell,TN,1504050825000,22643488
221511725,Nashville,,1488388742000,36.21,-86.72,Tyler,TN,1489872220000,22643488
209492166,Nashville,,1488389421000,36.17,-86.78,Vincent,TN,1488389421000,22643488
231014818,Murfreesboro,,1499100186000,35.85,-86.36,Vinny Racca,TN,1499100186000,22643488
5042442,Nashville,,1488307968000,36.06,-86.96,vmorelli,TN,1488307968000,22643488
227878042,Nashville,,1495159915000,36.18,-86.74,Will Hoyt,TN,1495159915000,22643488
9902996,Nashville,,1489436544000,36.17,-86.78,Wolfgang,TN,1497890594000,22643488
