id,city,hometown,joined,lat,lon,name,state,visited,group_id
229513128,Franklin,,1497218726000,35.93,-86.81,Akiko Sato,TN,1497218726000,22881778
224560629,Nashville,,1490635068000,36.09,-86.82,Alex Rudd,TN,1490635068000,22881778
229235285,Nashville,,1498275377000,36.08,-86.72,Amanda Hamilton,TN,1498275377000,22881778
3227303,Nashville,,1489972133000,36.17,-86.72,Amir,TN,1490413883000,22881778
225016712,Brentwood,,1496127818000,36.0,-86.79,Angela Hurt Gordon,TN,1496127818000,22881778
224749493,Nashville,,1490890389000,36.08,-86.72,Anita D,TN,1491405547000,22881778
189743251,Franklin,,1489629413000,35.92,-86.89,Ann Bryant,TN,1502725273000,22881778
216527939,Nashville,,1489803893000,36.08,-86.72,Annette,TN,1501803184000,22881778
62130942,Antioch,Antioch,1489685484000,36.04,-86.64,April Broussard,TN,1496627633000,22881778
223858171,Nashville,,1489655602000,36.16,-86.79,Brijesh Patel,TN,1489655602000,22881778
149212592,Franklin,,1489506405000,35.92,-86.89,Chris A,TN,1506872533000,22881778
161161152,Brentwood,,1490532076000,36.0,-86.79,Chris C,TN,1492255583000,22881778
78977502,Nashville,,1489612101000,36.17,-86.79,Danielle,TN,1489612101000,22881778
227641199,Nashville,,1494871818000,36.17,-86.78,Danielle Aslett,TN,1495482749000,22881778
227816809,Nashville,,1501609902000,36.17,-86.78,Darlene Stumpf,TN,1501609902000,22881778
72856062,Marratxi,,1492832478000,39.65,2.8,Dav,,1495316583000,22881778
162591182,Nashville,,1499091074000,36.17,-86.78,Diana Sinziana Neculcea,TN,1499091074000,22881778
233000043,Franklin,,1501522705000,35.92,-86.89,Donna Veach,TN,1501522705000,22881778
233316999,Franklin,,1501905066000,35.92,-86.89,Dr. Victoria Shields,TN,1501905066000,22881778
81951732,Nashville,,1500058456000,36.17,-86.78,Elisa Beagle,TN,1500058456000,22881778
230552926,Nashville,,1498522448000,36.06,-86.96,Emily,TN,1498522448000,22881778
107960352,Brentwood,Brentwood,1501619221000,36.03,-86.77,Enam Haque,TN,1501619221000,22881778
201765889,Nashville,,1493059015000,36.24,-86.73,Erin Floyd,TN,1493059015000,22881778
163627542,Franklin,"Springville, UT",1489627197000,35.92,-86.89,Éva Grace,TN,1489627197000,22881778
228068237,Mount Juliet,Albuquerque ,1495423198000,36.21,-86.52,Grace Brown,TN,1495423198000,22881778
230133166,Franklin,,1498012394000,35.93,-86.84,Hannah Lovejoy,TN,1498012394000,22881778
229859189,Franklin,,1497662407000,35.93,-86.81,Jaahnavi,TN,1497901732000,22881778
210706984,Franklin,,1489588124000,35.92,-86.89,Janine,TN,1489950734000,22881778
222767201,Franklin,,1492473631000,35.92,-86.87,Jennie Denton,TN,1494110052000,22881778
10098017,Nashville,Nashville,1489678269000,36.15,-86.81,Jenny,TN,1501441901000,22881778
229509118,Orlando,,1497214767000,28.54,-81.37,Jessica Joy,FL,1497214767000,22881778
224842788,Nashville,,1491023759000,36.07,-86.78,John Whittaker,TN,1491023759000,22881778
217660132,Brentwood,,1489762519000,36.0,-86.79,Jose Arocho,TN,1489762519000,22881778
228647401,Franklin,,1496151843000,35.93,-86.84,Joshua Barbee,TN,1496151843000,22881778
12977589,Nashville,,1492181208000,36.17,-86.68,Judy,TN,1492181208000,22881778
8823502,Franklin,Chattanooga,1489893098000,35.92,-86.89,Karen L,TN,1501961471000,22881778
188395335,Franklin,,1496010187000,35.99,-86.9,Kate,TN,1496010187000,22881778
231623537,Franklin,,1499818320000,35.92,-86.89,Katerina Harrington,TN,1499818320000,22881778
15362501,Franklin,,1506098119000,35.92,-86.89,Kathryn M,TN,1506098119000,22881778
224629422,Brentwood,,1491418970000,36.0,-86.79,Katie Rasmussen,TN,1491842629000,22881778
10066819,Franklin,Franklin,1501210904000,35.93,-86.81,Kimberly Matthews,TN,1501986132000,22881778
46631892,Brentwood,"Central Coast, CA",1489978655000,36.0,-86.79,Kirem Marnett,TN,1494871546000,22881778
675332,Nashville,Nashville,1489680291000,36.17,-86.78,Kristie,TN,1489680291000,22881778
226128410,Thompsons Station,thompson station,1492813262000,35.8,-86.9,Larry Gooden,TN,1492813262000,22881778
230440580,Franklin,,1498390052000,35.93,-86.81,Latha Huttanna,TN,1498390052000,22881778
222288505,Franklin,,1490424499000,35.93,-86.83,Latish Khubnani,TN,1492906326000,22881778
222124728,Franklin,,1494032359000,35.92,-86.89,Lee Anne O'Brien,TN,1502360591000,22881778
227856548,Franklin,,1498453806000,35.93,-86.81,Lily Nelsen,TN,1498453806000,22881778
231390411,Brentwood,,1499552712000,36.0,-86.79,LR Galindo,TN,1499552712000,22881778
224745903,Franklin,,1490885772000,35.92,-86.87,Lydia Rialland,TN,1490885772000,22881778
93325892,Franklin,,1489621008000,35.92,-86.89,Maggie F,TN,1489621008000,22881778
216509820,Nashville,Nashville,1489686024000,36.11,-86.78,Maggie McDaniel,TN,1489686024000,22881778
225545388,Nashville,,1492026147000,36.17,-86.72,niraj joshi,TN,1492026147000,22881778
209550937,Brentwood,,1490059837000,36.0,-86.79,Niyaz Mohd,TN,1492903098000,22881778
234168251,Franklin,,1502888493000,35.93,-86.81,Olivia Oetjens,TN,1502888493000,22881778
224644004,Spring Hill,,1490928716000,35.76,-86.88,Pam Earps Russell,TN,1501468824000,22881778
25142712,Nashville,,1490497969000,36.1,-86.66,Priscila,TN,1490542664000,22881778
175300482,Nashville,,1492197009000,36.16,-86.79,Rav,TN,1501424645000,22881778
224193428,Murfreesboro,,1490122413000,35.78,-86.33,Robert Harward,TN,1492920614000,22881778
220571838,Nashville,,1489670582000,36.17,-86.78,Stevie Manhart,TN,1489784095000,22881778
60708922,Nashville,,1492354077000,36.17,-86.78,Suzan Davar,TN,1501806642000,22881778
231076424,Franklin,,1499175601000,35.92,-86.87,Tiffanie Mcdonald,TN,1499175601000,22881778
227566374,Franklin,,1494771280000,35.92,-86.89,Tiffany Hope,TN,1494771280000,22881778
219042591,Nashville,,1489624346000,36.15,-86.86,Valentina Alexander,TN,1489624346000,22881778
124388692,Thompsons Station,El Dorado Hills,1489725374000,35.8,-86.9,Valerie N,TN,1490706407000,22881778
229924947,Antioch,,1497753638000,36.04,-86.64,Vanesa Quiroz,TN,1501974049000,22881778
