id,city,hometown,joined,lat,lon,name,state,visited,group_id
235689203,Nashville,,1504596165000.0,36.13,-86.67,aayudh thakur,TN,1508693847000.0,23053409
238025067,Nashville,,1507057422000.0,36.08,-86.72,Adam Driskell,TN,1507057422000.0,23053409
238334384,Nashville,,1507390769000.0,36.16,-86.66,Adam McIntire,TN,1507595034000.0,23053409
26075602,Antioch,,1491016831000.0,36.04,-86.64,Adrian,TN,1491529934000.0,23053409
228618128,Nashville,,1496109153000.0,36.06,-86.96,Aidan Desmarais,TN,1496109153000.0,23053409
214204840,Nashville,,1504122601000.0,36.17,-86.78,AJ Joy,TN,1504122601000.0,23053409
234935754,Nashville,,1503757598000.0,36.17,-86.78,Alexa Regina,TN,1503757598000.0,23053409
231336485,Murfreesboro,,1499488020000.0,35.82,-86.45,Alexis Hays,TN,1499488020000.0,23053409
208981743,Hermitage,,1490969661000.0,36.19,-86.6,Algebron Langford,TN,1490969661000.0,23053409
238258678,Mount Juliet,,1507309061000.0,36.22,-86.52,Allie Hunter,TN,1507309061000.0,23053409
232874359,Chapel Hill,,1501360997000.0,35.62,-86.62,Alyvia Griggs,TN,1501360997000.0,23053409
235724120,Nashville,,1504631446000.0,36.08,-86.72,Amanda McMahan,TN,1504631446000.0,23053409
230129311,Antioch,,1501063284000.0,36.08,-86.59,Amanda Williams,TN,1504655815000.0,23053409
235253295,Madison,,1504115089000.0,36.26,-86.71,Amanda Worlds,TN,1504115089000.0,23053409
237666212,Nashville,,1506648435000.0,36.06,-86.96,Amber Brantley,TN,1506648435000.0,23053409
226150818,Nashville,,1493044342000.0,36.17,-86.78,Amie Austin,TN,1492845041000.0,23053409
232741884,Nashville,,1501188738000.0,36.17,-86.78,Amy A B.,TN,1501188738000.0,23053409
231587323,Mount Juliet,,,36.23,-86.49,,TN,,23053409
160845252,Murfreesboro,,1502215370000.0,35.78,-86.33,Andrea Moore,TN,1502215370000.0,23053409
234661084,Nashville,,1503435192000.0,36.17,-86.77,Andrea Umstetter,TN,1504161188000.0,23053409
201656078,Nashville,,1495457921000.0,36.08,-86.72,Andrew L.,TN,1500167324000.0,23053409
196912828,Nashville,Nashville,1496365957000.0,36.1,-86.66,Andrew W,TN,1496365957000.0,23053409
228303901,Nashville,,1495685872000.0,36.11,-86.86,Anna Avery,TN,1508636857000.0,23053409
237123559,Nashville,,1506044904000.0,36.16,-86.79,Anthony Joaquim,TN,1508169251000.0,23053409
225743215,Fort Campbell,,1492286810000.0,36.65,-87.46,Apryel Shuriah,KY,1492286810000.0,23053409
233303431,Nashville,,1501889498000.0,36.22,-86.77,Ash Mc,TN,1501889498000.0,23053409
227717180,Nashville,,1494962135000.0,36.17,-86.78,Ashley Estes Painter,TN,1494962135000.0,23053409
235437927,Nashville,,1504319600000.0,36.07,-86.78,Ashley Jaafar,TN,1504319600000.0,23053409
232284337,Spring Hill,,1500623426000.0,35.76,-86.88,Ashley Nikki,TN,1500623426000.0,23053409
225947555,Nashville,,1492565349000.0,36.07,-86.73,Ashley Seiss,TN,1492565349000.0,23053409
237344309,Antioch,,1506300313000.0,36.04,-86.64,Austin Ellison,TN,1506300313000.0,23053409
112512082,Nashville,Nashville,1508536924000.0,36.17,-86.72,B.T.,TN,1508536924000.0,23053409
3405966,Madison,,1491170646000.0,36.26,-86.71,Bachuss,TN,1491170646000.0,23053409
222132238,Nashville,,1495726993000.0,36.18,-86.81,Barry Eckert,TN,1500304412000.0,23053409
239130230,Nashville,,1508279783000.0,36.16,-86.77,Bennett Jason,TN,1508776167000.0,23053409
231979299,Nashville,,1500290606000.0,36.17,-86.78,Bethany Smith,TN,1500290606000.0,23053409
239508029,Nashville,,1508717094000.0,36.08,-86.72,Bill Broucek,TN,1508717094000.0,23053409
7602583,Madison,Madison/NeelysBend,1490954078000.0,36.26,-86.71,bill hennessee,TN,1508800000000.0,23053409
225178330,Nashville,,1491505680000.0,36.17,-86.78,Blakelyn,TN,1491505680000.0,23053409
156443612,Nashville,,1494090144000.0,36.15,-86.86,Brad,TN,1505795916000.0,23053409
237809415,Nashville,,1506815059000.0,36.18,-86.74,Brandi Munn,TN,1507762386000.0,23053409
230961761,Nashville,,1499032205000.0,36.17,-86.78,Brandon Arnett,TN,1499032205000.0,23053409
236389949,Murfreesboro,,1505305095000.0,35.87,-86.34,Brook Breece,TN,1505305095000.0,23053409
234109439,Nashville,,1502818150000.0,36.07,-86.73,Brooke Ellis,TN,1502818150000.0,23053409
229610101,Smyrna,,1497335708000.0,35.97,-86.51,Bruce Eliot Somerville II,TN,1497335708000.0,23053409
213137897,Hendersonville,,1493568205000.0,36.32,-86.61,Cale Freeman,TN,1497739066000.0,23053409
230493587,Nashville,,1498451291000.0,36.22,-86.77,Caleb F,TN,1498451291000.0,23053409
230476808,Hermitage,,1498431265000.0,36.19,-86.6,Caleb Petty,TN,1498431265000.0,23053409
230532162,Nashville,,1500936372000.0,36.11,-86.78,Candy Aria,TN,1502654749000.0,23053409
226259572,Nashville,,1493044331000.0,36.17,-86.79,Carlton B,TN,1496167372000.0,23053409
212249111,Nashville,,1506219591000.0,36.18,-86.74,Carly Morgan,TN,1506219591000.0,23053409
234340010,Nashville,,1503080692000.0,36.08,-86.72,Carolyn Sweiderk,TN,1503080692000.0,23053409
220768796,Nashville,,1508170131000.0,36.17,-86.78,Casey Czerpak,TN,1508170131000.0,23053409
225317791,Franklin,,1491708244000.0,35.93,-86.84,Chadd Bridwell,TN,1492218143000.0,23053409
11909510,Nashville,,1499578009000.0,36.17,-86.78,Charles Brown,TN,1499578009000.0,23053409
239279656,Nashville,,1508453820000.0,36.15,-86.86,Chase Anthony Cooksey,TN,1508453820000.0,23053409
39706352,Nashville,,1495273046000.0,36.17,-86.78,Cherie Moncada,TN,1496150504000.0,23053409
188028428,Nashville,North Jersey,1493745602000.0,36.17,-86.78,Chris Alston,TN,1502678309000.0,23053409
231162545,Nashville,,1499279831000.0,36.14,-86.8,Chris Maniscalco,TN,1504108552000.0,23053409
234845166,Nashville,,1503643138000.0,36.17,-86.78,Chris S,TN,1503643138000.0,23053409
9185178,Smyrna,,1503456177000.0,35.97,-86.51,chrissy,TN,1503456177000.0,23053409
213837877,Nashville,,1502610607000.0,36.18,-86.74,Christian Hooser,TN,1502610607000.0,23053409
239328904,Nashville,,1508515095000.0,36.17,-86.78,Christina,TN,1508515095000.0,23053409
24408952,Nashville,"Little Neck, NY",1505044949000.0,36.17,-86.78,Christina,TN,1505044949000.0,23053409
234342633,Nashville,,1503083493000.0,36.25,-86.77,Christina Collier,TN,1503083493000.0,23053409
151830242,Nolensville,,1500838556000.0,35.94,-86.67,Christine,TN,1506951367000.0,23053409
30491232,Clarksville,,1504195127000.0,36.53,-87.34,Christopher Glover,TN,1504195127000.0,23053409
232278484,Clarksville,,1500614453000.0,36.53,-87.35,Christopher L Stetzel,TN,1500614453000.0,23053409
237278094,Nashville,,1506225616000.0,36.1,-86.66,Cj Mcgill,TN,1506225616000.0,23053409
11893719,Nashville,Nashville,1507849703000.0,36.11,-86.86,CliffCapehart,TN,1508547970000.0,23053409
173923802,New York,,1491362040000.0,40.72,-73.98,Connor Michael,NY,1508361852000.0,23053409
238514464,Nashville,,1507583384000.0,36.17,-86.78,Cordova Bleu,TN,1507583384000.0,23053409
229210557,Nashville,,1501180717000.0,36.21,-86.72,Cory Scheffler,TN,1508236123000.0,23053409
191295920,Nashville,,1494468872000.0,36.17,-86.78,Courtney Eli,TN,1494468872000.0,23053409
134378152,Nashville,"Nashville, TN",1493826830000.0,36.17,-86.78,Crystal,TN,1493826830000.0,23053409
183880473,Nashville,,1495143430000.0,36.08,-86.72,Dan K.,TN,1508694830000.0,23053409
235365244,Nashville,,1504233524000.0,36.19,-86.8,Dani McQuoid,TN,1504233524000.0,23053409
161339692,Antioch,,1507497673000.0,36.04,-86.67,Daniel,TN,1507607292000.0,23053409
235657887,Fort Campbell,,1504563021000.0,36.65,-87.46,Daniel,KY,1504563021000.0,23053409
214288417,Toronto,,1503971551000.0,43.74,-79.36,Daniel Bishara,ON,1507162168000.0,23053409
235343590,Murfreesboro,,1504209580000.0,35.85,-86.36,Darias Alexandar,TN,1504209580000.0,23053409
194617630,Madison,,1490841844000.0,36.26,-86.71,David,TN,1506184568000.0,23053409
183550657,Clarksville,,1492563530000.0,36.56,-87.41,David Jonathan Pearce,TN,1492706644000.0,23053409
235241499,Nashville,,1504106100000.0,36.21,-86.72,David M. Villafaña,TN,1504106100000.0,23053409
231032601,Fort Campbell,,1499117986000.0,36.65,-87.46,David Matthew,KY,1502134538000.0,23053409
10613868,Nashville,,1490906104000.0,36.11,-86.86,David McKinnon,TN,1508606390000.0,23053409
53586282,Russellville,Hendersonville,1504466606000.0,36.83,-86.92,Dawn Hurst,KY,1505525359000.0,23053409
239129976,Nashville,,1508280091000.0,36.14,-86.81,Deanna Smith,TN,1508280091000.0,23053409
209148366,Nashville,,1505560485000.0,36.17,-86.78,Dee,TN,1508701297000.0,23053409
161243482,Nashville,,1505933322000.0,36.18,-86.74,Denise baker,TN,1505933322000.0,23053409
1911136,Fort Campbell,,1505080133000.0,36.62,-87.44,Dianna,KY,1505080133000.0,23053409
20668131,Kingston Springs,,1495227230000.0,36.09,-87.12,DJ Hutcherson,TN,1495227230000.0,23053409
227488510,Nashville,,1494655016000.0,36.16,-86.79,donita oliver,TN,1494655016000.0,23053409
228621538,Nashville,,1496113030000.0,36.15,-86.81,Donna Xia,TN,1496113030000.0,23053409
237345047,Nashville,,1506301124000.0,36.17,-86.78,Doris ,TN,1508675895000.0,23053409
7331834,Thompsons Station,,1492714900000.0,35.79,-86.9,Doug,TN,1499131444000.0,23053409
226709988,Nashville,,1493670173000.0,36.17,-86.78,Ed,TN,1493670173000.0,23053409
238029383,Clarksville,,1507061403000.0,36.56,-87.41,Edward,TN,1507061403000.0,23053409
81951732,Nashville,,1500056869000.0,36.17,-86.78,Elisa Beagle,TN,1508172207000.0,23053409
230327993,Nashville,,1499113977000.0,36.17,-86.78,Ella,TN,1499113977000.0,23053409
225415145,Nashville,,1491849385000.0,36.17,-86.78,Ellen Epright,TN,1491849385000.0,23053409
8299804,Menlo Park,Menlo Park,1505972560000.0,37.44,-122.19,Ellie,CA,1505972560000.0,23053409
237023682,Madison,,1505936234000.0,36.26,-86.71,Emanuel Escalante,TN,1508004427000.0,23053409
226084539,Nashville,,1493044306000.0,36.17,-86.78,Ethan Charles,TN,1492752758000.0,23053409
225712532,Antioch,,1492237569000.0,36.04,-86.64,Evan Akers,TN,1492237569000.0,23053409
238798506,Nashville,,1507905015000.0,36.22,-86.86,Evan M,TN,1507905015000.0,23053409
214484977,Nashville,,1502669533000.0,36.17,-86.72,Evan Woodson,TN,1504105033000.0,23053409
236539308,Murfreesboro,,1505437788000.0,35.82,-86.45,Evie,TN,1505775175000.0,23053409
226243590,Clarksville,,1493044337000.0,36.49,-87.23,Fatal Foxtrot,TN,1492973024000.0,23053409
194678205,Nashville,,1494632734000.0,36.17,-86.79,Frankie Harp,TN,1508282111000.0,23053409
215354744,Franklin,,1506147893000.0,35.92,-86.89,gem,TN,1506230249000.0,23053409
231335954,Hermitage,,1499484874000.0,36.19,-86.6,Ginell Narvaiz,TN,1499484874000.0,23053409
236618869,Old Hickory,,1505519957000.0,36.25,-86.63,Gordy Valcarcel,TN,1506185363000.0,23053409
182472899,Springfield,Springfield ,1490971380000.0,36.52,-86.87,Greg Hester,TN,1508763772000.0,23053409
231203656,Hermitage,,1501260704000.0,36.19,-86.6,Haley Baird,TN,1502161008000.0,23053409
43237102,Nashville,Nashville,1500555922000.0,36.11,-86.86,Hameed Gifford,TN,1508782563000.0,23053409
209688411,Nashville,,1493877221000.0,36.17,-86.78,Hannah ,TN,1493877221000.0,23053409
228196586,Nashville,,1500742119000.0,36.17,-86.78,Hannah Booth,TN,1506207891000.0,23053409
193825984,Nashville,,1492632940000.0,36.17,-86.78,Harrison P,TN,1502725417000.0,23053409
68148412,Nashville,,1501379629000.0,36.11,-86.86,Harry,TN,1501379629000.0,23053409
2277919,Nashville,,1495124046000.0,36.13,-86.8,hello2farewell,TN,1502150813000.0,23053409
232087948,Antioch,,1500388012000.0,36.04,-86.64,Hopi Zapico,TN,1500388012000.0,23053409
212608172,Nashville,,1496516038000.0,36.16,-86.79,Ibsen Zayas,TN,1496516038000.0,23053409
228693673,Nashville,,1496201199000.0,36.17,-86.78,Isaiah Cory,TN,1496201199000.0,23053409
230873941,Nashville,,1498928545000.0,36.15,-86.8,Jabari,TN,1508455655000.0,23053409
179496092,Nashville,,1505196153000.0,36.06,-86.96,Jackie Elliott,TN,1506258620000.0,23053409
230705242,Nashville,,1498703933000.0,36.17,-86.77,Jackson Cassada,TN,1498703933000.0,23053409
11907057,Clarksville,Riverside Ca,1506196755000.0,36.53,-87.35,Jacquelin Jensen,TN,1506196755000.0,23053409
120271492,Franklin,,1490963454000.0,35.92,-86.89,Jacques René Sirois,TN,1506185233000.0,23053409
177212252,Nashville,Fargo,1500578148000.0,36.15,-86.86,Jaime,TN,1500578148000.0,23053409
184578038,Nashville,,1497569308000.0,36.08,-86.72,james,TN,1502118568000.0,23053409
232668216,Nashville,,1501096509000.0,36.22,-86.77,Jamesha Peebles,TN,1501096509000.0,23053409
31867642,Nashville,Nashville,1497631176000.0,36.18,-86.74,Jane Moore,TN,1508173602000.0,23053409
235516452,Nashville,,1504411056000.0,36.13,-86.8,Jason Abney,TN,1504411056000.0,23053409
238192504,Nashville,,1507236074000.0,36.16,-86.79,Jay,TN,1507236074000.0,23053409
226266263,Nashville,,1493044325000.0,36.07,-86.73,Jay Sings,TN,1500811997000.0,23053409
14497407,Nashville,Chicago,1490928723000.0,36.16,-86.79,JayBee,TN,1508540416000.0,23053409
232504138,Fort Campbell,,1500906062000.0,36.65,-87.46,Jayson Rich,KY,1500906062000.0,23053409
227579788,Nashville,,1494788466000.0,36.15,-86.86,Jeff P,TN,1505496847000.0,23053409
236505873,Nashville,,1505410140000.0,36.16,-86.77,Jeff Smith,TN,1505826664000.0,23053409
196315467,La Vergne,,1496078989000.0,36.01,-86.57,Jefferson Roberts,TN,1508699150000.0,23053409
232532737,Nashville,,1500934574000.0,36.15,-86.86,Jenifer Dodd,TN,1500934574000.0,23053409
210981078,Hendersonville,"Chino, CA",1491765605000.0,36.32,-86.61,Jennifer Meier,TN,1492975194000.0,23053409
222906914,Nashville,,,36.18,-86.73,,TN,,23053409
44371442,Nashville,,1500948706000.0,36.24,-86.73,Jerrett Franklin,TN,1500948706000.0,23053409
38505422,Nashville,"Jamestown, TN",1492363710000.0,36.17,-86.78,Jess,TN,1492363710000.0,23053409
237424194,La Vergne,,1506385812000.0,36.01,-86.57,Jess Stevens,TN,1506385812000.0,23053409
226346847,Nashville,,1493100546000.0,36.13,-86.67,Jesse Neville,TN,1493100546000.0,23053409
163091272,Nashville,,1498087659000.0,36.18,-86.74,Jessica,TN,1499735132000.0,23053409
196176706,Nashville,,1497906280000.0,36.17,-86.78,Jessy Shearer,TN,1497906280000.0,23053409
230478524,Clarksville,,1498442362000.0,36.56,-87.41,Jim P,TN,1505813665000.0,23053409
226013961,Hendersonville,,1492652670000.0,36.32,-86.61,Jimmy Dale,TN,1492693066000.0,23053409
18368711,Nashville,Nashville,1490932251000.0,36.07,-86.73,JJ,TN,1492485928000.0,23053409
32911892,Nashville,Toledo,1492404231000.0,36.16,-86.79,Joe,TN,1508730251000.0,23053409
150712672,Nashville,,1496557456000.0,36.19,-86.62,Joel Jones,TN,1499147095000.0,23053409
194170596,West Roxbury,West Roxbury ,1502060611000.0,42.28,-71.15,john ,MA,1506180868000.0,23053409
145838912,Franklin,New York,1495453523000.0,35.92,-86.89,John,TN,1508453903000.0,23053409
234491965,Nashville,,1505851564000.0,36.22,-86.77,John Kenna,TN,1508549479000.0,23053409
101697662,Nashville,Franklin,1498616309000.0,36.15,-86.79,Jonathan Davis,TN,1498616309000.0,23053409
234015150,Murfreesboro,,1502712749000.0,35.87,-86.44,Jose Tapia,TN,1502712749000.0,23053409
228113575,Nashville,,1495464144000.0,36.22,-86.74,Joseph Daniel Northcutt,TN,1495464144000.0,23053409
232751414,Nashville,,1501199691000.0,36.17,-86.77,Joshua Allen,TN,1502674100000.0,23053409
104452222,Nashville,,1493044315000.0,36.1,-86.66,Joy Austin,TN,1493001129000.0,23053409
235898392,Clarksville,,1504807893000.0,36.56,-87.41,Julianna Sengstack,TN,1506214299000.0,23053409
225261819,Nashville,,1491627454000.0,36.17,-86.78,Justice Davis,TN,1491627454000.0,23053409
9415032,Nashville,,1499620389000.0,36.13,-86.8,Justin,TN,1506279653000.0,23053409
224336417,Clarksville,,1490933613000.0,36.53,-87.35,Kamisha LaShanna,TN,1490933613000.0,23053409
219899557,Nashville,Nashville,1503767417000.0,36.15,-86.86,Kate N.,TN,1508377039000.0,23053409
236263814,Nashville,,1505184290000.0,36.17,-86.72,Katelyn Hill,TN,1505184290000.0,23053409
235810319,Nashville,,1504730568000.0,36.13,-86.67,Katherine,TN,1507808009000.0,23053409
238177306,Nashville,,1507226696000.0,36.17,-86.72,Kathy Burton Rogers,TN,1507226696000.0,23053409
13350150,Nashville,,1492200056000.0,36.15,-86.86,Keith Barnes,TN,1492200056000.0,23053409
231967533,Antioch,,1500238741000.0,36.04,-86.64,Kelsey Wilsher,TN,1500238741000.0,23053409
227029443,Nashville,,1494023224000.0,36.18,-86.74,Kenya Lee,TN,1494971513000.0,23053409
1910272,Smyrna,Smyrna,1490875024000.0,35.97,-86.51,Kevin,TN,1502197987000.0,23053409
236881796,Franklin,,1505789595000.0,35.93,-86.81,Kevin D. Stacy,TN,1506281686000.0,23053409
237252567,Nashville,,1506197143000.0,36.14,-86.74,Kiki Nash,TN,1506197143000.0,23053409
183754807,Murfreesboro,,1498780200000.0,35.93,-86.46,Kimberly Edwards,TN,1505446367000.0,23053409
237489128,Gallatin,,1506455692000.0,36.39,-86.45,Kimmie Jones,TN,1506455692000.0,23053409
230552555,Antioch,,1508670721000.0,36.17,-86.88,Kyle Robinson,TN,1508670721000.0,23053409
233401363,Murfreesboro,,1502003786000.0,35.85,-86.4,Kylee Odom,TN,1502566239000.0,23053409
230045485,Nashville,,1497916473000.0,36.17,-86.78,L,TN,1497973751000.0,23053409
225132186,Clarksville,,1491433752000.0,36.56,-87.41,Lamont Mallett,TN,1491433752000.0,23053409
232919223,Nashville,,1501423431000.0,36.22,-86.86,Lauren Ash,TN,1501423431000.0,23053409
232246243,Tuxedo,,1500651825000.0,35.23,-82.43,Lauren Gilbert,NC,1502213882000.0,23053409
228783681,Spring Hill,,1498766116000.0,35.76,-86.88,Laurie Krause,TN,1499027832000.0,23053409
222487532,Nashville,,1505586311000.0,36.17,-86.78,Laya B,TN,1505935794000.0,23053409
238607817,Springfield,,1507680141000.0,36.52,-86.87,Lee Moran,TN,1507707067000.0,23053409
234760490,Murfreesboro,,1503541582000.0,35.87,-86.34,Lemoyne Sherron,TN,1503541582000.0,23053409
235462900,White House,,1504354375000.0,36.48,-86.69,Leslie OGwynn,TN,1508670818000.0,23053409
229662757,Murfreesboro,,1497399473000.0,35.85,-86.36,Lin H,TN,1497399473000.0,23053409
228475652,White House,,1495921267000.0,36.48,-86.69,Lisa Heaven,TN,1495921267000.0,23053409
227940805,Nashville,,1495247539000.0,36.06,-86.96,Lisa Samsky,TN,1508372733000.0,23053409
199949139,Thompsons Station,Sarasota,1493166368000.0,35.8,-86.9,Lisa Wynne,TN,1493166368000.0,23053409
236715254,Nashville,,1505627029000.0,36.17,-86.78,Liz Anderson,TN,1505627029000.0,23053409
233234460,Nashville,,1501806409000.0,36.16,-86.79,Lucas Barnhill,TN,1501806409000.0,23053409
239116309,Hendersonville,,1508268327000.0,36.32,-86.61,Lydia Day,TN,1508268327000.0,23053409
4390904,Hollywood,"Hollywood, FL/Nashville TN",1490866068000.0,26.02,-80.12,Lynne ,FL,1504105848000.0,23053409
206051498,Nashville,,1502582655000.0,36.17,-86.78,Madison,TN,1506347639000.0,23053409
232210550,Lebanon,,1500528070000.0,36.21,-86.29,Madison A Brown,TN,1506370070000.0,23053409
232253221,Nashville,,1500690817000.0,36.17,-86.78,Maeyen O.,TN,1502285545000.0,23053409
229397263,Murfreesboro,,1497075525000.0,35.87,-86.34,Marie,TN,1497075525000.0,23053409
124912362,Nashville,,1491498026000.0,36.15,-86.86,Marie Gonzales,TN,1493935969000.0,23053409
230888833,Antioch,,1498940400000.0,36.04,-86.64,Mark Fuqua,TN,1498940400000.0,23053409
13804632,Nashville,,1492018475000.0,36.16,-86.79,Mark H,TN,1492189557000.0,23053409
49801992,Bowling Green,Bowling Green,1495333430000.0,37.02,-86.46,Marko,KY,1496068263000.0,23053409
239252987,Nashville,,1508427487000.0,36.16,-86.77,Martin Casanova,TN,1508427487000.0,23053409
8491393,Nashville,,1499138423000.0,36.08,-86.72,Matt,TN,1500247861000.0,23053409
234462720,Nashville,,1503210459000.0,36.21,-86.72,matt,TN,1503210459000.0,23053409
229301028,Hermitage,,1496951840000.0,36.19,-86.6,Matt Sullivan,TN,1497117816000.0,23053409
210409139,Nashville,,1505863157000.0,36.15,-86.86,Matthew Johnson,TN,1505863157000.0,23053409
190810225,Bowling Green,"Berks County, PA",1498699736000.0,37.02,-86.46,Maureen,KY,1501815794000.0,23053409
226438043,Nashville,,1493220661000.0,36.18,-86.74,MDN,TN,1505834093000.0,23053409
8927777,Nashville,Nashville,1506907538000.0,36.17,-86.78,Melissa,TN,1507921796000.0,23053409
118171032,Smyrna,Memphis,1504804452000.0,35.94,-86.54,Michael Farmer,TN,1506181184000.0,23053409
226028895,Hermitage,,1492678180000.0,36.19,-86.6,Michael kat,TN,1492732711000.0,23053409
192967389,Fairview,,1508510756000.0,35.97,-87.13,Michelle Myers Churchwell,TN,1508510756000.0,23053409
191317263,Nashville, ,1508310554000.0,36.21,-86.72,Mike,TN,1508310554000.0,23053409
189753001,Nashville,,1491690054000.0,36.1,-86.66,Milan Montoya,TN,1491690054000.0,23053409
238768583,Nashville,,1507863360000.0,36.17,-86.78,Mitch-el Rice,TN,1507863360000.0,23053409
237246497,Nashville,,1506190782000.0,36.17,-86.78,Mo T,TN,1506190782000.0,23053409
199460854,Nashville,,1500836823000.0,36.17,-86.78,Moet Ch,TN,1500836823000.0,23053409
239369793,Nashville,,1508556230000.0,36.21,-86.72,Molly Adele Brown,TN,1508790334000.0,23053409
231964689,Nunnelly,,1500236099000.0,35.83,-87.45,Monica Warf,TN,1500236099000.0,23053409
202861027,Nashville,,1501025726000.0,36.09,-86.69,Morgan Paschall,TN,1501025726000.0,23053409
88664332,Nashville,Nashville,1490964260000.0,36.16,-86.79,Mr. B,TN,1508706228000.0,23053409
235502317,Murfreesboro,,1504393722000.0,35.78,-86.33,Mym Hood,TN,1504393722000.0,23053409
9828339,Nashville,Los Angeles,1508445692000.0,36.15,-86.86,Natalie Castillo,TN,1508445692000.0,23053409
129222582,Ann Arbor,"Damascus, VA",1494635213000.0,42.27,-83.81,Nathanial McConnell,MI,1506209418000.0,23053409
231383683,Nashville,,1507847953000.0,36.17,-86.78,Neil Newman,TN,1507847953000.0,23053409
235840883,Murfreesboro,,1504744735000.0,35.84,-86.39,Nick Price,TN,1504744735000.0,23053409
121086652,Clarksville,,1504641102000.0,36.53,-87.35,Nikki Edney ,TN,1504641102000.0,23053409
235005355,Nashville,,1503841380000.0,36.22,-86.77,Nke Chi,TN,1505785534000.0,23053409
175569102,Seattle,,1494333206000.0,47.61,-122.33,Noelle Denisi,WA,1494333206000.0,23053409
234168251,Franklin,,1502888017000.0,35.93,-86.81,Olivia Oetjens,TN,1502888017000.0,23053409
109486962,Nashville,"Dallas, TX",1499390159000.0,36.14,-86.79,Omair,TN,1504719602000.0,23053409
122866202,Saint Louis,,1502586720000.0,38.63,-90.19,Paul Acker,MO,1502640382000.0,23053409
230105227,Nashville,,1497985332000.0,36.07,-86.78,Payton Glenn,TN,1497985332000.0,23053409
227929380,Nashville,,1495232299000.0,36.16,-86.66,Pete,TN,1502248697000.0,23053409
235074546,Clarksville,,1503922384000.0,36.54,-87.21,Phillip Hubbard,TN,1503922384000.0,23053409
11498435,Nashville,Nashville,1490823975000.0,36.21,-86.72,Pier Carlo Talenti,TN,1508773759000.0,23053409
162430602,Nashville,,1492179326000.0,36.17,-86.78,Renee,TN,1492179326000.0,23053409
18015511,Smyrna,,1490841831000.0,35.97,-86.51,Rex,TN,1505774660000.0,23053409
227678746,Nashville,,1494915075000.0,36.17,-86.78,Rhett,TN,1496103635000.0,23053409
234061761,Nashville,,1505783271000.0,36.21,-86.72,Rich Hogan,TN,1508803985000.0,23053409
231732520,Nashville,,1499944866000.0,36.17,-86.78,Robin McAlister,TN,1499944866000.0,23053409
210926098,Long Beach,"Huntington Beach, CA",1495117730000.0,33.77,-118.19,Rockelle Howard,CA,1495117730000.0,23053409
198737924,Nashville,,1491342762000.0,36.17,-86.78,Rod Bragg,TN,1492692462000.0,23053409
218222873,Smyrna,,1490925191000.0,35.97,-86.51,Roger H,TN,1508635692000.0,23053409
183712831,Franklin,,1498049414000.0,35.92,-86.89,Ron,TN,1504888297000.0,23053409
238480158,Nashville,,1507552835000.0,36.22,-86.77,Ryan Keesecker,TN,1507552835000.0,23053409
206365560,Nashville,,1491708140000.0,36.17,-86.78,s2k,TN,1492513413000.0,23053409
198948482,Murfreesboro,,1507240769000.0,35.85,-86.4,Sam Buschling,TN,1507313024000.0,23053409
65423092,Franklin,,1502911710000.0,35.93,-86.81,Samantha,TN,1504124090000.0,23053409
238815972,Nashville,,1507922570000.0,36.16,-86.77,Sammy D,TN,1507922570000.0,23053409
183766257,Clarksville,,1500599488000.0,36.53,-87.35,Sara,TN,1501547131000.0,23053409
237344850,Madison,,1506300987000.0,36.19,-86.74,Sara Lee,TN,1506300987000.0,23053409
154764282,Gallatin,,1490840725000.0,36.34,-86.51,Scott H,TN,1492136281000.0,23053409
82087612,Nashville,Donelson,1490981044000.0,36.17,-86.72,Scott Wolfe,TN,1506196229000.0,23053409
233888049,Nashville,,1502552773000.0,36.17,-86.78,Sean C,TN,1504140155000.0,23053409
229520786,Nashville,,1497227779000.0,36.09,-86.82,Sebastian Rose,TN,1497227779000.0,23053409
165617932,Murfreesboro,,1492640241000.0,35.78,-86.33,Shaheed Larux,TN,1493291812000.0,23053409
234364167,Nashville,,1503095191000.0,36.16,-86.66,Shauni D,TN,1507392647000.0,23053409
233522976,Murfreesboro,,1502142089000.0,35.87,-86.34,Skye Fieri,TN,1502142089000.0,23053409
232956266,Nashville,,1501464287000.0,36.06,-86.96,Sonia Alam,TN,1501464287000.0,23053409
208173959,Madison,"Collierville, TN",1496547936000.0,36.26,-86.71,Sonya Anthony McGhee,TN,1504106184000.0,23053409
94678962,Chattanooga,"Chattanooga, TN",1495435557000.0,35.05,-85.31,Sri,TN,1495435557000.0,23053409
227526273,Nashville,,1494707166000.0,36.13,-86.8,Stephanie Tanner,TN,1494707166000.0,23053409
238299386,Nashville,,1507347212000.0,36.14,-86.76,Steve Garcia,TN,1507347212000.0,23053409
187303980,Nashville,,1499183516000.0,36.08,-86.72,Steven Woodson,TN,1501132739000.0,23053409
217819803,Nashville,,1505883149000.0,36.17,-86.78,Sydney,TN,1506224729000.0,23053409
183629050,Mount Juliet,Mt. Juliet,1496276802000.0,36.22,-86.52,T. Allen Morgan,TN,1507054994000.0,23053409
236072336,Nashville,,1504990904000.0,36.09,-86.82,Tanner Devereaux,TN,1504990904000.0,23053409
222745771,Hermitage,,1490952744000.0,36.21,-86.59,Tara ,TN,1490952744000.0,23053409
237026716,Antioch,,1505939462000.0,36.17,-86.88,Tara Russell,TN,1505939462000.0,23053409
198211693,La Vergne,,1503889124000.0,36.01,-86.57,Tasha,TN,1504191953000.0,23053409
228498508,Lebanon,,1495954635000.0,36.15,-86.32,Taylor Franklin,TN,1495954635000.0,23053409
232667132,Gallatin,,1501096916000.0,36.39,-86.45,Teashia Hawley,TN,1501096916000.0,23053409
233531017,Nashville,,1502148522000.0,36.06,-86.96,Teresarah,TN,1502148522000.0,23053409
182734414,Murfreesboro,,1504560048000.0,35.78,-86.33,Tevin,TN,1504560048000.0,23053409
4981291,Northbrook,"Miami, FL",1500224348000.0,42.13,-87.84,Tom S.,IL,1507488625000.0,23053409
183097071,Nashville,,1493671796000.0,36.08,-86.72,Tony Doner,TN,1499730868000.0,23053409
233402553,Nashville,,1502005837000.0,36.16,-86.66,Tony Pozsgay,TN,1504391401000.0,23053409
235726168,Nashville,,1504632883000.0,36.17,-86.78,Traci Bryan,TN,1508636403000.0,23053409
232615857,La Vergne,,1501029603000.0,36.01,-86.57,ty bo,TN,1501029603000.0,23053409
81080762,Murfreesboro,,1498619590000.0,35.78,-86.33,Tyler Hanson,TN,1508364047000.0,23053409
230191722,Murfreesboro,,1498081969000.0,35.85,-86.36,Tyler Kennedy,TN,1507053856000.0,23053409
185319058,Christiana,,1501692994000.0,35.71,-86.36,Valerie J Yelton,TN,1502645915000.0,23053409
234680559,Nashville,,1503454402000.0,36.11,-86.78,Vincent O'Neill,TN,1503454402000.0,23053409
6603223,Madison,Panama,1508070329000.0,36.26,-86.71,Wendy,TN,1508070329000.0,23053409
64772492,Fairview,"Ft. Lauderdale, FL",1492296476000.0,35.97,-87.13,Wendy,TN,1507732682000.0,23053409
228430283,La Vergne,,1495857200000.0,36.0,-86.57,Will Rasmussen,TN,1495857200000.0,23053409
202522505,La Vergne,Denham Springs. LA,1491008650000.0,36.01,-86.57,William Wolfe,TN,1508676048000.0,23053409
237038677,Franklin,,1505950881000.0,35.93,-86.81,Zulay oliva ,TN,1505950881000.0,23053409
