id,city,hometown,joined,lat,lon,name,state,visited,group_id
231310960,Smithville,,1499457447000.0,35.96,-85.82,Alexis Jaya Cosmikz,TN,1499457447000.0,23065168
226791775,Nashville,,1493702256000.0,36.14,-86.74,Allison Russell,TN,1493702256000.0,23065168
231006367,Gallatin,,1499091947000.0,36.39,-86.45,Andrea Kus George,TN,1499091947000.0,23065168
230452366,Gallatin,,1498413436000.0,36.39,-86.45,Angie,TN,1498413436000.0,23065168
226866303,Hendersonville,,1493807701000.0,36.32,-86.58,April Martinez Weis,TN,1494842374000.0,23065168
229159740,Gallatin,,1496774987000.0,36.39,-86.45,Aris Kaye,TN,1496774987000.0,23065168
200443485,Hendersonville,,1494961963000.0,36.32,-86.61,Ashley Bean,TN,1494961963000.0,23065168
183163500,Unadilla,,1495757327000.0,32.26,-83.75,Ashley Sinyard,GA,1495757327000.0,23065168
7297895,Nashville,,1498542568000.0,36.13,-86.8,Bethany,TN,1498542568000.0,23065168
216086789,Old Hickory,,1493053552000.0,36.25,-86.63,Brittany Brandle,TN,1493053552000.0,23065168
226265557,Smithville,,1492996071000.0,35.96,-85.82,Brittney McComas,TN,1492996071000.0,23065168
228853027,Goodlettsville,,1496408796000.0,36.33,-86.74,Brooke,TN,1496408796000.0,23065168
230797013,Gallatin,,1498829178000.0,36.39,-86.45,Chris Hasting,TN,1498829178000.0,23065168
181199382,Nashville,,1492386053000.0,36.17,-86.78,Christie Carlill,TN,1492386053000.0,23065168
229672964,Hermitage,,1497412039000.0,36.19,-86.6,Christy Whitworth,TN,1497412039000.0,23065168
231748183,Bowling Green,,1499963119000.0,36.93,-86.45,Connor Crance,KY,1499963119000.0,23065168
229580111,Hendersonville,,1497300038000.0,36.32,-86.61,Courtney Johnson,TN,1497300038000.0,23065168
229442996,Hendersonville,,1497135216000.0,36.32,-86.61,Darlene Spann,TN,1498078121000.0,23065168
180528962,Madison,,1497648735000.0,36.26,-86.71,Deborah Gooch,TN,1497648735000.0,23065168
186148103,Springfield,,1494153688000.0,36.52,-86.87,Demika Smith,TN,1494153688000.0,23065168
227488510,Nashville,,1494655327000.0,36.16,-86.79,donita oliver,TN,1494655327000.0,23065168
13649745,Nashville,Nashville,1494835371000.0,36.1,-86.66,Doug Deneve,TN,1494835371000.0,23065168
12172821,Nashville,,1492919250000.0,36.17,-86.78,Elizabeth,TN,1494423091000.0,23065168
227598901,Hendersonville,,1494813885000.0,36.32,-86.61,Jared Moore,TN,1494813885000.0,23065168
231379450,Hendersonville,,1499540986000.0,36.32,-86.61,Jessica ,TN,1499540986000.0,23065168
231180727,Smyrna,,1499298112000.0,35.97,-86.51,Jessica Christine Gedeon,TN,1499298112000.0,23065168
228401964,Hendersonville,,1495823117000.0,36.32,-86.61,jolie,TN,1500333982000.0,23065168
230291484,Hendersonville,,1498226410000.0,36.29,-86.62,Karen Mitchell,TN,1498226410000.0,23065168
223085993,Nashville,,1491246830000.0,36.17,-86.72,Kasey Terrebonne,TN,1491246830000.0,23065168
224772333,Hendersonville,,1490917351000.0,36.32,-86.61,Kimberly Grandas,TN,1490917351000.0,23065168
224750164,Nashville,,1490912668000.0,36.16,-86.66,Kristina Courtney,TN,1499964869000.0,23065168
228475652,White House,,1495921167000.0,36.48,-86.69,Lisa Heaven,TN,1495921167000.0,23065168
224773309,Hendersonville,,1490923446000.0,36.32,-86.61,Lynn Takacs,TN,1490927412000.0,23065168
224769829,Hendersonville,,1490915030000.0,36.32,-86.61,Lynne Hollingsworth,TN,1491495375000.0,23065168
227604918,Nashville,,,36.22,-86.73,,TN,,23065168
230608448,White House,,1498597167000.0,36.48,-86.69,Matthew,TN,1499259924000.0,23065168
231378327,Nashville,,1499541731000.0,36.17,-86.78,Mo B. McAlpine,TN,1499541731000.0,23065168
226723254,Hendersonville,,1493612427000.0,36.32,-86.61,Monica Mikesell Zust,TN,1493612427000.0,23065168
229140022,Castalian Springs,,1496754315000.0,36.38,-86.32,Paige Banzhaf,TN,1496754315000.0,23065168
230966474,Hendersonville,,1499037544000.0,36.3,-86.62,Rhonda Waggoner,TN,1499037544000.0,23065168
62528542,Hendersonville,,1491064454000.0,36.32,-86.61,Samantha K,TN,1491064454000.0,23065168
230400053,Hendersonville,,1498335629000.0,36.3,-86.62,Sara Lynn York,TN,1498335629000.0,23065168
229728317,Gallatin,,1497485987000.0,36.39,-86.45,Shantel King,TN,1497485987000.0,23065168
224771211,Hendersonville,,1490987978000.0,36.32,-86.61,Sharon Pace,TN,1490987978000.0,23065168
230414106,Hendersonville,,1498351581000.0,36.32,-86.61,Stephanie,TN,1498493254000.0,23065168
226938187,Bowling Green,,1493903379000.0,37.02,-86.46,Stephanie Holden,KY,1493903379000.0,23065168
13303434,Hendersonville,,1498191961000.0,36.32,-86.61,Stephanie Lee,TN,1498191961000.0,23065168
230596187,Gallatin,,1498578343000.0,36.39,-86.45,Susan Hunter,TN,1498578343000.0,23065168
224124298,Nashville,,1490976258000.0,36.17,-86.78,Teresa Welch Burke,TN,1490976258000.0,23065168
226595796,Gallatin,,,36.35,-86.46,,TN,,23065168
