id,city,hometown,joined,lat,lon,name,state,visited,group_id
231084443,Nashville,,1500295242000.0,36.15,-86.86,Adam Intihar,TN,1499183747000.0,23168220
41236812,Nashville,Milwaukee,1492956997000.0,36.17,-86.78,amber,TN,1497344874000.0,23168220
232180595,Nashville,,1500560515000.0,36.09,-86.82,Austin Weatherell,TN,1500560515000.0,23168220
225951091,Nashville,,1492569786000.0,36.17,-86.78,Benjamin Holder,TN,1492628938000.0,23168220
117248702,Denver,Denver,1508351955000.0,39.77,-105.01,Benson Juarez,CO,1508351955000.0,23168220
10650186,Trenton,"Hamilton, NJ",1492576507000.0,40.22,-74.66,Brian Meara,NJ,1492576507000.0,23168220
231991527,Antioch,,1500295228000.0,36.04,-86.64,Brian Stanley,TN,1500267250000.0,23168220
228825955,Murfreesboro,,1496369044000.0,35.87,-86.44,Bryan Hodge,TN,1496369044000.0,23168220
229845899,Murfreesboro,,1500295242000.0,35.78,-86.33,Cedrick Williams,TN,1497647086000.0,23168220
213143597,Nashville,,1491692919000.0,36.09,-86.82,Chris,TN,1492627543000.0,23168220
227481891,Nashville,,1494644009000.0,36.18,-86.74,Christina Barclay,TN,1494644009000.0,23168220
231970248,Hermitage,,1500295233000.0,36.19,-86.6,Dereje Getu,TN,1500386860000.0,23168220
228397179,Nashville,,1495817091000.0,36.17,-86.78,Devonte Baxter,TN,1495817091000.0,23168220
229072398,Antioch,,1496674547000.0,36.17,-86.88,Dionne Thomas,TN,1496674547000.0,23168220
12459962,Gallatin,"Bloomfield, IA",1493765398000.0,36.39,-86.45,Donnie,TN,1493765398000.0,23168220
184353266,Nashville,,1495234597000.0,36.17,-86.78,Eric A. ,TN,1495234597000.0,23168220
226606478,Nashville,,1494393441000.0,36.17,-86.78,Ethan Evors,TN,1494393441000.0,23168220
232181804,Nashville,,1500496433000.0,36.17,-86.78,Hall Homes,TN,1500496433000.0,23168220
209688411,Nashville,,1493877581000.0,36.17,-86.78,Hannah ,TN,1493877581000.0,23168220
231189362,Nashville,,1499402372000.0,36.06,-86.96,Henry Mahasi,TN,1499309182000.0,23168220
189432210,Murfreesboro,,1494691678000.0,35.87,-86.34,Ida Houston,TN,1494691678000.0,23168220
230309457,Nashville,,1500295242000.0,36.15,-86.81,Indu Bal,TN,1498224405000.0,23168220
230873941,Nashville,,1500295242000.0,36.15,-86.8,Jabari,TN,1500302726000.0,23168220
231811135,Franklin,,1500295242000.0,35.92,-86.89,Jack Flanagan,TN,1500043600000.0,23168220
226853216,Nashville,,1493782195000.0,36.17,-86.78,Jackson Guerrier,TN,1494366571000.0,23168220
232273588,Nashville,,1500606449000.0,36.17,-86.78,Jacob Mills,TN,1500606449000.0,23168220
229025056,Goodlettsville,,1496615340000.0,36.32,-86.72,Jacquline C,TN,1496615340000.0,23168220
229029505,Nashville,,1496620104000.0,36.17,-86.78,Jamie Lauren,TN,1496620104000.0,23168220
232309384,Nashville,,1500657209000.0,36.17,-86.78,Javier Camacho,TN,1500657209000.0,23168220
226041580,Clarksville,,1492698816000.0,36.56,-87.35,Jeff Moore,TN,1492698816000.0,23168220
227072287,Nashville,,1494090190000.0,36.11,-86.86,Jessica Lucious,TN,1494090190000.0,23168220
221960678,Nashville,,1493388487000.0,36.17,-86.78,Jill Kennedy,TN,1493388487000.0,23168220
8610830,Nashville,,1493138119000.0,36.17,-86.78,Joey,TN,1493138119000.0,23168220
229702889,Nashville,,1500295242000.0,36.11,-86.86,john thetford,TN,1497457355000.0,23168220
231289647,Nashville,,1500295242000.0,36.17,-86.78,Joshua Youssef,TN,1499435935000.0,23168220
196301746,Nashville,,1505671003000.0,36.17,-86.78,JR Jaime Rosenzweig,TN,1505671003000.0,23168220
237266818,Nashville,,1507901772000.0,36.07,-86.73,Juan Carrillo,TN,1507901772000.0,23168220
11343690,Franklin,Franklin,1491445937000.0,35.92,-86.89,Justin,TN,1500295004000.0,23168220
231085846,Nashville,,1500295242000.0,36.1,-86.66,Kari VanHeulen,TN,1499184925000.0,23168220
170443442,Nashville,,1491860332000.0,36.18,-86.74,Kelsie Kinsley,TN,1491860332000.0,23168220
225975114,Clarksville,,1492607674000.0,36.49,-87.23,Kyle Robins,TN,1492607674000.0,23168220
231706635,Nashville,,1500295242000.0,36.09,-86.82,Larry Clayton,TN,1499912888000.0,23168220
226917932,Franklin,,1493869977000.0,35.92,-86.89,"Leks Stanic ATProperties, LLC",TN,1493869977000.0,23168220
230214484,Franklin,,1500295242000.0,35.92,-86.89,Lindsay Elliott,TN,1498096975000.0,23168220
231470614,Nashville,,1500295242000.0,36.14,-86.74,Marco Martinez,TN,1499645391000.0,23168220
226738612,Beechgrove,,1493640573000.0,35.62,-86.17,Mark C,TN,1493640573000.0,23168220
231901381,Fairview,,1500295238000.0,35.97,-87.13,Mark Hall,TN,1500154587000.0,23168220
11256034,Suwanee,"Baltimore, MD",1500295242000.0,34.06,-84.08,Marquida Gilbert,GA,1497529238000.0,23168220
225483657,Thompsons Station,,1491938354000.0,35.8,-86.9,Mary Lou Bradley Casey,TN,1491938354000.0,23168220
228060182,Nashville,,1495412914000.0,36.17,-86.78,Mercedes Miranda,TN,1495412914000.0,23168220
227139259,Nashville,,1494182849000.0,36.16,-86.79,Nash Chalky,TN,1494182849000.0,23168220
232038228,Nashville,,1500326054000.0,36.17,-86.78,Nick Doaks,TN,1500326054000.0,23168220
229916545,Nashville,,1500295242000.0,36.09,-86.82,Nicole Remkus,TN,1497742468000.0,23168220
234168251,Franklin,,1502888263000.0,35.93,-86.81,Olivia Oetjens,TN,1502888263000.0,23168220
228290132,Hermitage,,1495668149000.0,36.19,-86.6,Paul,TN,1495668149000.0,23168220
228658592,Gallatin,,1496163655000.0,36.39,-86.45,Paul Mesaros,TN,1496163655000.0,23168220
226752505,Nashville,,1493655999000.0,36.16,-86.77,Randy Gordon,TN,1493655999000.0,23168220
224142203,Nashville,,1491766490000.0,36.17,-86.78,Rebekah Raymond,TN,1491786971000.0,23168220
228363309,Smyrna,,1495764769000.0,35.97,-86.51,Regina Harrell Hodge,TN,1496748640000.0,23168220
214824184,Nashville,,1493317732000.0,36.17,-86.78,RodM,TN,1493317732000.0,23168220
227008975,Nashville,,1494013750000.0,36.09,-86.82,RODNEY HILLIARD,TN,1494013750000.0,23168220
210627242,Nashville,,1491677542000.0,36.17,-86.78,Ronnie Hok,TN,1491677542000.0,23168220
227922819,Franklin,,1495224416000.0,35.92,-86.89,Ryan Florida,TN,1495224416000.0,23168220
231678448,Nashville,,1500295242000.0,36.17,-86.78,S&L Investments LLC,TN,1499884820000.0,23168220
191257257,Yuma,,1501531930000.0,32.7,-114.65,Sally Reid,AZ,1501531930000.0,23168220
230271829,Murfreesboro,,1500295242000.0,35.85,-86.36,Shawn Daniels,TN,1498173669000.0,23168220
231083258,Nashville,,1500295242000.0,36.17,-86.72,Shekinah Christian,TN,1499182387000.0,23168220
232303181,Brentwood,,1500654692000.0,36.0,-86.79,Stephen McGrory,TN,1500654692000.0,23168220
33706392,Franklin,,1492648276000.0,35.92,-86.91,Sterling,TN,1503402553000.0,23168220
215295677,Nashville,,1491837081000.0,36.17,-86.78,Steve Mitchell,TN,1492023426000.0,23168220
8974036,Antioch,,1500295242000.0,36.04,-86.64,Tim Brown ,TN,1498058215000.0,23168220
227393876,Nashville,,1494522333000.0,36.1,-86.66,Tim Cobble,TN,1494522333000.0,23168220
226774144,Fort Campbell,,1493678572000.0,36.65,-87.46,Tim Hartshorn ,KY,1493678572000.0,23168220
178587792,Hendersonville,,1491689974000.0,36.32,-86.61,TinaT,TN,1491689974000.0,23168220
228186093,Nashville,,1495545760000.0,36.17,-86.78,TRACIE ROBINSON,TN,1495545760000.0,23168220
227382202,Nashville,,1494509317000.0,36.08,-86.72,Travis Green,TN,1494509317000.0,23168220
229895339,Fort Campbell,,1500295242000.0,36.65,-87.46,Trish,KY,1497717528000.0,23168220
226595796,Gallatin,,,36.35,-86.46,,TN,,23168220
226906789,Nashville,,1493855600000.0,36.07,-86.73,UB,TN,1493855600000.0,23168220
229518808,Colorado Springs,,1500295242000.0,38.88,-104.81,Vagif Seidov,CO,1499362804000.0,23168220
5838751,Nashville,Nashville,1491746348000.0,36.17,-86.72,Vanessa,TN,1491746348000.0,23168220
227679314,Nashville,,1494917197000.0,36.17,-86.78,Wilfred Sarenga,TN,1494917197000.0,23168220
230908403,Nashville,,1500295242000.0,36.22,-86.86,Will Blanton,TN,1498963144000.0,23168220
