id,city,hometown,joined,lat,lon,name,state,visited,group_id
183471838,Nashville,,1494275048000,36.16,-86.79,Adam K.,TN,1495423325000,23461731
189436186,Nashville,,1493493021000,36.17,-86.78,Alieza A,TN,1493493021000,23461731
189716705,Nashville,,1494534674000,36.17,-86.78,Allison Verre,TN,1494534674000,23461731
184255836,Nashville,,1493641842000,36.08,-86.72,Amanda Gjertson,TN,1506999256000,23461731
226356932,Hendersonville,,1493408711000,36.32,-86.61,Amy Duffer,TN,1495248356000,23461731
206741636,Nashville,,1494973740000,36.17,-86.78,Andrew,TN,1494973740000,23461731
14561217,Nashville,Nashville,1493335642000,36.18,-86.74,April Seager,TN,1503089006000,23461731
7898365,Nashville,,1493498706000,36.11,-86.86,Arnold Joseph White,TN,1493498706000,23461731
182496368,Nashville,,1493422137000,36.22,-86.86,Caroline,TN,1493434023000,23461731
14205318,Nashville,"Lewiston, Idaho",1493417851000,36.15,-86.86,Caryn ,TN,1493421845000,23461731
225284443,Nashville,,1493581731000,36.09,-86.64,Chaundra,TN,1493581731000,23461731
224461910,Nashville,,1493484039000,36.18,-86.81,Colleen Daw,TN,1507059743000,23461731
226216826,Nashville,,1493594222000,36.17,-86.78,Courtney,TN,1493594222000,23461731
230175104,Nashville,,1498064388000,36.1,-86.66,Courtney Holmes,TN,1498064388000,23461731
9831878,Nashville,"Miami Springs, FL",1493717763000,36.18,-86.74,Dana,TN,1495409374000,23461731
205583248,Nashville,,1494698901000,36.08,-86.72,Edysa,TN,1494698901000,23461731
223725528,Mount Juliet,,1493409346000,36.21,-86.52,Elliot,TN,1493409346000,23461731
4004171,Franklin,"Franklin, TN",1493515995000,35.92,-86.89,Ethan,TN,1497907238000,23461731
227316838,Nashville,,1494424226000,36.17,-86.79,Gabby Reed,TN,1494424226000,23461731
226972153,Nashville,,1493942721000,36.17,-86.78,Gerald Garrett,TN,1495796204000,23461731
78930962,Nashville,,1493525830000,36.16,-86.79,H David Schaefer,TN,1493525830000,23461731
227851935,Hendersonville,,1495130897000,36.32,-86.61,Heather Holle,TN,1495195463000,23461731
174889032,Nashville,,1493504017000,36.17,-86.78,Howard Jones,TN,1493515551000,23461731
227598901,Hendersonville,,1494813884000,36.32,-86.61,Jared Moore,TN,1494813884000,23461731
38690452,Nashville,Cypress,1493828952000,36.11,-86.8,Jessica,TN,1493828952000,23461731
226569392,Nashville,,1493399015000,36.17,-86.78,Jim Fraser,TN,1493399015000,23461731
234685403,Nashville,,1503459771000,36.16,-86.79,Juan Carlos Rueda,TN,1503459771000,23461731
5655924,Nashville,,1493494563000,36.17,-86.78,karen,TN,1493586946000,23461731
189611182,Nashville,,1493478454000,36.21,-86.72,Kathleen Christian-Harmeyer,TN,1502308946000,23461731
34189342,Nashville,,1494641127000,36.22,-86.72,Lauren Speer,TN,1494641127000,23461731
220131508,Nashville,,1493503922000,36.17,-86.78,Lisa,TN,1493503922000,23461731
183119747,Franklin,,1493589751000,35.92,-86.89,Marc Siegel,TN,1493720733000,23461731
228942697,Nashville,,1496516753000,36.13,-86.8,Marian D.,TN,1496516753000,23461731
230888833,Antioch,,1498940401000,36.04,-86.64,Mark Fuqua,TN,1498940401000,23461731
77921922,Nashville,,1493507782000,36.07,-86.78,Melanie,TN,1498675331000,23461731
140274692,Nashville,,1493832439000,36.17,-86.78,Melanie,TN,1495680150000,23461731
11288886,Brentwood,Brentwood,1493779047000,36.0,-86.79,Michael Burns,TN,1493779047000,23461731
227780445,Nashville,,1495040893000,36.11,-86.78,Michaun Olliver,TN,1495040893000,23461731
118576492,Mount Juliet,,1493429897000,36.22,-86.52,Pamela Bentley,TN,1493429897000,23461731
8537818,Nashville,Riverside,1493697638000,36.17,-86.78,Persephone,TN,1493697638000,23461731
222475173,Nashville,,1493526252000,36.13,-86.8,Renee Deliefde,TN,1493526252000,23461731
113362402,Nashville,Detroit,1494123121000,36.17,-86.78,Roselyn,TN,1495363629000,23461731
227279006,Nashville,,1494366280000,36.17,-86.72,Shannon Murphree Bates,TN,1494366280000,23461731
79618612,Nashville,,1494449485000,36.21,-86.72,Shayna,TN,1503282580000,23461731
196524013,Nashville,Nashville,1494346770000,36.21,-86.72,Spencer Bailey,TN,1494346770000,23461731
8304651,Nashville,,1493757958000,36.17,-86.78,Stephanie James,TN,1494607757000,23461731
203901965,Brentwood,,1493507244000,36.0,-86.79,Sujata Biswas,TN,1493602694000,23461731
1986579,Nashville,near Nashville,1493789301000,36.08,-86.72,Tracy Lucas,TN,1494365271000,23461731
