id,city,hometown,joined,lat,lon,name,state,visited,group_id
226769794,Nashville,"South Haven, MI",1494528778000,36.17,-86.72,Adrienne Dionne,TN,1508775147000,23723436
232588197,Nashville,,1507235359000,36.17,-86.78,Allison Plattsmier,TN,1501003776000,23723436
10859035,Nashville,Nashville,1507235360000,36.14,-86.74,Allyn Spacek,TN,1504909637000,23723436
81594092,Nashville,,1494795807000,36.18,-86.74,Amber,TN,1494795807000,23723436
235804260,Memphis,,1507235360000,35.13,-90.05,Andrew Jeanfreau,TN,1504712376000,23723436
9708043,Nashville,nashville,1498444456000,36.17,-86.72,Andy,TN,1508764823000,23723436
189161213,Nashville,East Nashville,1498242269000,36.18,-86.74,Anna Zerull,TN,1498242269000,23723436
193563349,Nashville,,1494758739000,36.17,-86.78,Barbara Barfield,TN,1503317555000,23723436
233304952,Nashville,,1507235359000,36.17,-86.72,Bill McDowell,TN,1501891113000,23723436
188130701,Austin,,1495295446000,30.22,-97.75,Brian Maples,TX,1495295446000,23723436
237016508,Nashville,,1507235360000,36.17,-86.78,Bruce Hardin,TN,1505928909000,23723436
231122725,Nashville,,1499225946000,36.09,-86.82,Carleen Cunio,TN,1499225946000,23723436
220768796,Nashville,,1495466117000,36.17,-86.78,Casey Czerpak,TN,1508772487000,23723436
106125902,Nashville,,1508101761000,36.17,-86.72,Cathy Bogan,TN,1508683804000,23723436
213143597,Nashville,,1494867628000,36.09,-86.82,Chris,TN,1499798552000,23723436
229672964,Hermitage,,1497411857000,36.19,-86.6,Christy Whitworth,TN,1497411857000,23723436
166927032,Nashville,Nashville,1499373146000,36.17,-86.72,Corinne Wymer,TN,1508783459000,23723436
234419823,Nashville,,1503165477000,36.17,-86.78,Cristina Landry,TN,1505660655000,23723436
239324409,Nashville,,1508556847000,36.18,-86.74,Daton Hall,TN,1508783353000,23723436
233492820,Hermitage,,1507235360000,36.19,-86.6,Debbie,TN,1502111689000,23723436
225020136,Nashville,,1494724434000,36.08,-86.72,Debbie Boe,TN,1496260808000,23723436
105594682,Nashville,,1494864790000,36.17,-86.72,Debbie Trombley,TN,1502929790000,23723436
207952764,Nashville,,1507235360000,36.17,-86.78,Deborah Smilez,TN,1504293881000,23723436
179364462,Antioch,,1497923498000,36.17,-86.88,Debra Barfield,TN,1500227617000,23723436
228008070,La Vergne,,1495342093000,36.01,-86.57,Demond Thompson,TN,1495342093000,23723436
231970248,Hermitage,,1500243840000,36.19,-86.6,Dereje Getu,TN,1500243840000,23723436
13155502,Nashville,,1494855005000,36.21,-86.72,Diane,TN,1506613970000,23723436
2201276,Nashville,Indianapolis,1507492649000,36.1,-86.66,Doug,TN,1507492649000,23723436
13649745,Nashville,Nashville,1497951545000,36.1,-86.66,Doug Deneve,TN,1506522916000,23723436
13965182,Hermitage,"Detroit, Mi",1494893592000,36.19,-86.6,Frank Butler,TN,1495489432000,23723436
159114552,Nashville,,1495134228000,36.09,-86.82,Frank Spitznagel,TN,1499705314000,23723436
238216253,Nashville,,1507258984000,36.17,-86.78,Gary Slattery,TN,1508766440000,23723436
10813219,Nashville,nashville,1494687390000,36.17,-86.72,Grass fed girl,TN,1508694916000,23723436
235740694,Nashville,,1507235360000,36.17,-86.78,Hannah TIlton,TN,1504708931000,23723436
223008470,Mount Juliet,,1494872526000,36.22,-86.52,Heather Felix Schreader,TN,1494872526000,23723436
238176878,Nashville,,1507235360000,36.17,-86.78,Helen Monte Hovey,TN,1507225471000,23723436
229698956,Nashville,,1497452935000,36.17,-86.78,Holden Howard,TN,1498577129000,23723436
231997258,Smyrna,,1507235359000,35.97,-86.51,Irfan Ali,TN,1500408695000,23723436
234736101,Nashville,,1507235360000,36.17,-86.78,Jacob Wimsatt,TN,1503517513000,23723436
239178233,Madison,,1508340569000,36.26,-86.71,JEM888,TN,1508340569000,23723436
237104741,Nashville,,1507235360000,36.08,-86.72,Jenni Hargrove,TN,1506025362000,23723436
19476221,Nashville,Fayetteville,1494851367000,36.22,-86.86,Jennifer,TN,1507137606000,23723436
7174564,Nashville,,1508167865000,36.11,-86.78,jenny,TN,1508167865000,23723436
59475472,Nashville,,1494844187000,36.08,-86.72,Jessica Jernigan,TN,1508770248000,23723436
11108453,Nashville,,1494853772000,36.14,-86.74,johnny,TN,1494853772000,23723436
238190815,Nashville,,1507235360000,36.16,-86.66,Jon Rosshirt,TN,1507826501000,23723436
101697662,Nashville,Franklin,1498616182000,36.15,-86.79,Jonathan Davis,TN,1498616182000,23723436
9090284,Nashville,Red Bluff,1496676181000,36.22,-86.77,Joseph Graves,TN,1506350503000,23723436
237553678,Nashville,,1507565328000,36.17,-86.78,JT Venable,TN,1508779739000,23723436
12977589,Nashville,,1495503340000,36.17,-86.68,Judy,TN,1506430316000,23723436
189712414,Nashville,,1508119770000,36.14,-86.74,Julie H,TN,1508119770000,23723436
137821062,Mount Juliet,Mount Juliet,1494773321000,36.22,-86.52,Julie N' James Tucker,TN,1505467614000,23723436
93983122,Nashville,"Cincinnati, OH",1498340408000,36.1,-86.66,Kelly,TN,1498340408000,23723436
239149538,Nashville,,1508309169000,36.17,-86.78,Lawrence Coley,TN,1508309169000,23723436
113587662,Goodlettsville,,1507235359000,36.32,-86.72,Lisa Eggers,TN,1501706970000,23723436
230715076,Nashville,,1498718512000,36.16,-86.79,Lori Creasy,TN,1498718512000,23723436
232373492,Nashville,,1507235359000,36.17,-86.72,Malee Cherry,TN,1500741433000,23723436
236629892,Nashville,,1507235360000,36.08,-86.72,Mark Grizer,TN,1505531555000,23723436
9524129,Nashville,Atlanta,1507235360000,36.17,-86.72,Mary Ellen Klein,TN,1508698427000,23723436
189515753,Arlington,,1507235360000,38.88,-77.14,Michael,VA,1504705668000,23723436
114264102,Nashville,,1498453414000,36.17,-86.78,Mo. Hathut,TN,1498453414000,23723436
228261135,Nashville,,1507235360000,36.09,-86.82,Monica Beere,TN,1506533288000,23723436
233383958,Nashville,,1507235360000,36.22,-86.74,Nadia Dunlap,TN,1501982179000,23723436
53071102,Nashville,Nashville ,1507235360000,36.17,-86.72,Natalya,TN,1503762683000,23723436
234168251,Franklin,,1502888097000,35.93,-86.81,Olivia Oetjens,TN,1502888097000,23723436
8289814,Nashville,"Nashville, TN",1494863268000,36.09,-86.82,Phil M,TN,1502908522000,23723436
137411322,Nashville,,1494692304000,36.17,-86.72,Phillip R. Jones,TN,1508739302000,23723436
10936543,Brentwood,Brentwood,1507315923000,36.0,-86.79,Randall Putala,TN,1508800142000,23723436
231152070,Nashville,,1507235360000,36.17,-86.78,Rebekah Napper,TN,1508492871000,23723436
232717997,Brentwood,,1507235359000,36.0,-86.79,Renaldo Gomes,TN,1501163247000,23723436
152960022,Brentwood,,1498347504000,36.0,-86.79,Rich,TN,1500298199000,23723436
13371408,Antioch,"Antioch, TN",1507235360000,36.04,-86.64,RJ,TN,1508708148000,23723436
227399839,Nashville,,1494530747000,36.17,-86.78,Samantha Cantrell,TN,1508775253000,23723436
47264222,Grand Prairie,,1500304615000,32.68,-97.01,saundra robinson,TX,1503072659000,23723436
228182640,Nashville,,1495541024000,36.17,-86.78,Saundra Robinson,TN,1505591633000,23723436
225543711,Nashville,,1499995675000,36.17,-86.78,Savanah Tate,TN,1500305915000,23723436
16275001,Nashville,Nashville,1507235359000,36.21,-86.72,Stacey D. Herron,TN,1508290621000,23723436
233216153,Nashville,,1507235359000,36.13,-86.8,Stacie Holland,TN,1501787754000,23723436
238097694,Nashville,,1507235360000,36.17,-86.72,Stephanie Messer,TN,1507236209000,23723436
71427382,Nashville,Allentown PA,1494962839000,36.14,-86.74,Steve Kozy,TN,1494962839000,23723436
230466000,Antioch,,1498419461000,36.04,-86.64,Steven Nguyen,TN,1498419461000,23723436
53452882,Nashville,,1494767856000,36.08,-86.72,Tammy LaPoint-O'Brien,TN,1498397850000,23723436
231233914,Nashville,,1499366194000,36.17,-86.78,Tasheka Terry,TN,1499366194000,23723436
230678146,Smyrna,,1498675162000,35.97,-86.51,Tonya,TN,1498675162000,23723436
229303178,Nashville,,1496957868000,36.08,-86.72,Tungee Cox,TN,1499977337000,23723436
5838751,Nashville,Nashville,1494721926000,36.17,-86.72,Vanessa,TN,1498486380000,23723436
229702960,Nashville,,1497458324000,36.18,-86.74,Yevette Smith-Hill,TN,1497458324000,23723436
