id,city,hometown,joined,lat,lon,name,state,visited,group_id
232757087,Nashville,,1501207821000,36.16,-86.79,Adam,TN,1501207821000,24424671
200303216,Spring Hill,Spring Hill,1497277912000,35.76,-86.88,BMShake,TN,1497277912000,24424671
217449348,Nashville,,1497287647000,36.17,-86.78,Brad Davis,TN,1497287647000,24424671
223496846,Nashville,,1497381350000,36.08,-86.72,Brian,TN,1497381350000,24424671
7981818,Nashville,Nashville,1497576333000,36.15,-86.86,Brian Pitts,TN,1499021260000,24424671
198124436,Brentwood,,1497382197000,36.0,-86.79,Carey Scott,TN,1497382197000,24424671
213946964,Spring Hill,"Huntsville, AL",1497360482000,35.76,-86.88,Chris Milam,TN,1497360482000,24424671
7839717,Nashville,Nashville,1497292880000,36.06,-86.96,Chris Ogle,TN,1497292880000,24424671
227730315,Nashville,"Lansing, Michigan",1499191992000,36.08,-86.72,Damien Dawkins,TN,1499191992000,24424671
228804310,Nashville,,1497381925000,36.17,-86.78,Dane Titsworth,TN,1497381925000,24424671
214144312,Clarksville,,1499824897000,36.56,-87.41,Eli Ellison,TN,1499824897000,24424671
229446139,Brentwood,,1497552596000,36.0,-86.79,eric roll,TN,1498707351000,24424671
96766252,Nashville,,1497390615000,36.09,-86.82,George,TN,1497390615000,24424671
227391430,Nashville,,1497407025000,36.17,-86.78,Jason Smythe,TN,1497407025000,24424671
32214442,Hendersonville,Hendersonville,1497316551000,36.32,-86.61,Jim Fuqua,TN,1497316551000,24424671
209407174,Franklin,,1499555245000,35.92,-86.89,Joel Coady,TN,1499555245000,24424671
198122159,Ashland City,,1497286204000,36.28,-87.07,John,TN,1497388356000,24424671
79762332,Nashville,,1497374197000,36.18,-86.74,Jon Peck,TN,1497374197000,24424671
224815299,Nashville,,1499711973000,36.17,-86.78,Kathleen Allen,TN,1499711973000,24424671
196834661,Franklin,,1497286044000,35.93,-86.81,Kevin A.,TN,1505621924000,24424671
216311116,Nashville,,1497381442000,36.17,-86.78,Lennie Patterson,TN,1497381442000,24424671
217220069,Nashville,,1497285609000,36.17,-86.78,Luis Lopez,TN,1497285609000,24424671
218938385,Murfreesboro,,1497406884000,35.85,-86.36,Melissa Flowers,TN,1499212813000,24424671
193435004,Nashville,,1497887585000,36.16,-86.79,Mitchell Galloway,TN,1497887585000,24424671
229656892,Orlando,,1497392869000,28.54,-81.37,Morvan,FL,1498602695000,24424671
214286403,Nashville,,1506448211000,36.17,-86.78,Neil Baer,TN,1506448211000,24424671
18382441,Nashville,Nashville,1498701934000,36.15,-86.86,Nick Herron,TN,1507054951000,24424671
234168251,Franklin,,1502888417000,35.93,-86.81,Olivia Oetjens,TN,1502888417000,24424671
231673568,Nashville,,1499881012000,36.17,-86.78,Randall Riccardo,TN,1499881012000,24424671
229049863,Nashville,,1497320978000,36.15,-86.8,Ray Li,TN,1497320978000,24424671
201327687,Nashville,,1497536219000,36.15,-86.86,Rob Polacek,TN,1497536219000,24424671
119047942,Nashville,,1497387187000,36.17,-86.78,Robb Wells,TN,1497387187000,24424671
197981907,Nashville,,1497287791000,36.17,-86.78,scott phillips,TN,1497287791000,24424671
233609822,Nashville,,1502235954000,36.17,-86.78,Shannon Stuart,TN,1502235954000,24424671
222664120,Nashville,,1498073159000,36.11,-86.78,Sheri Strobel Amateau,TN,1498073159000,24424671
219329077,Franklin,,1497285977000,35.92,-86.89,STEPHEN KOVACH,TN,1497285977000,24424671
14020645,Nashville,,1497385432000,36.18,-86.74,Talbot Lawrence,TN,1500410957000,24424671
