id,city,hometown,joined,lat,lon,name,state,visited,group_id
15729401,Nashville,San Antonio,1499679033000,36.17,-86.78,Abel Muñoz,TN,1503080982000,24619540
229092135,Nashville,,1498319757000,36.17,-86.78,Adina,TN,1498319757000,24619540
230129311,Antioch,,1501063284000,36.08,-86.59,Amanda Williams,TN,1504298485000,24619540
206741636,Nashville,,1498316842000,36.17,-86.78,Andrew,TN,1498316842000,24619540
231380726,Nashville,,1500083338000,36.17,-86.78,Ann Stedman,TN,1506225763000,24619540
227022050,Nashville,,1498250406000,36.17,-86.78,Ashlinn Romagnoli,TN,1508418124000,24619540
231609750,Nashville,,1499804018000,36.17,-86.78,Ben Carreon,TN,1499804018000,24619540
13046100,Nashville,,1500148623000,36.17,-86.78,Bonnie,TN,1502990817000,24619540
191134110,Nashville,"Nashville, TN",1501595859000,36.18,-86.74,Bria Lafayette,TN,1502910644000,24619540
154718262,Nashville,,1500482435000,36.17,-86.78,Bridget,TN,1508442536000,24619540
201454015,Nashville,,1498406250000,36.13,-86.8,Brigitta,TN,1505259380000,24619540
232524782,Murfreesboro,,1500926812000,35.87,-86.34,Bronson Mahrt,TN,1500926812000,24619540
183139913,Nashville,,1498345216000,36.17,-86.78,Carlie,TN,1506180044000,24619540
219290165,Nashville,,1498681474000,36.15,-86.68,Christina Shoptaw,TN,1498681474000,24619540
202761171,Antioch,,1501214077000,36.04,-86.64,Courtney Elizabeth,TN,1508421976000,24619540
229093918,Nashville,,1498315677000,36.17,-86.78,Dalia Ali,TN,1499359840000,24619540
230322303,Nashville,,1498315955000,36.18,-86.74,Dot Fleming,TN,1498315955000,24619540
231185563,Hendersonville,,1500150905000,36.32,-86.61,Drew Williams,TN,1500150905000,24619540
231448275,Nashville,,1499627918000,36.17,-86.78,Elizabeth,TN,1499627918000,24619540
228196586,Nashville,,1500742261000,36.17,-86.78,Hannah Booth,TN,1506012060000,24619540
232807124,Nashville,,1501275823000,36.17,-86.77,Heaven P.,TN,1501275823000,24619540
232087948,Antioch,,1500388013000,36.04,-86.64,Hopi Zapico,TN,1500388013000,24619540
31867642,Nashville,Nashville,1498576337000,36.18,-86.74,Jane Moore,TN,1501159833000,24619540
232504138,Fort Campbell,,1500906063000,36.65,-87.46,Jayson Rich,KY,1500906063000,24619540
65187592,Nashville,,1498514043000,36.08,-86.72,Jennifer,TN,1498514043000,24619540
145250422,Nashville,,1501413523000,36.18,-86.79,Jenny,TN,1505081821000,24619540
190043499,Nashville,"New York, NY",1500005164000,36.18,-86.74,Jessica Emily D'Eugenio,TN,1500005164000,24619540
232889885,Nashville,,1501378638000,36.17,-86.78,Johnnie Washington,TN,1501378638000,24619540
232751414,Nashville,,1501199691000,36.17,-86.77,Joshua Allen,TN,1501199691000,24619540
231381472,Old Hickory,,1499542653000,36.25,-86.63,Joshua Farmer,TN,1500842388000,24619540
213899956,Goodlettsville,,1498361504000,36.32,-86.72,Karlha,TN,1498361504000,24619540
229851653,Antioch,,1498322630000,36.04,-86.64,Katie Clinebell,TN,1498322630000,24619540
199491149,Nashville,,1499394744000,36.22,-86.71,Kelly B.,TN,1499394744000,24619540
231902205,Nashville,,1500155514000,36.17,-86.78,Kellye Chyrall,TN,1502549850000,24619540
232137196,Columbia,,1500440970000,35.61,-87.05,Leah Hayward,TN,1500440970000,24619540
88945232,Clarksville,Clarksville,1500823795000,36.56,-87.41,Lilly,TN,1503053736000,24619540
36667752,Duncan,,1500318434000,34.91,-82.13,Lindsay Jones Jenkins,SC,1500318434000,24619540
4883361,Nashville,,1501514147000,36.17,-86.78,Liz,TN,1502996201000,24619540
225337482,Nashville,,1498326066000,36.14,-86.74,Maksym Ustynov,TN,1498326066000,24619540
232959818,Nashville,,1501468218000,36.18,-86.74,mia grace,TN,1501468218000,24619540
231378327,Nashville,,1499540928000,36.17,-86.78,Mo B. McAlpine,TN,1499540928000,24619540
53631422,Nashville,Boulder,1499048067000,36.16,-86.79,Nina,TN,1508348713000,24619540
231758998,Nashville,,1499974892000,36.18,-86.74,Rany Octaria,TN,1500742764000,24619540
35074372,New York,,1501014266000,40.75,-73.99,Ryan Scott Sarver,NY,1502911288000,24619540
82087612,Nashville,Donelson,1498427759000,36.17,-86.72,Scott Wolfe,TN,1498427759000,24619540
193791049,Nashville,,1501482962000,36.13,-86.8,Sebastian,TN,1501482962000,24619540
215167111,Nashville,,1498347170000,36.18,-86.81,Taylor Hale,TN,1502726283000,24619540
81924252,Nashville,,1499993736000,36.17,-86.78,Theresa,TN,1508217176000,24619540
232615857,La Vergne,,1501029454000,36.01,-86.57,ty bo,TN,1501029454000,24619540
231801120,Fort Campbell,,1500253980000,36.65,-87.46,Victoria Rhodes,KY,1500253980000,24619540
