id,city,hometown,joined,lat,lon,name,state,visited,group_id
235742118,Nashville,,1504650345000,36.17,-86.78,Alex S,TN,1504650345000,24675279
232964564,Nashville,,1501474366000,36.08,-86.72,Alina M Torres,TN,1501474366000,24675279
14317847,Nashville,,1498423118000,36.1,-86.66,Amanda,TN,1498423118000,24675279
85390722,Nashville,Nashville,1501858313000,36.15,-86.86,Amanda Jay,TN,1504551008000,24675279
235724120,Nashville,,1504631548000,36.08,-86.72,Amanda McMahan,TN,1504631548000,24675279
31139542,Nashville,,1505194920000,36.14,-86.74,Amber,TN,1505194920000,24675279
235269212,Nashville,,1504127797000,36.08,-86.72,Amber Walters,TN,1504127797000,24675279
130864792,Smyrna,,1501769253000,35.97,-86.51,Amira,TN,1501932007000,24675279
231976645,Nashville,,1500248461000,36.07,-86.78,Andrea Bernard,TN,1500248461000,24675279
118071762,Nashville,St. Louis,1501655510000,36.17,-86.78,Ang,TN,1501655510000,24675279
35079522,Nashville,,1498415670000,36.1,-86.66,Antonia Blue Star Energy Healer,TN,1508636858000,24675279
217138419,Nashville,,1500238365000,36.17,-86.78,Asha,TN,1501889853000,24675279
205361764,Madison,,1498539541000,36.26,-86.71,Ashleigh,TN,1498539541000,24675279
231606929,Nashville,,1499801357000,36.17,-86.78,Ashley Elshaunte,TN,1499801357000,24675279
232060604,Nashville,,1500349790000,36.17,-86.78,Ashley Windorfer,TN,1500349790000,24675279
183118045,Nashville,,1498421694000,36.18,-86.81,Audrey Poor Bear,TN,1504963373000,24675279
231900180,La Vergne,,1500152978000,36.01,-86.57,Beate Geyermann-braun,TN,1500152978000,24675279
12911557,Nashville,nashville tn,1499656554000,36.17,-86.78,Bev Emrath Gearhart,TN,1499656554000,24675279
227530431,Pulaski,,1498511734000,35.19,-87.03,Blake Marks,TN,1498511734000,24675279
230522449,Nashville,,1498491004000,36.17,-86.78,Brian Patterson,TN,1498491004000,24675279
189813772,Nashville,,1501453608000,36.13,-86.8,Britni,TN,1504232472000,24675279
236389949,Murfreesboro,,1505306273000,35.87,-86.34,Brook Breece,TN,1505306273000,24675279
821311,Nashville,,1501727570000,36.17,-86.78,candiceraines,TN,1505258700000,24675279
238465517,Nashville,,1507618867000,36.22,-86.86,Carolyn H.,TN,1508796423000,24675279
238594431,Nashville,,1507667152000,36.07,-86.78,Cassandra Renee French,TN,1507667152000,24675279
12128207,Franklin,"Columbia, SC",1507957578000,35.93,-86.81,Catherine,TN,1507957578000,24675279
230736743,Nashville,,1499709910000,36.06,-86.96,Catherine Claire Gatzimos,TN,1506118414000,24675279
48990822,Nashville,,1499441288000,36.16,-86.79,Cayce Harlow,TN,1503439383000,24675279
233389780,Franklin,"Franklin, TN",1501988650000,35.93,-86.81,Chali Rife,TN,1503844434000,24675279
185609845,Nashville,Oakfield,1502639831000,36.13,-86.67,Charli Crocker,TN,1502639831000,24675279
205302212,Clarksville,,1507262254000,36.56,-87.35,Christi L.,TN,1507262254000,24675279
125406282,Hermitage,"Nashville, TN",1500449303000,36.21,-86.6,Crissy Prissy,TN,1503157288000,24675279
116248362,La Vergne,"Stockton, CA",1507443638000,36.01,-86.57,Crystal Bloom,TN,1507443638000,24675279
11047470,Nashville,Nashville,1500111442000,36.1,-86.66,D Terry,TN,1506416534000,24675279
229093918,Nashville,,1498431509000,36.17,-86.78,Dalia Ali,TN,1499370634000,24675279
232043973,Nashville,,1500330599000,36.18,-86.81,Danny Lozano,TN,1500501345000,24675279
239129976,Nashville,,1508280091000,36.14,-86.81,Deanna Smith,TN,1508280091000,24675279
234367391,Nashville,,1503099192000,36.07,-86.73,Debi Avalon,TN,1503099192000,24675279
174993022,Hendersonville,,1501703291000,36.32,-86.61,Debra,TN,1508477304000,24675279
231437637,Nashville,,1499613327000,36.17,-86.78,Dez-gemini Peace,TN,1499613327000,24675279
232201571,Hendersonville,,1500517665000,36.3,-86.62,Donna Jackson,TN,1507283962000,24675279
238726284,Nashville,,1507819294000,36.17,-86.78,Dorismar Lormont,TN,1507819294000,24675279
81951732,Nashville,,1500057643000,36.17,-86.78,Elisa Beagle,TN,1500057643000,24675279
85547942,Nashville,,1506735295000,36.17,-86.78,Elise,TN,1506868534000,24675279
234803543,Nashville,,1503595671000,36.09,-86.82,Emily Heard,TN,1506308844000,24675279
230614053,Nashville,,1500872608000,36.17,-86.78,Eric Becker,TN,1502083709000,24675279
218206029,Nashville,,1503691217000,36.11,-86.86,Eryn Haber,TN,1503691217000,24675279
233809138,Nashville,,1502458394000,36.17,-86.78,Eye'am Kandake,TN,1504263935000,24675279
13133092,Nashville,,1498421271000,36.22,-86.86,Gary Hoffman,TN,1499484635000,24675279
1124238,Nashville,,1498515214000,36.18,-86.74,Gloria,TN,1504756727000,24675279
202689967,Nashville,,1501885247000,36.17,-86.78,Greg_Grog on Instagram,TN,1501885247000,24675279
236491860,Nashville,,1505937084000,36.17,-86.78,Haile Fry,TN,1505937084000,24675279
3570548,Nashville,Atlanta,1502987897000,36.06,-86.96,Heather Williams,TN,1502987897000,24675279
235999225,Nashville,,1504911063000,36.08,-86.72,Ileana Marie,TN,1504911063000,24675279
227232398,Dallas,,1506262761000,32.79,-96.8,Indigo Jones,TX,1507378744000,24675279
231253444,Nashville,,1499386665000,36.17,-86.78,Infinity Essence,TN,1499386665000,24675279
239158273,Paducah,,1508405037000,37.04,-88.71,jake massingale,KY,1508405037000,24675279
234712454,Nashville,,1503496475000,36.17,-86.78,James Gardner,TN,1503496475000,24675279
221817998,Nashville,,1504064034000,36.06,-86.96,Jana,TN,1504064034000,24675279
239207065,Nashville,,1508375594000,36.13,-86.8,Jasmine Mayes,TN,1508711543000,24675279
160566722,Nashville,Nashville Tn.,1498498831000,36.15,-86.86,Jeff Fasano,TN,1498498831000,24675279
221781299,Nashville,,1504035750000,36.17,-86.78,Jenny Byrum,TN,1504035750000,24675279
38505422,Nashville,"Jamestown, TN",1499469491000,36.17,-86.78,Jess,TN,1508534233000,24675279
235519264,Nashville,,1504414732000,36.17,-86.78,Jill Stephens,TN,1504414732000,24675279
192545605,Nashville,"Hallowell, ME",1498430542000,36.04,-86.97,Joy Rose,TN,1504192792000,24675279
235957449,Fort Campbell,,1504871511000,36.66,-87.48,Julie Schatz,KY,1504871511000,24675279
218283064,Brentwood,,1508721918000,36.0,-86.79,Karen Ivette,TN,1508721918000,24675279
96438392,Nashville,,1498425582000,36.06,-86.96,Kathryne,TN,1499616076000,24675279
236149812,Hendersonville,,1505075159000,36.32,-86.61,Katlyn Smith,TN,1505435956000,24675279
206739605,Nashville,,1499466781000,36.17,-86.78,Kennedi,TN,1501810443000,24675279
10856565,Nashville,,1508338220000,36.08,-86.72,Kim Cady,TN,1508338220000,24675279
8409012,Nashville,Hermitage,1498424175000,36.1,-86.66,krissy,TN,1498962960000,24675279
236698607,Clarksville,,1505607226000,36.53,-87.34,krista barber,TN,1505607226000,24675279
235051806,Chapel Hill,,1503888229000,35.62,-86.62,Kristen,TN,1503888229000,24675279
239149538,Nashville,,1508305576000,36.17,-86.78,Lawrence Coley,TN,1508305576000,24675279
232137196,Columbia,,1500440833000,35.61,-87.05,Leah Hayward,TN,1500440833000,24675279
32451992,Madison,,1503952675000,36.26,-86.71,Leilani Braund,TN,1503952675000,24675279
234652375,Nashville,,1504070576000,36.13,-86.8,Lexie Leatherman,TN,1508720873000,24675279
239290656,Nashville,,1508465667000,36.14,-86.81,Lissa Drake,TN,1508465667000,24675279
232860207,Franklin,,1501345228000,35.92,-86.89,Madison Ferguson,TN,1501345228000,24675279
129983482,Nashville,,1499325335000,36.18,-86.74,Madison White,TN,1499325335000,24675279
235346322,Nashville,,1504214011000,36.07,-86.78,Meagan & Eric ,TN,1504214011000,24675279
235673106,Fort Campbell,,1504577380000,36.65,-87.46,Melissa Hoffman,KY,1504577380000,24675279
227869544,Nashville,,1498421158000,36.08,-86.72,Monica L Sims,TN,1498421158000,24675279
185075060,Brentwood,,1504586294000,36.0,-86.79,Natalie Elefante,TN,1504586294000,24675279
175159382,Clarksville,"Hopkinsville, KY",1502145176000,36.56,-87.41,Natasha Thompson,TN,1504336304000,24675279
7642860,Murfreesboro,Nashville,1498425357000,35.87,-86.44,Neesa,TN,1499455724000,24675279
57875492,Franklin,Franklin,1500003780000,35.93,-86.81,Nicole Bond,TN,1504069932000,24675279
237595064,Nashville,,1506649991000,36.17,-86.78,Nicole Guyton,TN,1506649991000,24675279
235591298,Nashville,,1504496084000,36.16,-86.79,Niki Norton Reese,TN,1508420954000,24675279
234168251,Franklin,,1502888068000,35.93,-86.81,Olivia Oetjens,TN,1502888068000,24675279
235438953,Antioch,,1504320507000,36.17,-86.88,Payge Berry,TN,1504320507000,24675279
214947628,Nashville,,1504057594000,36.17,-86.79,Rachel Corvi,TN,1504102480000,24675279
225475022,Nashville,,1498614757000,36.17,-86.79,Rakesh K,TN,1505600371000,24675279
235655737,Nashville,,1504560831000,36.17,-86.78,Riley Wagner,TN,1504560831000,24675279
198388420,Franklin,"Augusta, WV",1498530807000,35.92,-86.89,roger,TN,1498530807000,24675279
234753075,Franklin,,1503538534000,35.92,-86.89,samaryelle roberson,TN,1503538534000,24675279
234825068,Mount Juliet,,1503618395000,36.22,-86.52,Sasha Kauvar,TN,1503618395000,24675279
9561451,Franklin,"Franklin, TN",1500562438000,35.92,-86.89,Scott Nugent,TN,1501810503000,24675279
126770072,Nashville,,1506980665000,36.09,-86.82,Stacy Schorr,TN,1506980665000,24675279
233654869,Nashville,,1502291746000,36.11,-86.86,Surya,TN,1502291746000,24675279
232227436,Mount Juliet,,1500555561000,36.21,-86.52,Susan Apple,TN,1506909384000,24675279
12134295,Nashville,,1502433419000,36.15,-86.86,Suzanne,TN,1507385314000,24675279
237196112,Nashville,,1506130020000,36.06,-86.96,Sweets,TN,1506130020000,24675279
234154899,Franklin,,1508399258000,35.92,-86.89,Tanya Parsley,TN,1508399258000,24675279
90079182,Franklin,"Franklin, TN",1499191320000,35.93,-86.81,Tassel Shanebrook Baldwin,TN,1499191320000,24675279
3363302,Antioch,,1503775297000,36.04,-86.64,Tim -L2,TN,1508551255000,24675279
225613852,Antioch,,1501469216000,36.04,-86.64,Toni,TN,1507310580000,24675279
112899382,Smyrna,Nashville,1508534586000,35.97,-86.51,Tonia,TN,1508534586000,24675279
18512031,Nashville,,1498422639000,36.18,-86.74,Uri Kabiri,TN,1504740347000,24675279
233280736,Nashville,,1501865463000,36.17,-86.78,Walt Bell,TN,1501865463000,24675279
231903830,Gordonsville,,1500157698000,36.17,-85.93,Wendy Claiborne,TN,1500157698000,24675279
