id,city,hometown,joined,lat,lon,name,state,visited,group_id
3227303,Nashville,,1499052775000,36.17,-86.72,Amir,TN,1508621603000,24748157
12911557,Nashville,nashville tn,1499657773000,36.17,-86.78,Bev Emrath Gearhart,TN,1499657773000,24748157
189813772,Nashville,,1498775527000,36.13,-86.8,Britni,TN,1507836506000,24748157
5615516,Nashville,,1498809269000,36.11,-86.86,Burnell,TN,1508287274000,24748157
58475712,Philo,Nashville,1498828897000,39.11,-123.52,Caden,CA,1498828897000,24748157
230736743,Nashville,,1498749924000,36.06,-86.96,Catherine Claire Gatzimos,TN,1508779002000,24748157
197311280,Nashville,,1498844033000,36.21,-86.72,Cathy Miller,TN,1498844033000,24748157
151830242,Nolensville,,1498766133000,35.94,-86.67,Christine,TN,1500053811000,24748157
234003485,Mount Pleasant,,1502692809000,35.54,-87.21,Dale Mcminnis,TN,1502692809000,24748157
229093918,Nashville,,1498844595000,36.17,-86.78,Dalia Ali,TN,1498844595000,24748157
232043973,Nashville,,1500502742000,36.18,-86.81,Danny Lozano,TN,1501268608000,24748157
230849913,Nashville,,1498891235000,36.17,-86.78,Deb Collette,TN,1498891235000,24748157
11049744,Dupont,,1499688719000,47.09,-122.64,Dee,WA,1499688719000,24748157
211808563,Nashville,,1498781140000,36.06,-86.96,Emily,TN,1503452298000,24748157
13133092,Nashville,,1498961232000,36.22,-86.86,Gary Hoffman,TN,1507587481000,24748157
231253444,Nashville,,1499386668000,36.17,-86.78,Infinity Essence,TN,1504963550000,24748157
231781248,Rockvale,,1499999474000,35.76,-86.55,J T,TN,1499999474000,24748157
234338863,Nashville,,1503079534000,36.16,-86.79,Jack Rogers,TN,1503079534000,24748157
235519264,Nashville,,1504414878000,36.17,-86.78,Jill Stephens,TN,1504414878000,24748157
1836291,Nashville,,1499534319000,36.17,-86.72,John Kern,TN,1499534319000,24748157
8014170,Brentwood,Nashville,1498923662000,36.0,-86.79,jonathan henry,TN,1498923662000,24748157
232365079,Nashville,,1500731340000,36.17,-86.78,Joyous Guard,TN,1500731340000,24748157
12977589,Nashville,,1503926722000,36.17,-86.68,Judy,TN,1504918064000,24748157
188329840,Goodlettsville,,1498769678000,36.33,-86.74,Katie Lyons,TN,1499275774000,24748157
5344258,Clarksville,,1500488125000,36.49,-87.23,Kay,TN,1500488125000,24748157
7908284,Nashville,"nashville, tn",1499572329000,36.15,-86.86,kelly,TN,1501295265000,24748157
8311912,Nashville,,1498852542000,36.17,-86.78,kermy73,TN,1504972150000,24748157
226128410,Thompsons Station,thompson station,1499478561000,35.8,-86.9,Larry Gooden,TN,1499478561000,24748157
232137196,Columbia,,1500440884000,35.61,-87.05,Leah Hayward,TN,1500440884000,24748157
227402543,Harriman,,1506267949000,35.94,-84.5,Logan Thier,TN,1506356132000,24748157
209355111,Antioch,,1507948850000,36.05,-86.59,Mark Fuqua,TN,1507948850000,24748157
7375369,Nashville,,1498768219000,36.11,-86.86,Marlene,TN,1503905026000,24748157
211209647,Nashville,,1499818776000,36.17,-86.78,Melanie M.,TN,1499818776000,24748157
234577232,Hermitage,,1503346747000,36.19,-86.6,Nancy ,TN,1503713858000,24748157
7642860,Murfreesboro,Nashville,1498853287000,35.87,-86.44,Neesa,TN,1508713399000,24748157
57875492,Franklin,Franklin,1498840469000,35.93,-86.81,Nicole Bond,TN,1498872887000,24748157
234168251,Franklin,,1502888211000,35.93,-86.81,Olivia Oetjens,TN,1502888211000,24748157
229866459,Nashville,,1498765147000,36.08,-86.72,Reanna Untener,TN,1498765147000,24748157
230719767,Hendersonville,,1498866145000,36.32,-86.61,Robert,TN,1505042423000,24748157
177279942,Nashville,,1498845209000,36.17,-86.78,Rose Leon,TN,1508207531000,24748157
126770072,Nashville,,1506980667000,36.09,-86.82,Stacy Schorr,TN,1506980667000,24748157
221838783,Clarksville,,1499021459000,36.56,-87.41,Susan Walker,TN,1501503589000,24748157
3363302,Antioch,,1504933789000,36.04,-86.64,Tim -L2,TN,1508169875000,24748157
