id,city,hometown,joined,lat,lon,name,state,visited,group_id
233293976,Nashville,,1501879209000.0,36.08,-86.72,Abby F,TN,1503681447000.0,24743042
237812072,Nashville,,1506818137000.0,36.07,-86.73,Ainsley Carman,TN,1506818137000.0,24743042
234843128,Lebanon,,1503639669000.0,36.21,-86.29,Aisha Johnson,TN,1503639669000.0,24743042
236851400,Nashville,,1505763445000.0,36.16,-86.79,Aja Hyde,TN,1505763445000.0,24743042
231471032,Nashville,,1499645244000.0,36.15,-86.86,Alex Hanflink,TN,1499645244000.0,24743042
236269317,Nashville,,1505189049000.0,36.14,-86.81,Alex Shaw,TN,1507176940000.0,24743042
235878155,Nashville,,1504788983000.0,36.17,-86.78,Alexa Carbone,TN,1504788983000.0,24743042
233987333,White House,,1502673361000.0,36.48,-86.69,Alexis Powell,TN,1508192501000.0,24743042
232964564,Nashville,,1501474366000.0,36.08,-86.72,Alina M Torres,TN,1501474366000.0,24743042
231954083,Nashville,,1500226785000.0,36.1,-86.66,Alison B,TN,1502906661000.0,24743042
236698224,Nashville,,1505606769000.0,36.18,-86.81,Allie,TN,1505606769000.0,24743042
238258678,Mount Juliet,,1507309060000.0,36.22,-86.52,Allie Hunter,TN,1507309060000.0,24743042
234720601,Nashville,,1503506343000.0,36.13,-86.67,Allison Bartlett,TN,1503506343000.0,24743042
234522716,Nashville,,1503276992000.0,36.07,-86.73,Allison Crooks,TN,1503276992000.0,24743042
232588197,Nashville,,1501003735000.0,36.17,-86.78,Allison Plattsmier,TN,1506305384000.0,24743042
237320832,Nashville,,1506278655000.0,36.17,-86.77,Ally Hummel,TN,1506278655000.0,24743042
231667524,Nashville,,1499874142000.0,36.13,-86.8,Alyssa Cervantes,TN,1499874142000.0,24743042
232887193,Nashville,,1501375304000.0,36.17,-86.78,Amanda,TN,1501375304000.0,24743042
150902602,Nashville,,1499538958000.0,36.17,-86.78,Amanda,TN,1499538958000.0,24743042
233353528,Murfreesboro,,1501951755000.0,35.87,-86.34,Amanda Atchoo,TN,1501951755000.0,24743042
234803891,Nashville,,1503595866000.0,36.11,-86.86,Amanda Bloom Gill,TN,1503595866000.0,24743042
223649693,Mount Juliet,,1508704428000.0,36.22,-86.52,Amanda Brooke Nold,TN,1508704428000.0,24743042
233443139,Charlotte,,1502050621000.0,36.24,-87.26,Amanda Brown,TN,1502050621000.0,24743042
231821191,Nashville,,1500054365000.0,36.15,-86.81,Amanda Seekell,TN,1500054365000.0,24743042
235253295,Madison,,1504115089000.0,36.26,-86.71,Amanda Worlds,TN,1504115089000.0,24743042
41236812,Nashville,Milwaukee,1499546277000.0,36.17,-86.78,amber,TN,1499546277000.0,24743042
238616193,Nashville,,1507688933000.0,36.17,-86.78,Amber P.,TN,1507688933000.0,24743042
232315833,Murfreesboro,,1500664699000.0,35.87,-86.44,Amy DiCarlo,TN,1500664699000.0,24743042
235910104,Hendersonville,,1504823379000.0,36.32,-86.61,Amy Page,TN,1504855471000.0,24743042
235498868,Nashville,,1504390775000.0,36.17,-86.78,anchorbelow,TN,1504390775000.0,24743042
231335705,Nashville,,1499484229000.0,36.17,-86.78,Angel,TN,1499484229000.0,24743042
235261736,Hermitage,,1504121746000.0,36.19,-86.6,Angel Koenig,TN,1504121746000.0,24743042
235707884,Nashville,,1504617977000.0,36.17,-86.78,Angela Brown,TN,1504912463000.0,24743042
235901132,Nashville,,1504809058000.0,36.18,-86.81,Angela Hersey,TN,1504809058000.0,24743042
232925637,Norene,,1501431374000.0,36.2,-86.28,Angelica Sepulveda,TN,1501431374000.0,24743042
231624788,Nashville,,1499819382000.0,36.15,-86.81,Anna Fogg,TN,1499819382000.0,24743042
236763004,Brentwood,,1505677488000.0,36.0,-86.79,Anne Shermam,TN,1505677488000.0,24743042
232171964,Nashville,,1500485516000.0,36.07,-86.73,Annikki Merritt,TN,1505305189000.0,24743042
232120059,Nashville,,1500420792000.0,36.16,-86.79,April S,TN,1500420792000.0,24743042
236539870,Hermitage,,1505438398000.0,36.19,-86.6,Arieal Simo'ane Burton,TN,1505438398000.0,24743042
232127083,Nashville,,1500428229000.0,36.07,-86.78,Arlena Elliott,TN,1501030791000.0,24743042
71115092,Nashville,Memphis,1502069448000.0,36.17,-86.78,Ashely Price,TN,1502293733000.0,24743042
228625838,Nashville,,1504463051000.0,36.17,-86.78,Ashley,TN,1504538338000.0,24743042
231335540,Antioch,,1499484090000.0,36.04,-86.64,Ashley Brooks,TN,1499484090000.0,24743042
231614898,Nashville,,1499809645000.0,36.14,-86.8,Ashley Logan,TN,1499809645000.0,24743042
235919891,Nashville,,1504838719000.0,36.17,-86.78,Ashley Thomas,TN,1506802075000.0,24743042
11991821,Nashville,Nashville ,1508380505000.0,36.11,-86.86,Aubrey Livingston,TN,1508380505000.0,24743042
233387655,Brentwood,,1501986775000.0,36.03,-86.79,Audrey,TN,1507144448000.0,24743042
233306376,Hendersonville,,1501892113000.0,36.32,-86.61,Avery Cockrell,TN,1501892113000.0,24743042
232804005,Nashville,,1501270114000.0,36.11,-86.86,Becky Fleckenstein,TN,1501270114000.0,24743042
203544072,Hermitage,,1507675956000.0,36.19,-86.6,Becky Garland,TN,1507675956000.0,24743042
236160823,Gallatin,,1505085530000.0,36.39,-86.45,Beka Thorpe,TN,1505085530000.0,24743042
183297218,Nashville,"Chicago, IL",1498868366000.0,36.17,-86.78,Beth,TN,1498915093000.0,24743042
234580821,Nashville,,1503347771000.0,36.06,-86.96,Bethany Rose,TN,1503347771000.0,24743042
237553990,Nashville,,1506528942000.0,36.17,-86.78,Bianca Grant,TN,1506528942000.0,24743042
237740810,Mount Juliet,,1506735355000.0,36.21,-86.52,Bonnie Jackanicz,TN,1506735355000.0,24743042
237051164,Clarksville,,1505964187000.0,36.56,-87.41,Bre Robles,TN,1505964187000.0,24743042
230684119,Nashville,,1502045325000.0,36.17,-86.78,Breanna Garcia,TN,1502938290000.0,24743042
233312340,Murfreesboro,,1501899226000.0,35.87,-86.44,Breanna Sykes,TN,1501899226000.0,24743042
233379479,Madison,,1501977433000.0,36.26,-86.71,Brenda Lee,TN,1502914018000.0,24743042
233169061,Nashville,,1501724611000.0,36.17,-86.78,Britany Ann Mcklemurry,TN,1501724611000.0,24743042
183734253,Nashville,,1503947461000.0,36.18,-86.74,Brittany,TN,1503947461000.0,24743042
237144250,Nashville,,1506073415000.0,36.06,-86.96,Brittany ,TN,1506073415000.0,24743042
235570425,Nashville,,1504472901000.0,36.17,-86.78,Brittany Bloom,TN,1504472901000.0,24743042
227859656,Mount Juliet,,1498699973000.0,36.21,-86.52,Brittany Millsaps,TN,1507299930000.0,24743042
233884207,Hendersonville,,1502561371000.0,36.32,-86.61,Brooke Mullinix,TN,1502561371000.0,24743042
232805369,Nashville,,1501271289000.0,36.17,-86.78,Caitlin Mudd,TN,1501271289000.0,24743042
231259205,Nashville,,1499392827000.0,36.06,-86.96,Caitlyn Soubasis,TN,1499392827000.0,24743042
232539666,Nashville,,1500941913000.0,36.17,-86.78,Camille Hackney,TN,1500941913000.0,24743042
9974993,Brentwood,Hallandale,1498915373000.0,36.0,-86.79,Candy,TN,1500012135000.0,24743042
239591147,Nashville,,1508804947000.0,36.17,-86.78,Carissa Boone,TN,1508804947000.0,24743042
189531331,Murfreesboro,,1505066944000.0,35.85,-86.36,Carlos Polk,TN,1505066944000.0,24743042
202727852,Nashville,,1502877316000.0,36.17,-86.78,Caroline,TN,1502877316000.0,24743042
233318819,Nashville,,1501907754000.0,36.11,-86.78,Caroline Mayhew,TN,1501907754000.0,24743042
233701730,Nashville,,1502334945000.0,36.15,-86.81,Caroline Thiriét,TN,1502334945000.0,24743042
238465517,Nashville,,1507617940000.0,36.22,-86.86,Carolyn H.,TN,1508796367000.0,24743042
231900139,Nashville,,1500153206000.0,36.16,-86.78,Carrie Bohnert,TN,1500153206000.0,24743042
236541322,Nashville,,1505439714000.0,36.17,-86.78,Casey Daniels,TN,1505439714000.0,24743042
235511635,Clarksville,,1504404731000.0,36.53,-87.35,Cassie,TN,1507994241000.0,24743042
234720612,Nashville,,1503504419000.0,36.22,-86.77,Cassie Brown,TN,1503504419000.0,24743042
232508580,Nashville,,1503431018000.0,36.17,-86.78,Cassie Roberts,TN,1503431018000.0,24743042
236062321,Nashville,,1504981641000.0,36.15,-86.79,Catherine McDonald,TN,1504981641000.0,24743042
233685259,Mount Juliet,,1502317886000.0,36.22,-86.52,Catherine Smith,TN,1502317886000.0,24743042
233099453,Nashville,,1501639936000.0,36.11,-86.86,Cebrina Johnson,TN,1501639936000.0,24743042
239525920,Nashville,,1508736704000.0,36.17,-86.78,Chelsey Souder,TN,1508736704000.0,24743042
239273906,Nashville,,1508447896000.0,36.16,-86.79,Chrissy N,TN,1508447896000.0,24743042
234342633,Nashville,,1503083493000.0,36.25,-86.77,Christina Collier,TN,1506214321000.0,24743042
231380156,Nashville,,1499541659000.0,36.18,-86.81,Christina Hopkins,TN,1506281846000.0,24743042
239416086,Murfreesboro,,1508613516000.0,35.85,-86.4,christina Sandoval,TN,1508613516000.0,24743042
232121093,Nashville,Nashville,1500422646000.0,36.13,-86.8,Christine Joy,TN,1500422646000.0,24743042
233839970,Brentwood,,1502490971000.0,36.0,-86.79,Christy James,TN,1502490971000.0,24743042
189610548,Trenton,,1501451619000.0,36.64,-87.28,Chrystal Camacho,KY,1501451619000.0,24743042
213446575,Smyrna,,1501271326000.0,35.97,-86.51,Cindy Davis,TN,1501271326000.0,24743042
231320697,Nashville,,1499466900000.0,36.08,-86.72,Claire Draghi,TN,1500604400000.0,24743042
236352728,Nashville,,1505263528000.0,36.18,-86.74,Claire Warner,TN,1505672743000.0,24743042
238819964,Mount Juliet,,1507926841000.0,36.22,-86.52,Claudia Liliana Iova,TN,1507926841000.0,24743042
237157999,Nashville,,1506090088000.0,36.06,-86.96,Clotilda Jackson,TN,1506090088000.0,24743042
231761153,Nashville,,1499977717000.0,36.08,-86.72,Cole,TN,1499977717000.0,24743042
238100577,Nashville,,1507141366000.0,36.17,-86.78,Corie Korin,TN,1508257994000.0,24743042
166927032,Nashville,Nashville,1499374659000.0,36.17,-86.72,Corinne Wymer,TN,1508436755000.0,24743042
219943617,Nashville,,1507766874000.0,36.15,-86.86,Courtney G,TN,1508625722000.0,24743042
125406282,Hermitage,"Nashville, TN",1501149231000.0,36.21,-86.6,Crissy Prissy,TN,1503082864000.0,24743042
183646839,Brentwood,"Thomaston, GA",1506962462000.0,36.0,-86.79,Dallas Salter Bunger,TN,1506962462000.0,24743042
232524017,Murfreesboro,,1502517132000.0,35.78,-86.36,Dana J. Smith,TN,1508343091000.0,24743042
192951527,Nashville,,1506612791000.0,36.15,-86.8,Daniela Lewis,TN,1508337697000.0,24743042
231668349,Hermitage,Hermitage,1499879545000.0,36.19,-86.6,Danielle Gaines,TN,1499879545000.0,24743042
227816809,Nashville,,1501617022000.0,36.17,-86.78,Darlene Stumpf,TN,1501617022000.0,24743042
239129976,Nashville,,1508280091000.0,36.14,-86.81,Deanna Smith,TN,1508280091000.0,24743042
233492820,Hermitage,,1502111446000.0,36.19,-86.6,Debbie,TN,1502111446000.0,24743042
207952764,Nashville,,1504294601000.0,36.17,-86.78,Deborah Smilez,TN,1504294601000.0,24743042
14074694,Lebanon,,1502151757000.0,36.21,-86.31,Dede,TN,1503990140000.0,24743042
11049744,Dupont,,1499743840000.0,47.09,-122.64,Dee,WA,1499743840000.0,24743042
231906002,Nashville,,1500159312000.0,36.16,-86.79,Delaney Johnson,TN,1500159312000.0,24743042
231733664,Clarksville,,1499946375000.0,36.56,-87.35,Dels Max,TN,1499946375000.0,24743042
232822199,Antioch,,1501291139000.0,36.04,-86.64,Demetria Williams,TN,1501291139000.0,24743042
236523197,Dickson,,1505423036000.0,36.08,-87.43,Denise Schaeffer,TN,1505423036000.0,24743042
232740275,Nashville,,1501187627000.0,36.17,-86.78,Diana,TN,1501187627000.0,24743042
236825752,Nashville,,1505743770000.0,36.15,-86.86,Diana Dorris,TN,1505743770000.0,24743042
239447554,Nashville,,1508648704000.0,36.07,-86.78,Donna stevenson,TN,1508648704000.0,24743042
232763204,Franklin,,1501214048000.0,35.92,-86.89,Dorie,TN,1501214048000.0,24743042
236890256,Nashville,,1505797259000.0,36.18,-86.81,Eboni,TN,1505797259000.0,24743042
238263124,Nashville,,1507313129000.0,36.17,-86.78,Ebony Fresh,TN,1507313129000.0,24743042
231995908,Nashville,,1500273240000.0,36.17,-86.78,Elena Maria Lewis,TN,1500273240000.0,24743042
12172821,Nashville,,1499876624000.0,36.17,-86.78,Elizabeth,TN,1502284183000.0,24743042
137430292,Nashville,,1498784508000.0,36.08,-86.72,Elizabeth,TN,1508000023000.0,24743042
7133630,Nashville,Poland ,1500825003000.0,36.15,-86.86,Elizabeth Gregal,TN,1500825003000.0,24743042
190000436,Antioch,,1507684336000.0,36.04,-86.64,Elizabeth Manning,TN,1507684336000.0,24743042
199079448,Nashville,,1498767902000.0,36.08,-86.72,Elizabeth Metcalf,TN,1498767902000.0,24743042
10460196,Franklin,,1501951854000.0,35.92,-86.89,Ellen Krizman,TN,1508348325000.0,24743042
204470903,Nashville,,1500640194000.0,36.14,-86.81,Emily Bhutiani,TN,1500640194000.0,24743042
235472141,Nashville,,1504364420000.0,36.15,-86.86,Erica Johnson,TN,1504364420000.0,24743042
13179430,Nashville,Memphis TN,1498765318000.0,36.17,-86.78,Erica Young,TN,1498765318000.0,24743042
235054878,Nashville,,1503891962000.0,36.08,-86.72,erika wright,TN,1503891962000.0,24743042
231534874,Nashville,,1499719878000.0,36.15,-86.86,Erin Olinger,TN,1499719878000.0,24743042
233856912,Murfreesboro,,1502510319000.0,35.78,-86.33,Essence Gregory,TN,1502510319000.0,24743042
231849870,Nashville,,1500087434000.0,36.1,-86.66,Esther Niebel,TN,1500087434000.0,24743042
227340417,Nashville,,1502756750000.0,36.17,-86.78,Falecher,TN,1506720580000.0,24743042
239234685,Nashville,,1508405722000.0,36.17,-86.78,Felicia,TN,1508405722000.0,24743042
202664443,Nashville,Nashville,1498754110000.0,36.16,-86.79,Freeder Pronounced Freeda Bartle,TN,1503087831000.0,24743042
233295843,Hermitage,,1501880843000.0,36.19,-86.6,Gabriela Apolinario,TN,1501880843000.0,24743042
235899809,Nashville,,1504807962000.0,36.14,-86.8,Genesis Santos,TN,1504807962000.0,24743042
237184061,Nashville,,1506116242000.0,36.15,-86.79,Georgia Nilsson,TN,1506116242000.0,24743042
232131004,Antioch,,1500432786000.0,36.04,-86.64,Gianna Richardson,TN,1500432786000.0,24743042
232131131,Nashville,,1500435410000.0,36.16,-86.79,Ginger Dacus,TN,1502904348000.0,24743042
235133688,La Vergne,,1503984531000.0,36.0,-86.57,Giulianna McKenney,TN,1503984531000.0,24743042
232313099,Nashville,,1500661416000.0,36.11,-86.78,Grace Cummings,TN,1500661416000.0,24743042
236020975,Nashville,,1504935300000.0,36.17,-86.78,Grace Harrison,TN,1504935300000.0,24743042
232652566,Nashville,,1501105856000.0,36.17,-86.78,Hannah,TN,1501788563000.0,24743042
231582835,Nashville,,1499777934000.0,36.18,-86.74,Hannah Beasley,TN,1499777934000.0,24743042
239423362,Nashville,,1508620593000.0,36.17,-86.78,Heather,TN,1508779063000.0,24743042
232834178,Nashville,,1501307293000.0,36.07,-86.73,Heather Streckert,TN,1501307293000.0,24743042
232807124,Nashville,,1501275822000.0,36.17,-86.77,Heaven P.,TN,1501275822000.0,24743042
235766088,Hendersonville,,1504669049000.0,36.32,-86.61,Heidi Redenius,TN,1504714320000.0,24743042
238911479,Nashville,,1508033743000.0,36.16,-86.77,Hillary Knudson,TN,1508033743000.0,24743042
230833371,Beaufort,,1501791333000.0,32.43,-80.67,Holly Murphy,SC,1501791333000.0,24743042
231997258,Smyrna,,1500397595000.0,35.97,-86.51,Irfan Ali,TN,1500397595000.0,24743042
233164242,Franklin,,1501719231000.0,35.93,-86.81,Ivy Kuzminsky Gabele,TN,1501719231000.0,24743042
232668216,Nashville,,1501096508000.0,36.22,-86.77,Jamesha Peebles,TN,1501096508000.0,24743042
235587744,Nashville,,1504491565000.0,36.15,-86.81,Jasmine C. Williams,TN,1505842876000.0,24743042
80861082,Nashville,Clarksville,1498760407000.0,36.17,-86.78,Jeane,TN,1506989896000.0,24743042
235049885,Nashville,,1503886337000.0,36.11,-86.86,Jenee,TN,1503886337000.0,24743042
236669932,Nashville,,1505579707000.0,36.15,-86.79,Jenn Cahill,TN,1505579707000.0,24743042
10098017,Nashville,Nashville,1501605646000.0,36.15,-86.81,Jenny,TN,1502719638000.0,24743042
233752750,Nashville,,1502394296000.0,36.17,-86.78,Jenny Dyer Vinson,TN,1502394296000.0,24743042
237047061,Nashville,,1505960321000.0,36.17,-86.79,Jeremy Wilson,TN,1505960321000.0,24743042
38690452,Nashville,Cypress,1498822669000.0,36.11,-86.8,Jessica,TN,1498822669000.0,24743042
59475472,Nashville,,1498763535000.0,36.08,-86.72,Jessica Jernigan,TN,1505235986000.0,24743042
235169715,La Vergne,,1504027724000.0,36.0,-86.57,Jessica Lawson,TN,1504116069000.0,24743042
232617227,Columbia,,1501030978000.0,35.62,-87.03,Jessica Wilson,TN,1501030978000.0,24743042
235519264,Nashville,,1504414976000.0,36.17,-86.78,Jill Stephens,TN,1504414976000.0,24743042
238365408,Nashville,,1507421613000.0,36.14,-86.74,jode vallejos,TN,1507421613000.0,24743042
233393574,Mount Juliet,,1501993269000.0,36.21,-86.52,Jordan Jones,TN,1501993269000.0,24743042
11969763,Nashville,,1503008148000.0,36.13,-86.67,Jourdan ,TN,1503008148000.0,24743042
238713158,Nashville,,1507804182000.0,36.17,-86.78,Joy Evans,TN,1507804182000.0,24743042
237266818,Nashville,,1506212259000.0,36.07,-86.73,Juan Carrillo,TN,1506212259000.0,24743042
229804753,Nashville,,1499561975000.0,36.17,-86.78,Julia,TN,1499561975000.0,24743042
234130786,Nashville,,1502838662000.0,36.15,-86.86,Julianne Cantrell,TN,1502838662000.0,24743042
144962622,Nashville,,1498841610000.0,36.17,-86.78,Julie Davy,TN,1498841610000.0,24743042
234063415,Nashville,,1502763336000.0,36.15,-86.86,Kaitlyn Pelletier,TN,1503525601000.0,24743042
237328334,Nashville,,1506284312000.0,36.15,-86.85,Kaitlynn Stone,TN,1508010706000.0,24743042
238984393,Nashville,,1508119072000.0,36.1,-86.66,Kaley Elizabeth Kerr,TN,1508119072000.0,24743042
232591658,Bowling Green,,1501047008000.0,36.93,-86.45,Kana.T,KY,1507555517000.0,24743042
237895731,Hendersonville,,,36.32,-86.61,,TN,,24743042
235397355,Murfreesboro,,1504278386000.0,35.78,-86.33,Kara Stevens,TN,1504278386000.0,24743042
233993402,Nashville,,,36.17,-86.78,,TN,,24743042
238084563,Franklin,,1507126580000.0,35.92,-86.87,Katherine Bloomfield,TN,1507126580000.0,24743042
234036492,Gallatin,,1502734830000.0,36.39,-86.45,Katherine Mendez,TN,1502734830000.0,24743042
232449210,Nashville,,1500836636000.0,36.07,-86.73,Katherine Walsh,TN,1500836636000.0,24743042
189953101,Irmo,,1505533971000.0,34.12,-81.2,Katie Fritschie,SC,1505782844000.0,24743042
32245072,Franklin,Chicago,1503287143000.0,35.93,-86.81,Katrina Marie,TN,1505831917000.0,24743042
238835940,Nashville,,1507943944000.0,36.11,-86.86,Kayla Parker,TN,1507943944000.0,24743042
236314268,Dickson,,1505234552000.0,36.08,-87.38,Kayla Reeves,TN,1505234552000.0,24743042
238821239,Brentwood,,1507927552000.0,36.0,-86.79,Kelsey,TN,1507927552000.0,24743042
232746216,Nashville,,1501193591000.0,36.11,-86.78,Kelsey Sorensen,TN,1501193591000.0,24743042
233236260,Nashville,,1501808298000.0,36.17,-86.78,Kiera C Lang,TN,1501808298000.0,24743042
237252567,Nashville,,1506197143000.0,36.14,-86.74,Kiki Nash,TN,1506197143000.0,24743042
204303529,Antioch,,1498845478000.0,36.04,-86.64,Kim,TN,1500330186000.0,24743042
234136071,Nashville,,1502846040000.0,36.17,-86.78,Kimberley J,TN,1502924055000.0,24743042
12647230,Nashville,Nashville,1502846390000.0,36.17,-86.72,Kimberly Easton,TN,1503486171000.0,24743042
239107079,Franklin,,1508258702000.0,35.92,-86.89,Kimberly Vair,TN,1508258702000.0,24743042
237489128,Gallatin,,1506455691000.0,36.39,-86.45,Kimmie Jones,TN,1506455691000.0,24743042
239477733,White House,,1508688443000.0,36.48,-86.69,Kinsey Kaplan Vazquez,TN,1508688443000.0,24743042
232981847,Nashville,,1501502402000.0,36.17,-86.78,Kirsten Grimes,TN,1501502402000.0,24743042
234983197,Murfreesboro,,1503809006000.0,35.87,-86.44,Kortnee,TN,1503809006000.0,24743042
119027742,Nashville,Issaquah,1500918548000.0,36.17,-86.78,Kortni,TN,1500918548000.0,24743042
236698607,Clarksville,,1505607225000.0,36.53,-87.34,krista barber,TN,1505607225000.0,24743042
183900545,Parsons,,1505794938000.0,35.64,-88.13,Kristen,TN,1506988547000.0,24743042
233001692,Nashville,,1501524666000.0,36.14,-86.8,Kristen Lemaster,TN,1501524666000.0,24743042
232523612,Nashville,,1501636823000.0,36.08,-86.72,Kristen Murray,TN,1501636823000.0,24743042
235897278,Dickson,,1504805937000.0,36.08,-87.38,Kristin Gabriel,TN,1504805937000.0,24743042
236701865,Nashville,,1505610785000.0,36.15,-86.81,Kristin Granier,TN,1505610785000.0,24743042
237891884,Nashville,,1506910131000.0,36.17,-86.78,Kristin LeRoy,TN,1508719720000.0,24743042
234667357,Franklin,,1503440917000.0,35.92,-86.89,Kristin S,TN,1503626804000.0,24743042
236116659,Whites Creek,,1505043942000.0,36.27,-86.83,Kristy West,TN,1505043942000.0,24743042
239429291,Nashville,,1508626967000.0,36.18,-86.74,Krystal Gates,TN,1508676970000.0,24743042
128865812,Antioch,Bahamas,1501933860000.0,36.04,-86.64,Kym,TN,1504117579000.0,24743042
217974636,Austin,"Austin, TX",1507306550000.0,30.29,-97.63,L. G.,TX,1507306550000.0,24743042
237745791,Murfreesboro,,1506742076000.0,35.82,-86.45,Lacey Ketelsen,TN,1506742076000.0,24743042
234451634,Nashville,,1503195655000.0,36.22,-86.77,LaDairy Snow,TN,1503195655000.0,24743042
115765052,Madison,,1500449362000.0,36.25,-86.71,LaLa ,TN,1500449362000.0,24743042
234306471,Hermitage,,1503040061000.0,36.19,-86.6,LaNisha Neal,TN,1503040061000.0,24743042
238318555,Nashville,,1507373671000.0,36.16,-86.79,LaTaunya Vantrease,TN,1507373671000.0,24743042
152376732,Nashville,,1498765658000.0,36.17,-86.78,Laura,TN,1498765658000.0,24743042
233514386,Nashville,,1502132114000.0,36.16,-86.78,Laura Evans,TN,1502913019000.0,24743042
235724786,Nashville,,1504631736000.0,36.17,-86.78,Laura Gigliotti,TN,1504631736000.0,24743042
235930217,Brentwood,,1504837007000.0,36.0,-86.79,Laura Kelsey Bartlett,TN,1504837007000.0,24743042
235345267,Clarksville,,1504212588000.0,36.56,-87.35,Lauren Clary,TN,1504212588000.0,24743042
238423198,Smyrna,,1507488834000.0,35.97,-86.51,Lauren Cootes,TN,1508474181000.0,24743042
231840485,Hermitage,,1500076475000.0,36.19,-86.6,Lauren Davidson,TN,1501279642000.0,24743042
235898318,Nashville,,1504806461000.0,36.17,-86.78,Lauren Howser,TN,1504806461000.0,24743042
231844498,Nashville,,1500081494000.0,36.17,-86.78,Lauren Wheeler,TN,1500081494000.0,24743042
238803051,Nashville,,1507910909000.0,36.15,-86.86,Laverne Alexi,TN,1507910909000.0,24743042
233376747,Old Hickory,,1501975223000.0,36.25,-86.63,LaVette Sales,TN,1501975223000.0,24743042
236112940,Mount Juliet,,1505039130000.0,36.21,-86.52,Leah Browne,TN,1505039130000.0,24743042
209069325,Nashville,,1505238691000.0,36.17,-86.78,Leia,TN,1508374341000.0,24743042
232941964,Nashville,,1501447544000.0,36.17,-86.77,Leila Hermann,TN,1501447544000.0,24743042
14255626,Nashville,Schaumburg,1502570920000.0,36.17,-86.78,Leslie M,TN,1502570920000.0,24743042
238125078,Franklin,,1507165324000.0,35.92,-86.89,Leslie Stamper,TN,1507165324000.0,24743042
233555112,Oak Grove,,1502177762000.0,36.68,-87.45,Lexi Shanks,KY,1502177762000.0,24743042
238419693,Nashville,,1507485982000.0,36.06,-86.96,Liann Cates,TN,1507485982000.0,24743042
236329969,Nashville,,1505244917000.0,36.17,-86.78,Libby Ford,TN,1505244917000.0,24743042
232197856,White House,,1500512476000.0,36.48,-86.69,Lilly,TN,1504539959000.0,24743042
233535925,Nashville,,1502153814000.0,36.15,-86.79,Lily,TN,1502564834000.0,24743042
232869944,Lebanon,,1501355638000.0,36.21,-86.29,Linda Riley,TN,1501355638000.0,24743042
196725445,Nashville,,1505251145000.0,36.17,-86.72,Lisa,TN,1505733091000.0,24743042
235587530,Nashville,,1504491410000.0,36.13,-86.67,Lisa Shakachite,TN,1504491410000.0,24743042
231462896,Smyrna,,1499636624000.0,35.97,-86.51,Lisa Williams,TN,1499636624000.0,24743042
235759889,Nashville,,1504662384000.0,36.17,-86.79,Liz Anderson,TN,1504662384000.0,24743042
232831809,Nashville,,1501304306000.0,36.17,-86.78,Liz Nguyen,TN,1506230421000.0,24743042
234035865,Nashville,,1502738809000.0,36.17,-86.78,Lolly Henry Thompson ,TN,1502738809000.0,24743042
199293884,Mount Juliet,,1498877474000.0,36.21,-86.52,Lori V,TN,1498877474000.0,24743042
231320357,Nashville,,1499466488000.0,36.14,-86.81,Lyndsy Hatfield,TN,1499466488000.0,24743042
233599190,Clarksville,,1502225099000.0,36.53,-87.35,Madam Casha Ming,TN,1502225099000.0,24743042
234364278,Nashville,,1503094488000.0,36.12,-86.84,Maegan Hall,TN,1503094488000.0,24743042
237889415,Nashville,,1506907443000.0,36.08,-86.72,Majd,TN,1508279097000.0,24743042
236319543,Franklin,,1505237030000.0,35.92,-86.87,Mandy Garland,TN,1505237030000.0,24743042
12381030,Nashville,nashville,1501105446000.0,36.08,-86.72,Mandy Hawley,TN,1501105446000.0,24743042
234257878,Spring Hill,,1502990357000.0,35.76,-86.88,Maria Antonietta Tiberia,TN,1502990357000.0,24743042
237516745,Nashville,,1506483508000.0,36.17,-86.78,Marianne LaBarre,TN,1506483508000.0,24743042
237111577,Nashville,,1506031786000.0,36.17,-86.78,Marissa Sassa,TN,1506031786000.0,24743042
239512135,Nashville,,1508733140000.0,36.15,-86.8,Marta,TN,1508733140000.0,24743042
233231433,Nashville,,1501802879000.0,36.17,-86.78,Mary Ann G,TN,1502827887000.0,24743042
196126919,Brentwood,,1505883309000.0,36.0,-86.79,Mary Thursby,TN,1505883309000.0,24743042
231429736,Nashville,,1499603533000.0,36.11,-86.86,Marybeth Schultz Reed,TN,1499603533000.0,24743042
232301417,Nashville,,1500648144000.0,36.16,-86.79,McKenzie Winter,TN,1500648144000.0,24743042
235346322,Nashville,,1504213996000.0,36.07,-86.78,Meagan & Eric ,TN,1504213996000.0,24743042
235754065,Franklin,,1504656459000.0,35.93,-86.81,Meagan Brewer,TN,1504656459000.0,24743042
236118499,Brentwood,,1505045775000.0,36.0,-86.79,Meg Hauser,TN,1505045775000.0,24743042
239369743,Nashville,,1508556650000.0,36.17,-86.78,Megan,TN,1508556650000.0,24743042
237979560,Nashville,,1507006298000.0,36.17,-86.78,Megan,TN,1507006298000.0,24743042
232451864,Nashville,,1500839200000.0,36.13,-86.8,Megan Mathews Cook,TN,1500839200000.0,24743042
140274692,Nashville,,1498870910000.0,36.17,-86.78,Melanie,TN,1507646821000.0,24743042
230543097,Nashville,,1498935580000.0,36.17,-86.78,Melia Oakes Clark,TN,1499140365000.0,24743042
235673106,Fort Campbell,,1504577380000.0,36.65,-87.46,Melissa Hoffman,KY,1504577380000.0,24743042
235281730,Hendersonville,,1504139948000.0,36.32,-86.61,Melissa Sullo,TN,1504139948000.0,24743042
232534406,Nashville,,1500936713000.0,36.17,-86.78,Melly Daniels,TN,1500936713000.0,24743042
237302915,Nashville,,1506259854000.0,36.09,-86.82,Meneka Kumari,TN,1507438059000.0,24743042
238446482,Nashville,,1507512233000.0,36.17,-86.78,Michele,TN,1507512233000.0,24743042
235133427,Nashville,,1503983849000.0,36.17,-86.78,Michelle ,TN,1503983849000.0,24743042
129933692,Nashville,Nashville ,1498776585000.0,36.08,-86.72,Michelle F,TN,1498776585000.0,24743042
232347869,Nashville,,1500703768000.0,36.14,-86.81,Michelle Fowler,TN,1500703768000.0,24743042
233819941,Nashville,,1502469527000.0,36.17,-86.78,Miranda Foster,TN,1502469527000.0,24743042
236143352,Nashville,,1505070481000.0,36.11,-86.78,Molly Schatz,TN,1505070481000.0,24743042
233383958,Nashville,,1501982179000.0,36.22,-86.74,Nadia Dunlap,TN,1501982179000.0,24743042
59359692,Franklin,Franklin,1498760268000.0,35.99,-86.9,nan george,TN,1498760268000.0,24743042
237153627,Franklin,,1506085258000.0,35.92,-86.89,Natalie,TN,1507406025000.0,24743042
238102882,Thompsons Station,,1507144222000.0,35.8,-86.9,Natalie,TN,1507144222000.0,24743042
142417362,Nashville,,1500078033000.0,36.17,-86.78,Natalie,TN,1508103608000.0,24743042
231986588,Nashville,,1500260364000.0,36.16,-86.77,Natalie Allison,TN,1500260364000.0,24743042
227421616,Nashville,,1505359771000.0,36.17,-86.78,Natalie C,TN,1505359771000.0,24743042
232665445,Nashville,,1501093828000.0,36.17,-86.72,Natalie Scott,TN,1501093828000.0,24743042
53071102,Nashville,Nashville ,1503761989000.0,36.17,-86.72,Natalya,TN,1503761989000.0,24743042
206624315,Chapmansboro,,1504879219000.0,36.37,-87.14,Natanyah Faber,TN,1504879219000.0,24743042
159174162,Nashville,,1500673669000.0,36.17,-86.78,Natasha Mina Naz,TN,1500673669000.0,24743042
210813164,Nashville,,1498855578000.0,36.17,-86.78,Natasha Skinner,TN,1508771643000.0,24743042
186921100,Nashville,,1501267234000.0,36.15,-86.86,Netra,TN,1507923669000.0,24743042
235591298,Nashville,,1504496084000.0,36.16,-86.79,Niki Norton Reese,TN,1504496084000.0,24743042
234872829,Nashville,,1503679474000.0,36.15,-86.8,Nikki Simone,TN,1504649946000.0,24743042
235005355,Nashville,,1503841380000.0,36.22,-86.77,Nke Chi,TN,1503841380000.0,24743042
234168251,Franklin,,1502887997000.0,35.93,-86.81,Olivia Oetjens,TN,1502887997000.0,24743042
159129162,Nashville,,1501202466000.0,36.17,-86.78,Olivia White,TN,1501202466000.0,24743042
191466325,Nashville,,1507182385000.0,36.17,-86.78,Oscar,TN,1507182385000.0,24743042
234066699,Nashville,,1502766179000.0,36.15,-86.81,Pam Mattox,TN,1502766179000.0,24743042
233205469,Nashville,,1501786387000.0,36.17,-86.78,Pamela Brown,TN,1501786387000.0,24743042
235495939,Hendersonville,,1504387313000.0,36.32,-86.61,Pamela Wallace,TN,1504387313000.0,24743042
237851383,Nashville,,1506869909000.0,36.16,-86.66,Paola Escarra,TN,1506869909000.0,24743042
153554072,Murfreesboro,,1501631338000.0,35.78,-86.33,Passion,TN,1503883899000.0,24743042
13614935,Mount Juliet,"Gaithersburg, MD",1502755805000.0,36.21,-86.58,Patricia,TN,1502814343000.0,24743042
235256619,Hartsville,,1504118450000.0,36.39,-86.16,patricia bridges,TN,1504118450000.0,24743042
28686572,Murfreesboro,Murfreesboro,1503464712000.0,35.87,-86.34,Paula,TN,1503464712000.0,24743042
152273872,Clarksville,Nashville,1500151251000.0,36.56,-87.41,Peggy Lewis,TN,1500151251000.0,24743042
236532848,Chapmansboro,,1505431489000.0,36.37,-87.14,Penny Kong,TN,1505431489000.0,24743042
234644140,Nashville,,,36.15,-86.82,,TN,,24743042
237089295,Nashville,,1506013704000.0,36.16,-86.78,Rachel Hellewell,TN,1506013704000.0,24743042
232908018,Manchester,,1501406827000.0,35.47,-86.11,Rachel Ruiru,TN,1501594332000.0,24743042
236782030,Clarksville,,1505695655000.0,36.53,-87.34,Rachel Wheaton,TN,1505695655000.0,24743042
235136286,Antioch,,1503988001000.0,36.04,-86.64,Raisa,TN,1503988001000.0,24743042
235577723,Clarksville,,1504480894000.0,36.56,-87.35,Rakida Sims,TN,1507414399000.0,24743042
234847672,Franklin,,1503647268000.0,35.93,-86.81,Randi Gray,TN,1503647268000.0,24743042
239107456,Fort Campbell,,1508258689000.0,36.65,-87.46,Raquel Escobosa,KY,1508258689000.0,24743042
231152070,Nashville,,1501618232000.0,36.17,-86.78,Rebekah Napper,TN,1502406601000.0,24743042
237342428,Nashville,,1506298005000.0,36.08,-86.72,Rhiannon Ramos,TN,1506298005000.0,24743042
239211628,Nashville,,1508374838000.0,36.13,-86.8,RiDe,TN,1508374838000.0,24743042
232047062,Nashville,,1507123577000.0,36.13,-86.8,Riley Ahlstrand,TN,1507123577000.0,24743042
232195588,Nashville,,1500509582000.0,36.11,-86.78,Robert James Abatteng,TN,1500509582000.0,24743042
10006822,Antioch,,1498762206000.0,36.04,-86.64,Rochelle Spooner,TN,1507302616000.0,24743042
229660996,Franklin,,1504507852000.0,35.92,-86.89,Roderica Monae,TN,1504507852000.0,24743042
40952892,Nashville,,1503167704000.0,36.17,-86.78,Rosalena,TN,1504753108000.0,24743042
231488765,Nashville,,1499915518000.0,36.14,-86.8,Rose Hu,TN,1499915518000.0,24743042
233088804,Nashville,,1501631138000.0,36.07,-86.73,Ruth Cante,TN,1501631138000.0,24743042
140903702,Nashville,,1499430023000.0,36.16,-86.81,Sabrina Guy,TN,1507905970000.0,24743042
236403566,Nashville,,1505315621000.0,36.15,-86.86,Sade Wilson,TN,1505315621000.0,24743042
238149427,Gallatin,,1507198784000.0,36.39,-86.45,Sahara,TN,1507198784000.0,24743042
235188115,Franklin,,1504047326000.0,35.92,-86.89,Sally Sara Morris,TN,1504047326000.0,24743042
237036927,Cedar Hill,,1505948949000.0,36.51,-87.02,Samantha Coomer,TN,1505948949000.0,24743042
232270953,Antioch,,1500603485000.0,36.04,-86.64,Samantha Marie Whittaker,TN,1502080383000.0,24743042
233404896,Nashville,,1502009220000.0,36.14,-86.8,Samantha Rohman,TN,1502253551000.0,24743042
232096116,Mount Juliet,,1500397546000.0,36.22,-86.52,Samantha Sawyer,TN,1500397546000.0,24743042
238815972,Nashville,,1507922569000.0,36.16,-86.77,Sammy D,TN,1508354627000.0,24743042
223867991,Nashville,,1504453372000.0,36.08,-86.72,Sara,TN,1504453372000.0,24743042
233896930,Nashville,,1502561919000.0,36.13,-86.8,Sara Smallwood,TN,1502561919000.0,24743042
191118634,Nashville,,1498802435000.0,36.17,-86.78,Sarah,TN,1507313957000.0,24743042
238324286,Hendersonville,,1507380683000.0,36.3,-86.62,Sarah Abel,TN,1507380683000.0,24743042
178585042,Nashville,,1500606948000.0,36.17,-86.78,Sarah Chilton,TN,1507377843000.0,24743042
231809999,Nashville,,1500042669000.0,36.11,-86.86,Sarah Gilliam,TN,1500042669000.0,24743042
89609732,Nashville,,1501345574000.0,36.14,-86.84,Sarah Jack,TN,1501345574000.0,24743042
237405520,Antioch,,1506367770000.0,36.04,-86.64,Sarah Lindley,TN,1506367770000.0,24743042
237811755,Nashville,,1506818160000.0,36.18,-86.74,Sarah Meko,TN,1506818160000.0,24743042
232666571,Mount Juliet,,1501095005000.0,36.22,-86.52,Sarah Worden,TN,1501095005000.0,24743042
236537226,Old Hickory,,1505436446000.0,36.25,-86.63,Sarannah McMurtry,TN,1505436446000.0,24743042
232717040,Nashville,,1501162158000.0,36.17,-86.72,Scheryl M White,TN,1501162158000.0,24743042
237330812,Nashville,,1506286518000.0,36.19,-86.8,Selina Fuller,TN,1506286518000.0,24743042
6827575,Hermitage,"Murfreesboro,TN",1498765451000.0,36.19,-86.6,Shannon Frazier,TN,1502220598000.0,24743042
233685732,Nashville,,1502320569000.0,36.14,-86.81,shannon walter,TN,1502320569000.0,24743042
233966572,Hendersonville,,1502648858000.0,36.32,-86.61,Sharon,TN,1502648858000.0,24743042
232134606,Clarksville,,1500437565000.0,36.53,-87.35,sharon heaphy,TN,1500437565000.0,24743042
19658701,Nashville,Minnesota,1504582856000.0,36.06,-86.96,Shatona Groves,TN,1507878914000.0,24743042
235675134,Nashville,,1504579188000.0,36.13,-86.82,Shea Wilson,TN,1504579188000.0,24743042
233352996,La Vergne,,1501951248000.0,36.0,-86.57,Sheila Hackett,TN,1503088430000.0,24743042
233020002,Nashville,,1501550177000.0,36.17,-86.78,Shelley Crane,TN,1501550177000.0,24743042
231377717,Nashville,,1499539484000.0,36.08,-86.72,Shelly,TN,1499539484000.0,24743042
72948292,Franklin,Nebraska,1506799101000.0,35.92,-86.89,Sheri Spell Stage Hypnotist,TN,1508360660000.0,24743042
233803406,Madison,,1502451043000.0,36.26,-86.71,Sherreese,TN,1502451043000.0,24743042
115244542,Nashville,Tampa,1500080774000.0,36.08,-86.72,Sherry,TN,1501189576000.0,24743042
183069814,Hermitage,,1498871849000.0,36.19,-86.6,Sherry Howard,TN,1502850703000.0,24743042
57803282,Hendersonville,,1498825904000.0,36.32,-86.61,Sheryl Kirkland,TN,1507932740000.0,24743042
187853114,Fremont,,1507853127000.0,37.56,-122.0,Shikha KV,CA,1507853127000.0,24743042
232956266,Nashville,,1501464286000.0,36.06,-86.96,Sonia Alam,TN,1501464286000.0,24743042
238512963,Nashville,,1507582326000.0,36.15,-86.81,Sonia Cash,TN,1507582326000.0,24743042
236999176,Nashville,,1505912631000.0,36.16,-86.66,Sonia Jennings Boss,TN,1505912631000.0,24743042
131286712,Hermitage,,1504979758000.0,36.19,-86.6,Sophia,TN,1508346550000.0,24743042
235850554,Antioch,,1504754153000.0,36.04,-86.64,Sophia Valenta,TN,1504754153000.0,24743042
70340222,Nashville,Nashville,1501173251000.0,36.16,-86.79,Stephanie,TN,1501173251000.0,24743042
232315457,Nashville,,1500663733000.0,36.17,-86.78,Stevey Sullivan,TN,1500663733000.0,24743042
232018049,Nashville,,1500304698000.0,36.14,-86.74,Sumter Barbour,TN,1500304698000.0,24743042
231981067,Nashville,,1500254087000.0,36.08,-86.72,Susan L Brown,TN,1501270866000.0,24743042
238268603,Franklin,,1507318477000.0,35.92,-86.89,Susan M,TN,1507318477000.0,24743042
233544445,Nashville,,1502163174000.0,36.08,-86.72,Tammy D.,TN,1503633769000.0,24743042
227263418,Nashville,,1506086107000.0,36.17,-86.78,Tanikka M,TN,1507309120000.0,24743042
234154899,Franklin,,1508399258000.0,35.92,-86.89,Tanya Parsley,TN,1508399258000.0,24743042
233468407,Nashville,,1502076542000.0,36.17,-86.78,Tasharamonay,TN,1502076542000.0,24743042
185139711,Sterling,,1500297307000.0,39.01,-77.39,Tatiana,VA,1500486373000.0,24743042
231748915,Columbia,,1499963381000.0,35.61,-87.05,Tekara Meeks,TN,1499963381000.0,24743042
233531017,Nashville,,1502148522000.0,36.06,-86.96,Teresarah,TN,1502148522000.0,24743042
216755491,Murfreesboro,,1505097554000.0,35.82,-86.45,Terree Ann-Marie,TN,1505097554000.0,24743042
81924252,Nashville,,1503773364000.0,36.17,-86.78,Theresa,TN,1507697780000.0,24743042
233728656,Nashville,,1502372684000.0,36.17,-86.78,Tierra Langley,TN,1502372684000.0,24743042
10356147,Murfreesboro,Columbus,1503858314000.0,35.91,-86.39,Tiffany,TN,1508115470000.0,24743042
109629822,Nashville,,1498760872000.0,36.17,-86.78,Tiffany,TN,1502925660000.0,24743042
233460636,Franklin,,1502067747000.0,35.93,-86.81,Tina Eeles,TN,1502067747000.0,24743042
237787095,Goodlettsville,,1506793253000.0,36.32,-86.72,Tina L,TN,1506793253000.0,24743042
232504296,Nashville,,1500906613000.0,36.06,-86.96,Torrie Washington ,TN,1500906613000.0,24743042
238024246,Nashville,,1507056852000.0,36.18,-86.81,Toya Covington,TN,1507056852000.0,24743042
230818596,Nashville,,,36.17,-86.78,,TN,,24743042
239523016,Nashville,,1508733673000.0,36.17,-86.78,Trish,TN,1508733673000.0,24743042
232165465,Madison,,1500479359000.0,36.26,-86.71,Trivillian,TN,1500479359000.0,24743042
233840658,Madison,,1502491318000.0,36.26,-86.71,Valarie Geneice Randle,TN,1504924731000.0,24743042
235368725,Mount Juliet,,1504237922000.0,36.21,-86.52,Vanessa Niu,TN,1504237922000.0,24743042
232642581,Antioch,,1501068606000.0,36.04,-86.64,Vanessa Ray,TN,1501068606000.0,24743042
235507409,Nashville,,1504399560000.0,36.18,-86.74,Vero Maldonado,TN,1504399560000.0,24743042
33080742,Nashville,"Dayton, OH",1502248412000.0,36.09,-86.66,Veronica Caldwell - Boone,TN,1508624352000.0,24743042
236868862,Nashville,,1505776923000.0,36.17,-86.78,Victoria Liechty,TN,1505776923000.0,24743042
155263032,Hermitage,,1507470337000.0,36.19,-86.6,Victoria Vander-Allen,TN,1507470337000.0,24743042
184012417,Nashville,,1500140483000.0,36.09,-86.9,VonB,TN,1506387780000.0,24743042
233675700,Hermitage,,1502426250000.0,36.19,-86.6,Wejdan Aljafar,TN,1503108164000.0,24743042
231903830,Gordonsville,,1500157698000.0,36.17,-85.93,Wendy Claiborne,TN,1500157698000.0,24743042
237108269,Nashville,,1506029794000.0,36.17,-86.79,Yohana Temesghen,TN,1506029794000.0,24743042
