id,city,hometown,joined,lat,lon,name,state,visited,group_id
101928642,Nashville,,1506451695000,36.15,-86.79,Adam,TN,1506451695000,25105164
235512786,Nashville,,1504405723000,36.04,-86.73,Adrian Davis,TN,1504405723000,25105164
237427415,Federal Way,,1506389045000,47.31,-122.31,Ash Marché,WA,1507420240000,25105164
236508855,Brentwood,,1505420461000,36.0,-86.79,Ben Win,TN,1505420461000,25105164
233710560,Nashville,,1502347197000,36.17,-86.78,Brandon Williams,TN,1502347197000,25105164
237211985,Nashville,,1506150615000,36.17,-86.78,Brette Ruff,TN,1506150615000,25105164
228380686,Nashville,,1501500058000,36.17,-86.78,Brittany Myers,TN,1501691033000,25105164
230493587,Nashville,,1502253116000,36.22,-86.77,Caleb F,TN,1502253116000,25105164
235093108,Antioch,,1503941867000,36.06,-86.61,Charles Hicks,TN,1503941867000,25105164
239279656,Nashville,,1508453820000,36.15,-86.86,Chase Anthony Cooksey,TN,1508453820000,25105164
8234184,Nashville,Nashville,1500908465000,36.16,-86.79,Deb,TN,1500908465000,25105164
232825253,Nashville,,1501294490000,36.21,-86.72,Derek Britton,TN,1501544078000,25105164
236731829,Franklin,,1505650140000,35.92,-86.89,Dianna,TN,1505650140000,25105164
190927523,Nashville,,1500911531000,36.06,-86.96,Ed Dodds,TN,1504284984000,25105164
237023682,Madison,,1505936235000,36.26,-86.71,Emanuel Escalante,TN,1505936235000,25105164
194678205,Nashville,,1506198189000,36.17,-86.79,Frankie Harp,TN,1506198189000,25105164
236020975,Nashville,,1505056906000,36.17,-86.78,Grace Harrison,TN,1507506921000,25105164
237469985,Nashville,,1506438569000,36.16,-86.79,Hayley Justinak,TN,1506438569000,25105164
230246750,Franklin,,1502735372000,35.92,-86.89,John Patten,TN,1502735372000,25105164
10066819,Franklin,Franklin,1501209835000,35.93,-86.81,Kimberly Matthews,TN,1501986238000,25105164
225957020,Nashville,,1508386436000,36.14,-86.74,King Ukwu,TN,1508386436000,25105164
236169630,Nashville,,1505137803000,36.17,-86.72,lillian glover,TN,1505137803000,25105164
80119952,Nashville,,1500851373000,36.11,-86.78,Mark Hollingsworth,TN,1507402882000,25105164
187097114,Memphis,,1506573641000,35.03,-89.81,Matthew Wilkinson,TN,1506573641000,25105164
234168251,Franklin,,1502888669000,35.93,-86.81,Olivia Oetjens,TN,1502888669000,25105164
233747337,Madison,,1502389651000,36.26,-86.71,Reginald Lewis,TN,1502389651000,25105164
239460249,Nashville,,1508667735000,36.15,-86.81,Reid Horn,TN,1508667735000,25105164
209384979,Brentwood,,1508370430000,36.0,-86.79,Scott O'Neill,TN,1508675958000,25105164
236030601,Nashville,,1504948867000,36.17,-86.79,Spencer Kappelman,TN,1504948867000,25105164
227165725,Ridgetop,,1506945078000,36.4,-86.77,Thao Tran,TN,1507563741000,25105164
