id,city,hometown,joined,lat,lon,name,state,visited,group_id
238334384,Nashville,,1507390770000,36.16,-86.66,Adam McIntire,TN,1507390770000,25101926
238803443,Nashville,,1507914004000,36.17,-86.78,Ammar Al-Qaryouti,TN,1507914004000,25101926
232870100,Nashville,,1501355807000,36.17,-86.78,Amy Simpson,TN,1501395557000,25101926
238909084,Nashville,,1508030704000,36.1,-86.66,Anastasia Shelton,TN,1508030704000,25101926
234459737,Nashville,,1503205794000,36.17,-86.78,Andie Lee,TN,1503271883000,25101926
232586636,Nashville,,1501000275000,36.17,-86.78,Andrew Vilar,TN,1503257495000,25101926
1962233,Nashville,Alabama,1500927027000,36.08,-86.72,ANGELA,TN,1503194759000,25101926
217747795,Nashville,,1501353714000,36.17,-86.78,Angelo Tate,TN,1501353714000,25101926
204669023,Nashville,Buford,1500969740000,36.1,-86.66,Antonio,TN,1500969740000,25101926
230388692,Antioch,,1501018218000,36.04,-86.64,Autumn,TN,1501018218000,25101926
234324964,Nashville,,1503066189000,36.17,-86.72,Bingxu Ren,TN,1503066189000,25101926
233710560,Nashville,,1502347197000,36.17,-86.78,Brandon Williams,TN,1502347197000,25101926
190647904,Nashville,,1502051068000,36.21,-86.72,Brian Irwin,TN,1503283250000,25101926
20207871,Brentwood,,1501350194000,36.0,-86.79,Bridget Vaughan,TN,1502061073000,25101926
30936082,Antioch,,1500915034000,36.04,-86.64,Britt Thomas,TN,1500915034000,25101926
228380686,Nashville,,1501075328000,36.17,-86.78,Brittany Myers,TN,1501717565000,25101926
207586256,Hermitage,,1500932448000,36.19,-86.6,Caroline Cozette Spencer,TN,1500932448000,25101926
194719117,Whites Creek,,1502821214000,36.27,-86.83,charlesetta hall,TN,1502821214000,25101926
2901938,Antioch,,1500917192000,36.04,-86.64,Charlie Rose,TN,1503276060000,25101926
239279656,Nashville,,1508453820000,36.15,-86.86,Chase Anthony Cooksey,TN,1508453820000,25101926
233783601,Nashville,,1502420888000,36.15,-86.86,Chesser,TN,1502420888000,25101926
228853952,Nashville,,1500995751000,36.16,-86.79,Christopher Waldrop,TN,1503359578000,25101926
9056614,Goodlettsville,Goodlettsville,1501100181000,36.33,-86.74,Chuck,TN,1501100181000,25101926
195629837,Spring Hill,,1500996326000,35.76,-86.88,Clay Wright,TN,1501925277000,25101926
10270601,Nashville,Hermitage,1500906613000,36.16,-86.79,Cleo Bond,TN,1500906613000,25101926
231270248,Antioch,,1500856201000,36.04,-86.64,Corey D.,TN,1507503836000,25101926
8354386,Antioch,"Hamilton, OH",1500915735000,36.04,-86.64,Darin,TN,1508067524000,25101926
153730632,Franklin,,1500992513000,35.99,-86.9,Denise Ondrejcak,TN,1501773392000,25101926
233069219,Nashville,,1501607016000,36.17,-86.78,Don Clark,TN,1501607016000,25101926
13649745,Nashville,Nashville,1500980229000,36.1,-86.66,Doug Deneve,TN,1500980229000,25101926
59872982,Madison,Minneapolis,1501249291000,36.26,-86.71,Erika Jarnes,TN,1501249291000,25101926
218206029,Nashville,,1503693217000,36.11,-86.86,Eryn Haber,TN,1503693217000,25101926
232989979,Watertown,,1501512898000,36.11,-86.14,Ethan H. Jones,TN,1501512898000,25101926
229696707,Nashville,,1500921355000,36.17,-86.78,Gee  Rivera,TN,1500921355000,25101926
236618869,Old Hickory,,1505519957000,36.25,-86.63,Gordy Valcarcel,TN,1505519957000,25101926
228068237,Mount Juliet,Albuquerque ,1503368718000,36.21,-86.52,Grace Brown,TN,1503368718000,25101926
188141522,Nashville,,1501367864000,36.16,-86.79,Havic Johnson,TN,1506049659000,25101926
203845689,Nashville,,1500919717000,36.17,-86.78,Isabella,TN,1500919717000,25101926
238290568,Nashville,,1507338273000,36.17,-86.79,J Snipes,TN,1507338273000,25101926
233314257,Nashville,,1501902285000,36.08,-86.72,Jasmine Leak,TN,1501902285000,25101926
192808261,Antioch,,1500913829000,36.04,-86.64,Jennifer Whitmore,TN,1500913829000,25101926
215522514,Nashville,,1501100847000,36.08,-86.72,JILLENE RENEE,TN,1503280423000,25101926
62662372,Nashville,,1500917648000,36.08,-86.72,John,TN,1502814095000,25101926
231379957,Nashville,,1500838831000,36.16,-86.79,john salter,TN,1503783182000,25101926
191395130,Nashville,,1501373111000,36.18,-86.81,John Wiggins,TN,1501373111000,25101926
183772703,Nashville,Brentwood,1501045958000,36.22,-86.77,JT,TN,1501045958000,25101926
189388072,Nashville,,1500910760000,36.17,-86.78,Kama Liberman,TN,1503258217000,25101926
101203442,Nashville,"Athens, GA",1501779613000,36.08,-86.72,Katie Del Rocco,TN,1501779613000,25101926
233248636,Spring Hill,,1501823864000,35.76,-86.88,Katie Herrel,TN,1502910338000,25101926
201737245,Hermitage,,1501118925000,36.19,-86.6,Kim H,TN,1502749905000,25101926
232903406,Nashville,,1501398394000,36.17,-86.78,Kimmy Inez,TN,1501398394000,25101926
212823747,Nashville,,1500953436000,36.17,-86.78,Lauren Brooke Finney,TN,1502754663000,25101926
220002813,Nashville,,1500993678000,36.13,-86.8,Leah,TN,1502721202000,25101926
219581487,Brentwood,,1500944700000,36.0,-86.79,Lisa Goss,TN,1501014011000,25101926
151661752,Nashville,,1500993462000,36.21,-86.72,Lj,TN,1500993462000,25101926
208286850,Hendersonville,,1500909408000,36.32,-86.61,Mary Jackson,TN,1501104846000,25101926
235346322,Nashville,,1504214565000,36.07,-86.78,Meagan & Eric ,TN,1504214565000,25101926
158700422,Nashville,Midwest,1500915801000,36.18,-86.74,Melanie,TN,1500915801000,25101926
233148506,Nashville,,1501702716000,36.17,-86.78,Melinda Higgins,TN,1501702716000,25101926
62106992,Nashville,,1500928966000,36.14,-86.74,Melissa Harris,TN,1500928966000,25101926
238160598,Nashville,,1507212017000,36.17,-86.78,Mia Muschek,TN,1507212017000,25101926
232902490,Nashville,,1501396856000,36.17,-86.78,Michael Huang,TN,1501396856000,25101926
238038098,Nashville,,1507069272000,36.19,-86.8,Mike Mineo,TN,1507069272000,25101926
233910477,Nashville,,1502576298000,36.16,-86.79,Mitch Stephenson,TN,1502812544000,25101926
197507434,Nashville,nashville,1507048553000,36.16,-86.79,Molly Lux,TN,1507048553000,25101926
232868437,Nashville,,1501353904000,36.17,-86.78,Monyette Jihan,TN,1503093535000,25101926
235840883,Murfreesboro,,1504744736000,35.84,-86.39,Nick Price,TN,1504744736000,25101926
234168251,Franklin,,1502888759000,35.93,-86.81,Olivia Oetjens,TN,1502888759000,25101926
54010042,Nashville,Wilderswil,1501946458000,36.16,-86.79,Patrick Weber,TN,1501946458000,25101926
128376312,Nashville,,1502165362000,36.16,-86.79,Peter Kremer,TN,1502587165000,25101926
137411322,Nashville,,1500972998000,36.17,-86.72,Phillip R. Jones,TN,1500972998000,25101926
73236182,Nashville,,1500911752000,36.14,-86.74,Rae Sovereign,TN,1500911752000,25101926
237089656,Smyrna,,1506013084000,35.97,-86.51,Ronda Groogan,TN,1506013084000,25101926
151577662,Murfreesboro,Chicago,1504749317000,35.87,-86.34,Ryan Denyse,TN,1504749317000,25101926
168822122,Nashville,,1503201170000,36.16,-86.79,Thom King ,TN,1503201170000,25101926
5861026,Hendersonville,"Bloomington, IL",1501080449000,36.32,-86.61,Todd,TN,1501110927000,25101926
232875056,Nashville,,1501361322000,36.17,-86.78,Tony Pecorini,TN,1501361322000,25101926
18512031,Nashville,,1501689989000,36.18,-86.74,Uri Kabiri,TN,1501689989000,25101926
94106112,Nashville,Nashville,1502992116000,36.06,-86.96,Ward,TN,1502992116000,25101926
