id,city,hometown,joined,lat,lon,name,state,visited,group_id
197981784,Nashville,,1501760957000,36.18,-86.74, Danielle Paulson,TN,1507295312000,25129130
204122213,Murfreesboro,,1505135176000,35.87,-86.34,Andrew Lee,TN,1505837280000,25129130
236410616,Nashville,,1505320933000,36.08,-86.72,Anjan Reddy,TN,1505924987000,25129130
236314344,Murfreesboro,,1505233438000,35.85,-86.36,ankit patel,TN,1506790896000,25129130
233807963,Chattanooga,,1502456859000,35.04,-85.31,Ashley Marks,TN,1504622661000,25129130
202906542,Nashville,,1504884481000,36.06,-86.96,Ben Hocker,TN,1504884481000,25129130
198182767,Knoxville,,1503538236000,35.97,-84.11,Ben Taylor,TN,1503538236000,25129130
236598036,Nashville,,1505500160000,36.08,-86.72,BH3,TN,1505500160000,25129130
211723357,Chattanooga,,1502801788000,35.04,-85.31,Blaine P,TN,1502801788000,25129130
224113624,Atlanta,,1501881676000,33.86,-84.4,Brad Schuster,GA,1502807710000,25129130
204148338,Boston,,1505263256000,42.34,-71.07,Bradley Guthrie,MA,1505263256000,25129130
185579751,Hixson,,1500991922000,35.16,-85.21,Chris Edwards,TN,1505698484000,25129130
234111042,Chattanooga,,1502884210000,35.05,-85.31,Chris Hurst,TN,1502884210000,25129130
236835016,Nashville,,1505768758000,36.08,-86.72,Corey Watts,TN,1506043388000,25129130
236321376,Nashville,,1505237900000,36.08,-86.72,Cory Ayers,TN,1505856540000,25129130
56878812,Raleigh,Raleigh,1500986268000,35.77,-78.64,Crystal Murphy,NC,1505923546000,25129130
8833942,Hixson,"Saint Petersburg, FL",1501500768000,35.16,-85.21,Dan Eveland,TN,1501500768000,25129130
220377003,Nashville,Antioch,1507907480000,36.22,-86.77,Daniel Babcock,TN,1507907480000,25129130
206748428,Nashville,,1505313364000,36.13,-86.8,David Hyde,TN,1505313364000,25129130
39870052,Chattanooga,"Fennville, MI",1502126561000,35.13,-85.27,David Michael Scholten,TN,1502758256000,25129130
209007278,Chattanooga,,1500991491000,35.04,-85.31,Donald Owens,TN,1502816962000,25129130
236407621,Raleigh,,1505320066000,35.77,-78.64,Eddie Abernathy,NC,1505745942000,25129130
199325676,Chattanooga,Chattanooga,1501285207000,35.04,-85.31,Eric,TN,1508789090000,25129130
208624584,Brentwood,,1505232290000,36.0,-86.79,Eric Cedillo,TN,1505920069000,25129130
237044390,Nashville,,1505956637000,36.08,-86.72,Fabio Abreu,TN,1505956637000,25129130
235966861,Franklin,,1504881054000,35.92,-86.89,Geoff,TN,1504881054000,25129130
228778749,Atlanta,,1505765173000,33.86,-84.4,Gray Salladay,GA,1508257011000,25129130
209243381,Nashville,,1504230857000,36.17,-86.78,Greg Glenn,TN,1504230857000,25129130
86331052,Chattanooga,,1502126011000,35.07,-85.31,Hubert Hixson,TN,1504113636000,25129130
236855607,Nashville,,1505766139000,36.17,-86.78,iam admin,TN,1505766139000,25129130
13348144,Nashville,,1505831838000,36.17,-86.78,James Wier,TN,1505917390000,25129130
235740511,Greenbrier,,1504646448000,36.43,-86.8,Jamie,TN,1506181733000,25129130
47079782,Signal Mountain,Chattanooga,1501156427000,35.15,-85.33,Jan Rubio,TN,1501156427000,25129130
204940466,Nashville,,1504881813000,36.08,-86.72,Jason Carroll,TN,1508261568000,25129130
8667223,Nashville,,1505857200000,36.17,-86.72,Jeff,TN,1508372737000,25129130
67051592,Nashville,,1502807468000,36.13,-86.8,Jerry Winkler,TN,1502807468000,25129130
85150562,Springfield,,1507055629000,36.52,-86.87,Jesse Ford,TN,1507055629000,25129130
236406449,Nashville,,1505329863000,36.08,-86.72,John Weakley,TN,1505329863000,25129130
5162063,Newburgh,,1508358806000,37.96,-87.4,Jon Moore,IN,1508358806000,25129130
235988180,Cornersville,Cornersville,1504899836000,35.36,-86.84,Jon Webb,TN,1504926188000,25129130
162627572,Franklin,,1505854481000,35.92,-86.89,jonnyX,TN,1506625149000,25129130
141325832,Chattanooga,,1502485119000,35.04,-85.31,Kai Janson,TN,1502485119000,25129130
221338467,Chattanooga,,1502751101000,35.04,-85.31,Keilah Thomas,TN,1502843558000,25129130
236661899,Liberty,,1505573038000,36.01,-85.97,Kelly B.,TN,1505573038000,25129130
10790831,Nashville,,1504884399000,36.08,-86.72,Kelly Simmons,TN,1505930079000,25129130
216748395,Nashville,,1505840700000,36.13,-86.8,Ken Moini,TN,1507903989000,25129130
10309794,Nashville,,1505493957000,36.14,-86.74,Kent Perrier,TN,1505965126000,25129130
184917918,Spring Hill,Spring Hill,1503276492000,35.76,-86.88,Kerry Knopp,TN,1505991291000,25129130
222419633,Nashville,"Hazzard, TN",1505833336000,36.15,-86.86,Kev,TN,1505833336000,25129130
232605391,Chattanooga,"Hazzard, TN",1501018423000,35.04,-85.31,Kev,TN,1505832613000,25129130
236958764,Nashville,,1505857879000,36.08,-86.72,Kevin Azofeifa,TN,1505857879000,25129130
187624371,Nashville,"Jackson, TN",1505621854000,36.17,-86.78,Luke N.,TN,1505621854000,25129130
203098743,Chattanooga,,1503353995000,35.13,-85.27,Margaret Rogers,TN,1505766187000,25129130
236831288,Nashville,,1505747802000,36.08,-86.72,Mark Segars,TN,1505747802000,25129130
219530472,Spring Hill,,1505336636000,35.76,-86.88,Matt Andes,TN,1506006808000,25129130
14638667,Nashville,,1505790572000,36.17,-86.78,Michael,TN,1505790572000,25129130
14321529,Cookeville,,1505238081000,36.2,-85.52,Mike Renfro,TN,1505238081000,25129130
206598883,Nashville,,1501073349000,36.17,-86.78,Nate Vaughn,TN,1506605279000,25129130
147690502,Mc Ewen,,1504880139000,36.14,-87.66,Nathan Davis,TN,1505240950000,25129130
192878469,Smyrna,,1505762763000,35.97,-86.51,Nathan Watson,TN,1505762763000,25129130
236616965,Nashville,,1505517628000,36.08,-86.72,Naveen G,TN,1505517628000,25129130
204153614,Nashville,,1505496644000,36.09,-86.63,Nick Curry,TN,1505922701000,25129130
102695132,Nashville,Nashville,1504284373000,36.18,-86.74,Peter Buchan Jr,TN,1506089485000,25129130
58363422,Chattanooga,Chattanooga ,1501458048000,35.07,-85.31,Richard L Smith,TN,1502896979000,25129130
196627894,Hixson,,1502456347000,35.16,-85.21,Rob McCoy,TN,1502456347000,25129130
183403402,Chattanooga,,1501875719000,35.05,-85.31,Robbie V,TN,1504568394000,25129130
211366231,Nashville,,1504965860000,36.17,-86.78,robert pittman,TN,1505760261000,25129130
148026092,Franklin,,1501711123000,35.93,-86.81,Ryan Smith,TN,1505760295000,25129130
235965734,Nashville,,1504879867000,36.08,-86.72,Sashi Kumar,TN,1504879867000,25129130
236617129,Nashville,,1505517828000,36.08,-86.72,Satish Dodda,TN,1505986427000,25129130
235541488,Nashville,,1504444953000,36.07,-86.73,Sergio Bello,TN,1504444953000,25129130
8410828,Atlanta,,1502315794000,33.77,-84.38,Sudesh Oudi,GA,1502315794000,25129130
219660666,Nashville,,1505484820000,36.17,-86.78,Tish Grant,TN,1505484820000,25129130
10316298,Nashville,,1504749451000,36.17,-86.78,Tom,TN,1506912922000,25129130
235986498,Nashville,,1504898221000,36.08,-86.72,Tom Linville,TN,1505951236000,25129130
193609612,Nashville,,1505841882000,36.17,-86.78,Troy S.,TN,1505864225000,25129130
235966474,Nashville,,1504880551000,36.08,-86.72,Unmesh,TN,1505276288000,25129130
13015711,Nashville,Nashville,1505826537000,36.14,-86.74,Vincent Brown,TN,1506342994000,25129130
235966422,Nashville,,1504880629000,36.08,-86.72,Wallace Chappell,TN,1505926223000,25129130
230753190,Franklin,,1505756388000,35.93,-86.81,Werner Mendoza,TN,1506090233000,25129130
2069,Brentwood,Brentwood,1505877672000,36.0,-86.79,Wesley Duffee-Braun,TN,1505877672000,25129130
