id,city,hometown,joined,lat,lon,name,state,visited,group_id
185447682,Nashville,,1508021008000,36.11,-86.78,Adrienne,TN,1508021008000,25326528
66609162,Nashville,Nashville,1504640544000,36.06,-86.96,Ahmet,TN,1508784385000,25326528
228018041,Nashville,,1502064711000,36.17,-86.78,Amaar Ali,TN,1502064711000,25326528
235817188,Nashville,,1504722951000,36.13,-86.8,Andrew Reid,TN,1506452913000,25326528
235805773,Nashville,,1504713027000,36.13,-86.8,Anuragh Mudakatte,TN,1507064684000,25326528
235181565,Nashville,,1504041194000,36.13,-86.8,Bill Walsh,TN,1504645110000,25326528
235875357,Nashville,,1504785937000,36.13,-86.8,Brian Preheim,TN,1504785937000,25326528
238168362,Nashville,,1507219304000,36.13,-86.8,Brian Preheim,TN,1508470323000,25326528
235737348,Nashville,,1504641774000,36.13,-86.8,charles,TN,1504641774000,25326528
236452896,Franklin,,1505355697000,35.92,-86.89,Christian,TN,1505355697000,25326528
235738860,Nashville,,1504643030000,36.13,-86.8,Craig Jones,TN,1504643030000,25326528
57169392,Nashville,Nashville,1501804012000,36.13,-86.8,Dalton Banks,TN,1504806949000,25326528
236394108,Nashville,,1505307190000,36.13,-86.8,David Castro,TN,1505307190000,25326528
235926574,Nashville,,1504832271000,36.13,-86.8,Davis Lee,TN,1504832271000,25326528
235736574,Nashville,,1504641213000,36.13,-86.8,Iain Briggs,TN,1504641213000,25326528
219530248,Mount Juliet,,1506853105000,36.22,-86.52,Jason Bockman,TN,1506853105000,25326528
238243465,Nashville,,1507294539000,36.13,-86.8,Jason Fromal,TN,1507294539000,25326528
103022292,Nashville,,1503929460000,36.17,-86.78,JJ Rosen,TN,1503929460000,25326528
235736341,Nashville,,1504641043000,36.13,-86.8,Jonty Macdonald,TN,1505506029000,25326528
236393798,Nashville,,1505306915000,36.13,-86.8,Jose E,TN,1505306915000,25326528
235284366,Nashville,,1504142135000,36.13,-86.8,Keith Pritchard,TN,1504142135000,25326528
207088273,Nashville,,1506283159000,36.17,-86.78,Kristy Barnes,TN,1506818101000,25326528
238029854,Nashville,,1507061246000,36.13,-86.8,Madison,TN,1507061246000,25326528
237885505,Nashville,,1506902905000,36.13,-86.8,Mary Aidan Hanrahan,TN,1507910151000,25326528
235031040,Nashville,,1503867156000,36.13,-86.8,Micah Jaffe,TN,1503867156000,25326528
189939144,Nashville,,1502480330000,36.17,-86.78,Michael Abelow,TN,1503953580000,25326528
235743723,Nashville,,1504646846000,36.13,-86.8,Michael Moulton,TN,1504646846000,25326528
238003744,Nashville,,1507037426000,36.13,-86.8,mike ducey,TN,1507037426000,25326528
238012817,Nashville,,1507045736000,36.13,-86.8,Mike J,TN,1507045736000,25326528
234168251,Franklin,,1502888578000,35.93,-86.81,Olivia Oetjens,TN,1502888578000,25326528
235769146,Nashville,,1504671905000,36.13,-86.8,Owen Focke,TN,1504671905000,25326528
236419248,Nashville,,1505327053000,36.13,-86.8,Paul Dent,TN,1507502536000,25326528
23875762,Nashville,,1503947790000,36.06,-86.96,Phillip Vest,TN,1507998886000,25326528
235275467,Nashville,,1504194260000,36.16,-86.79,Rasmus Stenbäcken,TN,1504325329000,25326528
1519567,Nashville,,1501786382000,36.17,-86.78,rbedwell,TN,1507261030000,25326528
233215469,Nashville,,1501786216000,36.13,-86.8,Sandeep Anantha,TN,1507233680000,25326528
233211028,Nashville,,1501781619000,36.13,-86.8,Scott Champ,TN,1507035311000,25326528
235736254,Nashville,,1504640949000,36.13,-86.8,Scott Himes,TN,1504640949000,25326528
235325662,Nashville,,1504192295000,36.13,-86.8,Scott LaPointe,TN,1504192295000,25326528
235246755,Nashville,,1504109929000,36.13,-86.8,Shane,TN,1508432722000,25326528
233209962,Nashville,,1501780484000,36.13,-86.8,Shane Hutton,TN,1508027544000,25326528
230674257,Nashville,,1501775908000,36.1,-86.66,Shea Conaway,TN,1508783475000,25326528
227789998,Nashville,,1501857435000,36.16,-86.79,Stephan P.,TN,1508119591000,25326528
152563132,Nashville,,1506958021000,36.06,-86.96,TJ,TN,1506958021000,25326528
209182680,Nashville,,1501888091000,36.17,-86.78,Tom Mork,TN,1501888091000,25326528
235368725,Mount Juliet,,1506993754000,36.21,-86.52,Vanessa Niu,TN,1506993754000,25326528
236818198,Nashville,,1505736445000,36.13,-86.8,Yiu-Yin Cheung,TN,1505736445000,25326528
