id,city,hometown,joined,lat,lon,name,state,visited,group_id
192498897,Nashville,,1506433523000,36.18,-86.74,A,TN,1506433523000,25339863
235726817,Nashville,,1504633629000,36.13,-86.67,Andy Adgate,TN,1504633629000,25339863
192501596,Murfreesboro,,1507873609000,35.82,-86.45,April Faircloth Collier,TN,1507873609000,25339863
238263752,Nashville,,1507313777000,36.13,-86.8,Austin Jacobs,TN,1507313777000,25339863
67315132,Nashville,,1502811323000,36.17,-86.79,Beat Zenerino,TN,1503179378000,25339863
217309361,Nashville,,1502234224000,36.17,-86.78,Ben Maxwell,TN,1503073368000,25339863
233503149,Nashville,,1502121537000,36.17,-86.78,Ben Tennant,TN,1502121537000,25339863
73976442,Nashville,,1502823677000,36.11,-86.86,Bill Bayrd,TN,1502823677000,25339863
217122985,Nashville,,1502555630000,36.17,-86.78,Billy Connolly,TN,1503077339000,25339863
96331022,Nashville,,1502653945000,36.17,-86.78,Blake Pedersen,TN,1503075471000,25339863
227010001,Memphis,,1502120610000,35.15,-90.05,Bradley Sneed,TN,1503180306000,25339863
235912827,Nashville,,1504819248000,36.13,-86.8,Breck Stodghill,TN,1504819248000,25339863
234288494,Franklin,,1503015158000,35.92,-86.89,Chris Downs,TN,1503787858000,25339863
233605244,Nashville,,1502834085000,36.17,-86.78,Chris PC Eley,TN,1502834085000,25339863
229254687,Memphis,Memphis,1504468121000,35.15,-90.05,Christine Fahey,TN,1505353878000,25339863
6045513,Nashville,,1503936933000,36.13,-86.8,Chuck Bryant,TN,1508251779000,25339863
63930892,Nashville,,1503542063000,36.17,-86.78,Craig Oaks,TN,1503542063000,25339863
237103212,Nashville,,1506023881000,36.13,-86.8,Daniel Johnson,TN,1506023881000,25339863
4994544,Nashville,,1502295614000,36.17,-86.79,David Perry,TN,1502295614000,25339863
190927523,Nashville,,1505952647000,36.06,-86.96,Ed Dodds,TN,1505952647000,25339863
234127101,Nashville,,1502834282000,36.17,-86.78,Elliot Feeny,TN,1504564451000,25339863
234133715,Nashville,,1502840988000,36.16,-86.79,Evgeny Ponomarev,TN,1502840988000,25339863
238128230,Nashville,,1507169156000,36.08,-86.72,George Farmer,TN,1507169156000,25339863
39926142,Nashville,,1501888351000,36.15,-86.86,Hari P,TN,1502120512000,25339863
218816696,Nashville,,1502552411000,36.13,-86.8,Heather,TN,1502552411000,25339863
235841254,Nashville,,1504744941000,36.13,-86.8,Isha Soni,TN,1504744941000,25339863
234338863,Nashville,,1503079793000,36.16,-86.79,Jack Rogers,TN,1503079793000,25339863
7562515,Nashville,Nashville,1501861655000,36.21,-86.72,Jeff Stansberry,TN,1501861655000,25339863
71482262,Nashville,,1502571623000,36.17,-86.78,Jeger Ali,TN,1502946969000,25339863
235842815,Nashville,,1504746392000,36.17,-86.78,John Bransford,TN,1504746392000,25339863
234096941,Nashville,,1502806664000,36.13,-86.8,John P. Conley,TN,1502806664000,25339863
234888576,Nashville,Nashville,1503696008000,36.17,-86.79,John W.,TN,1503696008000,25339863
178090242,Nashville,,1502147993000,36.17,-86.78,Jonathan Holt,TN,1503183209000,25339863
238260652,Nashville,,1507311048000,36.08,-86.72,Jonathan Slayton,TN,1507311048000,25339863
61863632,Nashville,Nashville,1504568730000,36.08,-86.72,Jose Melchor,TN,1504568730000,25339863
110489102,Nashville,,1501905180000,36.17,-86.78,Joseph Banta,TN,1501905180000,25339863
233650311,Hendersonville,,1502285386000,36.32,-86.61,Josh O'Rourke,TN,1502285386000,25339863
234218495,Clarksville,,1502939954000,36.56,-87.41,Joshua Allen Williams,TN,1502939954000,25339863
217872107,Nashville,"Franklin, TN",1503501751000,36.17,-86.78,Julia Allen,TN,1504636143000,25339863
216357048,Nashville,,1508438780000,36.11,-86.78,Kevin Clauson,TN,1508438780000,25339863
233689968,Nashville,,1502322633000,36.13,-86.8,Knight Lancaster,TN,1502491575000,25339863
223324639,Nashville,,1502464206000,36.17,-86.78,Kurt Jenkins,TN,1506538164000,25339863
140239382,Nashville,,1502994107000,36.17,-86.78,Kyle McCormick,TN,1502994107000,25339863
100618062,Brentwood,Nashville,1507295762000,36.0,-86.79,Michael Alexander,TN,1507295762000,25339863
198128679,Nashville,,1502216926000,36.17,-86.72,michael tambornino,TN,1503003813000,25339863
234173760,Nashville,,1502894177000,36.13,-86.8,Mikell Vanderlaan,TN,1502894177000,25339863
216558937,Nashville,,1502737418000,36.17,-86.72,Nate Dee,TN,1503179424000,25339863
214727694,Nashville,,1506720547000,36.17,-86.78,Nick Cavin,TN,1506720547000,25339863
234168251,Franklin,,1502888750000,35.93,-86.81,Olivia Oetjens,TN,1502888750000,25339863
236955615,Murfreesboro,,1505855342000,35.82,-86.45,Pete Moon,TN,1505855342000,25339863
225500093,Brentwood,,1502654161000,36.0,-86.79,Richard McDermott,TN,1503073471000,25339863
235655737,Nashville,,1504560932000,36.17,-86.78,Riley Wagner,TN,1504560932000,25339863
236438111,Nashville,,1505342260000,36.13,-86.8,Robert Johnson,TN,1506538134000,25339863
139889212,Nashville,,1502115137000,36.17,-86.78,rodger smith,TN,1502115137000,25339863
235829473,Nashville,,1504795077000,36.17,-86.78,Ronald Johnson,TN,1504795077000,25339863
237632529,Nashville,,1506614691000,36.13,-86.8,Rush Brady,TN,1506614691000,25339863
13772465,Nashville,,1507753682000,36.13,-86.8,Sam,TN,1507753682000,25339863
4193895,Nashville,Nashville,1501958083000,36.14,-86.74,sam452,TN,1507299396000,25339863
228125989,Nashville,,1506904388000,36.11,-86.78,siddhesh tiwari,TN,1506904388000,25339863
234252700,Miami,,1506998382000,25.75,-80.27,Stacy Lee,FL,1506998382000,25339863
207608384,Nashville,,1501885161000,36.09,-86.82,Stuart Lackey,TN,1502906679000,25339863
178935292,Nashville,,1503490161000,36.16,-86.79,Syed Nasar,TN,1503490161000,25339863
12626414,Nashville,,1501856572000,36.11,-86.86,tom nguyen,TN,1508787065000,25339863
222925100,Nashville,,1501858560000,36.08,-86.72,Tommy Ragsdale,TN,1501858560000,25339863
192958359,Nashville,,1504020255000,36.19,-86.8,Vinay Suneja,TN,1504020255000,25339863
