id,city,hometown,joined,lat,lon,name,state,visited,group_id
143348032,Mount Juliet,,1405958478000,36.22,-86.52,68gts Peyton,TN,1468922538000,2556962
227382292,Nashville,,1494509383000,36.17,-86.72,Aaron Dryer,TN,1495247004000,2556962
136808162,Gallatin,,1394567232000,36.39,-86.45,Aaron Kalliainen ,TN,1397275887000,2556962
214282996,Franklin,,1482986196000,35.92,-86.89,Abby Kinney,TN,1482986196000,2556962
200877840,Nashville,,1457082979000,36.17,-86.72,Abdul,TN,1486931850000,2556962
184892012,Franklin,,1431300615000,35.92,-86.89,Adam,TN,1460605205000,2556962
76530652,Nashville,,1410869546000,36.11,-86.78,Adam Eckert,TN,1410869546000,2556962
12794027,Nashville,,1491001459000,36.17,-86.72,Adam Faragalli,TN,1491143783000,2556962
185276433,Hendersonville,,1426463044000,36.32,-86.61,Adam Sirulnick,TN,1464662353000,2556962
163013782,Bowling Green,"Owensboro, KY",1471475170000,37.02,-86.46,Adam Winstead,KY,1507759789000,2556962
97025532,Clarksville,,1374099012000,36.53,-87.35,Adrienne V,TN,1498832359000,2556962
229940964,Nashville,,1497783635000,36.17,-86.72,Ahmed ,TN,1503963085000,2556962
57507542,Nashville,Nashville,1433474082000,36.08,-86.72,AJ Gilbert,TN,1439400766000,2556962
171292142,Nashville,,1410875869000,36.17,-86.72,Al Gleason,TN,1443798442000,2556962
187009521,Clarksville,,1431750978000,36.53,-87.35,Alan,TN,1506913649000,2556962
188329570,Nashville,"Tucker,GA",1433686245000,36.06,-86.96,Alan  Sheppard ,TN,1443269135000,2556962
189466020,Jamestown,Greensboro,1436322945000,36.0,-79.93,Alan keith,NC,1504446103000,2556962
228159881,Brentwood,,1495654420000,36.0,-86.79,Alan Smith,TN,1499012394000,2556962
164218272,Nashville,,1409259559000,36.17,-86.72,Albert smith,TN,1461094180000,2556962
146146052,Nashville,"Barnstead, NH",1430059669000,36.13,-86.8,Alex Dudley,TN,1464573601000,2556962
5724139,Nashville,,1439013902000,36.17,-86.78,Alex Villasuso,TN,1501525785000,2556962
208417123,Nashville,,1472046255000,36.17,-86.78,Alexandra Reed,TN,1480536920000,2556962
159558232,Hermitage,,1407005760000,36.19,-86.6,Alice Shepherd,TN,1501680297000,2556962
198988884,Murfreesboro,,1454341579000,35.82,-86.45,Allen Potts,TN,1490989336000,2556962
185997858,Dickson,,1428593299000,36.08,-87.43,Amanda Rodgers,TN,1428593299000,2556962
12322560,Nashville,,1373749014000,36.13,-86.8,Amber Danberry,TN,1407642171000,2556962
88718442,Hendersonville,Fallbrook,1453500216000,36.32,-86.61,Andrea,TN,1502414533000,2556962
171260302,Nashville,,1410868235000,36.17,-86.72,Andrew,TN,1410868235000,2556962
224525083,Nashville,,1490581904000,36.17,-86.72,Andrew Mack Laclair,TN,1490581904000,2556962
42173442,Nashville,,1332307157000,36.17,-86.72,andrew stevens,TN,1347257336000,2556962
35654792,Brentwood,,1382640191000,36.0,-86.79,Andrew Wilson,TN,1395436433000,2556962
185489095,Hendersonville,"Haughton, LA",1473086838000,36.32,-86.61,Andy Bell,TN,1477227283000,2556962
139616932,Murfreesboro,,1396116181000,35.82,-86.45,Andy Chambers,TN,1430226029000,2556962
190228465,Nashville,,1437515251000,36.16,-86.79,Angela,TN,1497200090000,2556962
14092788,Huntsville,Birmingham/Huntsville,1412564769000,34.78,-86.52,Angela,AL,1415071422000,2556962
43679722,Nashville,,1375710125000,36.17,-86.78,Angela Giotto,TN,1416579766000,2556962
7946188,Nashville,Nashville,1479397788000,36.11,-86.78,Angela Lancaster,TN,1501355710000,2556962
130826672,Franklin,,1467342241000,35.92,-86.89,Angie,TN,1503663819000,2556962
122283232,Bowling Green,,1401630894000,36.99,-86.47,Angie F.,KY,1428504820000,2556962
13461417,Austin,Austin,1367780380000,30.21,-97.8,Ann Claire ,TX,1383410193000,2556962
226676724,Bloomington,Nashville,1493555499000,39.1,-86.46,Ann Love,IN,1493555499000,2556962
30382962,Nashville,,1370380945000,36.18,-86.74,Anna Ashton ,TN,1377440591000,2556962
210153156,Antioch,,1470010888000,36.04,-86.64,Anthony Sloan,TN,1473080771000,2556962
206099231,Nashville,,1477296154000,36.17,-86.78,antonio thebullfighter,TN,1477419197000,2556962
181743712,Murfreesboro,"Demopolis, AL",1415151390000,35.78,-86.33,April Ray Gray,TN,1417917451000,2556962
183046697,Nashville,,1419799572000,36.17,-86.72,aquaman,TN,1420066654000,2556962
99810992,Clarksville,,1411565781000,36.49,-87.23,Armando Rodriguez,TN,1413766505000,2556962
12628606,Nashville,,1501425967000,36.16,-86.79,Art Craven,TN,1508534858000,2556962
39081472,Nashville,,1331056339000,36.22,-86.86,Ashley,TN,1475088478000,2556962
227022050,Nashville,,1494016976000,36.17,-86.78,Ashlinn Romagnoli,TN,1494016976000,2556962
87617842,Nashville,,1365025695000,35.97,-86.81,Atil Koyuncu,TN,1365473665000,2556962
173267292,Gallatin,,1411454460000,36.39,-86.45,Aubrey Justin Burton,TN,1411454460000,2556962
62777972,Nashville,,1347921551000,36.17,-86.72,Audie Hall,TN,1493699696000,2556962
62441362,Lebanon,San Diego,1465303487000,36.21,-86.31,Audrey,TN,1465315984000,2556962
186856104,Nashville,,1430611840000,36.17,-86.72,Avery Youngblood ,TN,1495761543000,2556962
233636031,Hohenwald,,1502266047000,35.55,-87.55,Babbas Wilson,TN,1503758571000,2556962
3405966,Madison,,1425397921000,36.26,-86.71,Bachuss,TN,1425397921000,2556962
118667862,Trezevant,"Mc Kenzie, TN",1383650503000,36.03,-88.6,Barbara (BABS) White Darsey,TN,1383650503000,2556962
135436742,La Vergne,,1393693379000,36.01,-86.57,Barry,TN,1393693379000,2556962
180219062,Nashville,,1455834905000,36.15,-86.81,Barry Beshears,TN,1457753307000,2556962
116454342,Whitwell,,1382295339000,35.2,-85.51,Bci Whitwell,TN,1382369969000,2556962
107802152,La Vergne,"Nashville, TN",1496044245000,36.03,-86.55,Becca Walsh,TN,1500431529000,2556962
111623172,Nashville,,1379384058000,36.17,-86.78,Ben Kirby,TN,1379384058000,2556962
204475423,Franklin,,1462293579000,35.93,-86.81,Ben Roddey,TN,1490306358000,2556962
189369492,Murfreesboro,,1439162529000,35.78,-86.33,Benjamin,TN,1440804314000,2556962
186713794,Madison,,1430277830000,34.71,-86.74,Beri Fraley,AL,1443575135000,2556962
227814982,Murfreesboro,,1502322810000,35.78,-86.33,Beth,TN,1505163914000,2556962
41433482,Manchester,"Manchester, TN",1360700115000,35.47,-86.11,Betty,TN,1506186349000,2556962
125189952,Cedar Hill,,1388507072000,36.51,-87.02,Beverly Cobb,TN,1438832187000,2556962
117103842,White Bluff,,1384485760000,36.12,-87.23,bid caller,TN,1440982376000,2556962
211205486,Franklin,,1471511402000,35.92,-86.89,Bigtalldave,TN,1508532502000,2556962
148558132,Murfreesboro,,1401166550000,35.87,-86.44,bikerbreaston,TN,1467631826000,2556962
185380101,Nashville,,1426777579000,36.17,-86.72,Bill Benesh,TN,1429286138000,2556962
232573168,Nashville,,1500986779000,36.17,-86.72,Bill Fauver,TN,1507760248000,2556962
136992952,Nashville,,1394661284000,36.17,-86.72,Bill Lummis,TN,1508801275000,2556962
191107177,Nashville,,1439165394000,36.17,-86.72,Bill Owens,TN,1441069065000,2556962
13010304,Nashville,,1317477710000,36.17,-86.78,Bill Pittenger,TN,1493774462000,2556962
232200927,Murfreesboro,,1500516862000,35.82,-86.45,Bill Roberts,TN,1500516862000,2556962
32607142,Nashville,,1323631086000,36.17,-86.72,Bill Schowalter,TN,1507827702000,2556962
204545693,Mount Juliet,,1462392466000,36.22,-86.52,Bill Wicks,TN,1464101281000,2556962
185931148,Lafayette,,1428417027000,36.52,-86.02,Billy Patty Snyder,TN,1461153256000,2556962
82204922,Nashville,"Smyrna, TN",1417071491000,36.17,-86.79,BJ Burns,TN,1493568203000,2556962
10477850,Nashville,,1333671036000,36.18,-86.74,bnmeintn,TN,1508702037000,2556962
201500522,Hendersonville,,1457975026000,36.32,-86.61,Bob & Dian Perkinson,TN,1458662039000,2556962
185889865,Fairview,,1434630932000,35.97,-87.13,Bob Bartley,TN,1434753873000,2556962
226064895,Winchester,,1505394657000,35.19,-86.11,Bob Breeden,TN,1505394657000,2556962
183217387,Lebanon,,1420691975000,36.15,-86.32,Bob Denny,TN,1447002154000,2556962
225780727,Nashville,,1492350808000,36.17,-86.72,Bob Dillon,TN,1496328264000,2556962
125070212,Nashville,,1388147712000,36.17,-86.72,bob k,TN,1428489720000,2556962
101929222,Nashville,,1380206512000,36.17,-86.72,Bob Keim,TN,1495468923000,2556962
97842382,Murfreesboro,"Stanardville, VA",1371190687000,35.87,-86.34,Bob Mardres,TN,1441548490000,2556962
215083573,Thompsons Station,,1476681758000,35.8,-86.9,Bob Oakley,TN,1508688725000,2556962
11247133,Greenbrier,,1414712622000,36.42,-86.8,Bob S,TN,1507388843000,2556962
13373882,Franklin,Primm Springs,1318019424000,35.92,-86.87,Bobcat,TN,1370871849000,2556962
14575817,Nashville,,1317756272000,36.17,-86.72,Bonnie,TN,1422767462000,2556962
4647459,Nashville,,1334694672000,36.15,-86.86,Boston Mike,TN,1335451219000,2556962
191787344,Old Hickory,cleveland tn,1458775488000,36.25,-86.63,bpat,TN,1458775488000,2556962
189153829,Cincinnati,Cincinnati,1435351885000,39.15,-84.43,Brad,OH,1435526828000,2556962
236604417,Franklin,,1507211117000,35.92,-86.89,Brad Johnson,TN,1508675901000,2556962
187963279,Nashville,"Cleveland, OH",1485916767000,36.17,-86.79,Brandon,TN,1499953688000,2556962
65700052,Nashville,"Marysville, OH",1407088795000,36.08,-86.72,Brandon,TN,1428374098000,2556962
185916176,Gallatin,,1428371621000,36.39,-86.45,Brandon Beck,TN,1435169064000,2556962
188559050,Old Hickory,,1434140550000,36.25,-86.63,brandonv111,TN,1437174052000,2556962
67706102,Nashville,,1394468573000,36.17,-86.78,Brenda,TN,1506098126000,2556962
82188372,Goodlettsville,,1374055817000,36.32,-86.72,Brenda,TN,1473042756000,2556962
135653032,Chapel Hill,chapel hill,1429280507000,35.62,-86.69,brenda austin,TN,1503960404000,2556962
229365659,Nashville,,1497035445000,36.17,-86.72,Brendan Myers,TN,1497035445000,2556962
191635192,Nashville,,1503093199000,36.17,-86.78,Brent Watts,TN,1508532506000,2556962
11983223,Big Rock,,1420516302000,36.6,-87.7,Brian,TN,1439638879000,2556962
211665926,Tolleson,"Phoenix, AZ",1472159562000,33.42,-112.24,Brian Cole,AZ,1472159562000,2556962
187667623,Mount Juliet,,1432334683000,36.22,-86.52,Brian D.,TN,1483485502000,2556962
201151830,Clarksville,,1457475128000,36.56,-87.41,Brian Evans,TN,1464522982000,2556962
185114004,Murfreesboro,,1430431920000,35.93,-86.46,Brian Gunsch,TN,1475429350000,2556962
209817604,Clarksville,,1469555889000,36.53,-87.35,Brian Horn,TN,1498041610000,2556962
87467942,Nashville,,1364941530000,36.17,-86.72,brian hulse,TN,1507469596000,2556962
159887162,Dickson,Dickson,1409730540000,36.08,-87.43,Brian Kelly,TN,1441072402000,2556962
50726122,Nashville,Nashville,1429056531000,36.18,-86.74,Brian Tinger,TN,1429056531000,2556962
227414835,Murfreesboro,,1494547380000,35.82,-86.45,Brick Krab,TN,1496156961000,2556962
229771684,Nashville,,1497548633000,36.17,-86.72,broseph robinson,TN,1499197307000,2556962
149357732,Nashville,,1401588956000,36.17,-86.72,Bruce,TN,1414241610000,2556962
211842336,Nashville,,1472407030000,36.17,-86.72,Bruce Coleman,TN,1473439176000,2556962
186691264,Hendersonville,"Hopkinsville, KY",1430236662000,36.32,-86.61,Bruce E Kirby,TN,1445186941000,2556962
182537154,Murfreesboro,,1415947254000,35.89,-86.4,Bruce Praseutsinh,TN,1416320280000,2556962
126146582,Nashville,,1388706273000,36.17,-86.72,Bruce S,TN,1428494740000,2556962
54937432,Portland,,1459002691000,36.57,-86.49,Bryan & Mary,TN,1459002691000,2556962
170767532,New York,,1410622480000,40.75,-73.99,Bryan Allen,NY,1410622480000,2556962
211521443,Nashville,,1471969071000,36.17,-86.78,Bryan Riddle,TN,1472066764000,2556962
236071599,Nashville,,1504989902000,36.17,-86.72,Bryce Schmidt,TN,1504989902000,2556962
64006232,Nashville,,1348727560000,36.17,-86.72,BT,TN,1503263508000,2556962
63255612,Nashville,,1348238939000,36.17,-86.72,Bud,TN,1388935135000,2556962
136271092,Fort Payne,,1401914730000,34.45,-85.71,Candy,AL,1445032687000,2556962
10150629,Hermitage,Hermitage,1322414014000,36.19,-86.6,Cari Ehrmann,TN,1372960594000,2556962
24540382,Nashville,,1424842762000,36.17,-86.78,Carless,TN,1493689738000,2556962
195023231,Madison,,1446941032000,36.26,-86.71,Carlo cruz,TN,1488923104000,2556962
103872162,Smyrna,,1374845054000,35.97,-86.51,Carol Duncan,TN,1386093222000,2556962
203971708,Mount Juliet,,1461628035000,36.22,-86.52,Carolyn D.,TN,1472863512000,2556962
197769047,Fayetteville,,1452188346000,35.15,-86.57,Carter McAlister,TN,1492659222000,2556962
13374467,Nashville,,1385132191000,36.17,-86.78,Casey Dorton,TN,1397145085000,2556962
14475094,Franklin,"Charlottesville, VA",1374248395000,35.93,-86.81,Casey Evans,TN,1418656985000,2556962
92705052,Nashville,,1368074283000,36.17,-86.72,Casey Manus,TN,1385000994000,2556962
180971782,Nashville,,1414731041000,36.17,-86.78,Casey Napier,TN,1418761506000,2556962
163784222,Calhoun,,1485201083000,34.5,-84.93,Catherine Wood,GA,1506115549000,2556962
164969292,Nashville,,1474310772000,36.08,-86.72,Catheryn Barber,TN,1475008124000,2556962
171238612,Nashville,,1410854170000,36.17,-86.72,Cathy Coon Wilcox,TN,1410854170000,2556962
187569484,Antioch,,1433425257000,36.04,-86.64,Catie,TN,1433425257000,2556962
28806382,Franklin,,1372780392000,35.92,-86.89,Cecile Elfman,TN,1490235233000,2556962
233853568,Nashville,,1502505794000,36.17,-86.72,Chance Blackwell,TN,1502505794000,2556962
12220466,Nashville,,1410869280000,36.22,-86.77,Chanda Stallings Wood,TN,1474919045000,2556962
45131572,Nashville,,1334799829000,36.17,-86.72,Charles,TN,1381819694000,2556962
37938502,Nashville,"Phoenix, AZ",1508208913000,36.1,-86.66,Charles Crouch,TN,1508669764000,2556962
53106902,Murfreesboro,,1494385444000,35.87,-86.44,Charles Fulwider,TN,1501288503000,2556962
140266162,Smyrna,,1397320439000,35.96,-86.52,Charles Hisle,TN,1432210788000,2556962
35597072,Brentwood,,1326875542000,36.0,-86.79,Charles Hoover,TN,1500180565000,2556962
231503476,Nashville,,1500378555000,36.17,-86.78,Charlie Williams,TN,1502910495000,2556962
232982794,Nashville,,1501503341000,36.17,-86.72,Chase Moyer,TN,1505872099000,2556962
131769102,Nashville,Nashville,1431041197000,36.15,-86.86,Cheree Neely,TN,1501323283000,2556962
97193022,Nashville,,1370831051000,36.17,-86.72,Cheri Baker ,TN,1439990881000,2556962
34599162,Nashville,,1327244665000,36.11,-86.78,ChicagoChik ,TN,1404761512000,2556962
187584627,Franklin,,1432167537000,35.99,-86.9,Chip,TN,1435268598000,2556962
13847195,Unionville,,1323049637000,35.62,-86.57,Chris ,TN,1506092037000,2556962
81972632,Nashville,,1361684847000,36.11,-86.86,Chris,TN,1379887499000,2556962
141883822,Nashville,"Janesville, WI",1397402114000,36.17,-86.72,Chris,TN,1407498958000,2556962
3977195,Goodlettsville,Goodlettsville ,1468530052000,36.33,-86.74,Chris ,TN,1490993565000,2556962
91635842,Nashville,,1367422175000,36.17,-86.72,Chris,TN,1392065208000,2556962
185762127,Nashville,,1427940489000,36.17,-86.72,Chris C.,TN,1508689819000,2556962
166160662,New York,,1496446085000,40.72,-74.0,Chris Carter,NY,1508412467000,2556962
224452193,Nashville,,1490479913000,36.17,-86.72,Chris Haley,TN,1491091157000,2556962
190396504,Franklin,,1437832717000,35.93,-86.81,Chris hart,TN,1466010209000,2556962
105129562,Murfreesboro,"Altoona, PA",1486084371000,35.78,-86.33,Chris Kleiner,TN,1486084371000,2556962
204918788,Loretto,,1462932792000,35.08,-87.44,Chris m,TN,1463367778000,2556962
202195166,Crossville,,1459001583000,35.95,-85.03,Chris Roberts,TN,1459001583000,2556962
212882101,Clarksville,,1487078469000,36.57,-87.43,Chris Weller,TN,1487678986000,2556962
73575362,Nashville,,1356361205000,36.17,-86.72,Chris Wilson,TN,1474301289000,2556962
222290181,Fort Campbell,,1488728855000,36.65,-87.46,Chris Woodruff,KY,1488728855000,2556962
111049332,Smyrna,,1479177175000,35.97,-86.51,Christa Fly,TN,1479177175000,2556962
171281072,Nashville,,1410873814000,36.17,-86.72,Christine Twitchy Pascale,TN,1411147856000,2556962
203242423,Nashville,,1460502326000,36.17,-86.72,Christipher h,TN,1460502326000,2556962
97722942,Brentwood,,1414623659000,36.05,-86.71,Christopher Andersen,TN,1440855776000,2556962
187673402,Smyrna,,1432346215000,35.97,-86.51,Christopher Cook,TN,1436501726000,2556962
104071882,Smyrna,,1377441336000,35.97,-86.51,Christopher Ross,TN,1500422134000,2556962
180045782,Columbia,"Mount Pleasant, TN",1414282500000,35.61,-87.05,Christopher Ward,TN,1417918150000,2556962
68918802,Franklin,,1436659875000,35.92,-86.89,Christy Shehorn Albers,TN,1439340214000,2556962
33940662,Nashville,McKinleyville California,1341246687000,36.09,-86.82,Chuck Craig,TN,1406937604000,2556962
95509552,Murfreesboro,"Waukesha, WI",1397603287000,35.78,-86.33,Chuck Cunningham,TN,1461182012000,2556962
34633322,Smyrna,,1347913441000,35.97,-86.51,Chuck Guy,TN,1508704194000,2556962
134532742,Franklin,,1394821692000,35.92,-86.89,Chuck Lynch,TN,1406598120000,2556962
186106034,Smyrna,"Smyrna, TN",1428877378000,35.97,-86.51,Chuck Williams,TN,1430905154000,2556962
210490685,Cookeville,,1470496215000,36.2,-85.52,Chuck-Ronda Haney,TN,1471898814000,2556962
187629187,Nashville,,1432256620000,36.17,-86.78,Cindi Rice,TN,1443972697000,2556962
113806562,Clarksville,,1382664523000,36.53,-87.35,Cindi Ryan ,TN,1400341401000,2556962
95332622,Nashville,,1369721454000,36.17,-86.78,Cindy Swafford,TN,1371470393000,2556962
224919839,Brentwood,,1491178947000,36.0,-86.79,CJ Six,TN,1498145940000,2556962
202935126,Nashville,Nashville,1460073441000,36.21,-86.72,Clayton Brown,TN,1461022753000,2556962
229257105,Nashville,,1496891895000,36.17,-86.78,Cliff F. Bryant III,TN,1496891895000,2556962
12778323,Knoxville,"Santa Maria, CA",1327706099000,35.92,-84.1,Clyde,TN,1506126894000,2556962
233131375,Nashville,,1501685353000,36.17,-86.78,Clyde,TN,1508087904000,2556962
159760322,Nashville,,1431473009000,36.17,-86.78,coby,TN,1476037141000,2556962
83053722,San Antonio,,1380897081000,29.47,-98.53,Cody Danner,TX,1402843185000,2556962
42657862,Nashville,,1332738054000,36.17,-86.72,Cody Heimann,TN,1473702648000,2556962
226484387,Nashville,,1493279649000,36.17,-86.72,Cody McCloud,TN,1504970183000,2556962
207816035,Nashville,,1466904836000,36.17,-86.78,Cole Cooper,TN,1466904836000,2556962
204075479,Buckeye,,1461700688000,33.47,-112.49,Colt Matthews,AZ,1474904557000,2556962
69476972,Franklin,,1389799327000,35.93,-86.81,Connie Kondrat,TN,1508600799000,2556962
152557402,Franklin,,1403312077000,35.93,-86.81,Corey,TN,1403548829000,2556962
205138790,Murfreesboro,,1463245186000,35.82,-86.45,Cory,TN,1465738695000,2556962
189359364,Columbia,,1435780055000,35.61,-87.05,Coty Speck,TN,1435780055000,2556962
171091282,Nashville,,1410794955000,36.17,-86.72,craig,TN,1415296420000,2556962
172412152,Sparta,Sparta,1506795710000,35.93,-85.47,curiouser,TN,1508592338000,2556962
137572122,Nashville,,1395012038000,36.17,-86.72,cwboybiker,TN,1402997258000,2556962
8643593,Nashville,"Nashville, TN",1463881715000,36.08,-86.72,Cynthia Cappello,TN,1464321264000,2556962
55849592,Nashville,,1343059875000,36.17,-86.72,D'Nese Nicolosi,TN,1472411157000,2556962
40588432,Killen,"Cabo Rojo, PR",1390775123000,34.91,-87.5,Daine,AL,1434209441000,2556962
108151292,Woodbury,,1377353125000,35.81,-86.07,Dale Johnson,TN,1377353125000,2556962
156578952,Honolulu,Honolulu,1407169775000,21.29,-157.75,Dale Socha,HI,1461004915000,2556962
83702202,La Vergne,LaVergne,1362622446000,36.01,-86.57,damon norton,TN,1383930685000,2556962
169673522,Centerville,,1410383904000,35.67,-87.7,Damon Williams,TN,1418387999000,2556962
17724641,Nashville,Nashville,1317485975000,36.06,-86.96,Dan,TN,1351698869000,2556962
236140649,Woodbury,,1505066930000,35.81,-86.07,Dana,TN,1505066930000,2556962
26887532,Nashville,Nashville,1317732673000,36.06,-86.96,Dani O'Brien,TN,1475325076000,2556962
181179362,Nashville,,1414867232000,36.18,-86.74,Daniel,TN,1471533034000,2556962
54478662,Nashville,,1342055805000,36.17,-86.72,Daniel and Cindy Cole,TN,1345437518000,2556962
214358433,Gallatin,,1500166255000,36.39,-86.45,Daniel Gregory,TN,1506400765000,2556962
154516102,Nashville,,1407695525000,36.18,-86.74,Danielle Drummond,TN,1407695525000,2556962
94343802,Fairview,Eagle River Alaska,1395683441000,35.97,-87.13,Danielle Hurst,TN,1407088415000,2556962
213809673,Nashville,,1474994416000,36.17,-86.72,danny moran,TN,1496584566000,2556962
182519135,La Vergne,,1439610267000,36.05,-86.59,Darrel Blevins,TN,1501040725000,2556962
150016952,Antioch,"Antioch, TN",1401924142000,36.04,-86.64,Darryl Thornton,TN,1425826685000,2556962
30653202,Gallatin,GALLATIN,1321246432000,36.39,-86.45,Daryl Barber,TN,1396055182000,2556962
4319828,Franklin,"Philadelphia, PA",1358175178000,35.93,-86.81,Dave Daniels,TN,1505227325000,2556962
220561844,Kingston Springs,kingston springs,1485204586000,36.09,-87.12,Dave Wood,TN,1502288022000,2556962
165572302,Nashville,,1409616509000,36.15,-86.86,David,TN,1478103810000,2556962
59175202,Nashville,,1345477754000,36.11,-86.78,David,TN,1376596645000,2556962
89618042,Nashville,,1366179363000,36.17,-86.72,David ,TN,1377522472000,2556962
127849802,Nashville,,1389582993000,36.17,-86.72,David B,TN,1421592132000,2556962
79868592,Nashville,Palatine,1497041302000,36.14,-86.74,David Barendt,TN,1498171368000,2556962
13456076,Madison,"Madison, Tn",1428978370000,36.26,-86.71,David Bender,TN,1444616412000,2556962
88375412,Brentwood,"Brentwood, TN",1475897756000,36.0,-86.79,David Birdsong,TN,1508778389000,2556962
214154417,Nashville,,1475384998000,36.17,-86.72,david buttermore,TN,1475384998000,2556962
187177348,Nashville,,1437684797000,36.17,-86.78,David Dull,TN,1464920918000,2556962
182581819,Murfreesboro,,1481449932000,35.82,-86.45,David Duong,TN,1506574608000,2556962
230798730,Nashville,,1498832557000,36.16,-86.79,David Gerstein,TN,1500810232000,2556962
73549562,Goodlettsville,Goodlettsville ,1446841907000,36.33,-86.74,David GIgear,TN,1506398481000,2556962
156789842,Nashville,,1439330702000,36.08,-86.72,David Gonzalez,TN,1454124293000,2556962
14401349,Tampa,Tampa,1476466784000,28.07,-82.56,David Hill,FL,1508797861000,2556962
41163112,Goodlettsville,Goodlettsville,1334283712000,36.33,-86.74,David Howard,TN,1476794746000,2556962
74050332,Nashville,,1356822603000,36.17,-86.72,David Kellers,TN,1404452199000,2556962
183233942,Spring Hill,Spring Hill,1420129954000,35.76,-86.88,David N Heichelbech,TN,1507897736000,2556962
100981222,Murrieta,Murrieta,1424368018000,33.54,-117.29,David R.,CA,1436536111000,2556962
183447939,Nashville,,1493959043000,36.17,-86.78,David Sailor,TN,1503415225000,2556962
161955222,Franklin,FRANKLIN,1466655991000,35.92,-86.89,david tutterrow,TN,1498587525000,2556962
9577707,Murfreesboro,Nashville,1365422179000,35.78,-86.33,David W,TN,1409756151000,2556962
189202203,Chula Vista,,1507671243000,32.65,-116.98,David Willis,CA,1507671243000,2556962
211332254,Clarksville,"Saint Clair, MO",1471712279000,36.53,-87.35,David Woodruff,TN,1475104401000,2556962
14370663,Nashville,,1422284713000,36.11,-86.78,Davide V,TN,1500413766000,2556962
40589852,Nashville,,1394675878000,36.17,-86.78,Dawn Elizabeth Crago,TN,1440500508000,2556962
158557762,Nashville,,1406489258000,36.17,-86.72,Dawn McQueeney,TN,1407747659000,2556962
232523643,Crossville,,1501012650000,35.95,-85.03,Dawn Modlin,TN,1501642869000,2556962
75602192,Lebanon,Chicago,1430626487000,36.15,-86.32,Deb Konrath,TN,1441847222000,2556962
184937119,La Vergne,"Oklahoma City, OK",1425438214000,36.01,-86.57,Debbie,TN,1505950056000,2556962
58099672,Mount Juliet,,1365336337000,36.22,-86.52,Debbie Walker,TN,1434765383000,2556962
14511231,Joelton,"Donelson, TN",1357853484000,36.33,-86.91,Deborah,TN,1371313571000,2556962
186173911,Thompsons Station,,1429037178000,35.8,-86.9,deciacco,TN,1450733243000,2556962
222849243,Gallatin,,1488231619000,36.39,-86.45,Dee,TN,1506111290000,2556962
194386527,Mount Juliet,,1445366719000,36.22,-86.52,Dell Binkley,TN,1445366719000,2556962
28292932,Spring Hill,So Calif,1318893568000,35.76,-86.88,Denise,TN,1469020749000,2556962
109553162,Mount Juliet,,1478644653000,36.22,-86.52,Denise Ivers,TN,1478651238000,2556962
112052112,Clarksville,,1476654525000,36.53,-87.35,Denise Shelton,TN,1476654525000,2556962
90138782,Nashville,,1366506955000,36.17,-86.72,Dennis,TN,1495433367000,2556962
195191996,Dickson,,1446834767000,36.08,-87.43,Dennis Brown,TN,1505172170000,2556962
183899431,Nashville,,1422220777000,36.17,-86.72,Denny Keitzman,TN,1422220777000,2556962
67912642,Antioch,,1460425382000,36.04,-86.64,denver tangren,TN,1460425382000,2556962
227805340,Nashville,,1495068349000,36.17,-86.72,Derek Doss,TN,1508534502000,2556962
140292572,Hendersonville,,1396563672000,36.32,-86.61,Devan,TN,1419136329000,2556962
234739225,Columbia,,1503520078000,35.61,-87.05,Dewayne Barnett,TN,1503520078000,2556962
38931492,Goodlettsville,Nashville,1446841187000,36.33,-86.74,Dez,TN,1448374624000,2556962
196052436,Sparta,,1498882897000,35.93,-85.47,Diana,TN,1506887906000,2556962
58444702,Nashville,,1366021744000,36.17,-86.72,Diana Morrow,TN,1398564143000,2556962
151712082,White House,,1402940320000,36.48,-86.69,Diana Thornton,TN,1402940320000,2556962
1808238,Nashville,,1372600350000,36.06,-86.96,Diane,TN,1498335093000,2556962
10988935,La Vergne,"Nashville, tn",1317482896000,36.01,-86.57,Dick Beistel,TN,1496457697000,2556962
185486494,Cookeville,Cookeville,1427115802000,36.2,-85.52,Dick Flam,TN,1506889574000,2556962
196711974,La Vergne,,1449798363000,36.01,-86.57,Domonik Urquia,TN,1450198819000,2556962
232864603,Nashville,,1501349939000,36.17,-86.72,donald aviles,TN,1503262564000,2556962
231834990,Nashville,,1500866005000,36.11,-86.86,Donald Erich,TN,1507326902000,2556962
74974442,Murfreesboro,,1369055235000,35.82,-86.45,Donna Joplin,TN,1442857488000,2556962
239362540,Nashville,,1508548165000,36.17,-86.72,Donnie Moore,TN,1508548165000,2556962
229527960,Hendersonville,,1497237984000,36.32,-86.61,dorin balan,TN,1508707856000,2556962
183728721,Mount Pleasant,,1421798361000,35.54,-87.21,Dotri ,TN,1428552194000,2556962
11685084,Nolensville,Nolensville,1368132891000,35.94,-86.67,Doug,TN,1500409845000,2556962
228519523,Nashville,,1495987224000,36.17,-86.72,Doug Beecham,TN,1496345291000,2556962
216715772,Brentwood,,1479204198000,36.0,-86.79,Doug Blanchard,TN,1501724601000,2556962
199674622,Nolensville,,1457798277000,35.94,-86.67,Doug LaMey,TN,1461461813000,2556962
70509212,Murfreesboro,"Buffalo, NY",1353622213000,35.78,-86.33,Douglas Barr,TN,1461799499000,2556962
231612360,Nashville,,1499806537000,36.17,-86.72,Doyle Meachum,TN,1506092007000,2556962
229184847,Lebanon,,1496837801000,36.21,-86.31,Drake Berryhill,TN,1501685383000,2556962
86575882,Memphis,,1457761680000,35.22,-89.93,Durvelle Greene,TN,1457761680000,2556962
134403332,Tellico Plains,"Tellico Plains, TN",1397621219000,35.34,-84.23,Dustin,TN,1472465879000,2556962
130180752,Hillsboro,Hillsboro,1432315644000,35.39,-86.0,Dusty,TN,1476812346000,2556962
133996022,Nashville,,1395526855000,36.17,-86.78,Dusty Fischer,TN,1436129075000,2556962
47580402,Watertown,Watertown,1351389759000,36.11,-86.14,Dusty Huff,TN,1479953571000,2556962
239358810,Ashland City,,1508592190000,36.28,-87.07,Dwayne Wilham,TN,1508672854000,2556962
70480402,Nashville,,1354486044000,36.09,-86.82,Dwight Jewell,TN,1375181065000,2556962
202517271,Greenbrier,,1459472824000,36.43,-86.8,Ed Stansberry,TN,1504737623000,2556962
199456791,Mount Juliet,Mount Juliet,1455071620000,36.22,-86.52,Ed Stinson,TN,1508585148000,2556962
178879792,Paris,,1413870649000,36.3,-88.31,Eddie White,TN,1413870649000,2556962
179190342,Nashville,,1414025369000,36.1,-86.66,Edith E Hammond,TN,1432170736000,2556962
106624962,Nashville,,1444839432000,36.11,-86.78,Edward Kyle Webster,TN,1444839432000,2556962
7720626,Southport,,1374933629000,41.14,-73.29,edward sul,CT,1433240721000,2556962
94171722,Nashville,,1369050226000,36.11,-86.78,Edwin Gay,TN,1476806882000,2556962
135671762,Nashville,Ireland,1394927371000,36.17,-86.78,Eileen Bray,TN,1482783388000,2556962
192862028,Nashville,,1442511678000,36.06,-86.96,Elizabeth,TN,1445517878000,2556962
223681376,Nashville,,1490107901000,36.21,-86.72,Elk Brandon,TN,1499919260000,2556962
14309815,Nashville,,1443451957000,36.16,-86.79,Elliott Wiley,TN,1491180072000,2556962
203874423,Nashville,,1461421819000,36.17,-86.72,Emery98,TN,1508699871000,2556962
193179001,Nashville,,1443106835000,36.18,-86.74,Emma Lee Anna,TN,1443106835000,2556962
112326762,Smyrna,"Birmingham, AL",1497075010000,35.97,-86.5,Eric,TN,1497075010000,2556962
18032621,Murfreesboro,,1410806768000,35.82,-86.45,Eric,TN,1417917190000,2556962
231876359,Lebanon,Lebanon,1500127724000,36.21,-86.31,Eric Betz,TN,1500127724000,2556962
193650497,Antioch,,1444002026000,36.04,-86.64,Eric N Donna,TN,1474314807000,2556962
156873382,Nashville,Nashville,1476205842000,36.17,-86.79,Eric Rambow,TN,1502117095000,2556962
8469812,Nashville,Nashville,1397100778000,36.17,-86.78,Eric Tyrone,TN,1505697661000,2556962
161123162,Hendersonville,,1407815034000,36.31,-86.62,Erik Carvotta,TN,1424569555000,2556962
226211271,Nashville,,1492920973000,36.17,-86.72,Erik Scott Huffman,TN,1504968334000,2556962
11090935,Nashville,Key West,1374548300000,36.13,-86.8,Erin,TN,1469045182000,2556962
110729692,Nashville,,1406291812000,36.17,-86.78,Erin H.,TN,1443362104000,2556962
234136853,Thompsons Station,,1502844558000,35.8,-86.9,Eugene Harpole,TN,1508532708000,2556962
93641862,Christiana,"Jackson,MI.",1368662507000,35.71,-86.36,Fairel Waddell,TN,1493994293000,2556962
233844191,Nashville,,1502495085000,36.17,-86.72,Fernando Norman,TN,1502495085000,2556962
196734193,Owasso,,1449850887000,36.28,-95.85,Finley Felty,OK,1449878915000,2556962
4719847,Nashville,Nashville,1317516268000,36.15,-86.86,foxyrider,TN,1508703130000,2556962
78844782,Clarksville,Clarksville,1359747995000,36.56,-87.41,Frank Crotzer,TN,1438804684000,2556962
230597903,Murfreesboro,,1498579843000,35.85,-86.4,Frank O'Hara,TN,1500477918000,2556962
12369044,Hendersonville,Hendersonville,1473685712000,36.32,-86.61,Fred Kurszewski,TN,1473730025000,2556962
209424153,Hendersonville,,1472995001000,36.32,-86.61,Fred Pfeiffer,TN,1477327074000,2556962
19263511,Franklin,Franklin,1421337510000,35.92,-86.89,Freeman,TN,1440682681000,2556962
186206230,Murfreesboro,,1429119168000,35.87,-86.44,FXDC,TN,1476771809000,2556962
225502541,Hopkinsville,,1491961922000,36.87,-87.48,G il Avila,KY,1496731075000,2556962
192606571,Smyrna,,1442032527000,35.97,-86.51,G.T.,TN,1497037914000,2556962
171255262,Nashville,,1410866059000,36.17,-86.78,Gail MS,TN,1424000430000,2556962
231715038,Nashville,,1499920729000,36.17,-86.72,Gail Riley Phelps,TN,1499920729000,2556962
199220228,Spring Hill,,1454704276000,35.76,-86.88,Gardiner Jones,TN,1454704276000,2556962
166451202,Mount Juliet,Mount Juliet,1409829115000,36.22,-86.52,Garrett Crout,TN,1485698798000,2556962
174729402,Nashville,,1439253073000,36.15,-86.78,Garrett Hausman,TN,1465332153000,2556962
67556422,Nashville,,1351265950000,36.17,-86.72,Garry,TN,1409875885000,2556962
150601692,Nashville,,1402268049000,36.17,-86.72,Gary Bohannon,TN,1476719481000,2556962
99146392,Franklin,,1371991389000,35.99,-86.9,Gary Chambers,TN,1428967175000,2556962
198428388,Clarksville,,1496370541000,36.53,-87.35,Gary D.,TN,1505217727000,2556962
219458356,Nashville,,1483815292000,36.17,-86.72,Gary Llewellyn,TN,1487547162000,2556962
180058272,Nashville,,1414288915000,36.17,-86.72,Gary M.,TN,1437922937000,2556962
65490542,Nashville,Pleasant View,1365537143000,36.16,-86.79,Gayle Moore,TN,1444568404000,2556962
182642337,Franklin,,1442014717000,35.99,-86.9,Gene Edwards,TN,1501936626000,2556962
235934738,Hermitage,,1504842031000,36.19,-86.6,Gene Kirk,TN,1504842031000,2556962
194401612,Old Hickory,,1464995080000,36.25,-86.63,George ,TN,1465371307000,2556962
161600672,Nashville,,1501244215000,36.13,-86.8,George Paul Comeaux,TN,1501291409000,2556962
191869329,Nashville,,1440637238000,36.11,-86.78,George Pjetri,TN,1440779201000,2556962
225452963,Nashville,,1491897135000,36.17,-86.72,Gil Avila,TN,1491961342000,2556962
12698604,Antioch,,1435436381000,36.04,-86.64,Gil Hanke,TN,1496504917000,2556962
13792908,Nashville,,1317470590000,36.17,-86.78,Ginger Farmer,TN,1397047454000,2556962
157825642,Dickson,,1406174891000,36.08,-87.43,Glen,TN,1498161830000,2556962
238490320,Alviso,,1507562966000,37.43,-121.97,Glen,CA,1508252953000,2556962
194403587,Old Hickory,,1445393513000,36.25,-86.63,Gordon,TN,1451341217000,2556962
235550256,Nashville,,1504453988000,36.17,-86.72,Grady Jenkins,TN,1504453988000,2556962
7600146,Oxford,,1479159695000,34.35,-89.52,Gray,MS,1480187025000,2556962
15548421,Murfreesboro,"Yorkville, IL",1328721658000,35.87,-86.44,Greg,TN,1437656043000,2556962
8230586,Murfreesboro,Richmond VA,1418014047000,35.87,-86.34,Greg,TN,1457358093000,2556962
189776302,Franklin,,1457438682000,35.93,-86.81,Greg,TN,1460808040000,2556962
186873143,Nashville,,1430657919000,36.17,-86.72,Greg Davis,TN,1498793813000,2556962
238509948,Nashville,,1507579457000,36.17,-86.72,Greg Fire,TN,1507579457000,2556962
13257922,Nashville,,1363409280000,36.08,-86.72,Greg Fox,TN,1473625464000,2556962
218099469,Franklin,,1501096261000,35.92,-86.89,Greg Gorgone,TN,1508723480000,2556962
51396012,Spring Hill,"Aurora, OH",1339801902000,35.76,-86.88,Greg Halmayr,TN,1497890740000,2556962
80900592,Nashville,,1361043932000,36.17,-86.72,Greg Margotta,TN,1365521075000,2556962
129781042,Franklin,Franklin,1492204071000,35.92,-86.89,Greg Smith,TN,1492211163000,2556962
189426919,Spring Hill,,1435928566000,35.76,-86.88,Greg the Mapboy,TN,1501525326000,2556962
36555962,Brentwood,,1349383916000,36.0,-86.79,Gregg Koepke,TN,1445546982000,2556962
72778122,Murfreesboro,Franklin,1364320088000,35.82,-86.45,GREGG KOEPKE,TN,1409099119000,2556962
139987532,Huntland,,1396315210000,35.05,-86.27,Gregory Alverson,TN,1396439853000,2556962
20910771,Vero Beach,NYC/Ft. Laud,1506693057000,27.82,-80.46,Gregory Arnone,FL,1508173281000,2556962
184995132,Hermitage,,1473821627000,36.19,-86.6,Gwen Marie,TN,1508725030000,2556962
153203602,Goodlettsville,,1434304399000,36.33,-86.74,Gypsy,TN,1496449998000,2556962
193166115,Brentwood,,1444199283000,36.0,-86.79,Hans Kestler,TN,1464320541000,2556962
187727862,Nashville,,1438540046000,36.16,-86.79,Harley Davidson,TN,1438540046000,2556962
13991355,Nashville,Forest Hills,1333293092000,36.09,-86.82,Hassan,TN,1508783889000,2556962
184532781,Nashville,,1424231219000,36.1,-86.66,Hawkgirl,TN,1503858492000,2556962
41133852,Nashville,,1339193437000,36.1,-86.66,Heather,TN,1395420936000,2556962
68756752,Nashville,"Burlington, VT",1468854247000,36.17,-86.78,Heather Marriott,TN,1475533544000,2556962
220651131,La Vergne,,1487034057000,36.04,-86.54,Hector Luis Feliciano Ramos,TN,1498386693000,2556962
233679927,Nashville,,1502312861000,36.17,-86.72,Helen Lucille ,TN,1502312861000,2556962
9056109,Mount Juliet,Mt. Juliet,1462401768000,36.22,-86.52,Hoss,TN,1508758349000,2556962
236968453,Nashville,,1505869027000,36.11,-86.78,Hunter ,TN,1505869027000,2556962
72704872,Nashville,,1355448422000,36.14,-86.74,Hunter Runnels,TN,1403368182000,2556962
192517048,Arrington,,1485130646000,35.86,-86.66,Ian Mathis,TN,1485130646000,2556962
34909052,Nashville,,1368999777000,36.16,-86.79,Ira,TN,1508561986000,2556962
236343325,Nashville,,1505310722000,36.17,-86.78,Isabel Barnett,TN,1505310722000,2556962
159104512,Lebanon,,1406751512000,36.15,-86.32,Israel Spencer,TN,1406751512000,2556962
186147857,Nashville,,1428969768000,36.17,-86.78,J,TN,1428969768000,2556962
192127241,Nashville,,1441139144000,36.17,-86.78,J. Kayyam,TN,1470111011000,2556962
187892466,Nashville,,1462016997000,36.17,-86.78,J.r. Willis,TN,1487560713000,2556962
47545222,Gallatin,Gallatin TN,1428766810000,36.39,-86.45,Jack Chappell,TN,1504987280000,2556962
149676672,Nashville,,1401757374000,36.17,-86.72,Jackie Hamlet,TN,1406324373000,2556962
210064509,Brentwood,,1500167876000,36.0,-86.79,Jacob Ethan Roberts,TN,1506029805000,2556962
198209977,Nashville,,1485894191000,36.08,-86.72,Jacob Seven Arevalo,TN,1486106515000,2556962
51417522,Cumming,Houma LA,1366744274000,34.25,-84.18,Jacqueline Michaud,GA,1410969446000,2556962
184354374,Nashville,,1435249083000,36.17,-86.78,Jake,TN,1435249083000,2556962
53498372,Gallatin,Aberdeen,1348020594000,36.39,-86.45,James,TN,1437702952000,2556962
7223374,Shelbyville,Shelbyville,1322714596000,35.48,-86.47,James,TN,1391491041000,2556962
184802813,Madison,"Cleveland, Ohio",1493758114000,36.26,-86.71,James,TN,1495419437000,2556962
9553822,Nashville,,1369285502000,36.18,-86.81,James ,TN,1506862395000,2556962
186760884,Hermitage,,1502591558000,36.19,-86.6,James & Rose McKeithen,TN,1502591558000,2556962
49146092,Nashville,"Fedscreek, KY",1338036235000,36.17,-86.72,James Blair,TN,1430660083000,2556962
181302542,Nashville,,1414944051000,36.17,-86.72,James Burger,TN,1433718688000,2556962
232053344,Nashville,,1500340917000,36.17,-86.72,James Donnell,TN,1500340917000,2556962
211494884,Jackson,"Jackson, TN",1474803849000,35.68,-88.82,James Jobe,TN,1506110077000,2556962
66131372,Nashville,,1410918174000,36.17,-86.72,James Martin,TN,1410918174000,2556962
148791632,Lynchburg,"Tullahoma, TN",1401287761000,35.36,-86.19,James Robinson,TN,1428371578000,2556962
198205189,Nashville,,1452992463000,36.17,-86.72,Jamie Fisher,TN,1452992463000,2556962
152049422,Nashville,,1403044262000,36.17,-86.72,Jamie Hoskins,TN,1492524610000,2556962
59005632,Carmel,,1372469135000,39.97,-86.16,Jamie Isbell,IN,1484534103000,2556962
32412422,Nashville,,1323368018000,36.17,-86.72,Jamie Pierce,TN,1344089221000,2556962
183466020,Nashville,Nashville,1447602061000,36.11,-86.86,Jan,TN,1461754683000,2556962
171410242,Nashville,,1410889822000,36.17,-86.72,JanA,TN,1410889822000,2556962
60771862,Nashville,,1433899391000,36.16,-86.79,Jana Foster,TN,1503979316000,2556962
6071109,Gilbert,"Bend, Oregon",1477239700000,33.36,-111.8,Janice,AZ,1508538312000,2556962
189188896,Nashville,,1496017386000,36.17,-86.78,Jared Nunes,TN,1504492566000,2556962
219013169,Murfreesboro,,1483277095000,35.85,-86.36,Jared Shepler,TN,1498021634000,2556962
182662375,Shelbyville,"Mount Vernon, WA",1477791567000,35.46,-86.5,Jason,TN,1506180074000,2556962
7509361,Hendersonville,Hendersonville,1335587004000,36.32,-86.61,Jason and Xiomara (Tina),TN,1425697226000,2556962
224392133,Spring Hill,,1490395062000,35.76,-86.88,Jason Brady,TN,1504127765000,2556962
128333832,Mount Juliet,"Knoxville, IL",1389817803000,36.22,-86.56,Jason Bravender,TN,1389817803000,2556962
118391592,Nashville,"Knoxville, IL",1383493603000,36.17,-86.72,Jason Bravender,TN,1441679587000,2556962
965613,Nashville,Pleasanton,1345509874000,36.17,-86.79,Jason Candido,TN,1402318561000,2556962
203293533,Murfreesboro,,1460575850000,35.87,-86.34,Jason Duck Dulworth,TN,1507341807000,2556962
205822245,Marinette,,1464157349000,45.09,-87.63,Jason Jones,WI,1470524643000,2556962
96885092,Nashville,Phoenix,1370706765000,36.08,-86.72,Jason Rhodes,TN,1371230505000,2556962
13250446,Smyrna,"Wichita, KS",1330827123000,35.97,-86.51,JasonF,TN,1382762018000,2556962
223289838,Antioch,,1488856253000,36.04,-86.64,Jay Griffin,TN,1495730879000,2556962
16581101,Franklin,,1428857277000,35.92,-86.89,Jayson,TN,1428857277000,2556962
140586932,Smyrna,,1396641489000,36.01,-86.51,JB,TN,1413832123000,2556962
188350735,Antioch,,1433721434000,36.04,-86.64,JB,TN,1437250759000,2556962
9618464,Spring Hill,"Kingsport, TN",1337633391000,35.76,-86.88,JBushong,TN,1498510376000,2556962
188227009,Crane Hill,,1433457991000,34.07,-87.06,JC,AL,1482372735000,2556962
191725940,Murfreesboro,,1440427676000,35.87,-86.44,JD Dukermeister,TN,1495486264000,2556962
109619342,Nashville,"Mendon, MA",1454956286000,36.08,-86.93,Jeff,TN,1507762520000,2556962
185711982,Franklin,,1427807518000,35.93,-86.81,Jeff,TN,1441038299000,2556962
95157402,Nashville,,1369619526000,36.17,-86.72,Jeff,TN,1383431880000,2556962
234905632,Murfreesboro,,1503715670000,35.82,-86.45,Jeff & Melonie,TN,1505512942000,2556962
190742235,Brentwood,"Lawrenceburg, TN",1438460403000,36.0,-86.79,Jeff Gray,TN,1501726440000,2556962
190642045,Nashville,Nashville,1438296705000,36.14,-86.74,Jeff Johnson,TN,1443369562000,2556962
236831600,Spring Hill,Spring Hill,1505747934000,35.76,-86.88,Jeff Kochy,TN,1508688356000,2556962
26545422,Nashville,"Nashville, TN",1370649247000,36.17,-86.78,Jeff Sanderson,TN,1404591315000,2556962
105793482,Nashville,,1391749200000,36.17,-86.72,Jeff Walkup,TN,1431317194000,2556962
88264282,Franklin,"Robinson, Illinois",1373777034000,35.92,-86.89,Jeffrey Atteberry,TN,1495570744000,2556962
183053064,Columbia,,1431637999000,35.46,-86.79,Jennifer Lindsey,TN,1464104602000,2556962
7489790,Hendersonville,Nashville,1402428128000,36.32,-86.61,Jeremy,TN,1411136166000,2556962
100822332,Nashville,,1372981049000,36.17,-86.78,Jeremy Mr-MagicCity Braddy,TN,1372981049000,2556962
186462649,Columbus,,1429733591000,40.1,-83.02,Jeremy Search,OH,1430851496000,2556962
194982612,Nashville,,1446457919000,36.17,-86.78,Jeremy Sowards,TN,1446457919000,2556962
85801572,Fort Campbell,,1363910320000,36.65,-87.46,Jeremy Teal,KY,1378392877000,2556962
105732582,Nashville,,1375901675000,36.17,-86.72,Jerome COllins,TN,1382569184000,2556962
190449745,Murfreesboro,,1437928491000,35.82,-86.45,Jerry,TN,1441455683000,2556962
216324344,Nashville,,1478570631000,36.17,-86.72,jerry  delp,TN,1502284852000,2556962
104911382,Nashville,,1375402545000,36.17,-86.72,Jerry Fray,TN,1468344214000,2556962
7755946,Nashville,Nashville,1339156739000,36.21,-86.72,jerry hendrixson,TN,1501327204000,2556962
186632511,Nashville,,1430107138000,36.17,-86.72,Jerry Mann,TN,1457749373000,2556962
202429906,Nashville,,1459348684000,36.22,-86.86,Jerry thorpe,TN,1459348684000,2556962
200094740,Clarksville,,1455983217000,36.53,-87.35,Jesse Chamberlain,TN,1474208062000,2556962
178447322,Nashville,,1413662591000,36.17,-86.78,Jesse T.,TN,1491614855000,2556962
222688854,Nashville,,1488003714000,36.17,-86.72,Jesseforest241 ,TN,1501575725000,2556962
46166672,Unionville,"Palmyra, WI",1450728587000,35.62,-86.57,jessica,TN,1498216913000,2556962
33264492,Nashville,,1508210152000,36.06,-86.96,Jessica Rudolph,TN,1508787298000,2556962
159628212,Hermitage,,1407045958000,36.19,-86.6,Jill,TN,1448641734000,2556962
191288548,Nashville,,1439512162000,36.17,-86.72,Jill T,TN,1506114599000,2556962
187672656,Portland,,1432345468000,36.57,-86.49,Jim,TN,1432509675000,2556962
190472732,Nashville,,1437962202000,36.1,-86.66,Jim,TN,1461013815000,2556962
183478942,Gallatin,,1421042864000,36.39,-86.45,Jim,TN,1430148162000,2556962
82507752,Franklin,,1361989310000,35.93,-86.81,Jim,TN,1442866344000,2556962
5545536,Smyrna,,1395317627000,35.97,-86.51,Jim Africano (VivaItaliaTN.com),TN,1472933614000,2556962
171323112,Nashville,,1410880212000,36.17,-86.72,Jim Butera,TN,1466338104000,2556962
187572521,Brentwood,Brentwood,1443166186000,36.0,-86.79,Jim Campbell,TN,1461495185000,2556962
112441932,Fairview,,1379873114000,35.97,-87.13,Jim Corley,TN,1399443448000,2556962
104384252,Nashville,,1375200884000,36.17,-86.72,Jim Duncan,TN,1413642625000,2556962
48792562,Nashville,,1337737455000,36.17,-86.72,Jim G Payne,TN,1504014764000,2556962
218999790,Hermitage,Nashville,1483244977000,36.19,-86.6,jim livesay,TN,1501806360000,2556962
69194662,Franklin,"Franklin, tn",1352581272000,35.93,-86.81,Jim Moore,TN,1506519837000,2556962
196267339,Nashville,,1452891925000,36.08,-86.72,Jim Sippo Cipollini,TN,1487605932000,2556962
187062035,Portland,,1431054044000,36.57,-86.49,Jimmy Civey Jr.,TN,1444991456000,2556962
164108042,Philadelphia,,1409226309000,40.12,-75.01,Jimmy Clifton Mackey,PA,1409226309000,2556962
47900292,Nashville,,1337037372000,36.17,-86.72,Jimmy F,TN,1368269034000,2556962
231141440,Nashville,,1499256591000,36.17,-86.72,Jimmy Jaggers,TN,1499256591000,2556962
191377006,Franklin,Hometown USA,1439699608000,35.92,-86.89,Jimmy Junior,TN,1439699608000,2556962
32481312,Cross Plains,CrossPlains,1323453930000,36.56,-86.68,Jimmy Matthews,TN,1434239738000,2556962
185700293,Nashville,,1427769272000,36.17,-86.72,Jimmy Rivera,TN,1443538882000,2556962
93754202,Murfreesboro,,1394717557000,35.78,-86.33,Joanne O'Connell,TN,1508533289000,2556962
122593802,Smyrna,nashville,1386220793000,35.97,-86.51,Joe,TN,1397023266000,2556962
233032751,Nashville,,1501557023000,36.17,-86.72,Joe Edmondson,TN,1503532760000,2556962
99738132,Nashville,,1372713306000,36.22,-86.86,Joe Gillum,TN,1500681723000,2556962
13418759,Franklin,Franklin,1351442664000,36.73,-86.57,Joe Jones,KY,1487816133000,2556962
12832497,Fishers,,1383498074000,39.95,-85.97,Joe Laugle,IN,1413302601000,2556962
184670926,Nashville,,1424661795000,36.17,-86.72,JOE N,TN,1434763221000,2556962
69833812,Nashville,,1368744298000,36.17,-86.78,Joe Stinemetz,TN,1449849752000,2556962
214198163,Brentwood,,1475442021000,36.0,-86.79,Joe Yeager,TN,1508381253000,2556962
229376208,Nashville,,1497046941000,36.17,-86.72,Joel David Lauver,TN,1498574587000,2556962
138289312,Nashville,,1395379873000,36.17,-86.72,Joey Dotson,TN,1414157845000,2556962
229210547,Franklin,Franklin,1496843392000,35.92,-86.89,Joey Kimble,TN,1507910635000,2556962
197861782,Goodlettsville,,1490558343000,36.33,-86.74,Johanne,TN,1492156078000,2556962
28442562,Nashville,,1369716167000,36.09,-86.82,John,TN,1408171890000,2556962
159693512,Goodlettsville,,1410714222000,36.32,-86.69,John,TN,1411935369000,2556962
105254872,Nashville,,1375636014000,36.17,-86.72,John & Vicki Pare,TN,1392131235000,2556962
236743786,Nashville,,1505661188000,36.17,-86.72,John Fullington,TN,1506175754000,2556962
42867822,Nashville,,1332949511000,36.17,-86.72,John H.,TN,1505698406000,2556962
10813175,Nashville,,1354981451000,36.17,-86.78,John Mansfield,TN,1501340373000,2556962
27074512,Hermitage,"Buffalo, NY, St Louis, MO, Indianapolis, IN plus a couple more",1385135971000,36.19,-86.6,John Manson,TN,1448065138000,2556962
209264213,Nashville,,1491037553000,36.17,-86.78,John Mothershed,TN,1503249480000,2556962
50827302,Murfreesboro,,1341864811000,35.82,-86.45,John Quigley,TN,1382958775000,2556962
194118634,Nashville,,1444865280000,36.17,-86.72,John Schuler,TN,1445268424000,2556962
192466872,Murfreesboro,,1441776647000,35.82,-86.45,Johnnie,TN,1441776647000,2556962
157949492,Brentwood,,1406151843000,36.0,-86.79,Johnny ,TN,1406215020000,2556962
90952222,Nashville,,1366994459000,36.17,-86.72,johnny,TN,1401989416000,2556962
153404202,Murfreesboro,Murfreesboro,1403755443000,35.87,-86.44,johnny simpson,TN,1497558222000,2556962
200973601,Nashville,,1457221480000,36.08,-86.72,Jon Peter,TN,1477315623000,2556962
219170564,Thompsons Station,,1484016971000,35.8,-86.9,Jonathan Ladd,TN,1506559924000,2556962
125963332,Pikeville,Pikeville,1438890315000,35.61,-85.19,Jonathan Mintz,TN,1439081045000,2556962
140742472,West Palm Beach,,1418179916000,26.71,-80.06,Jonathan Munoz,FL,1426855067000,2556962
217865556,Franklin,Franklin,1502140232000,35.93,-86.81,Joni ,TN,1504836269000,2556962
43086692,Nashville,"Carmel, IN",1487615349000,36.17,-86.78,Jordan Roraus,TN,1508648960000,2556962
73106882,Nashville,,1355850935000,36.17,-86.72,Jose Luis,TN,1501931357000,2556962
142035592,Gallatin,,1453499976000,36.39,-86.45,Joseph R. Gordon,TN,1503958834000,2556962
231622674,Hendersonville,,1499816791000,36.32,-86.61,Joseph Savage,TN,1508535054000,2556962
213275492,Hendersonville,,1474313009000,36.32,-86.61,Josh,TN,1495519156000,2556962
173638862,Nashville,,1413182762000,36.17,-86.78,Joshua Cannon,TN,1413199914000,2556962
186029932,Mount Juliet,,1428672254000,36.17,-86.49,Judi Mayo,TN,1428672254000,2556962
204500585,Murfreesboro,,1462324836000,35.87,-86.34,Judymarie Culson Perez,TN,1467565853000,2556962
113098112,Nashville,,1380232151000,36.18,-86.74,Justin,TN,1380232151000,2556962
228210914,Nashville,,1506116438000,36.17,-86.78,Justin kinnear,TN,1507332342000,2556962
231542460,Murfreesboro,,1499726964000,35.78,-86.33,K9 Kohl,TN,1499726964000,2556962
9306391,Nashville,"Nashville, TN",1488729263000,36.16,-86.79,KacyB,TN,1496523597000,2556962
212030977,Gallatin,,1472661398000,36.39,-86.45,KAM,TN,1502377839000,2556962
104119042,Nashville,,1375910626000,36.14,-86.74,Karen,TN,1491058377000,2556962
12748906,Rockvale,Winchester TN,1447724379000,35.76,-86.55,Karen K,TN,1501936555000,2556962
205194823,Clarksville,,1464175499000,36.53,-87.35,Karen Roxanna Scarbrough,TN,1479862063000,2556962
185076564,Clarksville,,1425867233000,36.56,-87.41,Karl,TN,1431873043000,2556962
186853837,Franklin,Franklin,1441045185000,35.99,-86.9,Karl Schaper,TN,1442421796000,2556962
13659031,Goodlettsville,,1404511934000,36.33,-86.74,Karlton,TN,1508798542000,2556962
124393532,Woodbury,,1388254652000,35.81,-86.07,Karrie F,TN,1392324219000,2556962
63825062,Nashville,,1348614668000,36.17,-86.72,Kasse,TN,1350657954000,2556962
207751508,Elizabethtown,,1468126826000,37.71,-85.86,Kat,KY,1484620708000,2556962
101304352,Old Hickory,"Natchez, MS",1376367617000,36.25,-86.63,Kathlena Hodges,TN,1397960974000,2556962
49724752,Nashville,,1503766934000,36.08,-86.72,Kathy Davis,TN,1508700180000,2556962
161091082,Mount Juliet,Mount Juliet,1488146591000,36.22,-86.52,Katie,TN,1498161304000,2556962
192798759,Clarksville,,1446850836000,36.56,-87.41,KawasakiP4nd4,TN,1446850836000,2556962
187645787,Nashville,,1432292672000,36.18,-86.81,Kay Stewart Groves,TN,1463002299000,2556962
127442632,Nashville,,1389364052000,36.17,-86.72,kbcon56,TN,1389364052000,2556962
84120282,Murfreesboro,"Dayton, Ohio",1420513662000,35.78,-86.33,Keith,TN,1478494680000,2556962
202689176,Gallatin,,1459727056000,36.39,-86.45,Keith Allyn Thomas,TN,1506007203000,2556962
89247562,White Bluff,"White Bluff, TN",1365987075000,36.12,-87.23,Keith Hill,TN,1464436822000,2556962
110885342,Nashville,,1378945419000,36.17,-86.72,Keith Jeffrey,TN,1378945419000,2556962
90262482,Nashville,,1366591322000,36.17,-86.72,Keith Kovach,TN,1373501697000,2556962
12757607,Nashville,,1453768497000,36.16,-86.79,keith pemberton,TN,1506430562000,2556962
185734785,Mount Juliet,,1427860573000,36.22,-86.52,Keliegirl68,TN,1430619308000,2556962
188712116,Nashville,,1437416399000,36.06,-86.96,Kelly Kasselman Burns,TN,1438805927000,2556962
170783682,Nashville,,1410629234000,36.17,-86.72,Kelly Roehl,TN,1410629234000,2556962
43608252,Nashville,,1333542602000,36.08,-86.72,Kelsey Dowell,TN,1373509641000,2556962
206132570,Nashville,,1464616463000,36.06,-86.96,Ken,TN,1469233176000,2556962
231318525,Nashville,,1499464666000,36.17,-86.72,Ken Krishan,TN,1501662317000,2556962
186802504,Murfreesboro,,1430490127000,35.82,-86.4,Ken Sawyer,TN,1507405422000,2556962
233659294,Nashville,,1502294338000,36.06,-86.96,Ken Warren,TN,1502735958000,2556962
237666797,Nashville,,1508070799000,36.15,-86.86,Ken Warren,TN,1508070799000,2556962
200047548,Goodlettsville,,1470081251000,36.33,-86.74,Ken Wulff,TN,1470081251000,2556962
239023603,Columbus,,1508167732000,39.2,-85.93,Ken Yasui,IN,1508167732000,2556962
236263671,Nashville,,1505182990000,36.17,-86.72,Kendrick Wilkerson,TN,1505182990000,2556962
150370402,Nashville,,1417414738000,36.22,-86.77,kennedy,TN,1417414738000,2556962
207198108,Petersburg,,1466040792000,35.38,-86.59,kenneth franklin,TN,1466040792000,2556962
202429868,Murfreesboro,,1459348986000,35.82,-86.45,Kenneth Pruitt,TN,1473139503000,2556962
185027167,Lyles,Murfreesboro,1431312462000,35.89,-87.34,Kenneth Smith,TN,1506108144000,2556962
152765542,Gallatin,Gallatin,1403443542000,36.39,-86.45,Kevin,TN,1496076328000,2556962
89103082,Portland,"Nashville, TN",1421945648000,36.57,-86.49,kevin,TN,1439662960000,2556962
7955957,Clarksville,,1441073106000,36.49,-87.23,Kevin,TN,1503015306000,2556962
139988572,Nashville,,1396315543000,36.17,-86.72,Kevin,TN,1475183221000,2556962
50488822,Gallatin,,1437442950000,36.39,-86.45,Kevin Cook,TN,1440373424000,2556962
13988424,Nashville,"Nashville, TN",1372632222000,36.08,-86.72,Kevin Fielder,TN,1379786008000,2556962
189845211,Hermitage,,1499361569000,36.19,-86.6,Kevin Groher,TN,1506895649000,2556962
193283554,Nashville,,1443366774000,36.17,-86.78,Kevin Record,TN,1475955039000,2556962
171540232,Memphis,,1410905126000,35.07,-89.96,Kevin S Gould,TN,1426474606000,2556962
155694352,Franklin,Franklin,1421681604000,35.93,-86.84,Kevin Stefano,TN,1421681604000,2556962
202908265,Nashville,,1460038660000,36.1,-86.66,Kevin Walter Akil Wilkinson,TN,1460038660000,2556962
128338202,Gallatin,"Gallatin, TN",1462458089000,36.39,-86.45,Kim,TN,1497243974000,2556962
55796642,Port Saint Lucie,"Port St. Lucie, FL",1351858834000,27.31,-80.45,Kim Gorman,FL,1379163730000,2556962
191133518,West Covina,,1460984861000,34.02,-117.9,Kim St.James,CA,1460984861000,2556962
186767375,Nashville,,1430407225000,36.17,-86.72,KingWilliams,TN,1436572736000,2556962
159627842,Nashville,,1407043727000,36.17,-86.72,KMG365,TN,1412610531000,2556962
85346652,Bowling Green,"York, PA",1491742333000,37.02,-86.46,Kristi P,KY,1501030703000,2556962
187728457,Kingston Springs,,1432477464000,36.09,-87.12,Kristopher ,TN,1432477464000,2556962
153787622,Franklin,,1404081942000,35.99,-86.9,Kristy E.,TN,1506098675000,2556962
185242111,Nashville,Brooklyn,1499567989000,36.17,-86.78,Kristy Eley,TN,1500097245000,2556962
113832462,La Vergne,,1468551047000,36.01,-86.57,KW,TN,1493572524000,2556962
230463413,Nashville,,1498416791000,36.17,-86.72,Kyle Whitely,TN,1499001520000,2556962
230686251,Nashville,,1499137246000,36.17,-86.78,L.J. Fetters,TN,1502092794000,2556962
204035835,Murfreesboro,,1461640361000,35.87,-86.34,Lane Lawless,TN,1500730012000,2556962
191452711,Hendersonville,,1439843756000,36.32,-86.61,Laney Douglas,TN,1439843756000,2556962
46788142,Nashville,,1336131059000,36.17,-86.72,Larkin,TN,1461433770000,2556962
157331682,Nashville,,1405867182000,36.17,-86.72,Larry Evans,TN,1439868847000,2556962
13720633,Nashville,Los Angeles,1473192131000,36.13,-86.8,Larry Johnson,TN,1508649321000,2556962
188048672,Smyrna,"Nolensville, TN",1433108146000,35.97,-86.51,Larry Lee,TN,1461442209000,2556962
13008740,White House,,1357266674000,36.48,-86.69,Larry Roberts,TN,1369144011000,2556962
150535282,Franklin,,1402236225000,35.93,-86.81,lars knudson,TN,1467522108000,2556962
46862902,Nashville,Cleveland Ohio,1373989076000,36.11,-86.86,Laurel,TN,1389490906000,2556962
168277052,Nashville,,1410138704000,36.17,-86.72,Laurie Crist,TN,1474258581000,2556962
127914462,Nashville,,1389624083000,36.17,-86.72,Lawrence Rodgers,TN,1508532536000,2556962
54756312,Nashville,,1350217314000,36.11,-86.86,Lea Ann Stikeleather,TN,1442929802000,2556962
141692542,Mount Juliet,,1411881330000,36.22,-86.52,LeAnne Burns Carter,TN,1420768754000,2556962
115849372,Franklin,Franklin,1381924502000,35.99,-86.9,Lee Barroll,TN,1447500007000,2556962
180578132,Nashville,,1414585923000,36.17,-86.72,lee benet,TN,1415321231000,2556962
216105565,Nashville,,1478786326000,36.09,-86.82,Lee Olson,TN,1478786326000,2556962
194611854,Tullahoma,,1447069575000,35.37,-86.21,Leila DeNinno,TN,1448352802000,2556962
170793522,Westmoreland,Westmoreland,1410633614000,36.57,-86.22,Leilani Defore,TN,1414862876000,2556962
135122152,Clarksville,,1393651421000,36.56,-87.41,Leo,TN,1395025158000,2556962
140602112,Portland,Portland,1396763196000,36.57,-86.49,Leo T Danielson Jr.,TN,1401918130000,2556962
229627744,Smyrna,,1497362876000,35.97,-86.51,Leroy Gamble,TN,1508726429000,2556962
16824821,Old Hickory,,1470513472000,36.22,-86.62,Leslie,TN,1476736681000,2556962
155569582,Nashville,,1404934427000,36.17,-86.72,Levi Crabtree,TN,1406037401000,2556962
113358412,Nashville,,1380404755000,36.17,-86.72,Linda Trout,TN,1455409830000,2556962
108984372,Dubuque,"Prairie du Chien, WI",1405991247000,42.56,-90.69,Lisa,IA,1499627825000,2556962
102846732,Gallatin,,1374185015000,36.39,-86.45,Lisa,TN,1434487727000,2556962
197581156,Clarksville,,1452902146000,36.53,-87.35,Lisa D,TN,1469038436000,2556962
194166600,Lebanon,Lebanon,1494541148000,36.15,-86.32,Lisa K,TN,1499980749000,2556962
215843608,Lebanon,,1477837464000,36.21,-86.31,lisa Linden,TN,1496500405000,2556962
33842212,Murfreesboro,,1432910465000,35.82,-86.45,Lisa M,TN,1500724217000,2556962
190359252,Hermitage,,1437761646000,36.19,-86.6,Lisa Napier Johnson,TN,1440013637000,2556962
6093401,Columbia,"Houston, TX",1340858169000,35.61,-87.05,Liz Bailey,TN,1376187027000,2556962
46687162,Mount Pleasant,mt pleasant sc,1496505672000,32.82,-79.85,lizanne woods,SC,1501459197000,2556962
120988712,Franklin,Franklin,1414760179000,35.92,-86.89,Lonnie & Barbara Malone,TN,1475774265000,2556962
80887432,Schnecksville,,1475893424000,40.68,-75.61,Lorey Guyer,PA,1477090071000,2556962
189752721,Franklin,Franklin,1436576272000,35.93,-86.81,Lori,TN,1505302568000,2556962
171294162,Nashville,"Bowling Green, Ky",1410876733000,36.13,-86.8,"Lori ""Lorikeet"" Garrett",TN,1411150376000,2556962
180971762,Murfreesboro,,1433818689000,35.87,-86.44,Louie Barlow,TN,1495936036000,2556962
61801142,Murfreesboro,Murfreesboro,1376653693000,35.87,-86.44,Loura Ann Kilgore Caffey,TN,1389908311000,2556962
74040332,New York,,1367191178000,40.75,-73.97,Luc Carl,NY,1384103016000,2556962
189089582,Spring Hill,,1439618046000,35.76,-86.88,Lucas lay,TN,1462007238000,2556962
236593552,Nashville,,1505498039000,36.17,-86.72,Lyle,TN,1505498039000,2556962
64172882,Spring Hill,,1348855822000,35.76,-86.88,Lynnette,TN,1372271308000,2556962
35284672,Old Hickory,"Wauwatosa, WI",1473509126000,36.16,-86.51,Madison Olson,TN,1504824228000,2556962
223642767,Nashville,,1491341575000,36.17,-86.78,Marc Mowery,TN,1493915890000,2556962
193339284,Madison,,1443662418000,36.26,-86.71,Marcelo Cortes,TN,1443662418000,2556962
114914382,Clarksville,,1381337863000,36.56,-87.41,Marcie Davis Wright,TN,1381337863000,2556962
226037396,Bowling Green,,1492845633000,36.96,-86.44,Marcos A. Gonzalez,KY,1492845633000,2556962
183056869,Murfreesboro,,1419085795000,35.87,-86.34,Marcus Pearson,TN,1419174790000,2556962
183540144,Ronkonkoma,"Patchogue, NY",1432627243000,40.82,-73.12,Marianne Gulisane,NY,1464579025000,2556962
11013940,Nashville,Nashville,1508592975000,36.15,-86.86,Mark,TN,1508724256000,2556962
49251942,Nashville,,1338140436000,36.17,-86.72,Mark Bellotti,TN,1410868202000,2556962
13074420,Nashville,,1317705136000,36.16,-86.79,Mark Hill,TN,1494548970000,2556962
102702432,Austin,,1375561234000,30.32,-97.74,Mark Storey,TX,1375914548000,2556962
185217689,New York,,1426275810000,40.75,-73.99,Mark Thomas,NY,1475093858000,2556962
186801538,Lebanon,,1430488159000,36.21,-86.31,Mark Turner,TN,1445559321000,2556962
185213159,Murfreesboro,,1426263753000,35.87,-86.34,Marktn1,TN,1468321410000,2556962
187578500,Smyrna,,1432156903000,35.97,-86.51,Martin Winter,TN,1440457333000,2556962
40637472,Nashville,,1331000301000,36.17,-86.72,Marty,TN,1351870055000,2556962
186334820,Mc Minnville,,1429458006000,35.68,-85.78,Marty Kirby,TN,1445477093000,2556962
227277480,Nashville,,1494364819000,36.17,-86.72,Marvin ,TN,1498830931000,2556962
179866952,Nashville,,1414251209000,36.17,-86.72,Marvin Moore,TN,1421410228000,2556962
83622562,Murfreesboro,,1395373167000,35.78,-86.33,Mathew Kroezen,TN,1397177544000,2556962
31839592,Nashville,,1379686902000,36.15,-86.86,Matt,TN,1408636596000,2556962
104220992,Nashville,,1376243833000,36.11,-86.86,Matt Good,TN,1503556940000,2556962
163879712,Nashville,,1409144329000,36.17,-86.78,Matt J Harvey,TN,1409144329000,2556962
184836054,White House,"White House, TN",1435781120000,36.48,-86.69,Matt S,TN,1471787278000,2556962
187374331,Nashville,Nashville,1431788886000,36.22,-86.77,Matthew Antonovich,TN,1460581168000,2556962
185666798,Mount Juliet,,1427683407000,36.21,-86.52,Matthew Gambrell,TN,1428646575000,2556962
180726752,Nashville,,1414609638000,36.13,-86.8,Matthew P,TN,1421626956000,2556962
7002516,Nashville,,1377887999000,36.13,-86.8,Matthew Wallace,TN,1502198739000,2556962
160733972,Nashville,Arlington,1444571364000,36.17,-86.78,Matthew Woodward,TN,1450211496000,2556962
234938956,Murfreesboro,,1503761229000,35.81,-86.37,Melanie & Jeff,TN,1504971085000,2556962
171478442,La Vergne,,1410972360000,36.01,-86.57,Melanie and Ron,TN,1487555261000,2556962
219124624,Old Hickory,,1493167597000,36.25,-86.63,Melissa,TN,1493167597000,2556962
194330337,Murfreesboro,,1454266386000,35.82,-86.45,Melissa B,TN,1505097438000,2556962
58322952,Nashville,,1499224122000,36.09,-86.82,Melissa Butler,TN,1504000631000,2556962
212597911,Antioch,,1473429280000,36.04,-86.64,Melissa Henslee,TN,1473429280000,2556962
32387792,Nashville,,1323329560000,36.17,-86.72,michael,TN,1409022456000,2556962
13053314,Lebanon,"Nashville, Tennessee",1433495942000,36.15,-86.32,Michael ( Woody ),TN,1433495942000,2556962
137435062,Nashville,,1409031279000,36.17,-86.78,Michael Bernal,TN,1433381526000,2556962
43608832,Spring Hill,Spring Hill,1368739566000,35.76,-86.88,Michael Brashier,TN,1504541370000,2556962
200552637,Fairview,,1456613758000,35.97,-87.13,Michael Bruso,TN,1508647329000,2556962
12231478,Nashville,Little Rock,1400264969000,36.13,-86.8,Michael C,TN,1464744071000,2556962
146022972,Nashville,,1457510341000,36.16,-86.79,Michael Collins,TN,1501862762000,2556962
212691473,Smyrna,,1473551087000,35.97,-86.51,Michael Davis,TN,1476563465000,2556962
11459101,Nashville,,1341977304000,36.17,-86.78,Michael Garrett,TN,1460571452000,2556962
201032199,Nashville,,1457306795000,36.18,-86.74,Michael Grothe,TN,1504906218000,2556962
12416897,Nashville,"Evansville, IN",1321248092000,36.17,-86.78,Michael Kaiser,TN,1445553551000,2556962
231836701,Spring Hill,,1500071621000,35.76,-86.88,Michael L Tauber,TN,1500355551000,2556962
202882025,Nashville,,1462590002000,36.14,-86.74,Michael mead,TN,1508534770000,2556962
219479586,Manchester,Manchester,1483985302000,35.47,-86.11,Michael Parrish,TN,1490891890000,2556962
142384872,Nashville,,1398304618000,36.11,-86.77,Michael Paul West,TN,1409322372000,2556962
213148343,Tampa,,1474148078000,28.0,-82.48,Michael S,FL,1481756818000,2556962
170598392,Nashville,,1410529767000,36.17,-86.72,Michael S,TN,1461764462000,2556962
44748612,Nashville,,1334525358000,36.17,-86.72,Michael Wyse,TN,1415303384000,2556962
157342602,Lebanon,,1405874655000,36.21,-86.31,Michelle,TN,1451106215000,2556962
9669790,Nashville,,1399131564000,36.22,-86.77,Michelle,TN,1400018912000,2556962
140475332,Murfreesboro,,1396573967000,35.78,-86.33,Mike,TN,1412292258000,2556962
234344014,Nashville,,1503084540000,36.17,-86.72,Mike,TN,1503084540000,2556962
186808329,Lebanon,"Tulsa, OK",1430501755000,36.21,-86.31,Mike,TN,1461677670000,2556962
117221992,Nashville,,1382731653000,36.11,-86.86,mike,TN,1433588455000,2556962
83794192,Nashville,,1362679409000,36.15,-86.86,Mike ,TN,1508808506000,2556962
22736741,Nashville,,1403397358000,36.16,-86.79,Mike,TN,1403650436000,2556962
229209688,Murfreesboro,,1496839929000,35.82,-86.45,Mike Alford,TN,1498069596000,2556962
11751124,Spring Hill,Spring Hill,1318473847000,35.76,-86.88,Mike B,TN,1485241865000,2556962
183524041,Pleasant View,"Batavia, OH",1429020234000,36.38,-87.04,Mike Bower,TN,1501511256000,2556962
145176462,Nashville,,1399293799000,36.17,-86.72,Mike Conners,TN,1469236576000,2556962
77226552,Nashville,,1358794207000,36.17,-86.72,Mike Henning,TN,1406217566000,2556962
10244897,Brentwood,Brentwood,1373245478000,36.0,-86.79,Mike McFarren,TN,1400341316000,2556962
219874928,Franklin,,1496692944000,35.92,-86.89,Mike McFarren,TN,1497040496000,2556962
209541912,Nashville,,1474698319000,36.17,-86.78,Mike N Michelle Hines,TN,1474698319000,2556962
57579202,Nashville,,1368501104000,36.1,-86.66,Mike Stum,TN,1430467869000,2556962
70254562,Greenbrier,Clarksville,1375536685000,36.43,-86.8,Mike T,TN,1491137268000,2556962
192481311,Thompsons Station,,1441803561000,35.8,-86.9,Mike W.,TN,1474201319000,2556962
4395113,Nashville,Philadelphia,1430664106000,36.17,-86.72,mobygrp,TN,1448760762000,2556962
183399627,Nashville,,1427921676000,36.16,-86.79,Molly,TN,1506971137000,2556962
118978202,Dallas,,1386046388000,32.79,-96.8,Monica,TX,1396317841000,2556962
11332099,Nashville,Colorado Springs,1394293005000,36.23,-86.71,"Monica ""JESS"" Adamson",TN,1426876576000,2556962
149609522,Nashville,,1401731385000,36.17,-86.72,Murray Dunkin,TN,1419351967000,2556962
132342012,Nashville,,1410871084000,36.15,-86.86,myles crawford,TN,1410871084000,2556962
231815818,Gadsden,,1500140267000,35.77,-88.99,Na Size,TN,1508603196000,2556962
42034762,Nashville,,1335617306000,36.17,-86.72,Nanci,TN,1396277231000,2556962
13039381,Cookeville,Cookeville,1387387083000,36.15,-85.53,Nancy Coon,TN,1475705433000,2556962
151795392,Nashville,,1402928327000,36.17,-86.72,Nancy Tesauro,TN,1491358951000,2556962
13229313,Franklin,,1467809765000,35.92,-86.89,NancyLee,TN,1506517221000,2556962
201761360,Murfreesboro,,1458399949000,35.82,-86.45,Nashvegas,TN,1501298432000,2556962
185499599,Clarksville,,1453772894000,36.53,-87.35,Nate Nooner,TN,1469489109000,2556962
128117352,Nashville,Nashville,1477435020000,36.18,-86.74,Nathan Butler,TN,1499827784000,2556962
138214072,Nashville,"Rapid City, SD",1395343285000,36.17,-86.72,Nathan Fleming,TN,1504743467000,2556962
226637217,Nashville,,1493494806000,36.17,-86.72,Nathan Haller,TN,1493494806000,2556962
127970502,Clarksville,,1400262763000,36.49,-87.23,Nayla,TN,1499875965000,2556962
204126049,Spring Hill,,1461776825000,35.76,-86.88,Neil Wilson,TN,1464375959000,2556962
213791052,Dickson,,1495757182000,36.08,-87.43,Nelly,TN,1495757182000,2556962
16710191,Nashville,"Newport Beach, CA",1502424379000,36.03,-86.71,Nelson,TN,1503029870000,2556962
182457793,Franklin,,1415566908000,35.97,-86.81,Nick ,TN,1415641970000,2556962
182625820,Mount Pleasant,"Columbia, TN",1419970082000,35.54,-87.21,Nick Bovee,TN,1419970082000,2556962
39005362,Nashville,"Cincinnati, OH",1423486308000,36.18,-86.74,Nick Fischer,TN,1483915514000,2556962
133167132,Nashville,Nashville,1415682652000,36.06,-86.96,Nick Koldys,TN,1415682652000,2556962
197711389,Cookeville,,1456921181000,36.2,-85.52,Nick Leak,TN,1506287718000,2556962
217062778,Nashville,,1479752013000,36.17,-86.78,Nick S.,TN,1479757342000,2556962
216963106,Lebanon,,1479591086000,36.21,-86.31,Nickie,TN,1479591086000,2556962
19390791,Madison,Huntsville,1318359773000,34.68,-86.79,Niel Josephson,AL,1413468235000,2556962
70363242,Murfreesboro,"Bonita, CA",1406518632000,35.78,-86.33,Niki Townsend,TN,1414988530000,2556962
122891052,Clarksville,,1386514210000,36.53,-87.35,Nikki fisher,TN,1443303077000,2556962
30030442,Nashville,Tennessee,1356092650000,36.15,-86.86,Nita ,TN,1414802897000,2556962
188589763,Nashville,"Ludington, Mich.",1434308463000,36.06,-86.96,Nora C.,TN,1481479206000,2556962
183322530,Portland,,1420665715000,36.57,-86.49,Norman Smith,TN,1444209662000,2556962
166730162,Nashville,,1482884152000,36.09,-86.82,Olivia Brown,TN,1504831284000,2556962
41243462,Franklin,Franklin,1331517480000,35.92,-86.89,Orlando Pillow,TN,1475090444000,2556962
193115661,Nashville,,1442976474000,36.11,-86.86,Owen,TN,1460071592000,2556962
239472937,Nashville,,1508683373000,36.17,-86.72,P J Connolly,TN,1508683373000,2556962
7301105,Nolensville,Antioch,1460518735000,35.94,-86.67,Page,TN,1474291130000,2556962
139554582,La Vergne,,1396068133000,35.94,-86.35,Pam ,TN,1459216003000,2556962
81971402,Nashville,Cypress,1478391342000,36.15,-86.86,Pam,TN,1508557199000,2556962
233420401,Lebanon,,1502029475000,36.21,-86.31,Pam Shemwell,TN,1502124518000,2556962
147847582,Nashville,,1400758054000,36.17,-86.72,Pam Shemwell,TN,1475534170000,2556962
199095166,Tullahoma,,1454506726000,35.37,-86.21,papadenny,TN,1454506726000,2556962
9124164,Nashville,,1318287354000,36.17,-86.78,Pat,TN,1506528073000,2556962
91397742,Nashville,,1367276690000,36.17,-86.72,Pat Saylors,TN,1411665926000,2556962
234321236,Nashville,,1503060950000,36.17,-86.72,Patrick Dye,TN,1506100455000,2556962
212365762,Nashville,,1473116139000,36.17,-86.72,Patrick Dye,TN,1473116139000,2556962
14419984,Nashville,,1454696675000,36.17,-86.78,Patrick Wise,TN,1501424480000,2556962
224704634,Nashville,,1490822791000,36.17,-86.72,Paul,TN,1497908828000,2556962
35399302,Gallatin,"Des Moines, IA",1441329316000,36.39,-86.45,Paul D. Sheriff,TN,1498561750000,2556962
190381451,Santa Fe,,1458095477000,35.76,-87.17,Paul Drolsum,TN,1472448595000,2556962
28774702,Nashville,,1319392328000,36.17,-86.72,Paula,TN,1468644188000,2556962
184713924,Nashville,,1424791131000,36.17,-86.72,PD Iria,TN,1474825737000,2556962
186334864,Mc Minnville,,1429450909000,35.68,-85.78,Penny,TN,1429450909000,2556962
119132212,Thompsons Station,"Torrance, CA",1397189274000,35.8,-86.9,Penny Bowhall,TN,1461727298000,2556962
216931782,White House,,1479539373000,36.48,-86.69,Penny Krueger,TN,1496138664000,2556962
193750382,Nashville,,1444179715000,36.11,-86.78,Pete Stewart,TN,1499957901000,2556962
29812112,Spring Hill,,1320425633000,35.76,-86.88,Phil G.,TN,1508651794000,2556962
193265938,Nashville,,1443276017000,36.17,-86.72,Phil Smith,TN,1476103972000,2556962
206344891,Clarksville,,1466708703000,36.53,-87.35,Phil Stanfield,TN,1508681212000,2556962
208262583,Brentwood,,1469229367000,36.0,-86.79,Philip,TN,1476868452000,2556962
142916792,Nashville,,1398020522000,36.17,-86.72,Philip Condron,TN,1475443249000,2556962
106074152,Nashville,,1376102475000,36.17,-86.79,Philip Hobson,TN,1410907339000,2556962
214146937,Nashville,,1475374663000,36.17,-86.72,Phillip Martin ,TN,1477792550000,2556962
190797881,Fort Campbell,"Hatfield, AR",1442093119000,36.65,-87.46,Phillip Schuller,KY,1445741628000,2556962
208254247,Smithville,,1467506153000,35.96,-85.82,Pops Barber,TN,1477747861000,2556962
118299102,Nashville,,1499000229000,36.17,-86.78,Pramod,TN,1501522209000,2556962
96237022,Nashville,,1370270737000,36.11,-86.78,Preston Drnek,TN,1382928216000,2556962
191631505,Manchester,,1440190382000,35.47,-86.11,preston drnek,TN,1441541476000,2556962
13594697,Newtown Square,Newtown Square,1332759333000,39.98,-75.41,R.B.,PA,1406317054000,2556962
232015064,Nashville,,1500301598000,36.17,-86.72,R.J. ,TN,1506550440000,2556962
90839642,Franklin,Franklin,1381551022000,35.93,-86.81,Raj,TN,1496060309000,2556962
235370729,Franklin,,1504463883000,35.92,-86.89,RajKumar Doraiswamy,TN,1507308466000,2556962
209270247,Lebanon,Lebanon,1494768268000,36.15,-86.32,Randy Barber,TN,1508794061000,2556962
185481650,Murfreesboro,,1427095196000,35.87,-86.44,Randy Evans,TN,1427095196000,2556962
32295622,Nashville,,1323226633000,36.17,-86.72,Randy Holcombe,TN,1346787398000,2556962
145119122,Reynoldsburg,,1502397627000,39.9,-82.95,Randy Ray Croston,OH,1507668296000,2556962
69154382,Gallatin,"Nashville, TN",1352546504000,36.39,-86.45,Randy Thackxton,TN,1432502813000,2556962
171446822,Bumpus Mills,,1410894527000,36.66,-87.83,Randy(Gator) Calk,TN,1477103629000,2556962
25522692,Antioch,,1319260771000,36.04,-86.64,Ray,TN,1346794698000,2556962
196748345,Nashville,,1449878798000,36.09,-86.82,Ray,TN,1449878798000,2556962
43424342,Brentwood,Corrales,1453321011000,36.0,-86.79,Ray Chavez,TN,1453321011000,2556962
228477380,Nashville,,1495923215000,36.17,-86.72,Ray Harvey III,TN,1496408110000,2556962
105136772,Murfreesboro,,1418621110000,35.89,-86.47,Rebecca Feltz,TN,1508637854000,2556962
193881605,Nolensville,Nolensville,1444497845000,35.94,-86.67,Red Barbarossa,TN,1501421655000,2556962
203530940,Nashville,,1460923548000,36.17,-86.72,Reese B,TN,1463692840000,2556962
183820973,Nashville,,1453124991000,36.17,-86.78,Reid Serv,TN,1453124991000,2556962
38036142,Nashville,,1374350769000,36.09,-86.82,Rene' Drain,TN,1508665782000,2556962
171267622,Franklin,FRANKLIN,1411019411000,35.99,-86.9,Rheonna Weller,TN,1495479791000,2556962
106877802,Oak Grove,,1376672563000,36.68,-87.45,Rican726,KY,1445178748000,2556962
85504542,Smyrna,,1363707870000,35.97,-86.51,Rich,TN,1508537075000,2556962
191976311,Hermitage,,1440854013000,36.19,-86.6,Rich,TN,1507027546000,2556962
239291251,Nashville,,1508466178000,36.17,-86.72,Rich Billington,TN,1508466178000,2556962
53256432,Nashville,,1341198749000,36.17,-86.72,Rich Sommerville,TN,1362449149000,2556962
41233752,Nashville,,1499002971000,36.08,-86.72,Richard,TN,1499035099000,2556962
106555982,Pleasant Shade,Pleasant ,1411469872000,36.35,-85.9,Richard & Sonja,TN,1508674399000,2556962
186388949,Nashville,,1429572272000,36.08,-86.72,Richard C,TN,1429580274000,2556962
10001741,Murfreesboro,,1407901199000,35.78,-86.33,Richard L. Carson,TN,1472375012000,2556962
120893332,Nashville,,1385004481000,36.17,-86.72,Richard Pulliam,TN,1387149278000,2556962
66114632,Nashville,,1350260575000,36.17,-86.72,Richard Tyson,TN,1388499772000,2556962
41646722,Nashville,,1331852472000,36.16,-86.79,Richie Amico,TN,1411637245000,2556962
183854469,Clarksville,Grand Rapids Michigan ,1422712827000,36.49,-87.23,Rick,TN,1506978508000,2556962
213662064,Brentwood,,1474810356000,36.0,-86.79,Rick,TN,1479181696000,2556962
108162772,Murfreesboro,,1377360346000,35.82,-86.45,Rick,TN,1402083168000,2556962
8993650,Hermitage,Sweetwater TN,1467947545000,36.16,-86.59,RICK,TN,1495468767000,2556962
141755892,Nashville,,1397316070000,36.17,-86.72,Rick Bunting,TN,1433793322000,2556962
62269492,Bakersfield,Bakersfield ,1411864233000,35.39,-119.17,rick gerstein,CA,1450812481000,2556962
202280511,Murfreesboro,,1459130816000,35.82,-86.45,Rick Grisofe,TN,1506740090000,2556962
11229162,Spring Hill,Spring Hill,1472404905000,35.76,-86.88,Rick Nova,TN,1474915046000,2556962
170599422,Mount Juliet,Mount Juliet,1410702512000,36.22,-86.52,Rick Williams,TN,1487593145000,2556962
176281082,Nashville,,1412649012000,36.17,-86.72,Ricky Newman,TN,1412649012000,2556962
137534452,Nashville,,1394994430000,36.17,-86.72,Rip Young,TN,1395633831000,2556962
158223612,Nashville,"Chambersburg, PA",1406296929000,36.03,-86.78,Rob,TN,1406296929000,2556962
48312532,Nashville,"Fort Lauderdale, FL",1337355280000,36.08,-86.72,Rob,TN,1493621779000,2556962
207808346,Nashville,,1466893853000,36.17,-86.78,rob craig,TN,1507813823000,2556962
12556699,White House,,1410655995000,36.45,-86.67,Rob V,TN,1461008229000,2556962
184835658,Murfreesboro,"Saint Paul, MN",1433711159000,35.78,-86.33,Rob Zuniga,TN,1434752048000,2556962
60520012,Nashville,,1346371857000,36.17,-86.72,Robert,TN,1413954072000,2556962
209023781,Nashville,,1468525733000,36.14,-86.74,Robert Hollingsworth,TN,1468525733000,2556962
203300635,Antioch,,1460584505000,36.17,-86.88,Robert Lee May,TN,1460813883000,2556962
120822802,Nashville,,1490226720000,36.17,-86.78,Robert Roy Miles II,TN,1490226720000,2556962
96641162,Nashville,,1370479471000,36.21,-86.72,Robert S,TN,1370553254000,2556962
184546704,Nashville,,1424304091000,36.17,-86.72,Robert shouse,TN,1445547557000,2556962
222464523,Hendersonville,,1487807807000,36.3,-86.62,Robert Wines,TN,1494894115000,2556962
9317828,Antioch,,1464042082000,36.17,-86.88,robertschley,TN,1464042082000,2556962
42717242,Clarksville,"Spokane, WA",1342660578000,36.49,-87.23,Robin,TN,1406646463000,2556962
208689494,Nashville,,1468090378000,36.1,-86.66,Rockey Carter,TN,1468090378000,2556962
191844725,Lewisburg,,1440595998000,35.45,-86.8,Rocky Brown,TN,1445868437000,2556962
171616092,San Jose,,1410917544000,37.39,-121.89,Rocky Hunter,CA,1410917544000,2556962
183754880,Mount Juliet,"Houston, TX",1438550703000,36.21,-86.52,Rodney Burlin,TN,1472913510000,2556962
223613646,Nashville,,1489325353000,36.09,-86.82,Roger,TN,1504373779000,2556962
99684042,Madison,madison,1372279607000,36.26,-86.71,roger hendrick,TN,1475705770000,2556962
32251322,Nashville,,1323189451000,36.17,-86.72,Roger Richardson Sr.,TN,1375465824000,2556962
173975432,Westmoreland,,1411817376000,36.57,-86.22,Rok Faust,TN,1430149311000,2556962
63976302,Murfreesboro,,1348956608000,35.87,-86.34,Ron,TN,1398522639000,2556962
186255057,Hermitage,,1429236915000,36.19,-86.6,Ron Ault,TN,1505695537000,2556962
148536412,Brentwood,,1401634922000,36.0,-86.79,Ron Carter,TN,1476795921000,2556962
159162252,Nashville,,1406910182000,36.11,-86.78,ron dixon,TN,1407554957000,2556962
9954799,Nashville,,1322710175000,36.17,-86.78,Ron H.,TN,1508715867000,2556962
97051932,Nashville,Spring Hill ,1370738456000,36.17,-86.72,Ron P,TN,1493946254000,2556962
48640372,Hermitage,Hermitage,1337635247000,36.19,-86.6,Ron Shepherd,TN,1508724545000,2556962
47391022,Nashville,"Smyrna,Tenn",1336795553000,36.1,-86.66,Ronald Wright,TN,1382416201000,2556962
183138539,Chapmansboro,,1419665183000,36.37,-87.14,Ronnie,TN,1508118818000,2556962
157019592,Nashville,,1405689803000,36.17,-86.72,Ross Miller,TN,1428611117000,2556962
155389422,Spring Hill,,1436212452000,35.76,-86.88,Roy,TN,1459251711000,2556962
48975212,Mount Juliet,,1456885348000,36.21,-86.52,Roy Hinebauch,TN,1501944317000,2556962
209746924,Nashville,,1469564413000,36.17,-86.78,Roy Holley,TN,1506353270000,2556962
214188545,Nashville,,1475533758000,36.17,-86.72,Ruby Bridinger,TN,1477114068000,2556962
39781062,Nashville,,1330301918000,36.17,-86.72,Rudy Rideout,TN,1444572438000,2556962
59908162,Nashville,,1441769776000,36.17,-86.78,Russ,TN,1504094346000,2556962
19689611,Hendersonville,"Hendersonville, TN",1411608440000,36.32,-86.61,Rusty Easter,TN,1469077249000,2556962
157888752,Old Hickory,,1439697742000,36.25,-86.63,Rusty Powell,TN,1439697742000,2556962
162123402,Hendersonville,,1408341570000,36.32,-86.61,Ryan,TN,1410227852000,2556962
180338952,Smyrna,,1414431324000,35.97,-86.51,Ryan,TN,1428952431000,2556962
8311540,Brentwood,"Delray Beach, FL",1321843561000,36.0,-86.79,Ryan ,TN,1373157900000,2556962
183166168,La Vergne,,1488409097000,36.01,-86.57,Ryan,TN,1490649585000,2556962
211047533,Mount Juliet,,1471381032000,36.21,-86.52,Ryan Cooper,TN,1471474897000,2556962
173890932,Clarksville,,1411761218000,36.56,-87.41,Ryan Gadfly,TN,1411761218000,2556962
207679931,Nashville,,1475180870000,36.18,-86.74,Ryan Miller,TN,1475527506000,2556962
84286362,Brentwood,,1362977969000,36.0,-86.79,Ryan Tant,TN,1382852516000,2556962
192728756,Smyrna,,1472255185000,35.97,-86.51,Ryan Vokel Kline,TN,1485013560000,2556962
156757092,Hendersonville,,1434290836000,36.32,-86.61,Ryoji Takei,TN,1436435262000,2556962
14355874,Brentwood,,1370494624000,36.0,-86.79,S McFarren,TN,1400676610000,2556962
164201402,Nashville,,1409256263000,36.18,-86.81,S Shearer,TN,1464114929000,2556962
138673662,Madison,,1457422886000,36.26,-86.71,sabrina,TN,1469398864000,2556962
183094903,Hendersonville,"Kansas City, MO",1459371941000,36.26,-86.63,Sam,TN,1499618758000,2556962
188192388,La Vergne,La Vergne,1459046419000,36.01,-86.57,Sam L,TN,1475359919000,2556962
193360108,Lebanon,,1443452264000,36.21,-86.31,Sam Tomlinson,TN,1443452264000,2556962
180012892,Nashville,,1414271165000,36.17,-86.72,Samuel Liston Sealy,TN,1506877764000,2556962
154469622,Franklin,,1477702511000,35.92,-86.89,Samuel lucas,TN,1477702511000,2556962
49712102,Nashville,,1459618032000,36.11,-86.78,Samuel Schmitt,TN,1459618032000,2556962
70882112,Murfreesboro,,1376249474000,35.87,-86.34,Sandra Davis,TN,1394639897000,2556962
209804667,Nashville,,1469541725000,36.18,-86.74,Sandra M,TN,1469541725000,2556962
66573842,Columbia,Columbia,1351906230000,35.61,-87.05,Sandra M,TN,1462485989000,2556962
9842623,Pegram,Pegram,1374454710000,36.12,-87.03,Sandy S,TN,1508536989000,2556962
90905032,San Diego,,1464030977000,32.75,-117.17,Sara,CA,1464030977000,2556962
11416204,Hendersonville,Hendersonville,1414376864000,36.32,-86.61,Scott,TN,1497132191000,2556962
203876066,Manchester,,1461423920000,35.47,-86.11,Scott,TN,1502374328000,2556962
140619772,Nashville,,1396657474000,36.17,-86.72,Scott,TN,1401413240000,2556962
210218492,Clarksville,,1470097366000,36.53,-87.35,Scott Crenshaw,TN,1472913689000,2556962
165801362,Nashville,,1409669824000,36.17,-86.72,Scott Norman,TN,1508676176000,2556962
176830582,Spring Hill,,1412907942000,35.76,-86.88,Scott Pilkinton,TN,1426354093000,2556962
186648787,Nashville,,1430148322000,36.13,-86.8,Scott Preston,TN,1508533101000,2556962
202146431,Franklin,,1462563939000,35.92,-86.89,Scott Quinn,TN,1475032936000,2556962
186880101,Hendersonville,,1430671073000,36.32,-86.61,Scott Ray,TN,1430671073000,2556962
232368085,Nashville,,1500734803000,36.17,-86.72,Scott Rowe,TN,1504982171000,2556962
7953168,Nashville,Nashville,1370615807000,36.06,-86.96,Scott Skibbie,TN,1377319549000,2556962
155245042,Mundelein,,1404775770000,42.27,-88.06,ScottB,IL,1412394795000,2556962
69349322,Nashville,,1352690135000,36.17,-86.72,Scotty,TN,1384177655000,2556962
85572912,La Vergne,,1363735739000,35.96,-86.52,Screamin Eagle,TN,1383376539000,2556962
188601683,Nashville,,1434637275000,36.06,-86.96,Sean C.,TN,1498242977000,2556962
220451960,Nashville,,1485065774000,36.17,-86.72,Sean Chambers,TN,1507770566000,2556962
137111742,Nashville,,1429068680000,36.16,-86.79,Sean Spradlin,TN,1460667320000,2556962
143972262,Hermitage,"Charleston, WV",1398614062000,36.19,-86.6,Sean Wilson,TN,1476702963000,2556962
13859920,Franklin,,1435903051000,35.87,-86.75,Seth Elliott,TN,1442065841000,2556962
157486562,Lebanon,,1406262262000,36.21,-86.31,Shan Dixon,TN,1407783651000,2556962
194626544,Murfreesboro,,1457335199000,35.73,-86.43,Shane Hanley,TN,1506094279000,2556962
100395292,Gallatin,,1433335635000,36.39,-86.45,Shane Howell,TN,1445222212000,2556962
87717042,Lebanon,,1365090155000,36.21,-86.31,shane lovell,TN,1365090155000,2556962
82296782,Nashville,,1361873044000,36.17,-86.72,Shane Lyons,TN,1380200549000,2556962
11578777,Nashville,"West Hartford, CT",1317189873000,36.17,-86.72,Shane McGee,TN,1508646288000,2556962
141758652,Nashville,,1397317715000,36.17,-86.72,Shane Moore,TN,1506125157000,2556962
166685332,Nashville,,1435542851000,36.13,-86.8,Shane Nycum,TN,1435542851000,2556962
44146042,Columbia,,1334027810000,35.61,-87.05,Shannon,TN,1459425915000,2556962
219521922,Murfreesboro,,1483896183000,35.78,-86.33,shannon clemens,TN,1483896183000,2556962
57683362,Spring Hill,"Spring Hill, TN",1344894680000,35.76,-86.88,Shanon,TN,1443540025000,2556962
63321712,Nashville,,1348278865000,36.11,-86.86,Sharon,TN,1358019217000,2556962
26985382,Murfreesboro,Murfreesboro,1317698003000,35.82,-86.45,Shawn Beistel,TN,1391633855000,2556962
11975545,Franklin,"San Diego, CA",1371493488000,35.92,-86.89,Shawn Evans,TN,1440985845000,2556962
170690022,Nashville,,1410569050000,36.17,-86.72,Shawn Wiese,TN,1506871592000,2556962
186469635,Nashville,"Beaumont, Texas",1432964405000,36.22,-86.77,Shelley K. Cook,TN,1434253869000,2556962
4219690,Henry,Henry,1359470790000,36.21,-88.46,Sheri Pyle,TN,1468515272000,2556962
224188984,Nashville,,1490114785000,36.17,-86.72,Sherri Webb,TN,1490231926000,2556962
188194750,Nashville,,1433388983000,36.17,-86.72,Sherry P.,TN,1449194522000,2556962
194977596,Franklin,,1446439553000,35.92,-86.89,Sid (Siddharth),TN,1507869537000,2556962
122465982,La Vergne,"Hyderabad, India",1396102531000,36.01,-86.57,SJ (Srisagar),TN,1407775312000,2556962
12144054,Cottontown,Nashville,1409352871000,36.49,-86.59,Slaw,TN,1507327494000,2556962
238912542,Nashville,,1508103819000,36.11,-86.78,Slobodan Sesto,TN,1508765595000,2556962
124137472,Springfield,,1387352671000,36.52,-86.87,Smitty,TN,1389669764000,2556962
183893273,Nashville,,1422205460000,36.17,-86.72,Solomon,TN,1476647750000,2556962
206337802,Pleasant Shade,,1464892223000,36.35,-85.9,Sonja Bandolik,TN,1464892223000,2556962
184697186,Manchester,,1425306329000,35.47,-86.11,Stan Paquet,TN,1476912364000,2556962
185218701,Nashville,,1426278450000,36.08,-86.72,Stefan,TN,1429223253000,2556962
186149403,Hermitage,,1429047158000,36.19,-86.6,Stefan Saunders,TN,1429047158000,2556962
154992742,Clarksville,,1404662735000,36.49,-87.23,stefano,TN,1404662735000,2556962
233138365,Nashville,,1501692412000,36.17,-86.72,Stella Brown,TN,1504567145000,2556962
4391137,Murfreesboro,,1423752489000,35.87,-86.44,Stephanie Smith,TN,1426259544000,2556962
114024182,Spring Hill,"Spring Hill, TN",1394803092000,35.76,-86.88,Stephen,TN,1467546979000,2556962
186961388,Nashville,,1430842352000,36.15,-86.78,Stephen Lewis,TN,1443755265000,2556962
140475692,Nashville,,1396723474000,36.17,-86.78,Sterling Campbell,TN,1428432407000,2556962
184492592,Gallatin,,1428026845000,36.39,-86.45,Steve,TN,1428026845000,2556962
211859233,Franklin,,1472427220000,35.92,-86.89,Steve Bell,TN,1508075583000,2556962
185843910,Brentwood,,1428178720000,36.0,-86.79,Steve Bidwell,TN,1464436041000,2556962
43760602,Nashville,,1333661238000,36.17,-86.72,Steve Branin,TN,1428370236000,2556962
3426127,Nashville,,1477959965000,36.17,-86.72,Steve Buchanan,TN,1508680808000,2556962
196769654,Franklin,,1449932460000,35.92,-86.89,Steve C ,TN,1449932460000,2556962
137764322,Brentwood,,1395108051000,36.0,-86.79,Steve French,TN,1506179535000,2556962
188156730,Lewisburg,,1433314037000,35.45,-86.8,Steve M. ,TN,1463751450000,2556962
81820352,Mount Juliet,,1361584532000,36.22,-86.52,Steve Mac,TN,1491048456000,2556962
194276848,College Grove,,1445288542000,35.77,-86.71,Steve R,TN,1458044334000,2556962
2703855,Nashville,"Owensboro, KY",1405110721000,36.18,-86.74,"Steve Roehm, MHt, MNLP, CMT",TN,1502057852000,2556962
86881902,Franklin,,1406639235000,35.92,-86.89,Steve Underwood,TN,1498495920000,2556962
182790214,Nashville,,1417433700000,36.17,-86.72,Steven Yates,TN,1417433700000,2556962
93119852,Hendersonville,,1368888404000,36.32,-86.61,Stuart,TN,1398219321000,2556962
213024339,Rockvale,,1502549412000,35.76,-86.55,Stuart Retter,TN,1503947829000,2556962
210271633,Nashville,,1501601028000,36.17,-86.78,Sue,TN,1501601028000,2556962
222364950,Nolensville,,1487558320000,35.94,-86.67,Surfcityred,TN,1487558320000,2556962
8326475,Nashville,"San Jose, CA",1438656368000,36.15,-86.86,susan,TN,1445558115000,2556962
200303210,Rockvale,,1486689605000,35.76,-86.55,Susan Marshall Retter,TN,1505919629000,2556962
227258729,Woodbury,,1496889019000,35.81,-86.07,T J,TN,1506133753000,2556962
160031022,Dickson,,1407259975000,36.08,-87.43,Tammy Alex,TN,1412295245000,2556962
224039923,Lebanon,,1489924493000,36.15,-86.32,Tammy Stocker,TN,1489924493000,2556962
193015494,Hendersonville,,1445901151000,36.3,-86.6,Tanner Steff,TN,1445901151000,2556962
194587989,Thompsons Station,,1472507089000,35.8,-86.9,Taylor Swendsen,TN,1506362709000,2556962
221828043,Nashville,,1486817396000,36.17,-86.72,Taylor Thurston,TN,1486817396000,2556962
226238725,Nashville,,1492963147000,36.17,-86.72,Ted Bertuca,TN,1506134721000,2556962
201363084,Brentwood,,1457789120000,36.0,-86.79,Teran Powell,TN,1457789120000,2556962
163588742,Vancouver,,1409017883000,45.64,-122.68,Terence Franko Hill Jr,WA,1409017883000,2556962
12781914,Nashville,Nashville,1406692352000,36.16,-86.79,Teresa,TN,1507760387000,2556962
176726162,Nashville,,1412867738000,36.17,-86.72,Terry,TN,1463751333000,2556962
226807635,Brentwood,,1502419742000,36.0,-86.79,Terry Bowers,TN,1503954905000,2556962
200740415,Murfreesboro,,1456873905000,35.82,-86.45,Terry Libretti,TN,1457057345000,2556962
127531442,Kingston Springs,Kingston Springs,1411665486000,36.09,-87.12,Terry McCowan,TN,1472829714000,2556962
100569702,Charlotte,,1372821239000,36.24,-87.26,The Hurds,TN,1388455114000,2556962
189616182,Nashville,,1436306094000,36.17,-86.72,TheCreekHD,TN,1436306094000,2556962
189644481,Nashville,,1436365177000,36.16,-86.79,thenino60,TN,1436535256000,2556962
92005952,Hendersonville,,1367646437000,36.32,-86.61,Theo Zeilstra,TN,1461196953000,2556962
153239942,Nashville,,1403666028000,36.17,-86.72,Thomas House,TN,1441680203000,2556962
118065652,Hermitage,,1386171955000,36.19,-86.6,Thomas Marble,TN,1386171955000,2556962
155221522,Charlotte,,1404766685000,35.19,-80.83,Thomas Mr-Mayhem Entrekin,NC,1404766685000,2556962
187662729,Hendersonville,,1432324844000,36.32,-86.61,Thomas Struble,TN,1436236048000,2556962
206993242,Murfreesboro,,1465767008000,35.87,-86.44,Thomas Tucker,TN,1465767008000,2556962
36347682,Los Angeles,,1476317003000,33.97,-118.24,Thomas Zachary,CA,1476317003000,2556962
125326042,White House,,1388430637000,36.48,-86.69,ThomasAnastacia,TN,1455863296000,2556962
196024185,Lebanon,,1448402088000,36.21,-86.31,Tierney Luszczynski,TN,1467122160000,2556962
193727582,Lebanon,,1444145202000,36.21,-86.31,Tim,TN,1462505263000,2556962
8384169,Henderson,Montana pick a place,1493863973000,36.06,-115.05,Tim (Fish) Sarrels,NV,1495921471000,2556962
150682302,Nashville,,1402316356000,36.17,-86.72,Tim Binkley,TN,1404777233000,2556962
200389109,Hendersonville,,1456629773000,36.32,-86.61,Tim Hancock,TN,1459691270000,2556962
141731582,Cedar Hill,Ceder Hill,1397297768000,36.51,-87.02,Tim Hollis,TN,1437855254000,2556962
186196615,Ashland City,"Moline, IL",1429095834000,36.28,-87.07,Tim Langfeldt,TN,1501559514000,2556962
217195678,Franklin,,1479972853000,35.93,-86.84,Tim Venerosa,TN,1479972853000,2556962
178463402,Nashville,,1413669841000,36.17,-86.72,Tim Wiseman,TN,1490621850000,2556962
182683004,Nashville,,1416761325000,36.17,-86.72,timothy baer,TN,1416761325000,2556962
48303592,Mount Juliet,Smyrna,1337348959000,36.22,-86.52,Timothy Morris,TN,1500922777000,2556962
53999432,Savannah,"Savannah, TN",1494794989000,35.23,-88.23,Timothy Smith,TN,1496036677000,2556962
49002452,Nashville,Nashville,1337923220000,36.16,-86.79,Toby Yim,TN,1375382999000,2556962
208320571,Sayville,,1497137841000,40.75,-73.08,Todd Jernigan,NY,1497137841000,2556962
6841431,Ephrata,"hazelcrest,Il",1367591636000,47.29,-119.57,Todd moore,WA,1507291705000,2556962
171505242,Madison,,1410901349000,36.26,-86.71,Todd Morrison,TN,1415213781000,2556962
218853384,Nashville,,1483027247000,36.17,-86.72,Todd Schrock,TN,1483027247000,2556962
148318032,Springfield,,1401042754000,36.52,-86.87,Tom,TN,1432896839000,2556962
49923212,Nashville,,1338671551000,36.17,-86.72,Tom Allen,TN,1366328235000,2556962
142625352,Nashville,,1397816423000,36.17,-86.72,Tom Langston,TN,1397816423000,2556962
98579932,Nashville,,1371636686000,36.17,-86.72,Tom Ritter,TN,1379889992000,2556962
171562492,Nashville,,1411046539000,36.17,-86.72,TOM SCHMIDT,TN,1472395032000,2556962
188386050,Hendersonville,Hendersonville,1436911079000,36.32,-86.61,Tom Struble,TN,1507994073000,2556962
141690832,Hermitage,"Nashville, TN",1397327823000,36.19,-86.6,Tom Wood,TN,1501722086000,2556962
28573062,Nashville,,1319154539000,36.17,-86.78,Tommy Ross,TN,1468339989000,2556962
26520352,Gallatin,gallatin,1401163491000,36.39,-86.45,Tommy Williams,TN,1464553855000,2556962
221410405,Spring Hill,,1495327646000,35.76,-86.88,Toni Wachtl,TN,1507759637000,2556962
158305662,Madison,Madison,1406334398000,36.26,-86.71,Tony,TN,1434248389000,2556962
68186782,Nashville,,1444712147000,36.17,-86.78,Tony,TN,1506789360000,2556962
222688050,Bradyville,,1488001978000,35.7,-86.1,Tony Hampton,TN,1501643047000,2556962
237444139,Nashville,,1506409666000,36.17,-86.72,Tony Perez,TN,1506535695000,2556962
223051203,Nashville,,1488507263000,36.17,-86.72,Tony Scribner,TN,1500131659000,2556962
104045202,Nashville,"Fort Lauderdale, FL",1418354806000,36.17,-86.72,Tonya James,TN,1418694135000,2556962
149024262,Nashville,,1401397676000,36.17,-86.78,Tracy,TN,1401397676000,2556962
188897303,Brentwood,,1435499791000,36.0,-86.79,Tracy,TN,1508680171000,2556962
188998446,Castalian Springs,,1435029552000,36.38,-86.32,Tracy Draper ,TN,1435029552000,2556962
205927244,Hendersonville,,1494327205000,36.32,-86.61,Tracy Rogers Anselment,TN,1500433350000,2556962
219442744,Mount Juliet,,1504462661000,36.21,-86.52,Tracy Trimble,TN,1506123816000,2556962
210207709,Lebanon,,1470085247000,36.21,-86.31,Travis ,TN,1470192225000,2556962
190601095,New York,,1438185801000,40.75,-73.99,Travis Cole,NY,1438185801000,2556962
225022249,Lebanon,,1491522233000,36.21,-86.31,Travis Dykstra,TN,1508650832000,2556962
203023830,Hendersonville,,1460208285000,36.32,-86.61,Travis Hartley,TN,1501885568000,2556962
154752342,Spring Hill,,1404583124000,35.76,-86.88,Trevor,TN,1462483582000,2556962
10101191,Murfreesboro,,1317566894000,35.78,-86.33,Tricia,TN,1496332208000,2556962
173246352,Nashville,,1416556927000,36.16,-86.79,Troy,TN,1508709149000,2556962
33441622,Hermitage,Nashville,1432226648000,36.19,-86.6,Tya,TN,1439957345000,2556962
120327642,Nashville,,1384665300000,36.17,-86.72,Valerie C.,TN,1405094991000,2556962
103825832,Nashville,,1374868005000,36.17,-86.72,Vicki,TN,1379354465000,2556962
171252732,Gatlinburg,,1410864598000,35.71,-83.52,Vicki Knight Mersinger,TN,1410864598000,2556962
183705950,Nashville,"Memphis, TN",1423073850000,36.17,-86.78,Vincent,TN,1492962673000,2556962
120681332,Nashville,,1476968712000,36.13,-86.8,Vincent Taylor,TN,1508688296000,2556962
10854491,Hermitage,Hermitage,1401393029000,36.19,-86.6,Vladimir,TN,1401393029000,2556962
26586702,Nashville,Franklin ,1464527062000,36.09,-86.82,Wade Shealy,TN,1464527062000,2556962
47771502,Nashville,,1336941593000,36.17,-86.72,Wayne,TN,1501765924000,2556962
197141184,Spring Hill,,1450809334000,35.76,-86.88,Wayne Carter,TN,1477085072000,2556962
63286592,Nashville,,1348255802000,36.17,-86.72,wayne jeffcoat,TN,1426627045000,2556962
206103621,Franklin,,1464570763000,35.92,-86.89,Weinie,TN,1508674442000,2556962
211725073,Murfreesboro,,1472868018000,35.78,-86.33,Wendy B,TN,1506987558000,2556962
4638725,Hollywood,Franklin,1469907988000,26.12,-80.33,Wes,FL,1499462411000,2556962
189100202,Franklin,"Fort Lauderdale, FL",1435240939000,35.93,-86.81,West,TN,1464350468000,2556962
191455855,Antioch,,1439848041000,36.04,-86.64,Whitie Knutson,TN,1507759615000,2556962
207314813,Nashville,,1477748743000,36.17,-86.78,Wiley Chandler,TN,1477748743000,2556962
141235802,Nashville,"Baltimore, MD",1457195658000,36.16,-86.85,Will,TN,1457195658000,2556962
11713015,Nashville,,1470132974000,36.17,-86.78,Will Rodgers,TN,1506092422000,2556962
171255692,Cookeville,LaVergne ,1410866067000,36.2,-85.52,William Haley,TN,1441588891000,2556962
215285118,Nashville,,1479485877000,36.16,-86.79,William Johnston,TN,1507297739000,2556962
185447451,Nashville,,1426988326000,36.16,-86.79,Woody Houston,TN,1426988326000,2556962
202187991,Nashville,,1458989512000,36.17,-86.78,Wyatt,TN,1506263929000,2556962
