id,city,hometown,joined,lat,lon,name,state,visited,group_id
183411059,Nashville,"Boyds, MD",1504063324000,36.08,-86.72,Abibu Sinlah Jr,TN,1504063324000,25681644
235127489,Nashville,,1503975988000,36.17,-86.78,Anthony Scott Doling,TN,1508445410000,25681644
234118359,Nashville,,1506100372000,36.09,-86.82,Austin Stratton,TN,1506100372000,25681644
235100082,Nashville,,1503948338000,36.17,-86.78,Brandes Holcomb,TN,1503948338000,25681644
235097750,Nashville,,1503946193000,36.17,-86.78,Brandon Gnetz,TN,1508430770000,25681644
233297847,Madison,,1504287180000,36.19,-86.74,Brayden,TN,1504287180000,25681644
184630941,Hermitage,,1503953676000,36.19,-86.6,Brian Polk,TN,1503953676000,25681644
235626175,Nashville,,1504536602000,36.07,-86.73,Bryce Very,TN,1504536602000,25681644
233534591,Nashville,,1503953138000,36.08,-86.72,Caleb Mckenney,TN,1507155444000,25681644
236489166,Nashville,,1505396537000,36.17,-86.78,Calvin Scott,TN,1505396537000,25681644
237097175,Nashville,,1506018175000,36.17,-86.78,Chad Sellers,TN,1507129855000,25681644
212544424,Antioch,,1504556891000,36.17,-86.88,Christopher Greed,TN,1504556891000,25681644
236304744,Nashville,,1505226585000,36.1,-86.66,Ciera,TN,1505226585000,25681644
235120155,Nashville,,1503968030000,36.17,-86.78,cole mandl,TN,1503968030000,25681644
235801065,Nashville,,1504709137000,36.17,-86.78,Colin Sutker,TN,1507036941000,25681644
218384086,Nashville,,1503960332000,36.17,-86.78,Connor Carroll,TN,1503960332000,25681644
218876515,Nashville,,1503953811000,36.17,-86.78,Daryl,TN,1504190609000,25681644
15683961,Philadelphia,"Carthage, NC",1503973090000,39.95,-75.16,Dwayne,PA,1503973090000,25681644
212106559,Nashville,,1503943183000,36.14,-86.81,edwin willmore,TN,1508429753000,25681644
235097485,Nashville,,1503945947000,36.17,-86.78,eric,TN,1504746099000,25681644
196356773,Nashville,,1503957094000,36.18,-86.74,Frank,TN,1507144353000,25681644
235246265,Nashville,,1504109587000,36.17,-86.78,Grant Belden,TN,1505405544000,25681644
214699652,Hermitage,,1506575560000,36.17,-86.6,Jake Dunphy,TN,1506612325000,25681644
237054432,Clarksville,,1505968430000,36.49,-87.23,Jeremiah Heyward,TN,1505968430000,25681644
235806526,Nashville,,1504713706000,36.17,-86.78,Jeremy McAnulty,TN,1504713706000,25681644
3380276,Nashville,Nashville/Shelbyville,1505315378000,36.11,-86.78,Jim H,TN,1508801504000,25681644
237747930,Nashville,,1506744386000,36.15,-86.86,Jon Acevedo,TN,1506744386000,25681644
235110663,Nashville,,1503958185000,36.17,-86.78,Joshua Rizzo,TN,1504709058000,25681644
238307807,Nashville,,1507360410000,36.19,-86.8,Kei Johnson,TN,1507360410000,25681644
223899963,Hendersonville,,1504219840000,36.32,-86.61,Kevin Stinson,TN,1504219840000,25681644
234504149,Nashville,,1504193661000,36.17,-86.78,Kyle Lo Porto,TN,1504193661000,25681644
34107212,Nashville,Madison,1503953103000,36.14,-86.8,Kyle R,TN,1503953103000,25681644
16845731,Nashville,,1503953362000,36.1,-86.66,Lewis Tapp,TN,1504612799000,25681644
237094494,Nashville,,1506015750000,36.17,-86.78,Linwood K. Regensburg Jr.,TN,1508018199000,25681644
28657012,Chestnut Hill,Boston,1504311890000,42.32,-71.16,Marc Visnick,MA,1504311890000,25681644
55749612,Nashville,"Harlem, NYC",1504160453000,36.16,-86.79,Marshall Martin,TN,1504160453000,25681644
235190704,Nashville,,1504049670000,36.17,-86.78,Matt Hartin,TN,1507241032000,25681644
191510506,Nashville,Nashville,1504089626000,36.14,-86.74,Michael,TN,1504089626000,25681644
230659176,Nashville,,1504095752000,36.16,-86.79,Michael Anderson,TN,1504323764000,25681644
239510528,Murfreesboro,,1508719558000,35.87,-86.44,Nicholas Ryder Pernell,TN,1508719558000,25681644
235883803,Nashville,,1504793955000,36.17,-86.78,oden comen,TN,1508429736000,25681644
235108762,Nashville,,1503956234000,36.17,-86.78,Randy Crawley,TN,1503956234000,25681644
233081748,Nashville,,1503949718000,36.17,-86.78,Rob Williams,TN,1508253456000,25681644
235639164,Nashville,,1504547217000,36.17,-86.78,Robert Usieto,TN,1504633026000,25681644
218061898,Nashville,,1504014677000,36.17,-86.78,Rodney Chism,TN,1507731152000,25681644
237344850,Madison,,1506300987000,36.19,-86.74,Sara Lee,TN,1506300987000,25681644
235323255,Nashville,,1504190113000,36.17,-86.78,Steve H,TN,1508768827000,25681644
236615600,Nashville,,1505518949000,36.15,-86.86,T.J.,TN,1505518949000,25681644
235764276,Nashville,,1504666496000,36.17,-86.78,Todd Dunkmaster,TN,1504666496000,25681644
235120633,Nashville,,1503968573000,36.17,-86.78,Tomwills,TN,1503968573000,25681644
7592322,Nashville,Nashville,1504045273000,36.21,-86.72,Tony,TN,1504045273000,25681644
11212913,Nashville,,1503946409000,36.17,-86.78,zev Goering,TN,1504705350000,25681644
