id,city,hometown,joined,lat,lon,name,state,visited,group_id
118234452,Nashville,,1504696255000,36.17,-86.78,Alana R. Smith,TN,1505986616000,25777628
237869773,Nashville,,1506888063000,36.17,-86.78,Alaric Reinhard,TN,1506888063000,25777628
155195962,Nashville,,1504632149000,36.13,-86.8,Andrea,TN,1504632149000,25777628
187254868,Nashville,"Chattanooga, TN",1504642718000,36.17,-86.78,Andrew Clement,TN,1504642718000,25777628
218869837,Nashville,,1504654358000,36.17,-86.78,Ann Shafer,TN,1504654358000,25777628
233590417,Nashville,,1504637115000,36.08,-86.72,Anna Dolan,TN,1507481414000,25777628
192501596,Murfreesboro,,1507873611000,35.82,-86.45,April Faircloth Collier,TN,1507873611000,25777628
238266218,Murfreesboro,,1507315951000,35.85,-86.36,Ashley Loftis,TN,1507315951000,25777628
234807416,Nashville,,1504637305000,36.17,-86.78,Barry Arons,TN,1504637305000,25777628
227339977,Nashville,,1504644851000,36.17,-86.78,Billy Lou,TN,1504644851000,25777628
237683429,Nashville,,1506671074000,36.15,-86.86,Boburmirzo Sirojiddinov,TN,1506710596000,25777628
235931355,Nashville,,1504838164000,36.1,-86.66,Bode Alao-Festus,TN,1504838164000,25777628
237082163,Lebanon,,1506004981000,36.21,-86.31,Bouachine Khamphouy,TN,1506004981000,25777628
227186695,Hermitage,,1504634745000,36.19,-86.6,Branden Butler,TN,1504634745000,25777628
216258845,Nashville,,1504633479000,36.17,-86.78,Brandon Caples,TN,1504633479000,25777628
239518525,Murfreesboro,,1508727672000,35.85,-86.36,Brett A. Baird,TN,1508727672000,25777628
41530662,Clarksville,Clarksville,1504631912000,36.49,-87.23,Brian Mautz,TN,1504631912000,25777628
238083662,Nashville,,1507124948000,36.17,-86.78,Bryan Martin,TN,1507124948000,25777628
236352609,Nashville,,1505395567000,36.17,-86.78,Chad Mattingly,TN,1505395567000,25777628
238166851,Nashville,,1507221566000,36.16,-86.78,Cheryl Polk,TN,1507221566000,25777628
236803469,Springfield,,1505720073000,36.52,-86.87,Chester,TN,1506375045000,25777628
185224283,Nashville,Nashville,1507427505000,36.15,-86.86,Chris Lopez,TN,1507427505000,25777628
236578093,Nashville,,1505483308000,36.21,-86.72,Chris Mellor,TN,1505483308000,25777628
231487378,Mount Juliet,,1508220207000,36.21,-86.52,Chris Powell,TN,1508220207000,25777628
237425965,Franklin,,1506387477000,35.93,-86.84,Chris Zimmer,TN,1506387477000,25777628
238511144,Nashville,,1507580366000,36.08,-86.72,Christopher Floyd,TN,1508644970000,25777628
188797991,Smyrna,,1506007046000,35.97,-86.51,Damon Lawton,TN,1508357527000,25777628
214288417,Toronto,,1506386004000,43.74,-79.36,Daniel Bishara,ON,1506865599000,25777628
206240756,Murfreesboro,,1504662496000,35.87,-86.44,Dara,TN,1504712710000,25777628
195051081,Columbus,"Dayton, OH",1506811126000,39.89,-82.95,Deedra,OH,1506811126000,25777628
232581567,Nashville,,1508257202000,36.14,-86.74,Deirdre Racanelli,TN,1508257202000,25777628
189851402,Nashville,nashville,1506793672000,36.16,-86.79,Dhaval Poladia,TN,1506960458000,25777628
9448133,Franklin,,1506484212000,35.92,-86.89,Dwayne Pate,TN,1506484212000,25777628
13302726,Franklin,,1506698292000,35.92,-86.89,"Elizabeth Gottlieb-Meade, PMP",TN,1507818397000,25777628
222527354,Nashville,,1508276073000,36.16,-86.77,Fitzgerald Adjeitey,TN,1508276073000,25777628
70216662,Nashville,,1504693221000,36.14,-86.74,Gabrielle Epstein,TN,1504797109000,25777628
231188280,Nashville,,1505961461000,36.17,-86.78,Gareth the Paddy,TN,1505961461000,25777628
139811722,Nashville,,1505361818000,36.17,-86.78,Greta M.,TN,1508130617000,25777628
25691792,Nashville,,1504635802000,36.17,-86.79,Henry MacAfee,TN,1507257220000,25777628
153724782,Nashville,,1505215420000,36.17,-86.79,Jarrod Hailey,TN,1506444775000,25777628
237112827,Nashville,,1506033192000,36.17,-86.78,Jason Eiceman,TN,1506033192000,25777628
234791945,Nashville,Nashville,1504731767000,36.13,-86.8,Jason Rial,TN,1505180442000,25777628
238447017,Nashville,,1507512352000,36.07,-86.69,Jennifer H,TN,1507512352000,25777628
12307860,Nashville,Chicago,1504649594000,36.15,-86.79,Jeremy,TN,1505657747000,25777628
62522412,Nashville,Nashville,1504664890000,36.11,-86.86,Jessica,TN,1504743374000,25777628
239150613,Nashville,,1508304495000,36.09,-86.82,Jethro Gaglione,TN,1508304495000,25777628
14472883,Nashville,,1504720525000,36.17,-86.78,Jim Hitch,TN,1504720525000,25777628
227186615,Nashville,,1504635032000,36.17,-86.78,Judy Cooper,TN,1504635032000,25777628
217872107,Nashville,"Franklin, TN",1504744339000,36.17,-86.78,Julia Allen,TN,1507170751000,25777628
239190353,Memphis,,1508352244000,35.09,-89.85,Kani Amoah,TN,1508352244000,25777628
187636618,Franklin,Franklin,1505351256000,35.92,-86.89,Kenneth H Wilson,TN,1505351256000,25777628
205281899,Mount Juliet,,1505157066000,36.22,-86.52,Kevin Edward Kline,TN,1505157066000,25777628
223899963,Hendersonville,,1504632386000,36.32,-86.61,Kevin Stinson,TN,1504718748000,25777628
223324639,Nashville,,1504632754000,36.17,-86.78,Kurt Jenkins,TN,1505252270000,25777628
222288505,Franklin,,1507012110000,35.93,-86.83,Latish Khubnani,TN,1507012110000,25777628
117370442,Nashville,Nashville,1504633332000,36.17,-86.78,Lina Mikhaylichenko,TN,1505154338000,25777628
224064745,La Vergne,,1506893534000,36.01,-86.57,Liz Del Angel,TN,1506893534000,25777628
237396707,Nashville,,1506359697000,36.17,-86.78,Marisol Ramírez Solano,TN,1506359697000,25777628
182626228,Brentwood,,1504719697000,36.0,-86.79,Mark,TN,1504719697000,25777628
239198051,Nashville,,1508359399000,36.13,-86.8,Matt,TN,1508359399000,25777628
154457632,Nashville,Nashville,1504728010000,36.16,-86.79,Matt Filppi,TN,1504728010000,25777628
199209760,Hendersonville,,1504632546000,36.32,-86.61,Michael M.,TN,1508599122000,25777628
12916961,Nashville,,1504636155000,36.17,-86.78,Michael Phillips,TN,1504636155000,25777628
229362387,Nashville,,1506203193000,36.14,-86.74,Michael Rodriguez,TN,1507251412000,25777628
238802649,Nashville,,1507908976000,36.16,-86.77,Moo Jin Oh,TN,1507908976000,25777628
234684445,Antioch,,1505928949000,36.17,-86.88,Nathan Hudson,TN,1507049803000,25777628
231357658,Nashville,,1504645858000,36.17,-86.78,Parissa Gharavi,TN,1505304203000,25777628
14403986,Nashville,,1504636051000,36.17,-86.78,Paul Campbell,TN,1505484255000,25777628
235675072,Atlanta,,1504580126000,33.86,-84.4,Pettis,GA,1508625400000,25777628
236421153,Nashville,,1505328514000,36.13,-86.8,Rachael Peters,TN,1505486273000,25777628
214321618,Nashville,,1504723184000,36.14,-86.74,Rachel,TN,1504837008000,25777628
214239585,Nashville,,1504633528000,36.17,-86.78,Rachel Foresta,TN,1504633528000,25777628
239057701,Nashville,,1508199571000,36.09,-86.82,Rachel Johnson,TN,1508199571000,25777628
239211628,Nashville,,1508374219000,36.13,-86.8,RiDe,TN,1508374219000,25777628
237120878,Hermitage,,1506042637000,36.19,-86.6,Ryan,TN,1506042637000,25777628
237392126,Nashville,,1506355721000,36.17,-86.78,Samantha Terker,TN,1508260678000,25777628
238324286,Hendersonville,,1507380683000,36.3,-86.62,Sarah Abel,TN,1507380683000,25777628
232790301,Nashville,,1504634089000,36.17,-86.78,Sean Whiteside,TN,1507319730000,25777628
238400895,Nashville,,1507467473000,36.17,-86.78,Sequina Hall,TN,1507467473000,25777628
155803232,Nashville,,1506366853000,36.17,-86.72,Sheila,TN,1507070277000,25777628
238021936,Nashville,,1507054670000,36.16,-86.79,Sisi Wang,TN,1507054670000,25777628
11368119,Nashville,,1504795619000,36.11,-86.86,Siska ,TN,1504795619000,25777628
236332354,Fairview,,1505246406000,35.97,-87.13,Stacey Joplin,TN,1505246406000,25777628
236080463,Lebanon,,1504998387000,36.21,-86.31,Stephanie Miller,TN,1504998387000,25777628
237417427,Nashville,,1506378197000,36.07,-86.78,Stephen Emerson,TN,1507684729000,25777628
227009173,Nashville,Nashville,1505602390000,36.16,-86.79,steve,TN,1508200494000,25777628
238673148,Murfreesboro,,1507757884000,35.78,-86.33,Tasha Lane,TN,1507757884000,25777628
234412475,Goodlettsville,,1504816741000,36.32,-86.72,Teresa Richmond,TN,1504816741000,25777628
204244320,Nashville,,1504633897000,36.18,-86.74,Tim Maddux,TN,1505164864000,25777628
232999177,Nashville,,1504818864000,36.17,-86.78,Tim Michaels,TN,1504818864000,25777628
202669127,Gallatin,,1504633283000,36.39,-86.45,Tradessa,TN,1507690458000,25777628
232676485,Nashville,,1504642019000,36.15,-86.81,Trev Lawson,TN,1504720775000,25777628
200743928,La Vergne,,1504739159000,36.01,-86.57,Trey Amsler,TN,1504739159000,25777628
230753190,Franklin,,1504813442000,35.93,-86.81,Werner Mendoza,TN,1504813442000,25777628
62111092,Nashville,"San Luis Obispo, CA",1506282529000,36.18,-86.81,Wes,TN,1506282529000,25777628
239275900,Nashville,,1508449832000,36.15,-86.86,Wesley Osborn,TN,1508449832000,25777628
205389919,Nashville,,1505178518000,36.13,-86.67,Will Davis,TN,1505178518000,25777628
55920722,Nashville,,1504641500000,36.16,-86.79,Will Haight,TN,1505235070000,25777628
199547904,Hermitage,,1505424323000,36.19,-86.6,Yasminne,TN,1508768835000,25777628
235666269,Nashville,Franklin,1504718256000,36.15,-86.86,Yasser F,TN,1505326111000,25777628
237575678,Nashville,,1506546912000,36.13,-86.8,??,TN,1506546912000,25777628
