id,city,hometown,joined,lat,lon,name,state,visited,group_id
237812072,Nashville,,1506818137000,36.07,-86.73,Ainsley Carman,TN,1506818137000,25857366
71020602,Franklin,Nashville ,1506261787000,35.92,-86.89,Amy,TN,1508166650000,25857366
155195962,Nashville,,1505067394000,36.13,-86.8,Andrea,TN,1505067394000,25857366
231380726,Nashville,,1505356934000,36.17,-86.78,Ann Stedman,TN,1506141041000,25857366
200686755,Nashville,,1508378326000,36.17,-86.72,Ariella Bocian,TN,1508707287000,25857366
201307713,Nashville,,1508704064000,36.14,-86.9,Ashley,TN,1508808252000,25857366
236978359,Hermitage,,1505880754000,36.19,-86.6,Ashley Sharbutt,TN,1505880754000,25857366
203544072,Hermitage,,1507675958000,36.19,-86.6,Becky Garland,TN,1507675958000,25857366
218543718,Nashville,,1505134929000,36.08,-86.72,Blaine Archer,TN,1505134929000,25857366
11247133,Greenbrier,,1505063627000,36.42,-86.8,Bob S,TN,1505698031000,25857366
233297847,Madison,,1505074807000,36.19,-86.74,Brayden,TN,1506150894000,25857366
8637510,Nolensville,"Paris, France",1505061876000,35.94,-86.67,Bruno,TN,1505061876000,25857366
236079912,Nashville,,1505140754000,36.17,-86.78,C.F. Jackson,TN,1505140754000,25857366
239047107,Nashville,,1508188415000,36.17,-86.78,Casey Howards,TN,1508188415000,25857366
13370869,Nashville,,1505079428000,36.17,-86.72,Chelsey ,TN,1505079428000,25857366
184360544,Goodlettsville,Gallatin,1508153973000,36.32,-86.72,Chris,TN,1508548954000,25857366
5175848,Nashville,,1505153061000,36.17,-86.78,Chris Lehmann,TN,1506620169000,25857366
5665048,Nashville,,1505084222000,36.11,-86.86,Chris Ude,TN,1505084222000,25857366
236854156,Murfreesboro,,1505765103000,35.82,-86.45,Clayton Breen,TN,1505765103000,25857366
239589903,Nashville,,1508803501000,36.13,-86.8,Cody Karr,TN,1508803501000,25857366
157759502,Columbia,,1505068625000,35.61,-87.05,Connie (kovvie) Bishop,TN,1506142291000,25857366
34853922,Nashville,Little Rock,1506445598000,36.17,-86.78,Craig,TN,1508338479000,25857366
6384782,Nashville,"Lexington, KY",1505142487000,36.06,-86.96,David,TN,1506015356000,25857366
236825752,Nashville,,1505743790000,36.15,-86.86,Diana Dorris,TN,1505743790000,25857366
183085932,Nashville,,1505064113000,36.08,-86.72,Donna,TN,1505064113000,25857366
233867904,Franklin,,1505232193000,35.92,-86.89,Drew McNairy,TN,1505232193000,25857366
3687548,Nashville,nashville,1505080463000,36.22,-86.77,Erin Riley,TN,1506688977000,25857366
10257943,Brentwood,Nashville,1505226519000,36.0,-86.79,Greg Tidwell,TN,1508474646000,25857366
238911479,Nashville,,1508033744000,36.16,-86.77,Hillary Knudson,TN,1508033744000,25857366
237295929,Columbia,,1506251290000,35.62,-87.03,Howard Witherspoon,TN,1506251290000,25857366
10098907,Nashville,Nashville,1505060812000,36.11,-86.86,Jackie,TN,1506701214000,25857366
187052923,Nashville,,1505060456000,36.17,-86.78,James Otis Runyon,TN,1508586981000,25857366
237427710,Nashville,,1506390024000,36.11,-86.86,Jay Johnson,TN,1506390024000,25857366
8655376,Nashville,,1505176728000,36.17,-86.78,Jeff,TN,1505176728000,25857366
236355069,Nashville,,1505265214000,36.11,-86.86,Jennifer W.,TN,1506114931000,25857366
38690452,Nashville,Cypress,1505066626000,36.11,-86.8,Jessica,TN,1505066626000,25857366
6770985,Nashville,Nashville,1505090513000,36.16,-86.79,Joe,TN,1508807427000,25857366
198426868,Nashville,,1505147114000,36.16,-86.79,John Burtchaell,TN,1505147114000,25857366
218511039,Nashville,,1508543925000,36.13,-86.8,Jordan,TN,1508589665000,25857366
236224212,Nashville,,1505150662000,36.11,-86.86,Karlie Nicole Weathers,TN,1506121390000,25857366
214998127,Hermitage,,1505190488000,36.19,-86.6,Karlie Weathers,TN,1506141530000,25857366
220979725,Nashville,Nashville,1505152895000,36.17,-86.78,Kathy Poston,TN,1505664116000,25857366
82595342,Nashville,,1506611186000,36.15,-86.86,Keith,TN,1506611186000,25857366
238885118,Brentwood,,1508005427000,36.0,-86.79,Kristen Tuttle,TN,1508005427000,25857366
115121022,Nashville,,1505086534000,36.17,-86.78,Kristin,TN,1506729323000,25857366
236792715,Murfreesboro,,1505706204000,35.82,-86.45,Kristin Zimmerman,TN,1505706204000,25857366
239429291,Nashville,,1508626967000,36.18,-86.74,Krystal Gates,TN,1508677006000,25857366
234802161,Chicago,,1507921363000,41.94,-87.65,Lani Tan,IL,1507943104000,25857366
235724786,Nashville,,1505129487000,36.17,-86.78,Laura Gigliotti,TN,1505129487000,25857366
212934412,Nashville,,1505066568000,36.17,-86.78,Lauren ,TN,1508334738000,25857366
235876834,Nashville,,1505075026000,36.17,-86.78,Laurie mesch,TN,1506682150000,25857366
238803051,Nashville,,1507910849000,36.15,-86.86,Laverne Alexi,TN,1507910849000,25857366
237156219,Nashville,,1506089217000,36.13,-86.8,Lindsey,TN,1506089217000,25857366
16479361,Nashville,,1505147265000,36.13,-86.8,Mark Pierret,TN,1506350951000,25857366
210299907,Nashville,,1505753315000,36.18,-86.81,Mark Sagers,TN,1505753315000,25857366
235469669,Nashville,,1505256938000,36.08,-86.72,Meghan Doyle,TN,1505256938000,25857366
193929313,Nashville,,1505586866000,36.11,-86.86,Melissa Wert,TN,1505586866000,25857366
208397842,Nashville,,1505113095000,36.17,-86.78,Meredith Gilbert,TN,1505800797000,25857366
168891042,Nashville,,1505007097000,36.16,-86.79,Michael,TN,1508792882000,25857366
229821736,Hermitage,,1505083178000,36.19,-86.6,Michael Swift,TN,1505083178000,25857366
198128679,Nashville,,1505147386000,36.17,-86.72,michael tambornino,TN,1505147386000,25857366
185873795,Nashville,"Miami, FL",1505338037000,36.15,-86.86,Paulina Alejandra,TN,1506295563000,25857366
3900214,Nashville,,1505086710000,36.09,-86.82,Rachel,TN,1505086710000,25857366
236782030,Clarksville,,1505695657000,36.53,-87.34,Rachel Wheaton,TN,1505695657000,25857366
9880710,Nashville,Nashville,1505138728000,36.17,-86.72,Scot I. Burner,TN,1505478953000,25857366
33991242,Nashville,,1508194786000,36.09,-86.82,Scott Schriver,TN,1508194786000,25857366
197631534,Nashville,,1505502141000,36.08,-86.72,Suzanne R.,TN,1505502141000,25857366
118800672,Nashville,"Allison Park, PA",1505080869000,36.11,-86.86,Suzanne Saggio,TN,1505080869000,25857366
237196112,Nashville,,1506129964000,36.06,-86.96,Sweets,TN,1506129964000,25857366
171673562,Nashville,,1505237617000,36.13,-86.8,Tamara,TN,1506867682000,25857366
183474201,Clarksville,,1505655082000,36.52,-87.26,Theresa W.,TN,1505655082000,25857366
8360384,Nashville,,1505250892000,36.16,-86.79,Tonya ,TN,1506722144000,25857366
235483765,Nashville,,1506054868000,36.17,-86.78,Travis Lawson,TN,1506054868000,25857366
