id,city,hometown,joined,lat,lon,name,state,visited,group_id
229818980,Nashville,,1506483415000,36.18,-86.74,Amber Pacey,TN,1506630420000,26043925
237920640,Nashville,,1506948371000,36.15,-86.79,Austyn Griffin,TN,1506948371000,26043925
237854922,Brentwood,,1506874472000,36.0,-86.79,Barbie Hayes,TN,1506874472000,26043925
203544072,Hermitage,,1507675957000,36.19,-86.6,Becky Garland,TN,1507675957000,26043925
149485142,Murfreesboro,Murfreesboro,1507212069000,35.78,-86.33,Belinda Butler,TN,1507212069000,26043925
237553990,Nashville,,1506529043000,36.17,-86.78,Bianca Grant,TN,1506529043000,26043925
82064632,Franklin,,1506602422000,35.93,-86.81,Catherine,TN,1506602422000,26043925
13746567,Nashville,,1506448942000,36.18,-86.81,Chris Baltzly,TN,1506448942000,26043925
7839717,Nashville,Nashville,1506370512000,36.06,-86.96,Chris Ogle,TN,1506370512000,26043925
216944488,Antioch,,1506633717000,36.17,-86.88,Christina Thomas,TN,1507203957000,26043925
206843171,Nashville,,1506389310000,36.15,-86.79,David,TN,1506389310000,26043925
9124374,Nashville,"Ann Arbor, MI",1506695626000,36.08,-86.72,Ellen,TN,1506695626000,26043925
221854282,Antioch,,1506514549000,36.04,-86.68,Greg Russo,TN,1506514549000,26043925
237466286,Columbia,,1506435268000,35.61,-87.05,Hunter Hodges,TN,1506435268000,26043925
219530248,Mount Juliet,,1506632172000,36.22,-86.52,Jason Bockman,TN,1506632172000,26043925
188949112,Nashville,,1506453634000,36.17,-86.72,Jennie,TN,1506980206000,26043925
196207671,Nashville,,1506663050000,36.06,-86.96,Jennifer Rose,TN,1506663050000,26043925
237332963,Franklin,,1506654864000,35.93,-86.84,Jessica Blevins,TN,1506654864000,26043925
12977589,Nashville,,1506624926000,36.17,-86.68,Judy,TN,1506624926000,26043925
215130335,Nashville,,1506612723000,36.09,-86.82,Justin,TN,1506612723000,26043925
82595342,Nashville,,1506611348000,36.15,-86.86,Keith,TN,1507734105000,26043925
237767330,Franklin,,1506774096000,35.92,-86.89,Keri,TN,1506774096000,26043925
31366212,Antioch,Anaheim,1506367373000,36.01,-86.69,Kristina Gravett,TN,1506367373000,26043925
56291452,Spring Hill,"Querétaro, MX",1506506345000,35.75,-86.89,Laura,TN,1507119931000,26043925
199261692,Franklin,,1506788295000,35.92,-86.89,Laura Caron Erby,TN,1506788295000,26043925
235661369,Franklin,,1506376466000,35.92,-86.89,Leah Sargent,TN,1506376466000,26043925
231985495,Nashville,,1506389996000,36.17,-86.78,Lisa,TN,1507371963000,26043925
27063842,Madison,,1506441871000,36.26,-86.71,lisa p,TN,1506441871000,26043925
237091692,Nashville,,1506366395000,36.08,-86.72,Lyric W,TN,1506366395000,26043925
237353086,Brentwood,,1506310431000,36.0,-86.79,Mackylos,TN,1508682750000,26043925
216509820,Nashville,Nashville,1506363290000,36.11,-86.78,Maggie McDaniel,TN,1506363290000,26043925
237818800,Nashville,,1506826028000,36.13,-86.8,Mario Di Fend,TN,1506826028000,26043925
214576733,Ashland City,,1506564025000,36.28,-87.07,Mathew Binkley,TN,1506564025000,26043925
229512175,Nashville,,1506471614000,36.17,-86.78,Melissa Raines,TN,1506471614000,26043925
237535427,Pleasant View,,1506509496000,36.38,-87.04,Micaela Allen,TN,1507045703000,26043925
14152532,Tinley Park,,1506362426000,41.57,-87.79,Nancy,IL,1506362426000,26043925
237586086,Nashville,,1506562347000,36.17,-86.78,Natasha,TN,1506991840000,26043925
78022302,Nashville,,1506742274000,36.08,-86.72,Rahul T,TN,1507849634000,26043925
196940575,Smyrna,"Rockwood, TN",1506623114000,35.97,-86.51,Richard Montgomery,TN,1506623114000,26043925
226224370,Nashville,,1506448692000,36.17,-86.72,Ruthi Stoll,TN,1506448692000,26043925
237966825,Nashville,,1506994082000,36.07,-86.73,Scott Hartsell,TN,1506994082000,26043925
229924521,Hendersonville,,1506802441000,36.32,-86.61,Sherry,TN,1506859254000,26043925
44523602,Nashville,,1506364437000,36.21,-86.72,Stacey Ellen Smith,TN,1506364437000,26043925
237095934,Nashville,,1506453988000,36.21,-86.72,Stephen Harris,TN,1506654683000,26043925
239188825,Brentwood,,1508351403000,36.0,-86.79,Susanne,TN,1508351403000,26043925
237965331,Cumberland Furnace,,1506990898000,36.3,-87.41,Teresa Armstrong,TN,1506990898000,26043925
237541670,Culleoka,,1506516688000,35.46,-86.99,Tracy B,TN,1506895994000,26043925
211124212,Nashville,,1506369284000,36.13,-86.78,Travis Wallander,TN,1506369284000,26043925
233859668,Thompsons Station,,1506467036000,35.8,-86.9,Tru,TN,1506807875000,26043925
199456983,Spring Hill,,1507168934000,35.76,-86.88,Vickie R,TN,1507294823000,26043925
