id,city,hometown,joined,lat,lon,name,state,visited,group_id
88539772,Nashville,,1508285176000,36.17,-86.78,Adrienne,TN,1508383335000,26295359
26210332,Nashville,So IL,1508368499000,36.11,-86.78,Ali Walton,TN,1508368499000,26295359
14674691,Nashville,,1508356441000,36.17,-86.78,Andrea,TN,1508356441000,26295359
78047012,Nashville,Detroit,1508271719000,36.09,-86.82,Anne Townson,TN,1508271719000,26295359
205852066,Nashville,,1508357900000,36.17,-86.72,Annette,TN,1508691824000,26295359
201652419,Gallatin,,1508377915000,36.39,-86.45,Annette,TN,1508377915000,26295359
221423715,Nashville,,1508306563000,36.17,-86.78,Annise Fitzgerald ,TN,1508306563000,26295359
201307713,Nashville,,1508785653000,36.14,-86.9,Ashley,TN,1508808309000,26295359
239140834,Madison,,1508292795000,36.26,-86.71,Blanca,TN,1508292795000,26295359
239138209,Spring Hill,,1508289231000,35.76,-86.88,Brandon,TN,1508289231000,26295359
239337839,Goodlettsville,,1508616455000,36.32,-86.72,Bridget McCloud,TN,1508616455000,26295359
189813772,Nashville,,1508277361000,36.13,-86.8,Britni,TN,1508344211000,26295359
101573882,Nashville,,1508291355000,36.18,-86.74,Brittany,TN,1508291355000,26295359
201594041,Nashville,Nasville,1508382353000,36.16,-86.79,Carla Talarico,TN,1508382353000,26295359
239525920,Nashville,,1508736704000,36.17,-86.78,Chelsey Souder,TN,1508736704000,26295359
239273906,Nashville,,1508447896000,36.16,-86.79,Chrissy N,TN,1508447896000,26295359
239215257,Goodlettsville,,1508381377000,36.32,-86.72,Christine Swenson,TN,1508381377000,26295359
214587387,Nashville,,1508361033000,36.11,-86.86,Christy Savage,TN,1508361033000,26295359
139341012,Woodlawn,,1508680686000,36.5,-87.54,Connie Pillow,TN,1508680686000,26295359
3065094,Nashville,"Willimantic, CT",1508658917000,36.22,-86.77,Corrina,TN,1508658917000,26295359
239211456,Nashville,,1508373524000,36.15,-86.86,Cydney Weber,TN,1508373524000,26295359
239324409,Nashville,,1508783867000,36.18,-86.74,Daton Hall,TN,1508783867000,26295359
232528811,Nashville,,1508254817000,36.17,-86.78,Deahna Welcher,TN,1508639168000,26295359
209641693,Smyrna,,1508359156000,35.97,-86.51,Debra ,TN,1508359156000,26295359
237123058,Franklin,,1508729707000,35.92,-86.89,Devon Lopez,TN,1508729707000,26295359
239447554,Nashville,,1508648704000,36.07,-86.78,Donna stevenson,TN,1508648704000,26295359
10460196,Franklin,,1508285492000,35.92,-86.89,Ellen Krizman,TN,1508328105000,26295359
236883111,Nashville,,1508290130000,36.17,-86.78,Erica Stark,TN,1508290130000,26295359
239234685,Nashville,,1508405642000,36.17,-86.78,Felicia,TN,1508405642000,26295359
215557822,Nashville,,1508510253000,36.17,-86.78,Hannah Hunter,TN,1508510253000,26295359
239219215,Nashville,,1508382426000,36.17,-86.78,Jac,TN,1508382426000,26295359
207509906,Nashville,,1508301016000,36.17,-86.78,Jessica Gong,TN,1508301016000,26295359
107467822,Antioch,Nashville,1508368128000,36.04,-86.64,Julie Weaver,TN,1508368128000,26295359
239190353,Memphis,,1508352244000,35.09,-89.85,Kani Amoah,TN,1508352244000,26295359
186185156,Nashville,Harvard,1508272751000,36.21,-86.72,Kate Kostecki,TN,1508272751000,26295359
239256345,Nashville,,1508431127000,36.15,-86.8,Katy Williams-Wyant,TN,1508431127000,26295359
196861745,Nashville,,1508505398000,36.17,-86.78,Kay and Jay,TN,1508505398000,26295359
227046797,Nashville,,1508720222000,36.17,-86.78,Kelly B,TN,1508720222000,26295359
201764016,Nashville,,1508379020000,36.15,-86.86,Kelsey,TN,1508379020000,26295359
239264905,Nashville,,1508441467000,36.17,-86.78,Klare VonBusch,TN,1508439332000,26295359
7463441,Nashville,,1508641519000,36.08,-86.72,Laeh-J,TN,1508641519000,26295359
239418300,Columbia,,1508619213000,35.61,-87.05,Liz ,TN,1508619213000,26295359
239409021,Nashville,,1508636483000,36.1,-86.66,Lynn Jackson Conklin,TN,1508636483000,26295359
201566723,Nashville,,1508270818000,36.17,-86.78,Maria L,TN,1508270818000,26295359
239498454,Nashville,,1508707466000,36.07,-86.73,Mary Bond,TN,1508707466000,26295359
197153691,Clarksville,,1508359775000,36.53,-87.35,Matthew,TN,1508359775000,26295359
14352106,Nashville,San Antonio,1508292679000,36.15,-86.79,ME,TN,1508292679000,26295359
239369743,Nashville,,1508556670000,36.17,-86.78,Megan,TN,1508556670000,26295359
62106992,Nashville,,1508441468000,36.14,-86.74,Melissa Harris,TN,1508433031000,26295359
146112942,Nashville,"Clarksville, TN",1508318412000,36.17,-86.78,Michelle James,TN,1508399369000,26295359
239525867,Smyrna,,1508736685000,35.97,-86.51,michelle reynolds,TN,1508736685000,26295359
182917687,Memphis,,1508441466000,35.03,-89.81,Natalie McDonald,TN,1508797175000,26295359
183421366,Nashville,Birmingham,1508388891000,36.16,-86.79,Nisha,TN,1508388891000,26295359
198528536,Ashland City,,1508377138000,36.28,-87.07,Rebekah Rose,TN,1508377138000,26295359
239211628,Nashville,,1508375834000,36.13,-86.8,RiDe,TN,1508375834000,26295359
78131812,Franklin,,1508365091000,35.93,-86.81,Rochelle,TN,1508365091000,26295359
127962202,Nashville,,1508706256000,36.17,-86.78,Roxanne L,TN,1508706256000,26295359
140903702,Nashville,,1508452572000,36.16,-86.81,Sabrina Guy,TN,1508452572000,26295359
228465329,Nashville,,1508376014000,36.17,-86.78,Sam K,TN,1508695946000,26295359
237665965,Columbia,,1508586924000,35.62,-87.03,Sara Jane,TN,1508586924000,26295359
209224665,Nashville,,1508282712000,36.08,-86.72,Sarah Ashley Christian,TN,1508282712000,26295359
104299812,Nashville,Waikoloa,1508275263000,36.17,-86.78,Shannon,TN,1508275263000,26295359
9599317,Franklin,"Massillon, Ohio",1508419711000,35.92,-86.89,Sharon,TN,1508670716000,26295359
8540015,Hendersonville,Hendersonville,1508361310000,36.32,-86.61,Sharon,TN,1508361310000,26295359
19658701,Nashville,Minnesota,1508362545000,36.06,-86.96,Shatona Groves,TN,1508362545000,26295359
57803282,Hendersonville,,1508282921000,36.32,-86.61,Sheryl Kirkland,TN,1508282921000,26295359
199602237,Nashville,,1508357947000,36.15,-86.86,Stacy Parman,TN,1508357947000,26295359
7959568,Nashville,Nashville,1508396901000,36.17,-86.72,Steph,TN,1508396901000,26295359
8304651,Nashville,,1508561808000,36.17,-86.78,Stephanie James,TN,1508561808000,26295359
239188825,Brentwood,,1508351402000,36.0,-86.79,Susanne,TN,1508351402000,26295359
198016947,Fairview,,1508361568000,35.97,-87.13,Talyna Kellum,TN,1508361568000,26295359
186664978,Goodlettsville,,1508545897000,36.33,-86.74,Tamekia,TN,1508545897000,26295359
234154899,Franklin,,1508399258000,35.92,-86.89,Tanya Parsley,TN,1508399258000,26295359
150682012,Nashville,cookeville,1508787371000,36.17,-86.78,Tejas Dharankar,TN,1508787371000,26295359
81924252,Nashville,,1508277504000,36.17,-86.78,Theresa,TN,1508303840000,26295359
239420880,Nashville,,1508618191000,36.14,-86.74,TN Hiker,TN,1508618191000,26295359
5838751,Nashville,Nashville,1508273621000,36.17,-86.72,Vanessa,TN,1508273621000,26295359
239524460,Manchester,,1508735004000,35.47,-86.08,Vanessa Perez,TN,1508735004000,26295359
238562101,Nashville,,1508341226000,36.16,-86.79,Yanina Bonetto,TN,1508341226000,26295359
239442719,Nashville,,1508642052000,36.18,-86.81,Yetty,TN,1508642052000,26295359
