id,city,hometown,joined,lat,lon,name,state,visited,group_id
192143714,Detroit,Detroit,1441166294000.0,42.39,-82.95,Aaron Brightman,MI,1475934586000.0,3173762
192724408,Nashville,,1459884645000.0,36.21,-86.72,Aaron Edwards,TN,1459884645000.0,3173762
205257254,Nashville,,1463399778000.0,36.17,-86.78,Aaron Fleckenstein,TN,1465401455000.0,3173762
7768516,Springfield,"Urbandale, IA",1328652604000.0,36.52,-86.87,Aaron Webb,TN,1506948919000.0,3173762
87682152,Nashville,Nashville,1390813050000.0,36.17,-86.78,Abdullah,TN,1434537621000.0,3173762
40615382,Nashville,,1330986504000.0,36.1,-86.66,Abdullai,TN,1365032303000.0,3173762
11787356,Bellevue,Bellevue,1340378796000.0,47.62,-122.21,Abe Diaz,WA,1372726283000.0,3173762
214238344,Nashville,,1475497950000.0,36.17,-86.78,Abhinav gaddam,TN,1496106073000.0,3173762
198899767,Nashville,,1454203512000.0,36.07,-86.73,Abhishek Khanal,TN,1454203512000.0,3173762
208414771,Nashville,,1467726101000.0,36.17,-86.78,adenmark86,TN,1467726101000.0,3173762
190787043,Nashville,,1459580129000.0,36.17,-86.78,Ahmed Ansari,TN,1459580129000.0,3173762
239072195,Nashville,,1508215881000.0,36.07,-86.73,Ajay Dev Chhokra,TN,1508215881000.0,3173762
202729636,Nashville,,1459787408000.0,36.17,-86.78,Ajay Lentini,TN,1465227860000.0,3173762
186119584,Nashville,,1428901865000.0,36.07,-86.73,Al Brianne,TN,1428901865000.0,3173762
135672742,Torrance,Seattle,1448241034000.0,33.83,-118.31,Alan,CA,1448241034000.0,3173762
215025572,Nashville,,1476600318000.0,36.17,-86.79,Alan Frueh,TN,1476600318000.0,3173762
2502912,Nashville,,1331828377000.0,36.17,-86.78,alan huffman,TN,1366642886000.0,3173762
162939772,Nashville,,1408903320000.0,36.17,-86.78,Alan L Frye,TN,1411611512000.0,3173762
79288822,Brentwood,,1452714329000.0,35.96,-86.82,Alan Lee,TN,1478816619000.0,3173762
137114782,Nashville,,1394732331000.0,36.17,-86.78,Alex Naddell,TN,1401235812000.0,3173762
13606604,Nashville,Nashville,1485059092000.0,36.17,-86.72,Alex Simonian,TN,1501542051000.0,3173762
112034622,Nashville,,1379997669000.0,36.08,-86.72,Ali,TN,1380591374000.0,3173762
107980642,San Jose,San Jose,1428451090000.0,37.41,-121.95,Ali,CA,1433872643000.0,3173762
201855190,Nashville,,1458486674000.0,36.08,-86.72,Ali Baker,TN,1458486674000.0,3173762
223459470,Nashville,,1489096486000.0,36.16,-86.78,Ali Hamsa,TN,1489096486000.0,3173762
184357907,Nashville,,1480856810000.0,36.17,-86.78,Ali Shirazi,TN,1480856810000.0,3173762
190707374,Franklin,,1438391320000.0,35.92,-86.89,Ali Yousef Al-hendas,TN,1438391320000.0,3173762
221986791,Nashville,,1487027662000.0,36.08,-86.72,Alisa Gossett,TN,1487027662000.0,3173762
48224272,Nashville,,1337280851000.0,36.17,-86.78,Alisa Walling,TN,1399634996000.0,3173762
209828948,Monteagle,,1469568057000.0,35.22,-85.85,Allen Buck,TN,1469652847000.0,3173762
188209876,Brentwood,,1433429523000.0,36.0,-86.79,AllieC,TN,1433429523000.0,3173762
126928532,Nolensville,Nolensville,1389108155000.0,35.94,-86.67,Allison Letson,TN,1507062019000.0,3173762
13557253,Nashville,,1470188075000.0,36.17,-86.78,Alok Chandra,TN,1501770852000.0,3173762
183367265,Nashville,,1456872513000.0,36.1,-86.66,Alvey,TN,1507052842000.0,3173762
198838508,Nashville,,1454106312000.0,36.17,-86.78,Amanda,TN,1456258945000.0,3173762
232718517,Nashville,,1501164091000.0,36.17,-86.78,Amber Copeland,TN,1501164091000.0,3173762
198905329,Franklin,,1454275934000.0,35.93,-86.81,Amit Patnaik,TN,1456371969000.0,3173762
118705672,Nashville,,1384359330000.0,36.11,-86.86,Amy Culbertson,TN,1389055354000.0,3173762
216579343,Nashville,,1478995318000.0,36.21,-86.72,Anani Assoutovi,TN,1478995318000.0,3173762
162826772,San Francisco,,1506960143000.0,37.79,-122.42,Andre D. Woodley Jr.,CA,1506960143000.0,3173762
196014675,Nashville,,1448384451000.0,36.18,-86.81,Andrew Bergeron,TN,1448384451000.0,3173762
206324480,Nashville,,1464882144000.0,36.17,-86.78,andrew butenko,TN,1475607553000.0,3173762
187254868,Nashville,"Chattanooga, TN",1463684711000.0,36.17,-86.78,Andrew Clement,TN,1488925840000.0,3173762
208483732,Hendersonville,,1467814990000.0,36.32,-86.61,Andrew Fullen,TN,1492856921000.0,3173762
211212006,Goodlettsville,,1471523505000.0,36.32,-86.72,Andrew Fulton,TN,1471523505000.0,3173762
210836188,Nashville,,1484665433000.0,36.09,-86.82,Andrew Marshall,TN,1504652133000.0,3173762
69440912,Independence,Cleveland,1377992360000.0,41.38,-81.66,Andrew Plassard,OH,1380541099000.0,3173762
105864672,Nashville,,1375984697000.0,36.18,-86.81,Andrew Thomas,TN,1453228137000.0,3173762
182850747,Antioch,,1417761874000.0,36.04,-86.64,Andrew Wells,TN,1436302558000.0,3173762
208077920,Murfreesboro,,1467251548000.0,35.82,-86.45,Andy Tarpley,TN,1504653062000.0,3173762
233773991,Nashville,,1502410623000.0,36.17,-86.78,Angel Mendoza,TN,1502410623000.0,3173762
217819550,Nashville,,1481059486000.0,36.17,-86.78,Angela,TN,1481134537000.0,3173762
190868664,Spring Hill,,1438695514000.0,35.76,-86.88,Angela Brennan,TN,1438695514000.0,3173762
73895512,Nashville,,1383183188000.0,36.17,-86.78,Angela Howard,TN,1504217334000.0,3173762
184629452,Nashville,,1449070886000.0,36.16,-86.79,Angelita G,TN,1449070886000.0,3173762
185166733,Franklin,,1508806000000.0,35.93,-86.81,Angelo Todaro,TN,1508806000000.0,3173762
28505562,Nashville,Nashville,1375809515000.0,36.15,-86.86,Animesh,TN,1462991755000.0,3173762
195799113,Nashville,,1447964115000.0,36.15,-86.86,Anirban Bhattacharjee,TN,1447964115000.0,3173762
27756542,Nashville,,1348194935000.0,36.17,-86.78,Anitha,TN,1354238648000.0,3173762
10604590,Nashville,,1449762657000.0,36.15,-86.86,Ankur Patwa,TN,1479693811000.0,3173762
207381983,Franklin,,1466303281000.0,35.92,-86.89,Ankur Taunk,TN,1466303281000.0,3173762
186406684,Hartsville,Macon,1429616933000.0,36.39,-86.16,Ann Flames,TN,1429616933000.0,3173762
10129166,Nashville,,1462319808000.0,36.06,-86.96,Anna R.,TN,1462319808000.0,3173762
183029100,Franklin,,1420134155000.0,35.92,-86.89,Anne,TN,1446090499000.0,3173762
178113422,Antioch,,1413506985000.0,36.17,-86.88,Anthony Burkeen,TN,1475796839000.0,3173762
39303612,Nashville,,1329925278000.0,36.17,-86.78,Apperson Johnson,TN,1504551604000.0,3173762
186777303,Madison,,1430425934000.0,36.26,-86.71,Arenas Viscatanius,TN,1435460597000.0,3173762
227496236,Nashville,,1494668807000.0,36.08,-86.72,ARi Lyon,TN,1494668807000.0,3173762
44538282,Franklin,Franklin,1474379552000.0,35.93,-86.81,Arivarasu,TN,1476718746000.0,3173762
207847828,Randallstown,"Indianapolis, IN",1466984680000.0,39.37,-76.8,Arlene Cox,MD,1466984680000.0,3173762
211353258,Nashville,,1472919868000.0,36.13,-86.8,aron mebraht,TN,1491213355000.0,3173762
206329031,Nashville,,1464881423000.0,36.17,-86.78,Arun Singh,TN,1506478302000.0,3173762
33078102,Nashville,,1329327790000.0,36.18,-86.74,Ash Harris,TN,1329328158000.0,3173762
182913359,Nashville,,1418147599000.0,36.16,-86.79,Ashish Seth,TN,1418147599000.0,3173762
220614626,Nashville,,1501597596000.0,36.07,-86.78,Ashley Canino,TN,1501855066000.0,3173762
46467992,Budapest,Budapest,1335891625000.0,47.51,19.08,Attila Tóth,,1335891625000.0,3173762
234957265,Mount Juliet,,1503778682000.0,36.22,-86.52,"Aurora ""Murphy"" Carlisle",TN,1503778682000.0,3173762
223260232,Nashville,"Northville, MI",1488821509000.0,36.17,-86.78,Austin,TN,1488821509000.0,3173762
184158864,Nashville,,1423058415000.0,36.17,-86.78,Austin Pernell,TN,1438631633000.0,3173762
161055882,Nashville,Nashville,1446048300000.0,36.16,-86.79,Austin Pleat,TN,1470173168000.0,3173762
183556593,Jacksonville,,1444153091000.0,30.19,-81.49,Austin Pleat,FL,1444157859000.0,3173762
122418432,Bensalem,Bensalem,1386110134000.0,40.1,-74.93,Avanish Ojha,PA,1464829084000.0,3173762
37850382,Nashville,,1328716387000.0,36.17,-86.78,Bailin Gao,TN,1507124170000.0,3173762
203088995,Greenbrier,,1460313348000.0,36.43,-86.8,Barry,TN,1460313348000.0,3173762
220624758,Nashville,,1485890319000.0,36.14,-86.74,BCaldwell,TN,1491238517000.0,3173762
214275739,Nashville,,1475538655000.0,36.17,-86.78,Belve Marks,TN,1475538655000.0,3173762
74970812,Nashville,,1357438329000.0,36.07,-86.78,Ben ,TN,1426728097000.0,3173762
207185905,Nashville,,1479272387000.0,36.09,-86.82,Ben,TN,1507060797000.0,3173762
217309361,Nashville,,1483465967000.0,36.17,-86.78,Ben Maxwell,TN,1507040364000.0,3173762
57097852,Nashville,,1343943043000.0,36.17,-86.78,Benny,TN,1343943043000.0,3173762
226592657,Nashville,,1493428045000.0,36.17,-86.78,Bernes Karacay,TN,1493428045000.0,3173762
183942724,Nashville,,1422355881000.0,36.06,-86.96,Beth,TN,1422355881000.0,3173762
104249852,Nashville,,1375373228000.0,36.17,-86.78,Bethany Sharow,TN,1375373228000.0,3173762
140053552,Nashville,,1396359374000.0,36.17,-86.78,Bill Findeisen,TN,1396359374000.0,3173762
204544342,Nolensville,,1504023387000.0,35.94,-86.67,Bill Reeve,TN,1504023387000.0,3173762
140101592,Nashville,,1396380043000.0,36.17,-86.78,Bill Wilkinson,TN,1396380043000.0,3173762
4353024,Antioch,Nashville,1388780971000.0,36.04,-86.64,Bill Zack,TN,1507060065000.0,3173762
41745222,Huntsville,,1384740028000.0,34.73,-86.57,Billy Blevins,AL,1384740028000.0,3173762
77201222,Nolensville,,1375968784000.0,35.94,-86.67,Binosh Padman,TN,1375968784000.0,3173762
94238282,Hermitage,Nashville,1415680567000.0,36.19,-86.6,Binoy Ayyagari,TN,1415734290000.0,3173762
183982522,Nashville,Nashville,1422479909000.0,36.06,-86.96,Bizzy Buffington,TN,1490120205000.0,3173762
82204922,Nashville,"Smyrna, TN",1417071910000.0,36.17,-86.79,BJ Burns,TN,1506471092000.0,3173762
228333614,Chattanooga,,1498890241000.0,35.04,-85.31,Blaise Iradukunda,TN,1498890241000.0,3173762
221750289,Nashville,,1486696269000.0,36.17,-86.78,Blake Harris,TN,1507050132000.0,3173762
10993940,Nashville,,1409280344000.0,36.08,-86.72,Blake McBride,TN,1409280344000.0,3173762
209281350,Nashville,,1468858711000.0,36.17,-86.78,Blake Storts,TN,1468858711000.0,3173762
200303216,Spring Hill,Spring Hill,1456257803000.0,35.76,-86.88,BMShake,TN,1456257803000.0,3173762
11581354,Nashville,,1367956395000.0,36.16,-86.79,Bob Daly,TN,1496576327000.0,3173762
186494705,Nashville,"Carrollton, GA",1429805955000.0,36.17,-86.78,Bobby Goodwin,TN,1429805955000.0,3173762
40570712,Nashville,,1330962240000.0,36.17,-86.78,Bobby Graham,TN,1506454481000.0,3173762
216494258,Nashville,,1478867647000.0,36.17,-86.78,boiaryntseva,TN,1491765351000.0,3173762
206284282,Hermitage,,1464816406000.0,36.19,-86.6,Boone,TN,1475955018000.0,3173762
184776969,Nashville,,1424978898000.0,36.17,-86.72,Brad Applebaum,TN,1424978898000.0,3173762
217449348,Nashville,,1480433893000.0,36.17,-86.78,Brad Davis,TN,1484086098000.0,3173762
151909742,Nashville,,1406823694000.0,36.17,-86.78,Brad Mackovyak,TN,1406823694000.0,3173762
137670652,Nashville,,1395070261000.0,36.17,-86.78,Bradley Brandon,TN,1505921979000.0,3173762
113455192,Nashville,Nashville,1413919826000.0,36.17,-86.72,Brandon,TN,1413919826000.0,3173762
63821422,Dickson,,1354490940000.0,36.08,-87.43,Brandon Bradley,TN,1490989020000.0,3173762
234652434,Nashville,,1504899385000.0,36.17,-86.78,Brandon Brewer,TN,1504899385000.0,3173762
105410952,Nashville,,1375724317000.0,36.17,-86.78,Brandon Brown,TN,1446048201000.0,3173762
72075162,Nashville,,1354909175000.0,36.17,-86.78,Brandon Hedge,TN,1354909175000.0,3173762
75277202,Morrisville,Morrisville,1357614666000.0,35.83,-78.84,Brandon Joseph Lyons,NC,1475612918000.0,3173762
62418442,Nashville,,1472221455000.0,36.16,-86.79,Brenda Dillard,TN,1472221455000.0,3173762
177283622,Nashville,,1423633315000.0,36.13,-86.8,Brendan Kennedy,TN,1423633315000.0,3173762
79548552,Nashville,,1360169725000.0,36.17,-86.78,Brett Harper,TN,1393256509000.0,3173762
82545112,Nashville,"Chevy Chase, MD",1466783591000.0,36.17,-86.78,Brett Michaels,TN,1504207307000.0,3173762
12579483,Nashville,Nashville,1348021598000.0,36.07,-86.78,Brian,TN,1488034259000.0,3173762
6515953,Nashville,Nashville,1433118245000.0,36.16,-86.79,brian,TN,1433118245000.0,3173762
184135445,Nashville,Nashville,1424877265000.0,36.08,-86.72,Brian Broll,TN,1487986284000.0,3173762
185292389,Nashville,,1431467491000.0,36.16,-86.79,Brian C.,TN,1473862888000.0,3173762
223318457,Nashville,,1488899487000.0,36.17,-86.78,Brian Freeman,TN,1488899487000.0,3173762
95481882,Madison,,1369799628000.0,36.26,-86.71,Brian Greenfield,TN,1369799628000.0,3173762
79246872,Nashville,,1360003361000.0,36.17,-86.78,Brian Hogue,TN,1390429827000.0,3173762
14037650,Brentwood,,1357929108000.0,36.0,-86.79,Brian J. Miller,TN,1366128552000.0,3173762
44860592,Nashville,,1334606568000.0,36.17,-86.78,Brian Ochs,TN,1474238845000.0,3173762
7981818,Nashville,Nashville,1426349572000.0,36.15,-86.86,Brian Pitts,TN,1495906022000.0,3173762
11630481,Spring Hill,West Palm Beach,1329952095000.0,35.76,-86.88,Brian Reese,TN,1417463604000.0,3173762
184019319,Hermitage,Nashville,1456416827000.0,36.19,-86.6,Brian Stumbaugh,TN,1456416827000.0,3173762
227068514,Nashville,,1497273197000.0,36.14,-86.81,Brian Szucs,TN,1497273197000.0,3173762
10319436,Nashville,Nashville,1498867833000.0,36.16,-86.79,Brian Szucs,TN,1498867833000.0,3173762
115799982,Nashville,,1381888075000.0,36.13,-86.8,Brian Threlkeld,TN,1389987742000.0,3173762
186955253,Franklin,,1430830115000.0,35.91,-86.78,Brian White,TN,1430830115000.0,3173762
159819912,Antioch,,1407159985000.0,36.04,-86.64,Bridget S.,TN,1407159985000.0,3173762
183606988,Nashville,,1421347869000.0,36.11,-86.86,Brooke Porter ,TN,1421347869000.0,3173762
183760092,Manchester,,1421796622000.0,35.47,-86.11,Bruce Atnip,TN,1421796622000.0,3173762
209750091,Franklin,,1503927633000.0,35.93,-86.81,Bryan DeBoes,TN,1503927633000.0,3173762
183056813,Nashville,Nashville,1438260749000.0,36.1,-86.66,Bryan Finlayson,TN,1487886974000.0,3173762
128147762,Franklin,,1389730233000.0,35.92,-86.89,Bryan Gilmore,TN,1389730233000.0,3173762
13105002,Nashville,"Nashville, TN",1364909655000.0,36.15,-86.86,Bryan Hunter,TN,1469713582000.0,3173762
51005042,Nashville,,1339505264000.0,36.17,-86.78,Bryan Jones,TN,1339505842000.0,3173762
14494537,Franklin,"Mission Viejo, CA",1412619849000.0,35.93,-86.81,Bryan Mayes,TN,1493913393000.0,3173762
129122472,Antioch,,1457581393000.0,36.17,-86.88,Bryan Overbey,TN,1498962218000.0,3173762
127214502,Smyrna,,1442408492000.0,35.97,-86.51,Bryan P Marlowe,TN,1506969639000.0,3173762
216141262,Columbia,,1478292689000.0,35.61,-87.05,Bryan Prince,TN,1478292689000.0,3173762
238106872,Nashville,,1507147095000.0,36.17,-86.78,Bryan Tidwell,TN,1507147095000.0,3173762
177988312,Nashville,,1413411374000.0,36.17,-86.78,Bryon McDowell,TN,1422727508000.0,3173762
27997302,Nashville,,1359385378000.0,36.09,-86.82,Burke Holland,TN,1359385378000.0,3173762
185930712,Nashville,,1440788056000.0,36.17,-86.72,Caleb Gregory,TN,1444171831000.0,3173762
45627992,Nashville,,1335213232000.0,36.17,-86.78,Caleb Pagel,TN,1445134183000.0,3173762
212940017,Nashville,,1473876235000.0,36.07,-86.73,Callaway,TN,1473876235000.0,3173762
13389361,Chattanooga,chattanooga,1334874336000.0,35.06,-85.25,Calvin ,TN,1349201835000.0,3173762
218500568,Nashville,,1482330851000.0,36.17,-86.78,Camden Dykes,TN,1482330851000.0,3173762
152606552,Brentwood,,1475609216000.0,36.0,-86.79,Cameron,TN,1502174490000.0,3173762
191542892,Nashville,,1440026102000.0,36.06,-86.96,Cameron L,TN,1440026102000.0,3173762
83072372,Nashville,Nashville,1395853282000.0,36.16,-86.79,Cameron MacMillan,TN,1395853282000.0,3173762
206172222,Nashville,,1465434904000.0,36.21,-86.72,Candi Grandchamp ,TN,1465434904000.0,3173762
40523212,Nashville,,1330913831000.0,36.17,-86.78,Carl Hostrander,TN,1421158876000.0,3173762
213753582,Nashville,,1474919334000.0,36.06,-86.96,Carlos Alvarez,TN,1474919334000.0,3173762
228364052,Clarksville,,1495765570000.0,36.56,-87.35,Carmine Richie,TN,1495765570000.0,3173762
185098905,Franklin,,1425921832000.0,35.92,-86.89,Carter Baskin,TN,1430762180000.0,3173762
203646993,Nashville,,1461084777000.0,36.17,-86.72,Cassie Dawson ,TN,1461084777000.0,3173762
232508580,Nashville,,1503431019000.0,36.17,-86.78,Cassie Roberts,TN,1503431019000.0,3173762
197965134,Nashville,,1452542931000.0,36.08,-86.72,cgpeanut,TN,1452542931000.0,3173762
185086172,La Vergne,,1425883584000.0,36.01,-86.57,Chad ,TN,1425883584000.0,3173762
74063382,Nashville,,1356832686000.0,36.17,-86.78,Chad,TN,1429808216000.0,3173762
43560192,Nashville,,1333493898000.0,36.17,-86.78,Chad Frost,TN,1366735251000.0,3173762
125921832,Nashville,,1389063024000.0,36.17,-86.78,Chad Gill,TN,1475620056000.0,3173762
233601566,Nashville,,1504707454000.0,36.17,-86.78,Chad Rusk,TN,1505229440000.0,3173762
185527203,Nashville,,1427228428000.0,36.17,-86.78,Chandin Kinkade,TN,1427228428000.0,3173762
199552113,Franklin,,1455217222000.0,35.93,-86.81,Chandra,TN,1455217222000.0,3173762
197622356,Nashville,,1451920410000.0,36.13,-86.8,Channing Moreland,TN,1451920410000.0,3173762
204967878,Smyrna,Murfreesboro,1496331470000.0,35.97,-86.51,Charles,TN,1496331470000.0,3173762
182752253,Antioch,,1417220764000.0,36.04,-86.64,Charles Welbeck,TN,1417220764000.0,3173762
35435042,Franklin,Nashville,1345057071000.0,35.93,-86.81,Charlie Penner,TN,1346290728000.0,3173762
224321685,Nashville,,1490296636000.0,36.17,-86.78,Chase Brookshire,TN,1490296636000.0,3173762
202907404,Nashville,,1460037719000.0,36.17,-86.78,Chase Ramsey,TN,1460037719000.0,3173762
140101842,Nashville,,1396380042000.0,36.17,-86.78,Chesley Lovejoy,TN,1444077754000.0,3173762
198328600,Nashville,,1453842577000.0,36.17,-86.72,Chloe Ledet,TN,1453842577000.0,3173762
183457636,Baltimore,,1420848215000.0,39.29,-76.62,Chris,MD,1420848215000.0,3173762
204609819,Nashville,Nashville,1479001780000.0,36.08,-86.72,Chris Duke,TN,1479001780000.0,3173762
186379477,Nashville,,1429708802000.0,36.17,-86.78,Chris Greene,TN,1429708802000.0,3173762
173858412,Franklin,"Slidell, LA",1508775887000.0,35.92,-86.89,Chris McKnight,TN,1508775887000.0,3173762
36484792,Nashville,"Niceville, FL",1327606553000.0,36.17,-86.78,Chris Mihalcik,TN,1488943871000.0,3173762
184185824,Nashville,Nashville,1423141768000.0,36.08,-86.72,Chris Newman,TN,1446496291000.0,3173762
180724892,Franklin,,1459802505000.0,35.92,-86.89,Chris Pruitt,TN,1459802505000.0,3173762
154569692,Nashville,,1404392876000.0,36.17,-86.78,Chris Ramirez,TN,1508018134000.0,3173762
209643345,Nashville,,1469332027000.0,36.17,-86.78,Chris Smalley,TN,1469332027000.0,3173762
47572122,Nashville,Chicago,1336748230000.0,36.17,-86.78,Chris SpinMan Spintzyk,TN,1415978362000.0,3173762
222300882,La Vergne,,1487468885000.0,36.01,-86.57,Chris Talley,TN,1487468885000.0,3173762
184159163,Spring Hill,Buffalo,1423059418000.0,35.76,-86.88,Chris Taylor,TN,1433365378000.0,3173762
217718410,Hermitage,,1480896247000.0,36.19,-86.6,Chris Thomas,TN,1480896247000.0,3173762
216943926,Huntsville,Nashville,1479564337000.0,34.78,-86.61,Chris Watson,AL,1479564337000.0,3173762
183845401,Nashville,,1424471032000.0,36.17,-86.78,Christen Butler,TN,1429809952000.0,3173762
197773687,Nashville,,1452196724000.0,36.09,-86.82,Christian Rachmaninoff,TN,1463932798000.0,3173762
202683107,Nashville,,1459719551000.0,36.17,-86.78,Christian Winters,TN,1459719551000.0,3173762
17189541,Nashville,,1340066498000.0,36.13,-86.8,Christina G,TN,1341875604000.0,3173762
209959952,Irving,,1469744744000.0,32.84,-96.97,christine Wayles,TX,1475535638000.0,3173762
182795485,Nashville,,1417460797000.0,36.17,-86.78,Christy,TN,1417460797000.0,3173762
185362071,Nashville,,1426716480000.0,36.17,-86.78,Cindi Caudill,TN,1426851843000.0,3173762
163926052,Nashville,,1409160492000.0,36.17,-86.78,Claudia,TN,1409234363000.0,3173762
192854825,Nashville,,1442525623000.0,36.16,-86.79,Clayton Sanders,TN,1442525623000.0,3173762
186287921,Marion,,1429341374000.0,37.29,-88.09,Clément,KY,1429341374000.0,3173762
123372202,Atlanta,,1451769445000.0,33.77,-84.38,Cliff Burchfield,GA,1451769445000.0,3173762
82849812,Nashville,Nashville,1438773829000.0,36.17,-86.72,Clint Stephen Jones,TN,1446161462000.0,3173762
3750824,Clarksville,,1357596321000.0,36.53,-87.35,clski,TN,1357596321000.0,3173762
62630612,Nashville,,1395678664000.0,36.18,-86.74,Cody Dysert,TN,1399406916000.0,3173762
108579222,New York,,1388759797000.0,40.75,-73.99,Cody King,NY,1422903241000.0,3173762
176462262,Albany,,1412734141000.0,42.65,-73.75,Cody Waugh,NY,1465415883000.0,3173762
107483192,Signal Mountain,,1380085759000.0,35.15,-85.33,Colby,TN,1467157931000.0,3173762
184187509,Nashville,,1423146724000.0,36.15,-86.86,Colin,TN,1454335831000.0,3173762
154135842,Nashville,,1409945916000.0,36.18,-86.74,Collin,TN,1409945916000.0,3173762
9044040,Nashville,Nashville,1394673752000.0,36.08,-86.72,Conner,TN,1394673752000.0,3173762
129003472,Smyrna,,1500485558000.0,35.95,-86.54,Corey Gross,TN,1504206976000.0,3173762
93256142,Nashville,,1368457237000.0,36.17,-86.78,Corey Jones,TN,1368457237000.0,3173762
10120820,Chicago,"Memphis,TN",1348800116000.0,41.92,-87.65,Corey Moss,IL,1369264204000.0,3173762
202440863,Nashville,,1459362003000.0,36.17,-86.78,Cortney Webb,TN,1459362003000.0,3173762
67122632,Nashville,,1501539315000.0,36.17,-86.78,Cory,TN,1508433840000.0,3173762
13526318,Nashville,,1345166189000.0,36.13,-86.8,Cory Cobler,TN,1389032970000.0,3173762
207349199,Thompsons Station,,1466263488000.0,35.8,-86.9,Craig Cooper,TN,1466263488000.0,3173762
56004942,Nashville,,1343319655000.0,36.17,-86.78,Craig Lewis,TN,1347460851000.0,3173762
199519697,Antioch,,1455163855000.0,36.04,-86.64,Crystal Staples,TN,1455314751000.0,3173762
40621912,Fresno,,1330989866000.0,36.81,-119.76,Csaba Toth,CA,1506838695000.0,3173762
197835826,Mount Pleasant,,1452303391000.0,35.54,-87.21,Curtis Corazao,TN,1452303391000.0,3173762
210392442,Nashville,,1470346969000.0,36.17,-86.78,Curtis Crawford,TN,1470346969000.0,3173762
194859665,Nashville,,1446219341000.0,36.08,-86.72,Curtis Scafe,TN,1446219341000.0,3173762
230179591,Nashville,,1506138344000.0,36.17,-86.78,Curtis Vanzandt,TN,1507645150000.0,3173762
232085261,Nashville,,1500385644000.0,36.17,-86.78,Cynthia A. Frazier,TN,1500385644000.0,3173762
41415062,Nashville,,1338936683000.0,36.16,-86.79,Cynthia Langseth,TN,1346856983000.0,3173762
139588162,Augusta,,1457787026000.0,33.46,-81.97,Daisia Woods,GA,1465243059000.0,3173762
221692227,Nashville,,1500836641000.0,36.14,-86.74,Dakota N.,TN,1504646654000.0,3173762
194166890,Hermitage,,1444954870000.0,36.19,-86.6,Dal Ellington,TN,1444954870000.0,3173762
3126734,Nashville,,1335841063000.0,36.13,-86.8,Dale the Developer,TN,1467854252000.0,3173762
117776802,Nashville,,1383077990000.0,36.17,-86.78,Dan Nanto,TN,1383155191000.0,3173762
199981939,Nashville,,1456164309000.0,36.14,-86.74,Dan Ventura,TN,1501514866000.0,3173762
135742552,Nashville,,1393962103000.0,36.17,-86.78,Dan Watt,TN,1393966647000.0,3173762
69133872,Franklin,,1352506178000.0,35.92,-86.89,Dane Hale,TN,1408994080000.0,3173762
155433082,Nashville,,1507042131000.0,36.16,-86.79,Daniel,TN,1508184177000.0,3173762
94861782,Nashville,,1369414652000.0,36.17,-86.78,Daniel Aquino,TN,1508776812000.0,3173762
6384580,Nashville,Nashville,1433367283000.0,36.06,-86.96,Daniel Cottone,TN,1475614047000.0,3173762
183041060,Lebanon,,1418962947000.0,36.21,-86.31,Daniel Hill,TN,1422579671000.0,3173762
108929642,Nashville,,1377800229000.0,36.13,-86.8,Daniel Johnson,TN,1414125972000.0,3173762
1939496,Antioch,,1433417665000.0,36.04,-86.64,Daniel Newman,TN,1469924693000.0,3173762
185173098,Knoxville,,1428866229000.0,36.03,-83.89,Daniel Oliver,TN,1475615700000.0,3173762
182943570,Nashville,,1418331925000.0,36.16,-86.79,Daniel P.,TN,1418331925000.0,3173762
201894511,Murfreesboro,,1459853917000.0,35.87,-86.34,Darren Hayes,TN,1459984464000.0,3173762
3517021,Nashville,"Tampa, FL",1385050865000.0,36.11,-86.86,Dave D,TN,1496773970000.0,3173762
7534345,Nashville,"Louisville, KY",1485981395000.0,36.06,-86.96,Dave Harned,TN,1488154211000.0,3173762
14088528,Franklin,Nashville,1329440772000.0,35.93,-86.81,Dave Leeds,TN,1506819731000.0,3173762
230257448,Nashville,,1498157122000.0,36.17,-86.78,Dave Ryan,TN,1498157122000.0,3173762
194156311,La Vergne,,1444938067000.0,36.01,-86.57,Dave Tilson,TN,1446205756000.0,3173762
190587704,Franklin,,1438158335000.0,35.92,-86.89,Dave U,TN,1505735474000.0,3173762
93820322,Nashville,,1423940924000.0,36.17,-86.78,David Bailey,TN,1423940924000.0,3173762
227518458,Fort Campbell,,1494697725000.0,36.65,-87.46,David Bullard,KY,1494697725000.0,3173762
76202202,Nashville,,1358178772000.0,36.17,-86.78,David Ells,TN,1488823201000.0,3173762
83393282,Nashville,"Louisville, KY",1362461500000.0,36.17,-86.72,David Krause,TN,1507123312000.0,3173762
71127152,Pell City,Pell City,1373031926000.0,33.59,-86.29,David Miller,AL,1507055059000.0,3173762
83480502,Nashville,,1362510716000.0,36.17,-86.78,David Moore,TN,1438915573000.0,3173762
4211111,Nashville,,1373399085000.0,36.17,-86.78,David Steele,TN,1378197557000.0,3173762
210923626,Madison,,1473111902000.0,36.26,-86.71,David Williams,TN,1476735853000.0,3173762
228533008,West Palm Beach,West Palm Beach,1496620787000.0,26.66,-80.26,Davy Yue,FL,1496620787000.0,3173762
12927391,Nashville,,1346699669000.0,36.13,-86.8,Dax Edwards,TN,1349115006000.0,3173762
78818422,Nashville,,1359727102000.0,36.17,-86.78,Dax Westerman,TN,1359983682000.0,3173762
204202406,Hermitage,,1461887114000.0,36.19,-86.6,Dean,TN,1461887114000.0,3173762
82209622,Nashville,,1453347536000.0,36.17,-86.78,DeAndre Courtney,TN,1496692024000.0,3173762
12479892,Nashville,,1399305955000.0,36.13,-86.8,Deke Smith,TN,1434927348000.0,3173762
176722562,Nashville,,1412866453000.0,36.17,-86.78,Delmont Jones,TN,1428590259000.0,3173762
192230720,Boston,,1441857365000.0,42.36,-71.05,DenniskiMF,MA,1441857365000.0,3173762
140672512,Clarksville,,1410737202000.0,36.56,-87.41,Derek,TN,1443629552000.0,3173762
123137262,Nashville,,1386623344000.0,36.17,-86.78,Derek Deeter,TN,1424286090000.0,3173762
200903545,Nashville,Nashville,1457122387000.0,36.16,-86.79,Derell L. Stinson,TN,1458591114000.0,3173762
43886322,Nashville,,1404318812000.0,36.17,-86.78,Derrian Covington,TN,1404318812000.0,3173762
192517630,Murfreesboro,,1441863184000.0,35.87,-86.44,Derrick Lewis,TN,1506640418000.0,3173762
135904912,Williamstown,,1423161146000.0,38.61,-84.58,Dewayne Johnson,KY,1423161146000.0,3173762
183822086,Nashville,,1421964310000.0,36.16,-86.79,Di,TN,1421964310000.0,3173762
196325751,New York,,1491252787000.0,40.75,-73.99,Diane Duncklee,NY,1491416739000.0,3173762
194670657,Nashville,,1445878613000.0,36.22,-86.86,dianna lynn hazlewood,TN,1445878613000.0,3173762
221736677,Nashville,,1486678706000.0,36.17,-86.78,Dilshod Shaymanov,TN,1491571664000.0,3173762
189883963,Nashville,,1436830999000.0,36.13,-86.8,Divya Guntu,TN,1436830999000.0,3173762
162289142,Newark,,1495569345000.0,39.6,-75.75,Dl Zhang,DE,1495569345000.0,3173762
182467222,Ischia,,1415632757000.0,40.74,13.95,dmahWneSO,NA,1415632757000.0,3173762
182481092,Burlington,,1415771670000.0,44.45,-73.18,dmahWnRIZ,VT,1415771670000.0,3173762
89513822,Nashville,,1370443650000.0,36.17,-86.78,Dominic Cianciolo,TN,1412699842000.0,3173762
128140932,Nashville,,1389727257000.0,36.17,-86.78,Don Eddleman,TN,1389727257000.0,3173762
194158006,Nashville,,1444940456000.0,36.17,-86.78,Donna McCall Hudson,TN,1444940456000.0,3173762
190870986,Nashville,,1438699337000.0,36.08,-86.72,Donovan Jordan,TN,1438699337000.0,3173762
179800812,Brentwood,"Brentwood, TN",1456420160000.0,36.0,-86.79,Dony Thomas,TN,1456934570000.0,3173762
186495458,Nashville,,1429839480000.0,36.17,-86.78,Doug DeAngelis - A3E,TN,1466260512000.0,3173762
12025198,Brentwood,"Portland, OR",1330959300000.0,36.0,-86.79,Doug Smith,TN,1507134539000.0,3173762
12291036,Smyrna,,1354313108000.0,35.97,-86.51,Drew Butler,TN,1392936183000.0,3173762
208623365,Nashville,,1468003042000.0,36.17,-86.78,Drew D R Fraser,TN,1470177073000.0,3173762
195187088,Nashville,,1446825103000.0,36.09,-86.82,Drew Douthit,TN,1446825103000.0,3173762
184929429,Columbia,,1425419168000.0,35.61,-87.05,Drew Raymer,TN,1426894459000.0,3173762
183483709,Nashville,,1431258895000.0,36.16,-86.79,DRuis,TN,1434890895000.0,3173762
89800802,Brentwood,Nashville,1504645798000.0,36.0,-86.79,Dudley Jacobs,TN,1504645798000.0,3173762
222402513,Nashville,,1487612721000.0,36.16,-86.79,Dung Nguyen Do,TN,1487612721000.0,3173762
218468854,Murfreesboro,,1482267707000.0,35.78,-86.33,Dusti Dodd,TN,1482267707000.0,3173762
161903072,Smyrna,,1496008702000.0,35.97,-86.51,Dustin Lee Walker,TN,1496008702000.0,3173762
191001581,Franklin,,1461012437000.0,35.93,-86.81,Ebin,TN,1461012437000.0,3173762
111701512,Nashville,,1382398135000.0,36.16,-86.79,Ed Jones,TN,1507117475000.0,3173762
219687845,Smyrna,,1484092657000.0,35.97,-86.51,Edeline Archer,TN,1484092657000.0,3173762
162948772,Franklin,,1409754128000.0,35.93,-86.81,Edward Smith,TN,1426302543000.0,3173762
184456948,Nashville,,1424011232000.0,36.06,-86.96,Ekanem Isong,TN,1424011232000.0,3173762
9546629,Spring Hill,Spring Hill,1331241918000.0,35.76,-86.88,Eli Tapolcsanyi,TN,1507903442000.0,3173762
24880512,Nashville,,1389195351000.0,36.06,-86.96,Elijah Manor,TN,1407899091000.0,3173762
108477342,Nashville,,1381429947000.0,36.16,-86.79,Elise Zieman,TN,1491424586000.0,3173762
94498242,Nashville,"Kailua Kona, HI",1484164236000.0,36.16,-86.79,Emily ,TN,1506651362000.0,3173762
195329871,Nashville,,1452026402000.0,36.17,-86.78,Emma Beaton,TN,1452026402000.0,3173762
214973487,Nashville,,1476558713000.0,36.17,-86.78,Emmanuel Ogunkoya,TN,1476558713000.0,3173762
128538332,Nashville,,1480453296000.0,36.14,-86.74,Eric,TN,1498170290000.0,3173762
9754635,Antioch,,1375967889000.0,36.04,-86.64,Eric,TN,1475151811000.0,3173762
10308106,Lexington,,1391044921000.0,37.96,-84.47,Eric Beard,KY,1480556749000.0,3173762
11054542,Murfreesboro,"Murfreesboro, TN",1398542143000.0,35.87,-86.34,Eric Hogan,TN,1398542143000.0,3173762
118747982,Nashville,,1383686577000.0,36.17,-86.78,Eric Nichols,TN,1394462554000.0,3173762
187188889,Nashville,,1431354829000.0,36.18,-86.74,Eric Odiorne,TN,1431631447000.0,3173762
195603509,Franklin,,1478579378000.0,35.93,-86.81,Eric Pan,TN,1508461986000.0,3173762
135725312,Nashville,,1470079152000.0,36.17,-86.78,Eric Reuthe,TN,1470183946000.0,3173762
229446139,Brentwood,,1498141603000.0,36.0,-86.79,eric roll,TN,1507293120000.0,3173762
202729875,Nashville,,1459787795000.0,36.16,-86.79,Eric Taylor,TN,1461041634000.0,3173762
223325598,Clarksville,,1488907879000.0,36.53,-87.35,Eric Torres,TN,1488907879000.0,3173762
209512622,Fort Campbell,,1469154317000.0,36.65,-87.46,Erica Thompson,KY,1469154317000.0,3173762
210098836,Brentwood,,1469937872000.0,36.0,-86.79,Erik J. Olson,TN,1469983727000.0,3173762
203581099,Franklin,,1460995543000.0,35.92,-86.89,Erin,TN,1460995543000.0,3173762
213440339,Brentwood,,1474509088000.0,36.0,-86.79,erin ,TN,1474509088000.0,3173762
77148762,Nashville,Fort Lauderdale,1453081862000.0,36.17,-86.78,Erin Oxborrow,TN,1504554441000.0,3173762
152469172,Nashville,,1403269846000.0,36.17,-86.78,Eryn Pond,TN,1403554890000.0,3173762
156797422,Nashville,,1405561897000.0,36.17,-86.78,Essnova,TN,1405606261000.0,3173762
232796415,Nashville,,1506990096000.0,36.16,-86.77,Evan Coakley,TN,1507037804000.0,3173762
185606726,Nashville,,1427482880000.0,36.14,-86.74,Evan Kaiser,TN,1427482880000.0,3173762
211049190,Mumbai,,1474249573000.0,18.96,72.82,FAIZ CHACHIYA,,1474249573000.0,3173762
1202956,Evanston,Evanston,1375819869000.0,42.06,-87.7,Firas Wehbe,IL,1432824539000.0,3173762
118863742,Nashville,,1403107657000.0,36.17,-86.78,Firoj,TN,1407334365000.0,3173762
210276930,Murfreesboro,,1470176130000.0,35.78,-86.33,Fred Nelson,TN,1470176130000.0,3173762
185431528,Pegram,,1426945703000.0,36.12,-87.03,Gaben S.,TN,1430353085000.0,3173762
204671827,Nashville,Nashville,1503334053000.0,36.13,-86.8,Gabriel Rowe,TN,1506560147000.0,3173762
184025669,Nashville,,1422629059000.0,36.17,-86.78,gabriela,TN,1422641381000.0,3173762
4169858,Nashville,Nashville,1467355083000.0,36.17,-86.72,Gaines Kergosien,TN,1493673691000.0,3173762
57413142,Apex,,1410633503000.0,35.71,-78.82,Gareth Stageman,NC,1496701721000.0,3173762
184175146,Nashville,,1423100331000.0,36.08,-86.72,Garrett ,TN,1423100331000.0,3173762
184169282,Nashville,,1423085783000.0,36.15,-86.86,Garrett Payne ,TN,1423749286000.0,3173762
154425202,Franklin,,1421091658000.0,35.92,-86.89,Geoffrey Gross,TN,1421091658000.0,3173762
127174412,Nashville,,1389219206000.0,36.17,-86.78,George Mundy,TN,1391761239000.0,3173762
209395896,Nashville,,1503156244000.0,36.08,-86.72,gijish,TN,1507163982000.0,3173762
180865402,Waltham,Newton,1425496118000.0,42.4,-71.26,Gina DiCenzo,MA,1438010191000.0,3173762
140110482,Nashville,,1396383259000.0,36.17,-86.78,Giribabu Kanduri,TN,1396383259000.0,3173762
155383302,Nashville,,1404844343000.0,36.17,-86.78,GIRIJA SAHU,TN,1459885033000.0,3173762
8070150,Nashville,Nashville,1402892796000.0,36.09,-86.82,Glenn,TN,1415293640000.0,3173762
203245339,Antioch,,1460506439000.0,36.04,-86.64,Glenn Dixon,TN,1460506439000.0,3173762
127021672,Nashville,,1389143618000.0,36.17,-86.78,Glenn Grabbe,TN,1507261404000.0,3173762
54477282,Nashville,,1342054659000.0,36.17,-86.78,Glenn Kersting,TN,1496415625000.0,3173762
173685812,Roswell,,1462996311000.0,34.03,-84.31,Glenn Renfro,GA,1468339741000.0,3173762
206222766,Nashville,,1464730498000.0,36.17,-86.78,Gopi Sirasapalli,TN,1465419239000.0,3173762
163398972,Nashville,,1417523884000.0,36.08,-86.72,Grant Copley,TN,1417523884000.0,3173762
202405383,La Vergne,,1459305593000.0,36.01,-86.57,Greg Adkins,TN,1481117156000.0,3173762
186434292,Nashville,,1457389367000.0,36.18,-86.74,Greg Overman,TN,1463003813000.0,3173762
40568702,Nolensville,,1330960668000.0,35.94,-86.67,Greg Turnquist,TN,1507067876000.0,3173762
200934617,Nashville,,1457168292000.0,36.15,-86.81,Grey Campbell,TN,1457168292000.0,3173762
131264062,Nashville,,1391369433000.0,36.17,-86.78,Gustav Rodewald,TN,1391467998000.0,3173762
238000599,Nashville,,1507034228000.0,36.17,-86.78,Hamilton,TN,1507034228000.0,3173762
191344924,Hermitage,,1439632165000.0,36.19,-86.6,Hassan,TN,1439632165000.0,3173762
226185646,Nashville,,1492889435000.0,36.16,-86.79,Hawi,TN,1492889435000.0,3173762
141360732,Warsaw,,1488065510000.0,52.26,21.02,Heather,,1488071481000.0,3173762
183452065,Nashville,,1492879777000.0,36.14,-86.74,Henok Wondem,TN,1492879777000.0,3173762
25691792,Nashville,,1456506389000.0,36.17,-86.79,Henry MacAfee,TN,1458605468000.0,3173762
46926762,South Windsor,south windsor,1336256251000.0,41.83,-72.57,Hind,CT,1357916178000.0,3173762
866055,Nashville,,1420397994000.0,36.17,-86.78,hkoudelkova,TN,1420397994000.0,3173762
199382699,Lithia Springs,,1454965512000.0,33.77,-84.64,Hugo N,GA,1454965512000.0,3173762
13583140,Nashville,,1372631891000.0,36.16,-86.79,Hung,TN,1372886596000.0,3173762
100316012,Nashville,,1372688833000.0,36.17,-86.78,Hung Le,TN,1440643862000.0,3173762
222108546,Nashville,,1487196105000.0,36.07,-86.73,Hunter Wesson,TN,1487196105000.0,3173762
13274248,Nashville,"Nashville, TN",1366315130000.0,36.16,-86.79,Ian Wrigley,TN,1448473852000.0,3173762
234043750,Nashville,,1502741418000.0,36.16,-86.79,IB Sobayo,TN,1502741418000.0,3173762
143402782,Nashville,,1442857567000.0,36.17,-86.78,Isaac,TN,1442857567000.0,3173762
191235421,Lebanon,,1454280887000.0,36.21,-86.31,Isaac Bradford,TN,1454280887000.0,3173762
96453532,Nashville,,1370381409000.0,36.17,-86.78,Isaac Kennedy,TN,1370631707000.0,3173762
45735392,Nashville,,1335292188000.0,36.17,-86.78,Ivatan Cavalcanti,TN,1335292494000.0,3173762
106945172,Columbus,,1376875100000.0,39.99,-83.0,J. Darrell Dunn,OH,1417059212000.0,3173762
127213442,Nashville,,1444686794000.0,36.17,-86.78,Jack,TN,1460226056000.0,3173762
198793707,Nashville,,1463415649000.0,36.08,-86.72,Jack Mocherman,TN,1494939239000.0,3173762
198048244,Nashville,,1470323500000.0,36.17,-86.72,Jacob Paine,TN,1482596269000.0,3173762
215167904,Nashville,,1479851848000.0,36.17,-86.78,Jake Froeb,TN,1479851848000.0,3173762
188124377,Smyrna,,1433256217000.0,35.97,-86.51,Jake McNabb,TN,1433256217000.0,3173762
183171432,Memphis,Los Angeles,1459822131000.0,35.12,-89.94,JaMarkus Deonte' Hodge,TN,1459848582000.0,3173762
188830753,Murfreesboro,,1434679214000.0,35.87,-86.44,Jamarkus Hodge,TN,1438647798000.0,3173762
69450032,Nashville,,1352787767000.0,36.17,-86.78,James,TN,1392988471000.0,3173762
202028316,New York,,1458735417000.0,40.75,-73.99,James Briggs,NY,1459975668000.0,3173762
8596100,Elizabethtown,Elizabethtown,1486772249000.0,37.71,-85.86,James Edgar,KY,1486772249000.0,3173762
188561154,Nashville,,1434162622000.0,36.17,-86.78,James G Watkins ,TN,1434871955000.0,3173762
196926001,Nashville,,1479250360000.0,36.09,-86.82,James Rengier,TN,1480448997000.0,3173762
182808764,Nashville,,1417534105000.0,36.17,-86.78,Janelle,TN,1417534105000.0,3173762
222899804,Nashville,,1488303328000.0,36.17,-86.78,Jaquelin,TN,1488303328000.0,3173762
54083862,Nashville,,1386036817000.0,36.17,-86.72,Jared Bunting,TN,1504652260000.0,3173762
201500336,Nolensville,,1504728989000.0,35.94,-86.67,Jared Burke,TN,1504728989000.0,3173762
13809483,Hermitage,Mount Juliet,1356108088000.0,36.19,-86.6,Jared Miller,TN,1377549389000.0,3173762
229430389,Nashville,,1497120400000.0,36.1,-86.66,Jarod,TN,1497120400000.0,3173762
153168942,Franklin,,1502564573000.0,35.99,-86.9,Jarrod Albert,TN,1507113704000.0,3173762
73357672,Franklin,,1356103145000.0,35.93,-86.81,Jason Beck,TN,1359401988000.0,3173762
131814442,Nashville,,1391637374000.0,36.17,-86.78,Jason Goodyear,TN,1391637374000.0,3173762
206340673,Murfreesboro,,1464896880000.0,35.87,-86.44,Jason R. Thompson,TN,1464896880000.0,3173762
13025179,Brentwood,,1358704423000.0,35.89,-86.62,Jason Williams,TN,1358704423000.0,3173762
200446547,Franklin,,1456456646000.0,35.92,-86.89,Jay,TN,1456588248000.0,3173762
115662482,Nashville,Nashville,1452284210000.0,36.1,-86.66,Jay Maul,TN,1452284210000.0,3173762
193017063,Nashville,,1442801821000.0,36.18,-86.81,Jay Parikh,TN,1442801821000.0,3173762
82016612,Nashville,,1415975794000.0,36.09,-86.82,Jay Politzer,TN,1430863322000.0,3173762
185665156,Nashville,,1427671266000.0,36.17,-86.78,Jaymarkiss,TN,1427671266000.0,3173762
203388080,Nashville,Fuquay Varina,1460721174000.0,36.17,-86.72,JB Smith,TN,1475527146000.0,3173762
131604932,Nashville,,1391539212000.0,36.17,-86.78,JC Wu,TN,1391810765000.0,3173762
105413302,Dallas,,1375725228000.0,32.79,-96.8,JD,TX,1438468113000.0,3173762
186071024,Mount Juliet,,1428779886000.0,36.21,-86.52,JD Wheeler,TN,1428779886000.0,3173762
10750729,Franklin,Franklin,1478614111000.0,35.99,-86.9,Jeff Black,TN,1506474905000.0,3173762
210560022,Englewood,,1486738973000.0,39.65,-104.98,Jeff Brinkley,CO,1500931264000.0,3173762
194153351,Nashville,,1465419167000.0,36.15,-86.79,Jeff Deskins,TN,1496843408000.0,3173762
53191892,Franklin,,1346774347000.0,35.92,-86.89,Jeff Finley,TN,1477921524000.0,3173762
230441418,Nashville,,1498391426000.0,36.18,-86.81,Jeff Hammond,TN,1498391426000.0,3173762
12202811,Goodlettsville,Goodlettsville,1358721414000.0,36.33,-86.74,Jeff Lee,TN,1358721414000.0,3173762
5048026,Franklin,Nashville,1343941791000.0,35.93,-86.81,jeff mikres,TN,1496791142000.0,3173762
97721362,Nashville,,1371128011000.0,36.17,-86.78,Jeff Prince,TN,1378212814000.0,3173762
80198462,Mount Juliet,Mount Juliet,1360595495000.0,36.22,-86.52,Jeff Seaman,TN,1381202420000.0,3173762
13678771,Thompsons Station,U.S.A.,1354643194000.0,35.8,-86.9,Jeff Wolski,TN,1400121503000.0,3173762
100508562,Franklin,"Niceville, Fl",1372791294000.0,35.93,-86.81,Jeff York,TN,1372791294000.0,3173762
32790072,Memphis,Memphis,1357150288000.0,35.23,-89.85,Jeffrey Skonhovd,TN,1455761932000.0,3173762
228197030,Nashville,,1495555834000.0,36.17,-86.78,Jen Foltz,TN,1495555834000.0,3173762
9358849,Nashville,,1457996379000.0,36.13,-86.8,Jen Sears,TN,1494382096000.0,3173762
200669541,Saint Louis,,1505366742000.0,38.6,-90.22,Jen Wiese,MO,1505366742000.0,3173762
194883200,Nashville,,1448251967000.0,36.08,-86.72,Jenese McCarroll,TN,1457399568000.0,3173762
100317162,Austin,Austin,1372689695000.0,30.24,-97.76,Jenna Kay Boucher,TX,1401719026000.0,3173762
210292173,Dallas,,1471546841000.0,32.79,-96.8,Jennifer Dutschmann,TX,1471546841000.0,3173762
163380592,Hermitage,Troy,1440690134000.0,36.19,-86.6,Jennifer Lynn,TN,1440690134000.0,3173762
138830782,Nashville,,1395688951000.0,36.17,-86.78,Jenny Jin,TN,1459801640000.0,3173762
191383775,Columbia,,1470844424000.0,35.61,-87.05,Jenny Kay,TN,1470844424000.0,3173762
152527612,Atlanta,,1407502882000.0,33.93,-84.34,Jenny Laspesa,GA,1407502882000.0,3173762
192867227,Nashville,,1442868746000.0,36.17,-86.78,Jerad Clifford,TN,1443108194000.0,3173762
9768082,San Francisco,,1479756822000.0,37.79,-122.4,Jeremy ,CA,1479756822000.0,3173762
197627926,Nashville,,1451948506000.0,36.11,-86.86,Jeremy C. Swain,TN,1456803300000.0,3173762
109935072,Bowling Green,,1401986488000.0,37.02,-86.46,Jeremy Phelps,KY,1425398977000.0,3173762
219673476,Nashville,,1484077461000.0,36.16,-86.79,Jeremy Pitt,TN,1484077461000.0,3173762
11840473,Brentwood,Brentwood,1459262975000.0,36.0,-86.79,Jeremy S,TN,1472843718000.0,3173762
12479435,Nashville,,1329320084000.0,36.13,-86.8,Jeremy Shearer,TN,1491244754000.0,3173762
212936502,Nashville,,1481750806000.0,36.08,-86.72,Jeremy Wink,TN,1481750806000.0,3173762
128482872,Baltimore,Baltimore,1389891058000.0,39.29,-76.62,Jermel,MD,1414634148000.0,3173762
206643331,Brentwood,,1465304653000.0,36.0,-86.79,Jerodis Williams,TN,1465309017000.0,3173762
80388742,Nashville,,1360697802000.0,36.17,-86.78,Jerry Baker,TN,1394651058000.0,3173762
226749171,Nashville,,1493651974000.0,36.17,-86.78,Jerry Heath,TN,1493651974000.0,3173762
54261852,Nashville,,1341926817000.0,36.17,-86.78,Jerry Imsand,TN,1341926817000.0,3173762
120002952,Nashville,,1384450607000.0,36.17,-86.78,Jerry Williams,TN,1501179176000.0,3173762
120675032,Nashville,,1384881591000.0,36.17,-86.78,Jesse Orloff,TN,1475584815000.0,3173762
204123170,Franklin,,1461774075000.0,35.99,-86.9,Jessica,TN,1461774075000.0,3173762
144509602,Atlanta,Atlanta,1398890699000.0,33.93,-84.39,Jessica,GA,1417644762000.0,3173762
6482767,Nashville,,1328735845000.0,36.13,-86.8,Jessica Soberano,TN,1498829919000.0,3173762
191074840,Nashville,,1478541562000.0,36.17,-86.78,Jessica Thomas,TN,1478541562000.0,3173762
8570453,Hermitage,Clarksville,1438573310000.0,36.19,-86.6,Jessica Winn,TN,1438792694000.0,3173762
120761882,Smyrna,,1444017212000.0,35.97,-86.51,Jessica Wynn,TN,1475623216000.0,3173762
30721572,Memphis,,1348201762000.0,35.11,-89.95,Jie Yao,TN,1467833407000.0,3173762
38584482,Nashville,,1329334379000.0,36.17,-86.78,Jim Adkins,TN,1357566881000.0,3173762
198723347,Mount Juliet,,1453925488000.0,36.22,-86.52,Jim B,TN,1453925488000.0,3173762
191323648,Nashville,,1439586202000.0,36.17,-86.78,Jim H.,TN,1441286773000.0,3173762
202429748,Burns,,1459348308000.0,36.04,-87.26,Jimmie Weaver,TN,1504359017000.0,3173762
189900217,Antioch,,1436866824000.0,36.04,-86.64,Jimmy T. Perry,TN,1459209224000.0,3173762
217604792,Salt Lake City,Salt Lake City,1480699780000.0,40.71,-111.89,Jingsai Liang,UT,1480699780000.0,3173762
103022292,Nashville,,1374290949000.0,36.17,-86.78,JJ Rosen,TN,1500497112000.0,3173762
218505095,Hendersonville,,1482338436000.0,36.32,-86.61,jloftis,TN,1482338436000.0,3173762
158793082,Madison,,1407082993000.0,36.26,-86.71,JoAnn Brooks,TN,1480560287000.0,3173762
218054797,Nashville,,1481485741000.0,36.16,-86.79,Joann Young,TN,1481485741000.0,3173762
15575201,Lebanon,"Staten Island,NY",1436652625000.0,36.21,-86.31,Joanne Eckton,TN,1444849262000.0,3173762
85337692,Nashville,,1386626940000.0,36.13,-86.8,Joe Bowman,TN,1386693487000.0,3173762
41619672,Nashville,,1331828440000.0,36.18,-86.74,Joe Byrne,TN,1426727326000.0,3173762
142560102,Nashville,,1397771265000.0,36.17,-86.78,Joe Cox,TN,1397771265000.0,3173762
141329312,Nashville,,1397579102000.0,36.17,-86.78,Joe Kirkpatrick,TN,1398345040000.0,3173762
190827213,Las Vegas,,1438618697000.0,36.17,-115.12,Joe Masters,NV,1453762817000.0,3173762
189479551,Nashville,"Damascus, MD",1476366344000.0,36.06,-86.96,Joe Morris,TN,1501543989000.0,3173762
14241608,Hendersonville,"Cashton, WI",1328285992000.0,36.32,-86.61,Joe Phillips,TN,1328285992000.0,3173762
223633806,Hendersonville,,1489349036000.0,36.32,-86.61,Joe Scaria,TN,1489349036000.0,3173762
33016112,Buffalo,,1500040865000.0,42.9,-78.88,Joel,NY,1500040865000.0,3173762
7495545,Fort Lauderdale,,1473979700000.0,26.1,-80.12,Joel,FL,1474022108000.0,3173762
217160398,Nashville,,1479910516000.0,36.17,-86.78,Joel Legg,TN,1485648241000.0,3173762
213141516,Nashville,,1474140817000.0,36.13,-86.8,Joel Thacker,TN,1475520944000.0,3173762
12578146,Nashville,,1394310284000.0,36.13,-86.8,Joey Krabacher,TN,1503452618000.0,3173762
163569112,Nashville,Nashville,1495308040000.0,36.13,-86.8,Johannes,TN,1495308040000.0,3173762
187016566,Murfreesboro,Rochester,1430954744000.0,35.78,-86.33,John,TN,1431699240000.0,3173762
114279782,Nashville,Doylestown,1483745847000.0,36.16,-86.79,John,TN,1483745847000.0,3173762
80672572,Nashville,Louisville,1381270925000.0,36.17,-86.79,John Bartelt,TN,1427492263000.0,3173762
188295130,Nashville,,1433609912000.0,36.06,-86.96,John Batte,TN,1433609912000.0,3173762
98282412,Nashville,,1371487416000.0,36.17,-86.78,John Burkhart,TN,1487964014000.0,3173762
184196021,Nashville,,1423169585000.0,36.17,-86.78,John Hansen,TN,1476204657000.0,3173762
76743532,Bangor,,1364677867000.0,44.81,-68.78,John Harris,ME,1467247922000.0,3173762
76533312,Nashville,,1391542144000.0,36.17,-86.78,John Hayden,TN,1455805835000.0,3173762
200978535,Hermitage,,1457227610000.0,36.19,-86.6,John Jastrow,TN,1507067383000.0,3173762
40009172,Nashville,,1412956522000.0,36.09,-86.82,John Jastrow,TN,1507140524000.0,3173762
89890132,Brentwood,Nashville Area,1426526726000.0,36.0,-86.79,John L,TN,1440616798000.0,3173762
125677922,Nashville,Nashville,1399868304000.0,36.17,-86.78,John Liu,TN,1480559121000.0,3173762
8380420,Hendersonville,Hendersonville,1338828284000.0,36.32,-86.61,John M Slick,TN,1495818963000.0,3173762
194119902,Murfreesboro,,1444867878000.0,35.82,-86.45,John Mark Swafford,TN,1444937362000.0,3173762
195002936,Nashville,,1446488857000.0,36.13,-86.8,John Ottenlips,TN,1447132000000.0,3173762
63587632,Hendersonville,"Valley Forge, Pa",1448516397000.0,36.32,-86.61,John Poteat,TN,1463697494000.0,3173762
196079571,Nashville,,1448517763000.0,36.17,-86.78,John Poteat,TN,1448517763000.0,3173762
157031542,Franklin,,1405696954000.0,35.92,-86.89,John Scudder,TN,1424194171000.0,3173762
63976872,Madison,,1348708485000.0,36.26,-86.71,John Struble,TN,1396460206000.0,3173762
127144472,Nashville,,1470255669000.0,36.17,-86.78,John Watson,TN,1475595426000.0,3173762
198874837,Clarksville,,1454169353000.0,36.49,-87.23,John Wood,TN,1504563396000.0,3173762
8491457,Mount Juliet,Mount Juliet,1345345738000.0,36.22,-86.52,Johnny R,TN,1345347145000.0,3173762
207337373,Nashville,,1466246337000.0,36.17,-86.78,Jojo fresh,TN,1466246337000.0,3173762
214243245,Nashville,,1475504062000.0,36.17,-86.78,Jon,TN,1488404012000.0,3173762
1909887,Brentwood,Nashville,1389568294000.0,36.0,-86.79,Jon Sharp,TN,1455393581000.0,3173762
11714131,Chicago,Chicago,1508802040000.0,42.01,-87.67,Jon Warren,IL,1508802040000.0,3173762
32247622,Nashville,,1329940164000.0,36.18,-86.74,Jon Wolski,TN,1490736328000.0,3173762
130161382,Nashville,,1405350487000.0,36.16,-86.79,Jonathan,TN,1417150909000.0,3173762
14092082,Nashville,,1362026432000.0,36.17,-86.78,Jonathan Boston,TN,1441162972000.0,3173762
143014022,Hendersonville,Bowling Green,1400268311000.0,36.32,-86.61,Jonathan Hughes,TN,1499807167000.0,3173762
188741457,Brentwood,,1434503718000.0,36.0,-86.79,Jonathan Kelly,TN,1443676250000.0,3173762
122635962,Gallatin,,1386255120000.0,36.39,-86.46,Jonathan Paul Harrington,TN,1386255120000.0,3173762
60147502,Nashville,,1346125828000.0,36.17,-86.78,Jonathan Strange,TN,1446587682000.0,3173762
171615392,Smyrna,Smyrna,1475619549000.0,35.97,-86.51,Jordan Davis,TN,1507071898000.0,3173762
193517928,Nashville,,1443748849000.0,36.06,-86.96,Jordan Dowling,TN,1444266342000.0,3173762
181850782,Nashville,,1415205862000.0,36.17,-86.78,Jordan Hargis,TN,1415205862000.0,3173762
132809532,Lebanon,,1504209016000.0,36.21,-86.31,Jose,TN,1507113718000.0,3173762
141817852,Nashville,,1397350412000.0,36.17,-86.78,Jose Garcia,TN,1415135090000.0,3173762
110489102,Nashville,,1427391729000.0,36.17,-86.78,Joseph Banta,TN,1506972245000.0,3173762
233021854,Franklin,,1501545359000.0,35.92,-86.89,Joseph Biggert,TN,1501545359000.0,3173762
9471463,Cary,,1331580658000.0,35.76,-78.78,Joseph McMurry,NC,1347361366000.0,3173762
71854632,Franklin,,1413159378000.0,35.92,-86.89,Joseph Wichman,TN,1507159740000.0,3173762
14010600,Nashville,"Palo Alto, CA",1466028599000.0,36.11,-86.78,Josh,TN,1466028599000.0,3173762
220135561,Franklin,,1484669545000.0,35.92,-86.89,Josh Dunn,TN,1484669545000.0,3173762
154251402,Nashville,,1463493632000.0,36.17,-86.78,Josh Gieringer,TN,1465227918000.0,3173762
9081144,Atlanta,,1502735688000.0,33.75,-84.39,Josh Murphy,GA,1502735688000.0,3173762
202442996,Nashville,,1459364710000.0,36.08,-86.72,Josh Rairigh,TN,1459364710000.0,3173762
78490972,Nashville,Nashville,1476761438000.0,36.13,-86.8,Josh stimpson,TN,1476761438000.0,3173762
103813522,Nashville,,1374768062000.0,36.17,-86.78,Joshua Colbert,TN,1377784233000.0,3173762
184190169,Brentwood,,1424567202000.0,36.0,-86.79,Joshua H.,TN,1431443343000.0,3173762
209817672,Memphis,,1475250915000.0,35.23,-89.85,Joshua Keough,TN,1496427730000.0,3173762
195064034,Franklin,,1446590206000.0,35.93,-86.81,Joyce Itin,TN,1454427496000.0,3173762
191798684,Nashville,Nashville,1453907566000.0,36.11,-86.86,JP,TN,1486464457000.0,3173762
205530448,Nashville,,1463761200000.0,36.19,-86.8,Ju Boarden,TN,1484244642000.0,3173762
23540031,Mount Juliet,,1489654129000.0,36.22,-86.52,Juan Fernando Salazar,TN,1504575656000.0,3173762
157248622,Nashville,,1405812108000.0,36.16,-86.79,Juan Job,TN,1470109001000.0,3173762
50961002,Nashville,Richmond,1389078194000.0,36.15,-86.86,Juan Moriarty,TN,1432536913000.0,3173762
196898553,Nashville,,1450213881000.0,36.11,-86.86,Julia Brinkmann,TN,1462896866000.0,3173762
117118932,Hendersonville,Hendersonville,1389215121000.0,36.32,-86.61,Justin Laster,TN,1459783875000.0,3173762
73151432,Murfreesboro,,1355881642000.0,35.82,-86.45,Justin Leggett,TN,1494362988000.0,3173762
12021249,Nashville,"Lexington, Ky",1393286246000.0,36.18,-86.74,Justin Morris,TN,1409585776000.0,3173762
165991972,Franklin,,1409697156000.0,35.92,-86.89,Justin Rothbart,TN,1409697156000.0,3173762
150950602,Nashville,,1481244408000.0,36.17,-86.78,Justin Stevens,TN,1481244408000.0,3173762
221294024,Nashville,,1486116917000.0,36.17,-86.78,Kaden White,TN,1486116917000.0,3173762
202746346,Nashville,,1459805951000.0,36.17,-86.78,kalyan,TN,1461682353000.0,3173762
172429262,Nashville,,1444877872000.0,36.18,-86.81,Kanchan,TN,1488987163000.0,3173762
197183245,Nashville,"Columbia, TN",1450921911000.0,36.17,-86.78,Kanesha Patterson,TN,1450921911000.0,3173762
67425602,Herndon,Reston,1357165626000.0,38.93,-77.4,Kapil Garg,VA,1364406103000.0,3173762
222543963,Nashville,,1487797281000.0,36.18,-86.81,Kareem Nicholas,TN,1507057209000.0,3173762
60195472,Nashville,Nashville,1412428398000.0,36.08,-86.72,Karthik Kornalies,TN,1506466271000.0,3173762
230384752,Nashville,,1498318922000.0,36.17,-86.78,Karuna Gujar,TN,1504888848000.0,3173762
224978753,Nashville,,1499547012000.0,36.17,-86.78,Kassandra Pinori,TN,1507087497000.0,3173762
208569099,Nashville,,1475183282000.0,36.17,-86.78,Kassie Briggs,TN,1500503041000.0,3173762
236998384,Baltimore,,1506977234000.0,39.29,-76.62,Kassy Pinori,MD,1507119762000.0,3173762
224815299,Nashville,,1497557779000.0,36.17,-86.78,Kathleen Allen,TN,1499711830000.0,3173762
129989822,Hermitage,,1390695079000.0,36.19,-86.6,Kati,TN,1440770562000.0,3173762
229849445,Nashville,,1497651176000.0,36.17,-86.78,Kay Town,TN,1497651176000.0,3173762
30145882,Nashville,,1459792068000.0,36.17,-86.78,Keith Bradley,TN,1459792068000.0,3173762
186895560,Nashville,,1430699352000.0,36.17,-86.72,Keith Brady,TN,1430699352000.0,3173762
185899186,Nashville,,1428338307000.0,36.17,-86.72,Keith Fitzpatrick,TN,1428338307000.0,3173762
59884472,Nashville,,1345957523000.0,36.17,-86.78,Keith L. Robinson,TN,1348839922000.0,3173762
58621792,Nashville,,1345057211000.0,36.17,-86.78,Keith Massey,TN,1410281881000.0,3173762
193863309,Nashville,,1444401266000.0,36.17,-86.72,Kelly C,TN,1444401266000.0,3173762
100491422,Nashville,,1372783511000.0,36.17,-86.78,Kelly Kline,TN,1372783511000.0,3173762
139307742,Nashville,,1395934345000.0,36.17,-86.78,Kellye Bailey,TN,1395934345000.0,3173762
204903814,Nashville,,1462914069000.0,36.17,-86.78,Kelvin Winrow,TN,1477908050000.0,3173762
184167261,Nashville,,1423080347000.0,36.17,-86.78,Ken Berthelot,TN,1459260239000.0,3173762
76662922,Murfreesboro,,1373126219000.0,35.78,-86.33,Kenneth Rankin,TN,1485975202000.0,3173762
75194902,Nashville,,1357575013000.0,36.17,-86.78,Kent Kersten,TN,1459219346000.0,3173762
625050,Franklin,Chattanooga,1327978379000.0,35.93,-86.81,Kerry Wilson,TN,1507121887000.0,3173762
12951305,Nashville,Cleveland,1442414910000.0,36.08,-86.72,Kevin,TN,1507126476000.0,3173762
402458,Nashville,,1366639898000.0,36.17,-86.78,kevin,TN,1393945612000.0,3173762
187135349,Morristown,Morristown,1431225291000.0,36.19,-83.27,Kevin Bishop,TN,1431225291000.0,3173762
170209812,Nashville,Nashville,1489877124000.0,36.1,-86.66,Kevin Godsey,TN,1496612089000.0,3173762
232686479,Nashville,"Nashville, TN",1507121927000.0,36.16,-86.79,Kevin Kline,TN,1507121927000.0,3173762
187863823,Nashville,,1432735505000.0,36.17,-86.78,Kevin McGraw,TN,1444080176000.0,3173762
39459562,Charlotte,,1352775197000.0,35.19,-80.83,Khristian Gutierrez,NC,1358197538000.0,3173762
44349922,Nashville,,1334178857000.0,36.17,-86.78,Kim,TN,1375911719000.0,3173762
199056574,Nashville,,1454444094000.0,36.17,-86.78,Kim,TN,1454444094000.0,3173762
169483942,Nashville,,1416948609000.0,36.17,-86.78,Kim,TN,1459792755000.0,3173762
49863072,Hermitage,,1476222870000.0,36.19,-86.6,kiran,TN,1489092183000.0,3173762
53003592,Germantown,DC,1352491287000.0,39.17,-77.27,Kirby Smith,MD,1352749642000.0,3173762
49229592,Murfreesboro,"Murfreesboro, TN",1443713228000.0,35.87,-86.34,Kirk Hooten,TN,1446637967000.0,3173762
217394664,Nashville,,1480345465000.0,36.17,-86.78,KirkDev,TN,1480345465000.0,3173762
189398052,Eagleville,,1435863940000.0,35.75,-86.64,Kirstin,TN,1436278944000.0,3173762
227938424,Antioch,,1495245327000.0,36.04,-86.64,Kitan/Emmanuel Ogunkoya,TN,1495245327000.0,3173762
198658606,Nashville,,1453825072000.0,36.17,-86.78,Kramer Allen,TN,1504206125000.0,3173762
225609681,Nashville,,1492106943000.0,36.18,-86.74,Krashnaegoivic Prensky,TN,1492106943000.0,3173762
130503622,Nashville,"Shelbyville, TN",1432233144000.0,36.16,-86.79,Kris Ray,TN,1460059347000.0,3173762
182662859,Murfreesboro,,1418773625000.0,35.87,-86.34,Kristen Brown,TN,1418773625000.0,3173762
235343196,Nashville,,1504208862000.0,36.17,-86.78,Krzysztof Zienkiewicz,TN,1507059597000.0,3173762
189615390,Nashville,,1436304921000.0,36.06,-86.96,Kurt Zettel II,TN,1507222813000.0,3173762
188137632,Nashville,,1433277348000.0,36.17,-86.78,Kyle,TN,1470174418000.0,3173762
173556522,Nashville,"Boston, MA",1444157912000.0,36.18,-86.74,Kyle McCarthy,TN,1482866512000.0,3173762
225593489,Nashville,,1495650406000.0,36.17,-86.78,Kyle McCarthy,TN,1495650406000.0,3173762
191843294,Sturtevant,,1457365470000.0,42.7,-87.92,Kyle Usher,WI,1494862059000.0,3173762
34223132,Nashville,,1330632248000.0,36.17,-86.72,Kyle White,TN,1391555008000.0,3173762
193220585,Oakland,,1462546944000.0,35.21,-89.54,Landon Clay,TN,1462546944000.0,3173762
190738775,Franklin,,1438454077000.0,35.93,-86.81,Lanray. S,TN,1507118154000.0,3173762
222288505,Franklin,,1488873520000.0,35.93,-86.83,Latish Khubnani,TN,1488873520000.0,3173762
3731762,Nashville,,1335149339000.0,36.1,-86.66,Lauren,TN,1441115179000.0,3173762
190522068,Thompsons Station,,,35.8,-86.9,,TN,,3173762
176164622,Nashville,,1412649411000.0,36.17,-86.78,Lawren Lelko,TN,1481636492000.0,3173762
14640916,White House,,1446494120000.0,36.48,-86.69,Layton Welborn,TN,1446494120000.0,3173762
219815596,Nashville,,1485277192000.0,36.08,-86.72,Leah Massey,TN,1485277192000.0,3173762
44899712,Nashville,,1379958393000.0,36.07,-86.73,Leah Stevens,TN,1393969575000.0,3173762
214042373,Nashville,,1475251095000.0,36.16,-86.79,Lee F,TN,1475251095000.0,3173762
184109815,Nashville,,1422908700000.0,36.16,-86.79,Lexi Vernaglia,TN,1431380879000.0,3173762
66619422,Nashville,,1358733005000.0,36.1,-86.66,Liam Branigan,TN,1363541849000.0,3173762
23229581,Nashville,,1469965196000.0,36.17,-86.78,Lifeavinash,TN,1470229464000.0,3173762
190249262,San Francisco,,1467570629000.0,37.78,-122.42,Lilly Chen,CA,1467570629000.0,3173762
72840152,Spring Hill,,1501591982000.0,35.76,-86.88,Linda Catlett,TN,1506644230000.0,3173762
223690505,Nashville,,1489422837000.0,36.13,-86.8,Lindsay Conlin,TN,1489422837000.0,3173762
51041392,Franklin,,1352848089000.0,35.93,-86.81,Lindsay Zhang,TN,1354597349000.0,3173762
5809279,Nashville,,1501037882000.0,36.17,-86.78,Lisa,TN,1501037882000.0,3173762
43479452,Nashville,,1333427017000.0,36.17,-86.78,Lisa Boyce,TN,1346734473000.0,3173762
3098530,Nashville,"Memphis, TN",1356629681000.0,36.08,-86.72,Lisa French,TN,1436302772000.0,3173762
219631521,Lebanon,,1484025096000.0,36.21,-86.31,Lisa Hardy,TN,1484025096000.0,3173762
148906982,Nashville,,1401340630000.0,36.17,-86.78,Lisa Kaye LeVan,TN,1465155237000.0,3173762
118051712,Nashville,,1423690057000.0,36.17,-86.78,Lisa Montross,TN,1423690057000.0,3173762
208052340,Nashville,,1467221570000.0,36.17,-86.78,loc le,TN,1480688573000.0,3173762
223015434,Nashville,,1488470129000.0,36.16,-86.79,Lori Barratt,TN,1488470129000.0,3173762
188151049,Nashville,,1444198586000.0,36.17,-86.78,Lorne Swain,TN,1444198586000.0,3173762
202760293,Nashville,,1459822495000.0,36.17,-86.78,Louis Knight,TN,1459822495000.0,3173762
121431352,Brentwood,,1385426934000.0,36.0,-86.79,luay,TN,1501118292000.0,3173762
192638839,Murfreesboro,,1442095553000.0,35.85,-86.36,Lucas Do,TN,1442095553000.0,3173762
231525477,Nashville,,1500055953000.0,36.17,-86.78,Lucas Jenkins,TN,1504219494000.0,3173762
45742562,Nashville,,1335296109000.0,36.17,-86.78,Luis Herrera,TN,1370284453000.0,3173762
182314202,Nashville,,1420907142000.0,36.08,-86.72,Luke Hardwick,TN,1475078777000.0,3173762
187548495,Nashville,,1432095155000.0,36.17,-86.78,Lynette ,TN,1432095155000.0,3173762
212722637,Nashville,,1473599989000.0,36.16,-86.79,Lynn,TN,1473599989000.0,3173762
186781261,Nashville,,1430434426000.0,36.18,-86.74,Lyssa,TN,1430764039000.0,3173762
181732752,Nashville,,1415142452000.0,36.08,-86.72,Madhav,TN,1415142452000.0,3173762
174768072,Nashville,,1412214962000.0,36.17,-86.78,Madi Marlatte,TN,1430764107000.0,3173762
220250896,Nashville,,1501378789000.0,36.17,-86.72,Mahadevan Juttubalasubramanian,TN,1501785053000.0,3173762
142562182,Nashville,,1397772237000.0,36.17,-86.78,Makenzie Briggs,TN,1397772237000.0,3173762
139321462,Nashville,,1396092078000.0,36.17,-86.78,Mallesh,TN,1396458842000.0,3173762
184424121,Brentwood,Nashville,1429230873000.0,36.0,-86.79,Manoj,TN,1440115515000.0,3173762
113218182,Nashville,,1457243790000.0,36.1,-86.72,Manoja ,TN,1466341797000.0,3173762
65339632,Nashville,,1389655646000.0,36.17,-86.78,manu manrao,TN,1457024013000.0,3173762
182809027,Nashville,,1436324757000.0,36.11,-86.78,Marci ,TN,1438524622000.0,3173762
62997672,San Francisco,,1488940596000.0,37.78,-122.42,Marcus Hellberg,CA,1492615776000.0,3173762
192819105,Nashville,,1442428733000.0,36.15,-86.86,Marea Chatman,TN,1442428733000.0,3173762
210189290,Nashville,,1470065128000.0,36.17,-86.78,Marian Rushdy,TN,1470065128000.0,3173762
9011602,Hendersonville,,1440655621000.0,36.32,-86.61,Mark M.,TN,1504213237000.0,3173762
188723368,Spring Hill,,1434496195000.0,35.76,-86.88,Mark Morris,TN,1434496195000.0,3173762
67428712,Nashville,,1351175692000.0,36.17,-86.78,Mark Raines,TN,1351175692000.0,3173762
140102002,Nashville,,1396379975000.0,36.17,-86.78,Mark Wenzel,TN,1426784052000.0,3173762
193187765,Nashville,,1443119204000.0,36.17,-86.78,markeya dunn,TN,1443119204000.0,3173762
54319522,Nashville,,1341954927000.0,36.17,-86.78,Markus Khouri,TN,1447367786000.0,3173762
237999467,Columbia,,1507724903000.0,35.61,-87.05,Marshall Munoz,TN,1508525652000.0,3173762
182838880,Minsk,,1417700403000.0,53.91,27.55,Marta Apanasenka,,1417700403000.0,3173762
42083092,Nashville,,1335551632000.0,36.16,-86.79,martin boyd,TN,1335551632000.0,3173762
221212756,Nashville,,1486022752000.0,36.17,-86.78,Martynas ustavi?ius,TN,1486022752000.0,3173762
192465320,Nashville,,1441766780000.0,36.17,-86.78,Mary Ann Sobczak Chisholm,TN,1441766780000.0,3173762
225483657,Thompsons Station,,1491938985000.0,35.8,-86.9,Mary Lou Bradley Casey,TN,1491938985000.0,3173762
185009186,Nashville,,1425656363000.0,36.17,-86.72,Mary Louise Ferguson Craig,TN,1425656363000.0,3173762
235171039,Nashville,,1504029627000.0,36.11,-86.86,Mary Puckett,TN,1504029627000.0,3173762
238859932,Clarksville,,1507977109000.0,36.53,-87.35,Masalu Jacob,TN,1507977109000.0,3173762
184158784,Nashville,,1423058172000.0,36.17,-86.78,Matt Clement,TN,1433301363000.0,3173762
74467822,Nashville,,1357144540000.0,36.17,-86.78,Matt Cobia,TN,1491338224000.0,3173762
124205492,Nashville,"Dayton, OH",1424875204000.0,36.16,-86.79,Matt Eby,TN,1504475531000.0,3173762
132277442,Nashville,,1436315460000.0,36.14,-86.74,Matt Frederick,TN,1436315460000.0,3173762
570581,Nashville,,1395098832000.0,36.17,-86.78,Matt Jordan,TN,1469707589000.0,3173762
5900662,Nashville,"Nashville, TN",1347381060000.0,36.07,-86.78,Matt Kenigson,TN,1467918704000.0,3173762
112879812,Brentwood,,1413922936000.0,36.0,-86.79,Matt Mclure,TN,1413922936000.0,3173762
73811092,Nashville,,1383585962000.0,36.17,-86.78,Matt Nigh,TN,1388671056000.0,3173762
208138348,Nashville,,1488852064000.0,36.15,-86.86,Matt Rigsby,TN,1488929084000.0,3173762
107598392,Nashville,,1377025082000.0,36.17,-86.78,Matt Spell,TN,1377025082000.0,3173762
30773872,Indianapolis,,1410528715000.0,39.77,-86.16,Matt Wren,IN,1410528715000.0,3173762
139451372,Nashville,,1409850724000.0,36.14,-86.74,Matt Zechini,TN,1418151877000.0,3173762
170786152,Fairview,,1430100997000.0,35.97,-87.13,Matthew Bush,TN,1486680505000.0,3173762
135770602,Nashville,,1423614063000.0,36.17,-86.78,Matthew Juliana,TN,1497273043000.0,3173762
52132422,Nashville,,1340330411000.0,36.17,-86.78,Matthew May,TN,1342908644000.0,3173762
220421489,Nashville,,1486746403000.0,36.14,-86.74,Matthew McGarvey,TN,1504129291000.0,3173762
62050212,Nashville,,1347418013000.0,36.17,-86.78,Matthew Montgomery,TN,1467829083000.0,3173762
199993939,Mount Juliet,,1455833820000.0,36.22,-86.52,Matthew Spann,TN,1455833820000.0,3173762
139332052,Nashville,,1402505222000.0,36.13,-86.8,Matthew William Lummus,TN,1431465146000.0,3173762
214899373,Nashville,,1488891453000.0,36.16,-86.77,Matti Gilmore,TN,1488891453000.0,3173762
231811338,Dickson,,1501194114000.0,36.08,-87.43,mattm,TN,1501606890000.0,3173762
225226777,Murfreesboro,,1491578985000.0,35.78,-86.33,Max Edmiston,TN,1491578985000.0,3173762
216856245,Nashville,,1479417415000.0,36.17,-86.78,Maxwell Alinikoff,TN,1479417415000.0,3173762
222503242,Nashville,,1487741242000.0,36.08,-86.72,Megan Dickinson,TN,1487902473000.0,3173762
40920632,Atlanta,,1348756421000.0,33.77,-84.38,Megan Liebman,GA,1398792150000.0,3173762
211172218,Nashville,,1471461821000.0,36.17,-86.78,Mellisa Saldanha,TN,1498538028000.0,3173762
119541152,Nashville,,1411851953000.0,36.17,-86.78,Mewael,TN,1430661757000.0,3173762
4849128,Hermitage,"Chattanooga, TN",1333124284000.0,36.19,-86.6,Micah Breedlove,TN,1424702519000.0,3173762
161965822,Nashville,,1502510252000.0,36.17,-86.78,Micah Vigeant,TN,1502510252000.0,3173762
4159371,Nashville,Huntsville,1352600284000.0,36.08,-86.72,Michael Arnold,TN,1495816650000.0,3173762
188985950,Spring Hill,,1475743457000.0,35.76,-86.88,Michael Brown,TN,1480582028000.0,3173762
41951222,Franklin,,1332135306000.0,35.93,-86.81,Michael Burch,TN,1333497385000.0,3173762
215970349,Nashville,,1478029061000.0,36.11,-86.86,Michael Butler,TN,1478029061000.0,3173762
90381182,Nashville,,1467063046000.0,36.17,-86.78,Michael Goldstein,TN,1467063046000.0,3173762
199209760,Hendersonville,,1485971614000.0,36.32,-86.61,Michael M.,TN,1508643816000.0,3173762
208074183,Franklin,,1467246948000.0,35.93,-86.81,Michael Meloche,TN,1467246948000.0,3173762
62019032,Nashville,,1347400661000.0,36.17,-86.78,Michael Meloche,TN,1366120818000.0,3173762
122440832,Nolensville,,1414634187000.0,35.94,-86.67,Michael Milom,TN,1417109660000.0,3173762
83991572,Nolensville,,1362788355000.0,35.94,-86.67,Michael Milom,TN,1407329092000.0,3173762
195145042,Franklin,,1465314717000.0,35.92,-86.89,Michael Roberts,TN,1465314717000.0,3173762
184102434,Nashville,,1422891476000.0,36.17,-86.78,Michael Shaw,TN,1430767079000.0,3173762
99326292,Nashville,,1372091323000.0,36.17,-86.78,Michael Shaw,TN,1443191174000.0,3173762
129643782,Nashville,,1390498364000.0,36.17,-86.78,Michael Sloan,TN,1506565052000.0,3173762
89737712,Nashville,,1366243870000.0,36.17,-86.78,micheal swindle,TN,1366243870000.0,3173762
211393593,Smyrna,,1471793026000.0,35.97,-86.51,Michelle,TN,1471793026000.0,3173762
127222512,Los Angeles,"Los Angeles, CA",1407469860000.0,33.97,-118.24,Michelle,CA,1424118367000.0,3173762
75233722,Nashville,,1357601022000.0,36.09,-86.82,Michelle Hey,TN,1413219465000.0,3173762
100565462,Nashville,,1372868377000.0,36.18,-86.74,Michelle Luckes,TN,1414524219000.0,3173762
46486792,Nashville,,1463689819000.0,36.17,-86.78,Michelle McManus,TN,1464526992000.0,3173762
100378092,Nashville,,1372714621000.0,36.17,-86.78,Mike Lenox,TN,1479703991000.0,3173762
194099532,Nashville,,1475207323000.0,36.17,-86.78,Mike Meadows,TN,1479764641000.0,3173762
79691092,Nashville,,1360252827000.0,36.17,-86.78,Mike Orrick,TN,1473167866000.0,3173762
12479994,Nashville,,1436538874000.0,36.13,-86.8,Mike Orth,TN,1507214175000.0,3173762
83786652,Nashville,,1362676198000.0,36.17,-86.78,Mike Rustici,TN,1363105957000.0,3173762
185185088,Nashville,,1426176282000.0,36.15,-86.86,Mike Stabile,TN,1426176282000.0,3173762
234173760,Nashville,,1502893968000.0,36.13,-86.8,Mikell Vanderlaan,TN,1502893968000.0,3173762
192531572,Nashville,,1441895962000.0,36.09,-86.82,Miranda Schnabel,TN,1441895962000.0,3173762
83267552,Nashville,,1380568389000.0,36.17,-86.78,Mohamed Ibrahim,TN,1380568389000.0,3173762
229227396,Nashville,,1496858858000.0,36.17,-86.78,MOHAMMED REHMAN,TN,1496858858000.0,3173762
26658362,Nashville,,1427622242000.0,36.16,-86.79,Monica Baker,TN,1444620536000.0,3173762
149783732,Brentwood,,1427227478000.0,36.0,-86.79,Monica Miller,TN,1430846401000.0,3173762
186038725,Nashville,,1442355897000.0,36.17,-86.78,Morgan higby-flowers,TN,1470155298000.0,3173762
36153212,New York,new York ,1433081783000.0,40.76,-73.99,mustafa,NY,1433081783000.0,3173762
236136183,Nashville,,1505063434000.0,36.18,-86.74,Nancy Short,TN,1505063434000.0,3173762
46375012,Nashville,,1335816319000.0,36.17,-86.78,Naren Nookala,TN,1507030859000.0,3173762
191059701,Nashville,,1454287070000.0,36.17,-86.78,Nathan Baldwin,TN,1454457236000.0,3173762
128117352,Nashville,Nashville,1495630797000.0,36.18,-86.74,Nathan Butler,TN,1504732546000.0,3173762
182986549,Nashville,,1418615078000.0,36.17,-86.72,Nathan C,TN,1424745032000.0,3173762
182979922,Nashville,,1418579025000.0,36.17,-86.72,Nathan C.,TN,1418579025000.0,3173762
147690502,Mc Ewen,,1400694964000.0,36.14,-87.66,Nathan Davis,TN,1415133510000.0,3173762
69659802,Nashville,,1352909042000.0,36.17,-86.78,Nathan Gladson,TN,1438726516000.0,3173762
47239262,Nashville,,1354808629000.0,36.17,-86.78,Nathan Skirvin,TN,1357677762000.0,3173762
185333784,Nashville,"Rector, AR",1426629884000.0,36.17,-86.78,Nathan stallcup,TN,1463067491000.0,3173762
203855034,Roswell,,1485887753000.0,34.05,-84.38,Nathaniel Nielsen,GA,1501094751000.0,3173762
195095301,Franklin,,1446652532000.0,35.93,-86.81,naveen,TN,1446652532000.0,3173762
136275412,New York,,1408675839000.0,40.75,-73.98,Navi Singh,NY,1488854146000.0,3173762
106925482,Nashville,,1463146762000.0,36.13,-86.8,Neil Whitlow,TN,1502680711000.0,3173762
184105963,Nashville,,1422899926000.0,36.17,-86.78,Nethra,TN,1423502005000.0,3173762
202001938,Denver,,1458689535000.0,39.75,-104.99,NFJS,CO,1458689535000.0,3173762
122547562,Nashville,,1386190434000.0,36.17,-86.78,Nicholas ,TN,1424732033000.0,3173762
196618544,Nashville,,1460990165000.0,36.17,-86.78,Nicholas Huffman,TN,1465353058000.0,3173762
208439316,Brentwood,,1467753310000.0,36.0,-86.79,Nicholas K.,TN,1506465369000.0,3173762
184929921,Nashville,,1444751999000.0,36.06,-86.96,Nicholas McCamey,TN,1460431021000.0,3173762
194812181,Murfreesboro,,1446126958000.0,35.82,-86.45,Nicholas Wech,TN,1507641862000.0,3173762
211517387,Hendersonville,,1471955544000.0,36.32,-86.61,Nick Choate,TN,1471955544000.0,3173762
204153614,Nashville,,1490827449000.0,36.09,-86.63,Nick Curry,TN,1490827449000.0,3173762
222148390,Nashville,,1487255522000.0,36.17,-86.78,nick hayes,TN,1487255522000.0,3173762
190674000,Antioch,,1438315985000.0,36.04,-86.64,Nick Sinas,TN,1442247672000.0,3173762
12885758,Nashville,Paducah,1411409951000.0,36.08,-86.72,Nicole Knott,TN,1422797890000.0,3173762
73243812,Nashville,,1442609791000.0,36.17,-86.78,nikhil gaikwad,TN,1444138524000.0,3173762
186942340,Pune,,1430794761000.0,18.53,73.87,Nikhil Khalokar,16,1493902730000.0,3173762
157915572,Nashville,,1406137254000.0,36.17,-86.78,Nikki Conley,TN,1497279859000.0,3173762
209578349,Nashville,,1469244522000.0,36.16,-86.79,Oleksii Tkachuk,TN,1469285117000.0,3173762
234168251,Franklin,,1502888015000.0,35.93,-86.81,Olivia Oetjens,TN,1502888015000.0,3173762
184290497,Smyrna,,1423473906000.0,35.97,-86.51,Omar,TN,1425429662000.0,3173762
218208260,Smyrna,,1481757216000.0,35.97,-86.51,onlinejnke,TN,1481757216000.0,3173762
113623602,Nashville,,1380569558000.0,36.17,-86.78,Pallavi,TN,1429659290000.0,3173762
98257532,Mount Juliet,"Nashville, TN",1418774404000.0,36.21,-86.52,Pam Joyner,TN,1418774404000.0,3173762
86586812,Nashville,Hong Kong,1491330571000.0,36.17,-86.78,Pan Chan,TN,1491330571000.0,3173762
83328422,Nashville,,1362430947000.0,36.17,-86.78,pandian,TN,1508680890000.0,3173762
126998022,Nashville,,1389133926000.0,36.17,-86.78,Pankaj Soni,TN,1507085367000.0,3173762
103852802,Lebanon,,1374785016000.0,36.15,-86.32,Patrick,TN,1376918482000.0,3173762
205095793,Nashville,,1463183321000.0,36.08,-86.72,Patrick Duteau,TN,1463527916000.0,3173762
206822440,Nashville,,1466376076000.0,36.16,-86.79,Patrick Pei,TN,1466376076000.0,3173762
71883562,Nashville,,1354742972000.0,36.17,-86.78,Patrick Scaglione,TN,1357184942000.0,3173762
8400359,Nashville,,1360167845000.0,36.08,-86.72,Patrick Sun,TN,1462595454000.0,3173762
183850419,Phoenix,,1422395761000.0,33.56,-112.09,Patty Tucker,AZ,1477667574000.0,3173762
96862182,Nashville,,1370714146000.0,36.17,-86.78,paul,TN,1487552360000.0,3173762
183093517,Nashville,,1419312522000.0,36.14,-86.74,Paul,TN,1419312522000.0,3173762
206494409,Nashville,,1465104945000.0,36.17,-86.78,Paul Crocker,TN,1468844817000.0,3173762
113634802,Nashville,,1380574025000.0,36.17,-86.78,Paul Springer,TN,1380574025000.0,3173762
28278482,Nashville,,1378849534000.0,36.15,-86.86,Paul Sunderhaus,TN,1486696809000.0,3173762
151969982,Nashville,,1403013328000.0,36.17,-86.78,Paul Tramel,TN,1403186456000.0,3173762
160954842,Laurel,"Silver Spring, MD",1506259936000.0,39.1,-76.88,Paulin Roche,MD,1507914492000.0,3173762
216550429,Nashville,,1481067578000.0,36.1,-86.66,Peggy Bertsch,TN,1481169800000.0,3173762
118723752,Nashville,,1383676405000.0,36.17,-86.78,Perry Adams,TN,1392985461000.0,3173762
116788872,Nashville,"Chattanooga, TN",1435860638000.0,36.17,-86.78,Pete,TN,1435860638000.0,3173762
102695132,Nashville,Nashville,1488822020000.0,36.18,-86.74,Peter Buchan Jr,TN,1488822020000.0,3173762
191493754,Nashville,,1439928310000.0,36.13,-86.8,Peter Hermann,TN,1439928310000.0,3173762
119887392,Franklin,Nashville,1389147671000.0,35.93,-86.81,Peter Hunsberger,TN,1475613033000.0,3173762
205261276,Nashville,,1463405047000.0,36.16,-86.79,Peter James,TN,1463405047000.0,3173762
85437112,Nashville,,1366160502000.0,36.13,-86.8,Peter Krekel,TN,1427559593000.0,3173762
193804901,Goodlettsville,"Nashville, TN ",1444286040000.0,36.33,-86.74,Peyton Campbell,TN,1453048869000.0,3173762
1921821,Franklin,"Franklin, TN",1433173700000.0,35.92,-86.89,Phil Harvey,TN,1501974914000.0,3173762
57627012,Brentwood,,1344350518000.0,36.0,-86.79,Phil Thomas,TN,1504617411000.0,3173762
162419382,Nashville,Nashville,1441292705000.0,36.16,-86.79,Philip Teagle,TN,1487801518000.0,3173762
123992672,Murfreesboro,Miami,1451801264000.0,35.82,-86.45,Pierre ,TN,1454033089000.0,3173762
187253000,Nashville,,1431476359000.0,36.16,-86.79,Polly Gleneck,TN,1431476359000.0,3173762
202765653,Nashville,,1459828920000.0,36.17,-86.78,Pooja,TN,1459950345000.0,3173762
205378170,Franklin,,1463546669000.0,35.92,-86.89,Pradeep,TN,1463546669000.0,3173762
10188385,Franklin,,1374071917000.0,35.92,-86.89,Pramod,TN,1395243026000.0,3173762
58167252,Nashville,,1344738160000.0,36.17,-86.78,Pranay Gunna,TN,1431866681000.0,3173762
184168368,Nashville,,1423082967000.0,36.17,-86.78,Prasanna Deshpande,TN,1423082967000.0,3173762
92356812,Nashville,,1367874803000.0,36.17,-86.78,Prasanna Veeramani,TN,1375740659000.0,3173762
189015762,Spring Hill,,1438915458000.0,35.76,-86.88,priya,TN,1465353552000.0,3173762
202817922,Brentwood,Brentwood,1459902149000.0,36.0,-86.79,R Michael Brown,TN,1493927984000.0,3173762
214548728,Clarksville,,1475888954000.0,36.53,-87.35,RA Blair,TN,1475888954000.0,3173762
183385020,New York,,1420605714000.0,40.75,-73.99,Rachel Morrison,NY,1420605714000.0,3173762
185381688,Nashville,,1426782119000.0,36.17,-86.78,Rachel Porco ,TN,1430326522000.0,3173762
48088022,Nashville,,1337185428000.0,36.17,-86.78,Rajeev Polepalli,TN,1422907184000.0,3173762
49892152,Nashville,,1338648723000.0,36.17,-86.78,Ralph Rebacz,TN,1339522085000.0,3173762
112410652,Nashville,,1379856431000.0,36.17,-86.78,Ram Rao,TN,1379856431000.0,3173762
175300482,Nashville,,1459559011000.0,36.16,-86.79,Rav,TN,1496770296000.0,3173762
200060107,Antioch,,1455928554000.0,36.17,-86.88,Raven,TN,1455928554000.0,3173762
14402655,Leesburg,,1339019421000.0,39.08,-77.61,Ravikiran Yelliah,VA,1466770667000.0,3173762
116079872,Nashville,,1382047388000.0,36.17,-86.78,Ravinder Nagulapilly,TN,1382047388000.0,3173762
229049863,Nashville,,1496645035000.0,36.15,-86.8,Ray Li,TN,1496645035000.0,3173762
22135491,Franklin,,1436363241000.0,35.92,-86.89,Ray Thomas,TN,1436363241000.0,3173762
129460102,Brentwood,,1390407726000.0,36.0,-86.79,Raymond Ritz,TN,1394204002000.0,3173762
100367272,Nashville,,1408390846000.0,36.13,-86.8,Rebecca Cronin-Dixon,TN,1414098079000.0,3173762
228405433,Nashville,,1495825626000.0,36.17,-86.78,Rebekah Gary,TN,1496695426000.0,3173762
509953,Chapel Hill,Nashville,1462284436000.0,35.62,-86.62,Red French,TN,1507150677000.0,3173762
192771391,Nashville,,1442340191000.0,36.11,-86.78,Regina Jensen,TN,1442340191000.0,3173762
80193132,Nashville,,1360593494000.0,36.17,-86.78,Regina Sanders,TN,1393510040000.0,3173762
199650470,Nashville,,1455368284000.0,36.17,-86.78,Richard,TN,1455368284000.0,3173762
71851852,Franklin,,1421897920000.0,35.92,-86.89,Rick Murdock,TN,1507059721000.0,3173762
144553372,Franklin,,1479744303000.0,35.93,-86.81,Rick Peyton,TN,1488891934000.0,3173762
122667732,Nashville,,1386286403000.0,36.16,-86.79,Rick Pineda,TN,1395925876000.0,3173762
166156082,Franklin,,1409756775000.0,35.92,-86.89,Rob Broadhead,TN,1409756775000.0,3173762
214761951,Nashville,,1476980748000.0,36.17,-86.78,Rob Harrigan,TN,1476980748000.0,3173762
222967028,Nashville,,1488398193000.0,36.18,-86.74,rob lee,TN,1488918222000.0,3173762
113087932,Nashville,,1380225833000.0,36.17,-86.78,Robbie Vaughan,TN,1504629176000.0,3173762
12111943,Nashville,Nashville,1361993789000.0,36.17,-86.79,Robby Clements,TN,1362019422000.0,3173762
44193692,Pleasant View,,1380671645000.0,36.38,-87.04,Robert,TN,1486679869000.0,3173762
109948242,Smyrna,Smyrna,1500659237000.0,35.97,-86.51,Robert,TN,1507157603000.0,3173762
75947782,Bowling Green,,1498671021000.0,36.93,-86.45,Robert Bedard,KY,1498671021000.0,3173762
75332672,Franklin,,1357647536000.0,35.99,-86.9,Robert Bland,TN,1433788734000.0,3173762
184221951,Brentwood,,1423253893000.0,36.0,-86.79,Robert Kelly McCammon,TN,1423253893000.0,3173762
195525799,Clarksville,,1447447541000.0,36.56,-87.41,Robert Martin,TN,1447447541000.0,3173762
104419672,Brentwood,,1378149618000.0,36.0,-86.79,Robert Newton,TN,1383684638000.0,3173762
15806561,Nashville,Nashville,1409344581000.0,36.08,-86.72,Robert Printz,TN,1475584953000.0,3173762
45736342,Nashville,,1335293305000.0,36.17,-86.78,Robert Sewell,TN,1473109422000.0,3173762
76820752,Nashville,,1358534884000.0,36.17,-86.78,Robert Stuart,TN,1405526515000.0,3173762
237571716,Nashville,,1506543221000.0,36.17,-86.78,Robert Taylor,TN,1506543221000.0,3173762
40089992,Atlanta,,1430825773000.0,33.98,-84.33,Roberto Lezama Gutierrez,GA,1446048063000.0,3173762
139470252,Allen,,1460411515000.0,33.09,-96.62,Robin,TX,1460411515000.0,3173762
230320244,Nashville,,1498235296000.0,36.17,-86.78,Rocky R,TN,1506599263000.0,3173762
139889212,Nashville,,1396276606000.0,36.17,-86.78,rodger smith,TN,1504206008000.0,3173762
183831423,Nashville,,1421991296000.0,36.08,-86.72,Rodgerdodger,TN,1498321268000.0,3173762
80278962,Nashville,Nashville,1466486776000.0,36.17,-86.72,Roger Ball,TN,1466486776000.0,3173762
124949072,Nashville,,1388074942000.0,36.17,-86.78,Roger Barnes,TN,1388093088000.0,3173762
46339222,Nashville,,1335796841000.0,36.17,-86.78,Rohan Chavan,TN,1369919255000.0,3173762
52379362,Nashville,,1340546693000.0,36.17,-86.78,Roman,TN,1343996564000.0,3173762
13038968,Franklin,,1329487529000.0,35.99,-86.9,Ron Coffman,TN,1382708488000.0,3173762
223687797,Nashville,,1489419367000.0,36.17,-86.78,Ronnie Hickman,TN,1489419367000.0,3173762
230829884,Nashville,,1498866363000.0,36.17,-86.78,Ross Oreto,TN,1498866363000.0,3173762
233476264,Nashville,,1502087370000.0,36.17,-86.78,Rossy King,TN,1502087370000.0,3173762
184387147,Nashville,,1423773508000.0,36.06,-86.96,Roxanne Clark,TN,1423773508000.0,3173762
139458342,Nashville,,1396019336000.0,36.17,-86.78,Ruben Perez,TN,1424278663000.0,3173762
97038422,Nashville,Nashville,1459298781000.0,36.1,-86.66,Rudy Eggers,TN,1459298781000.0,3173762
184770847,Nashville,,1424987656000.0,36.08,-86.72,Rueben Banalagay,TN,1470862501000.0,3173762
183621154,Smyrna,,1421386271000.0,35.97,-86.51,Russell Church,TN,1421386271000.0,3173762
112074682,Hendersonville,,1465071077000.0,36.32,-86.61,Rustin,TN,1465354974000.0,3173762
196028542,Hendersonville,,1448409401000.0,36.32,-86.61,Ruth King,TN,1448409401000.0,3173762
52175782,Nashville,,1493924056000.0,36.17,-86.78,Ryan Bliton,TN,1493924056000.0,3173762
14466241,Franklin,"Franklin, TN",1488395722000.0,35.92,-86.89,Ryan Goltry,TN,1488395722000.0,3173762
184878207,Nashville,"Louisville, KY",1449812525000.0,36.17,-86.78,Ryan LaMarr Fuqua,TN,1449812525000.0,3173762
185291120,Powhatan,Powhatan,1426510838000.0,37.54,-77.88,Ryan Means,VA,1470175220000.0,3173762
224609696,Atlanta,Nashville,1491137995000.0,33.88,-84.37,Ryan Nichols,GA,1495764794000.0,3173762
186805996,Nashville,,1430496984000.0,36.07,-86.72,Ryan O'Connor,TN,1430496984000.0,3173762
13214587,Nashville,,1396379966000.0,36.07,-86.73,Ryan Osborne,TN,1467843441000.0,3173762
33154332,Nashville,Nolensville,1492901818000.0,36.08,-86.72,Ryan Root,TN,1492901818000.0,3173762
148026092,Franklin,,1452007967000.0,35.93,-86.81,Ryan Smith,TN,1452007967000.0,3173762
211271973,Nashville,,1472168897000.0,36.17,-86.78,Ryan Stubbs,TN,1475524175000.0,3173762
233693712,Nashville,,1502404060000.0,36.08,-86.72,S. Graham,TN,1502404060000.0,3173762
204894353,Nashville,,1465121089000.0,36.08,-86.72,Sachin Surve,TN,1479907040000.0,3173762
194782655,Franklin,,1446067921000.0,35.93,-86.81,Sagar,TN,1446566734000.0,3173762
46338222,Nashville,,1335798496000.0,36.17,-86.78,Sai Rao,TN,1505761205000.0,3173762
223829558,Nashville,,1489612870000.0,36.17,-86.78,saida osman,TN,1489612870000.0,3173762
70408752,Nashville,,1353517655000.0,36.17,-86.78,Saifur Rahman,TN,1441172601000.0,3173762
45656662,Cambridge,,1337279555000.0,42.37,-71.1,sallie touchton,MA,1415035990000.0,3173762
104125722,Summertown,,1374957183000.0,35.43,-87.34,Salvadore Jefferson,TN,1375028715000.0,3173762
90593162,Nashville,,1367941329000.0,36.06,-86.96,Sam,TN,1451937274000.0,3173762
183021007,Nashville,,1421794402000.0,36.17,-86.78,sam Crenshaw,TN,1442353104000.0,3173762
215065731,Spring Hill,,1476656853000.0,35.76,-86.88,Sam Lax,TN,1476656853000.0,3173762
127515562,Nashville,,1412092896000.0,36.14,-86.74,Saman Saadat,TN,1446502752000.0,3173762
101966222,Nashville,,1416700492000.0,36.16,-86.79,Samantha,TN,1417720554000.0,3173762
194780597,Nashville,,1451765900000.0,36.08,-86.72,Samed Albarati,TN,1453263190000.0,3173762
184328214,Nashville,,1481046298000.0,36.07,-86.78,Sammed M.,TN,1501524623000.0,3173762
226849257,Nashville,,1493777495000.0,36.18,-86.74,Sammie Marler,TN,1493777495000.0,3173762
96450472,Nashville,,1370377136000.0,36.17,-86.78,Samuel Aquino,TN,1438720986000.0,3173762
233514275,Nashville,,1502131959000.0,36.17,-86.78,Samuel Shao,TN,1502131959000.0,3173762
221128997,Nashville,,1485912533000.0,36.17,-86.78,Sandeep Reddy,TN,1485912533000.0,3173762
94438022,Nashville,,1369162769000.0,36.17,-86.78,Santhosh kumar,TN,1467732013000.0,3173762
197743064,Nashville,,1452135399000.0,36.17,-86.78,Sasha,TN,1452135399000.0,3173762
178998302,Nashville,,1413925579000.0,36.11,-86.78,Savannah Albright,TN,1413925579000.0,3173762
191769354,Nashville,,1440450730000.0,36.21,-86.72,Savvy Coders,TN,1440450730000.0,3173762
218513858,Nashville,,1482353474000.0,36.17,-86.78,Schan,TN,1482353474000.0,3173762
42767962,Nashville,USA,1485279076000.0,36.17,-86.78,Scott,TN,1485279076000.0,3173762
40578952,Nashville,,1333495226000.0,36.17,-86.78,Scott Cannon,TN,1386108034000.0,3173762
118703622,Nashville,,1383688889000.0,36.17,-86.78,Scott Carr,TN,1394254408000.0,3173762
225225948,Franklin,,1491578553000.0,35.92,-86.89,Scott Dickson,TN,1491578553000.0,3173762
7460656,Nashville,,1328660758000.0,36.06,-86.96,Scott Gordon,TN,1453744140000.0,3173762
185367567,Franklin,,1426820690000.0,35.93,-86.81,Scott Schaffer,TN,1453815266000.0,3173762
11267404,Nashville,,1330115588000.0,36.22,-86.77,Sean,TN,1330115588000.0,3173762
95578472,Thompsons Station,,1417624761000.0,35.8,-86.9,Sean,TN,1442601857000.0,3173762
203277690,Antioch,,1471497928000.0,36.04,-86.64,Sean Davis,TN,1471497928000.0,3173762
238836409,Nashville,,1507945131000.0,36.14,-86.74,Sean Kendall,TN,1507945131000.0,3173762
184169706,Nashville,,1423086103000.0,36.17,-86.78,Sean Myers,TN,1506521540000.0,3173762
220089518,Nashville,,1484608791000.0,36.17,-86.78,Sean Theriot,TN,1484608791000.0,3173762
225791351,Nashville,,1492366016000.0,36.06,-86.96,Searjasub Lopez,TN,1492366016000.0,3173762
200407318,Nashville,"Lima, PE",1467744968000.0,36.17,-86.78,Sebastián Alegre,TN,1467744968000.0,3173762
190978121,Lebanon,,1438905718000.0,36.21,-86.31,Senn Nathan,TN,1438913096000.0,3173762
185474957,Nashville,,1427073905000.0,36.18,-86.81,Sergey,TN,1435180834000.0,3173762
229080036,Nashville,,1505164932000.0,36.16,-86.79,Seve Tombrink,TN,1507156790000.0,3173762
145088312,Nashville,,1408728599000.0,36.11,-86.86,sfrapoport,TN,1441750213000.0,3173762
190845324,Huntsville,,1438645918000.0,34.73,-86.57,Shane Kamar,AL,1438645918000.0,3173762
221023909,Nashville,,1485789693000.0,36.17,-86.78,Shanin ,TN,1485789693000.0,3173762
223644563,Madison,,1489361036000.0,36.26,-86.71,shannon,TN,1489361036000.0,3173762
186255576,Murfreesboro,,1429238665000.0,35.78,-86.33,Shannon,TN,1430708230000.0,3173762
71606712,Nashville,Spring Hill,1354546472000.0,36.17,-86.78,Shawn Edwards,TN,1435849939000.0,3173762
100449852,Spring Hill,,1399414355000.0,35.76,-86.88,Shawn Knight,TN,1508521637000.0,3173762
197698405,Antioch,,1452050821000.0,36.04,-86.64,Sheki Hollis,TN,1452050821000.0,3173762
222664120,Nashville,,1498072821000.0,36.11,-86.78,Sheri Strobel Amateau,TN,1498072821000.0,3173762
215317302,Smyrna,Smyrna,1477017670000.0,35.97,-86.51,shiv jha,TN,1507121359000.0,3173762
184919711,New York,,1430775502000.0,40.76,-73.99,Shoaib Akhtar,NY,1430907481000.0,3173762
202722776,Nashville,,1459779347000.0,36.17,-86.78,shruthi,TN,1459779347000.0,3173762
187842110,Chandler,Nashville,1473552532000.0,33.31,-111.92,Simon,AZ,1489975764000.0,3173762
224773931,Nashville,,1490919995000.0,36.13,-86.8,Sisco Garcia,TN,1490919995000.0,3173762
61972322,Nashville,,1347379883000.0,36.17,-86.78,Sloan Bowman,TN,1391465338000.0,3173762
201190548,Nashville,,1457535669000.0,36.17,-86.72,Sokha Taylor,TN,1457535669000.0,3173762
12283881,London,,1501629883000.0,51.48,-0.02,Solo,17,1501683653000.0,3173762
182871368,Goodlettsville,goodlettsville,1474754674000.0,36.33,-86.74,somya nagaria,TN,1501115760000.0,3173762
225083899,Nashville,,1491363441000.0,36.17,-86.78,Srikar Nadipally,TN,1491496202000.0,3173762
62366162,Nashville,,1347635463000.0,36.17,-86.78,Srinivas Konakalla,TN,1362192574000.0,3173762
48089002,Nashville,,1337634743000.0,36.17,-86.78,srinivas Rayeni,TN,1337811129000.0,3173762
182532772,Nashville,,1426531353000.0,36.17,-86.78,Stacey Smith,TN,1462992062000.0,3173762
183290288,Nashville,,1420323420000.0,36.17,-86.78,Stan Southall,TN,1420323420000.0,3173762
184197999,Nashville,Nashville,1423174035000.0,36.17,-86.78,Steph,TN,1448147337000.0,3173762
187831789,Cookeville,,1432669439000.0,36.2,-85.52,Steph West,TN,1432669439000.0,3173762
206641701,Nashville,,1465302393000.0,36.17,-86.78,Stephanie,TN,1465302393000.0,3173762
194573109,Nashville,,1445705936000.0,36.17,-86.78,Stephanie Kendrick,TN,1445705936000.0,3173762
27191232,Nashville,Meridian,1412114267000.0,36.08,-86.72,Stephanie Marie Farrell,TN,1412114267000.0,3173762
211293558,Nashville,,1471640173000.0,36.18,-86.74,Stephanie Parker,TN,1475682582000.0,3173762
146096122,Murfreesboro,Murfreesboro,1399810453000.0,35.87,-86.34,Stephen Pelfrey,TN,1507118290000.0,3173762
9961811,Murfreesboro,Nashville,1375822909000.0,35.82,-86.45,Steve 'Cutter' Blades,TN,1378917333000.0,3173762
113676512,Nashville,,1380593323000.0,36.17,-86.78,Steve Austin,TN,1381187047000.0,3173762
138990272,Nashville,,1395769735000.0,36.1,-86.66,Steve Cook,TN,1425495207000.0,3173762
132579932,Nashville,,1392056776000.0,36.17,-86.78,Steve Henderson,TN,1392056776000.0,3173762
132579032,Nashville,,1395237151000.0,36.17,-86.78,Steve Henderson,TN,1401283956000.0,3173762
194640094,Nashville,,1445820351000.0,36.17,-86.78,Steve Nyemba,TN,1445820351000.0,3173762
42193082,Nashville,,1332336543000.0,36.17,-86.78,Steven Ford,TN,1391714156000.0,3173762
192710956,Nashville,,1442235742000.0,36.16,-86.79,Stoney Enix,TN,1442235742000.0,3173762
208561758,Nashville,,1467915455000.0,36.17,-86.78,Stuart Terry,TN,1467915455000.0,3173762
143656952,Hyderabad,,1470631013000.0,17.4,78.48,subrahmanyam vaddi,,1501568386000.0,3173762
12753254,Pewaukee,Milwaukee,1388677606000.0,43.08,-88.26,Sufi,WI,1465377706000.0,3173762
143342252,Franklin,,1398252927000.0,35.93,-86.81,Sumit,TN,1455508149000.0,3173762
183336467,Nashville,,1420471637000.0,36.17,-86.78,Susan,TN,1465406419000.0,3173762
12205207,Nashville,,1354287006000.0,36.11,-86.78,Susan Osgood,TN,1498473240000.0,3173762
125498172,Nashville,,1447969000000.0,36.17,-86.78,Takara,TN,1447969000000.0,3173762
209216260,Antioch,nashville,1468778315000.0,36.17,-86.88,Tammy,TN,1468778315000.0,3173762
204129504,Mount Juliet,,1507150306000.0,36.22,-86.52,Tanner Plauché,TN,1507150306000.0,3173762
222065087,Nashville,,1487134477000.0,36.14,-86.74,Tarekegn Sisay,TN,1497476840000.0,3173762
213768028,Oak Grove,,1474935853000.0,36.68,-87.45,Tarshena Rodriguez,KY,1474935853000.0,3173762
14427519,San Mateo,"Athens, Greece",1388971632000.0,37.57,-122.32,Tasos Arvanitis,CA,1507174227000.0,3173762
129222822,Nashville,"Purcellville, VA",1390281463000.0,36.11,-86.78,Taylor O'Connor,TN,1491834236000.0,3173762
175162802,Nashville,,1412353286000.0,36.17,-86.78,Tbatey,TN,1412353286000.0,3173762
229643678,Nashville,,1501608691000.0,36.11,-86.78,ten,TN,1501608691000.0,3173762
215689453,Nashville,,1477585534000.0,36.16,-86.79,Terisa Thorpe,TN,1477585534000.0,3173762
190363122,Franklin,New York,1442873761000.0,35.92,-86.89,Thad Parker,TN,1442873761000.0,3173762
184159773,Nashville,,1423061142000.0,36.17,-86.78,Theresa C,TN,1423061142000.0,3173762
185785631,Brentwood,New York,1453867565000.0,36.0,-86.79,Thiruvengadathan Ramjee,TN,1488803780000.0,3173762
194379078,Nashville,,1445355263000.0,36.17,-86.72,Thomas,TN,1508787272000.0,3173762
87422082,Nashville,,1365467076000.0,36.17,-86.72,Thomas Bangs,TN,1388626883000.0,3173762
159012702,San Antonio,"San Antonio, TX",1446711995000.0,29.54,-98.42,Thomas C. Stowe,TX,1446711995000.0,3173762
74219702,Nashville,Barberton,1463546984000.0,36.17,-86.78,Thomas Cowman,TN,1463546984000.0,3173762
59815112,Murfreesboro,,1396273928000.0,35.87,-86.44,Thomas Turner,TN,1503935506000.0,3173762
75509262,Nashville,,1357748529000.0,36.17,-86.78,Tim Ables,TN,1357777131000.0,3173762
13766608,Spring Hill,Gogona,1491190318000.0,35.76,-86.88,Tim Duncklee,TN,1491368548000.0,3173762
82203572,Mount Juliet,,1361824379000.0,36.22,-86.52,Tim Garnto,TN,1462491779000.0,3173762
121418902,Brentwood,,1479006540000.0,36.0,-86.79,Tim Jones,TN,1479006540000.0,3173762
90350612,Nashville,,1366646642000.0,36.17,-86.78,Tim Kucejko,TN,1367862263000.0,3173762
40336202,Antioch,Nashville,1330740081000.0,36.04,-86.64,Tim Pote,TN,1507911586000.0,3173762
11962573,Nashville,,1466610823000.0,36.13,-86.8,Tim Warren,TN,1466610823000.0,3173762
143476762,Nashville,,1398312149000.0,36.17,-86.79,Timothy Fitzgerald Stratton,TN,1500486274000.0,3173762
1831823,Brentwood,Nashville,1335393076000.0,36.0,-86.79,Todd,TN,1354747620000.0,3173762
220705747,Nashville,,1487724542000.0,36.16,-86.79,Todd Broll,TN,1488999044000.0,3173762
213445120,Nashville,,1474513050000.0,36.17,-86.78,Toledo Crawford,TN,1474513050000.0,3173762
45748462,Nashville,,1335299385000.0,36.17,-86.78,Tom Batey,TN,1335299385000.0,3173762
186686053,Brentwood,,1430226918000.0,36.0,-86.78,Tom Finegan,TN,1475345926000.0,3173762
54274132,Nashville,,1341933967000.0,36.17,-86.78,Tom Sarro,TN,1341933967000.0,3173762
222212836,Nashville,,1487368541000.0,36.11,-86.78,Tom Wilson,TN,1487368541000.0,3173762
223327673,Nashville,,1488910031000.0,36.17,-86.78,Tom Zeller,TN,1488910031000.0,3173762
1889955,Murfreesboro,Hong Kong,1379661762000.0,35.82,-86.44,Tony Wan,TN,1396584036000.0,3173762
209290669,Nashville,,1468868555000.0,36.17,-86.78,Toren Carr,TN,1468868555000.0,3173762
225209150,Nashville,,1491550956000.0,36.17,-86.78,Tosh Mccoy,TN,1491550956000.0,3173762
211531285,Nashville,,1488600536000.0,36.16,-86.79,Travis Avey,TN,1506475841000.0,3173762
185096540,Nashville,Nashville,1425917346000.0,36.17,-86.72,Travis Howell,TN,1430915827000.0,3173762
215596079,Clarksville,,1477435594000.0,36.56,-87.35,Travis William,TN,1477435594000.0,3173762
138867992,Nashville,,1464459052000.0,36.17,-86.72,Trent Hand,TN,1475627194000.0,3173762
208561446,Nashville,,1467915542000.0,36.17,-86.78,Tristan Greeno,TN,1467915542000.0,3173762
54716792,Nashville,,1342278063000.0,36.13,-86.8,Tucker,TN,1342278063000.0,3173762
54137352,Murfreesboro,,1341849754000.0,35.82,-86.45,Tushar Otia,TN,1405457418000.0,3173762
113225842,Nashville,,1380311891000.0,36.17,-86.78,Tyler Duffy,TN,1380489491000.0,3173762
193516568,Murfreesboro,,1444152953000.0,35.85,-86.36,Tyler Dunn,TN,1444266015000.0,3173762
200636299,Nashville,,1471936806000.0,36.17,-86.78,Tyler Roberts,TN,1471936806000.0,3173762
184829557,Nashville,,1464889184000.0,36.17,-86.78,Uday,TN,1504213620000.0,3173762
216962893,Murfreesboro,,1479590177000.0,35.85,-86.36,Ukela Alred,TN,1488035602000.0,3173762
184549072,Nashville,,1424287348000.0,36.15,-86.79,UnbrokenU,TN,1424287348000.0,3173762
175891512,Nashville,,1412547109000.0,36.17,-86.78,Vanessa,TN,1453824578000.0,3173762
205736897,Brentwood,,1464042180000.0,36.0,-86.79,varun,TN,1471267903000.0,3173762
13921785,Brentwood,"Plano, TX",1460861422000.0,36.0,-86.79,Venkat Yarlagadda,TN,1475235424000.0,3173762
186930425,Franklin,,1430772711000.0,35.93,-86.81,venkatesh,TN,1430863765000.0,3173762
210656698,Bangalore,,1501741461000.0,12.97,77.56,Venkatesh Nagilla,,1501741461000.0,3173762
184572305,Nashville,,1424369896000.0,36.17,-86.78,Vicki J.,TN,1424369896000.0,3173762
188253914,Brentwood,"Santo Domingo, DR",1473794158000.0,36.0,-86.79,Victor Castellanos,TN,1473794158000.0,3173762
187629366,Indianapolis,Indianapolis,1432251770000.0,39.79,-86.3,Victoria Vatovec,IN,1445746677000.0,3173762
20258211,Nashville,,1338993516000.0,36.07,-86.73,Vikas Jain,TN,1507125417000.0,3173762
200946236,Franklin,,1457191246000.0,35.92,-86.89,Vincentzenno Cappelli,TN,1457191246000.0,3173762
104313112,Nashville,"Nashville, TN",1376093605000.0,36.08,-86.72,Vineel Lagishetty,TN,1497974849000.0,3173762
153676732,Nashville,,1412179091000.0,36.17,-86.78,Vishu G,TN,1507145884000.0,3173762
6176014,Dallas,Omaha,1412653992000.0,32.79,-96.8,Vitaliy Tsyrlin,TX,1412653992000.0,3173762
222656771,Nashville,"Cairo, Egypt",1496684763000.0,36.16,-86.79,Wael Hassan,TN,1501626417000.0,3173762
193738098,Nashville,,1444160915000.0,36.16,-86.79,Wayne Killius,TN,1444160915000.0,3173762
49401382,Nashville,,1426791994000.0,36.11,-86.86,Wes and Emily Plunk,TN,1431453178000.0,3173762
210822363,Nashville,,1470956424000.0,36.17,-86.78,Wes Burrell,TN,1470956424000.0,3173762
207118547,Nashville,,1468891240000.0,36.08,-86.72,Wesley Lewis,TN,1507128761000.0,3173762
192181173,Boston,,1441966372000.0,42.36,-71.05,WesleydirlMA,MA,1441966372000.0,3173762
9852711,Nashville,Nashville,1388790819000.0,36.11,-86.86,Weston Hunter,TN,1500667769000.0,3173762
3720055,Nashville,,1353029533000.0,36.11,-86.78,Wilkes Joiner,TN,1360169996000.0,3173762
50182342,Nashville,,1338867534000.0,36.17,-86.78,Will Greenway,TN,1414003256000.0,3173762
91839162,Murray,,1369614523000.0,36.62,-88.25,William Holt,KY,1400990228000.0,3173762
40581402,Nashville,,1338819735000.0,36.17,-86.78,William Krusa,TN,1501514401000.0,3173762
87945442,Nashville,,1365217498000.0,36.17,-86.78,William Ott,TN,1367235616000.0,3173762
193430245,Madison,,1443569816000.0,36.26,-86.71,William Savor,TN,1446136033000.0,3173762
113619692,Nashville,,1380567983000.0,36.17,-86.78,William Sharber,TN,1456776755000.0,3173762
207994183,Nashville,,1480961114000.0,36.17,-86.78,Woody Evins,TN,1481113854000.0,3173762
214213967,Nashville,,1475459566000.0,36.17,-86.78,Yeswanth,TN,1501525346000.0,3173762
83192852,Nashville,,1395958494000.0,36.17,-86.78,Youle Pete R Pan,TN,1395958494000.0,3173762
16503121,Brentwood,,1418401064000.0,36.0,-86.79,Yun,TN,1453753978000.0,3173762
151330032,Nashville,,1439338670000.0,36.16,-86.79,Yuri Livshitz,TN,1439338670000.0,3173762
219275333,Nashville,,1483575368000.0,36.15,-86.86,Yusuf Gürbüz,TN,1488057266000.0,3173762
208048638,Nashville,,1506540907000.0,36.17,-86.78,Zach Benton,TN,1506540907000.0,3173762
184032598,Nashville,,1427137601000.0,36.17,-86.78,Zane,TN,1427137601000.0,3173762
228760326,Nashville,,1496288083000.0,36.13,-86.8,Zubeir Osman,TN,1496461671000.0,3173762
