id,city,hometown,joined,lat,lon,name,state,visited,group_id
188685155,Nashville,,1487913677000.0,36.14,-86.8,A,TN,1489345974000.0,4126912
235015846,Dickson,,1503852071000.0,36.08,-87.43,Aaron Kocourek,TN,1503852071000.0,4126912
219554905,Nashville,,1505935924000.0,36.06,-86.96,Abby Petty,TN,1505935924000.0,4126912
177807562,Rochester,,1487440883000.0,43.21,-77.64,Abdul Qayoum Ishaqzai,NY,1488826229000.0,4126912
11531202,Pune,,1484706745000.0,18.53,73.84,Abhishek Goyal,,1484706745000.0,4126912
198899767,Nashville,,1455035421000.0,36.07,-86.73,Abhishek Khanal,TN,1455035421000.0,4126912
236771355,Goodlettsville,,1505849449000.0,36.32,-86.7,Abonée Parker,TN,1506456789000.0,4126912
10030119,Nashville,,1485469359000.0,36.17,-86.78,Ada Brown,TN,1489890221000.0,4126912
9946829,Nashville,Overland Park,1487824417000.0,36.13,-86.8,Adam Luchies,TN,1494876062000.0,4126912
236913354,Nashville,,1506167251000.0,36.17,-86.79,Adam V,TN,1506167251000.0,4126912
212855960,Brentwood,,1473767276000.0,36.0,-86.79,Addison,TN,1475160623000.0,4126912
195507205,Clarksville,,1447415074000.0,36.56,-87.41,Adia Moreno,TN,1447415074000.0,4126912
188251168,Huntsville,,1433516703000.0,34.74,-86.62,Adonnis Stone,AL,1433516703000.0,4126912
222527731,Spring Hill,,1487779315000.0,35.76,-86.88,Adrian Darnell Weston,TN,1487779315000.0,4126912
61596042,Antioch,,1451927609000.0,36.04,-86.64,Adrian Davis,TN,1456282376000.0,4126912
13885682,New York,,1438268261000.0,40.76,-73.97,Adrian Fraiha,NY,1438268261000.0,4126912
195181615,Murfreesboro,,1446815834000.0,35.87,-86.44,Adrienne Richardson Lyons,TN,1446815834000.0,4126912
195337524,Smyrna,"Pompano Beach, FL",1447103189000.0,35.94,-86.53,Adrienne Scott,TN,1447103189000.0,4126912
200022278,Fairview,,1455876663000.0,35.97,-87.13,Aimee Hall,TN,1456484839000.0,4126912
194072265,Goodlettsville,,1444778954000.0,36.33,-86.74,Al kozlowski,TN,1444778954000.0,4126912
205851101,Nashville,,1464199652000.0,36.16,-86.79,Al Rush,TN,1464305151000.0,4126912
206922099,Nashville,,1466448271000.0,36.17,-86.78,Aladraine S.,TN,1472525895000.0,4126912
9456625,Nashville,Nashville,1429110237000.0,36.08,-86.72,Alan & Jessica Enzo,TN,1429110237000.0,4126912
235147772,Alpharetta,,1508267423000.0,34.12,-84.3,Alan Pramuk,GA,1508267423000.0,4126912
38647842,Nashville,,1394236948000.0,36.17,-86.78,Alan S,TN,1476237999000.0,4126912
43359652,Nashville,Nashville,1372715102000.0,36.11,-86.86,alana,TN,1504725385000.0,4126912
206489575,Nashville,,1465096735000.0,36.17,-86.78,Alandis,TN,1465096735000.0,4126912
7964302,Missouri City,Nashville,1405355358000.0,29.54,-95.55,Alecia Stringer,TX,1502060055000.0,4126912
213226825,Mount Juliet,Nashville,1478215050000.0,36.22,-86.52,Aleshia C,TN,1478215050000.0,4126912
185790102,Nashville,Nashville,1434847363000.0,36.13,-86.8,Alex Boisvert,TN,1434847363000.0,4126912
198571638,Nashville,,1462949889000.0,36.11,-86.86,Alex Ossa,TN,1466441750000.0,4126912
206170278,Nashville,,1469645536000.0,36.14,-86.74,Alex Talbott,TN,1469645536000.0,4126912
197864753,Nashville,,1502225916000.0,36.18,-86.74,Alexa Denner,TN,1502225916000.0,4126912
199892769,Nashville,,1457319694000.0,36.09,-86.82,Alexis,TN,1468946927000.0,4126912
180195342,Nashville,"Chattanooga, TN",1433747251000.0,36.17,-86.78,Aliah,TN,1450392394000.0,4126912
190826445,Murfreesboro,,1438618329000.0,35.82,-86.45,Alicia,TN,1438618329000.0,4126912
36914792,Nashville,,1343845526000.0,36.17,-86.78,Alicia Smith,TN,1358804497000.0,4126912
13549039,Nashville,,1394212661000.0,36.17,-86.72,Alison R,TN,1437614352000.0,4126912
53381412,Franklin,"Durant, MS",1408831616000.0,35.93,-86.81,Allen Clements,TN,1422743516000.0,4126912
212837697,Murfreesboro,,1473735893000.0,35.87,-86.34,Allison ,TN,1473735893000.0,4126912
210671599,San Francisco,San Francisco,1472857930000.0,37.77,-122.41,Allison Crady,CA,1501114175000.0,4126912
200846270,Antioch,,1457034919000.0,36.04,-86.64,Allison King,TN,1457034919000.0,4126912
19734391,Brentwood,Brentwood,1440974821000.0,36.0,-86.79,Allison Schmitter,TN,1474597426000.0,4126912
187456924,Nashville,,1431915313000.0,36.18,-86.81,Alneada Biggers,TN,1432397850000.0,4126912
109800922,Murfreesboro,,1416508269000.0,35.78,-86.33,Alonzo Stanley,TN,1416508269000.0,4126912
74620232,Brentwood,,1417037793000.0,36.0,-86.79,Alonzo Stanley,TN,1417037793000.0,4126912
204086769,Franklin,,1461715112000.0,35.92,-86.89,Alvin A. Jones,TN,1461715112000.0,4126912
138506732,Nashville,"Nashville, TN",1395587314000.0,36.22,-86.77,Alvin Baker III,TN,1443139832000.0,4126912
139428852,Rogers,Rogers,1458538292000.0,36.33,-94.13,Alvin Singh,AR,1458538292000.0,4126912
186137286,Nashville,,1443616378000.0,36.16,-86.79,Alyssa Favreau,TN,1456272051000.0,4126912
196784803,Nashville,,1449961934000.0,36.14,-86.74,Amanda ,TN,1453257772000.0,4126912
207811902,Nashville,,1497401940000.0,36.17,-86.78,Amanda LeGrand,TN,1497401940000.0,4126912
211591128,Clarksville,,1472054465000.0,36.53,-87.35,Amanda Rankin,TN,1472054465000.0,4126912
220988847,Smyrna,,1500762423000.0,35.97,-86.51,Amanda Risco,TN,1508102452000.0,4126912
183742617,Franklin,,1433776291000.0,35.99,-86.9,Amanda Romano,TN,1447113250000.0,4126912
229709498,Franklin,,1497464524000.0,35.92,-86.89,Amanda Waterston,TN,1497464524000.0,4126912
41236812,Nashville,Milwaukee,1483990071000.0,36.17,-86.78,amber,TN,1483990071000.0,4126912
187234190,Nashville,,1431806631000.0,36.15,-86.86,Amber Vandivort,TN,1431806631000.0,4126912
218073444,Clarksville,,1481513598000.0,36.53,-87.35,Aminah Eyiowuawi,TN,1481517422000.0,4126912
71020602,Franklin,Nashville ,1485131262000.0,35.92,-86.89,Amy,TN,1508166540000.0,4126912
197963332,Nashville,,1452540290000.0,36.19,-86.8,Amy Bunton,TN,1452540290000.0,4126912
223569254,Franklin,,1498369681000.0,35.92,-86.89,Amy Castle,TN,1506166364000.0,4126912
211409871,Nashville,,1471809056000.0,36.17,-86.78,Amy Page,TN,1471809056000.0,4126912
44656302,Nashville,,1460850007000.0,36.1,-86.66,Ana,TN,1507784754000.0,4126912
162924112,Federal Way,,1494618612000.0,47.3,-122.37,Andi M,WA,1494618612000.0,4126912
183088979,Nashville,,1426797555000.0,36.16,-86.79,Andrea Snyder,TN,1433274148000.0,4126912
14172603,Antioch,,1432734920000.0,36.04,-86.64,Andrea Tarpley,TN,1432734920000.0,4126912
185325845,Murfreesboro,,1426610619000.0,35.87,-86.44,Andrea Zavala,TN,1433343792000.0,4126912
221125889,Nashville,,1485908275000.0,36.09,-86.82,Andreca Nicole,TN,1485908275000.0,4126912
14151147,Nashville,,1402525523000.0,36.17,-86.72,Andrew,TN,1409051329000.0,4126912
208483732,Hendersonville,,1467816471000.0,36.32,-86.61,Andrew Fullen,TN,1495141951000.0,4126912
11975918,Nashville,Nashville,1352681735000.0,36.08,-86.72,Andrew Lee,TN,1398804167000.0,4126912
184802226,Brentwood,,1495571359000.0,36.0,-86.79,Andrew P,TN,1495571359000.0,4126912
232789752,Nashville,,1501253864000.0,36.1,-86.66,Andrew Wells,TN,1501253864000.0,4126912
9589158,Nashville,,1487039245000.0,36.13,-86.8,Andy Buford,TN,1487039245000.0,4126912
192258552,Murfreesboro,,1441393350000.0,35.78,-86.33,Angel,TN,1441393350000.0,4126912
187280838,Nashville,,1431538581000.0,36.08,-86.72,Angel-Ghashikta,TN,1432171407000.0,4126912
48739142,Dickson,,1428943040000.0,36.08,-87.43,Angela Busby,TN,1428943040000.0,4126912
9299101,Franklin,Franklin,1446754853000.0,35.99,-86.9,Angela DeYoung,TN,1508388747000.0,4126912
206907592,Nashville,,1465654912000.0,36.17,-86.78,Angela Everett,TN,1465654912000.0,4126912
27637492,Franklin,,1373233608000.0,35.99,-86.9,Angela Fox,TN,1373233608000.0,4126912
183905649,Nashville,,1428807199000.0,36.11,-86.78,Angela Greff Vogeli,TN,1428807199000.0,4126912
214651016,Nashville,,1476047610000.0,36.15,-86.86,Angela Hicks Shapiro,TN,1476047610000.0,4126912
180878792,Brentwood,,1463074550000.0,36.0,-86.79,Angela Mink,TN,1463922052000.0,4126912
187192782,Franklin,,1431360864000.0,35.99,-86.9,Angela Novak,TN,1447332804000.0,4126912
11483819,Nashville,,1348243882000.0,36.15,-86.86,Angela Trumbo,TN,1427660508000.0,4126912
192068074,Bon Aqua,,1441034272000.0,35.93,-87.25,Angela Tyrone,TN,1442627225000.0,4126912
11948516,Hendersonville,,1421251377000.0,36.32,-86.61,Angelina Johnson,TN,1428201685000.0,4126912
217065683,Nashville,,1488116876000.0,36.17,-86.78,Angelina Ruiz,TN,1488116876000.0,4126912
64269302,Nashville,,1349537114000.0,36.17,-86.78,Angelynn Hanley,TN,1351165801000.0,4126912
13752843,Nashville,,1456145831000.0,36.17,-86.79,Angie Walk,TN,1499309437000.0,4126912
108988302,Nashville,,1492787725000.0,36.17,-86.78,Angus Nelson,TN,1507776468000.0,4126912
10816904,Nashville,"Nashville, TN",1448108190000.0,36.16,-86.79,Anita,TN,1504523333000.0,4126912
69528962,Nashville,Philadelphia,1404270736000.0,36.21,-86.72,Anita-Lorraine,TN,1508618071000.0,4126912
10604590,Nashville,,1425577698000.0,36.15,-86.86,Ankur Patwa,TN,1425577698000.0,4126912
195067499,Livingston,,1446595673000.0,36.39,-85.32,Ann,TN,1447906299000.0,4126912
199491135,Spring Hill,,1455126733000.0,35.76,-86.88,Ann Farrar Perry,TN,1455126733000.0,4126912
201438236,Hermitage,,1457891844000.0,36.19,-86.6,Anna Dux Barry,TN,1457891844000.0,4126912
34842792,Nashville,,1391129869000.0,36.13,-86.8,Anna Hamil,TN,1424350791000.0,4126912
92973312,Franklin,nashville,1429109945000.0,35.92,-86.89,Anna Leyson,TN,1501177198000.0,4126912
216946472,Gallatin,,1479567807000.0,36.39,-86.45,Anna Rose Robertson,TN,1484598691000.0,4126912
200876709,Smyrna,,1459895437000.0,35.97,-86.51,Anneadria C. Greer  (Anne),TN,1459895437000.0,4126912
21206961,Antioch,Nashville,1424209888000.0,36.27,-87.06,Annette Granberry,TN,1451594314000.0,4126912
213090378,Nashville,,1474072627000.0,36.09,-86.82,Annika Benitz Chaloff,TN,1490283914000.0,4126912
209960280,Murfreesboro,,1481135615000.0,35.78,-86.33,Anthony Byers,TN,1481135615000.0,4126912
217749308,Nashville,,1480952336000.0,36.17,-86.78,Anthony Manker,TN,1487280138000.0,4126912
168764642,Smyrna,,1410319261000.0,35.97,-86.51,Antonia Lemay,TN,1410468522000.0,4126912
192501596,Murfreesboro,,1503019819000.0,35.82,-86.45,April Faircloth Collier,TN,1507873735000.0,4126912
225540072,Portland,,1492019594000.0,36.57,-86.49,April High,TN,1492019594000.0,4126912
214643399,Nashville,,1476037899000.0,36.11,-86.78,April Pitchford,TN,1476037899000.0,4126912
217429206,Lebanon,,1480395074000.0,36.21,-86.31,Aprilia Hestya Alam,TN,1480395074000.0,4126912
230216065,Nashville,,1498099652000.0,36.08,-86.72,Araz Amedy,TN,1498099652000.0,4126912
200686755,Nashville,,1504879001000.0,36.17,-86.72,Ariella Bocian,TN,1504879001000.0,4126912
183183044,Nashville,,1454704948000.0,36.11,-86.78,Art of Health Chiropractic,TN,1454704948000.0,4126912
185199884,Cookeville,,1426215068000.0,36.2,-85.52,Art Shady,TN,1426235435000.0,4126912
177239532,Granville,Granville,1415673981000.0,36.28,-85.75,Artagene Skipper,TN,1415673981000.0,4126912
216553699,Nashville,,1478960966000.0,36.17,-86.78,Artist x,TN,1481115281000.0,4126912
113415812,Singapore,,1416669008000.0,1.3,103.85,arun srinivaas,,1422364459000.0,4126912
14426476,Nashville,,1448198965000.0,36.13,-86.8,Asheia,TN,1448198965000.0,4126912
71115092,Nashville,Memphis,1502069613000.0,36.17,-86.78,Ashely Price,TN,1504662351000.0,4126912
196659625,Knoxville,,1504706304000.0,35.92,-84.1,Ashleigh Allman,TN,1504706304000.0,4126912
229158522,Columbia,,1496773368000.0,35.61,-87.05,Ashley Fitzgerald,TN,1496773368000.0,4126912
182467711,Franklin,,1415779837000.0,35.93,-86.81,Ashley Marcum,TN,1442278014000.0,4126912
193361475,Antioch,"Lexington, KY",1443454063000.0,36.04,-86.64,Ashley Oldham,TN,1447723664000.0,4126912
77649082,Nashville,,1433128766000.0,36.26,-86.73,ashley w,TN,1475026164000.0,4126912
238604089,Columbia,,1507677308000.0,35.61,-87.05,Asia flowers,TN,1507677308000.0,4126912
10575998,Hendersonville,Portland,1485266738000.0,36.32,-86.61,Audra Hicks,TN,1492352287000.0,4126912
223260232,Nashville,"Northville, MI",1488821646000.0,36.17,-86.78,Austin,TN,1488821646000.0,4126912
221377991,Nashville,,1486224921000.0,36.17,-86.72,Austyn Farmer,TN,1486224921000.0,4126912
155911172,Nashville,,1470143861000.0,36.17,-86.78,Ayesha Mayes,TN,1501168978000.0,4126912
192764151,Hermitage,,1442329282000.0,36.19,-86.6,Babu Krishnasamy,TN,1442329282000.0,4126912
214078851,Antioch,,1476778477000.0,36.04,-86.64,Barb Stackhouse,TN,1508484777000.0,4126912
192552895,Gallatin,,1441930892000.0,36.39,-86.45,Barbara,TN,1454086697000.0,4126912
47530612,La Vergne,La Vergne,1478796080000.0,36.01,-86.57,Barbara Barnes,TN,1491617480000.0,4126912
209205740,Nashville,,1471185703000.0,36.17,-86.78,Barry Bright,TN,1504705374000.0,4126912
201226416,Smyrna,,1457582114000.0,35.97,-86.51,Barry Holtcamp,TN,1489108675000.0,4126912
75873682,Nashville,,1459911418000.0,36.17,-86.78,Bayron,TN,1498005276000.0,4126912
220624758,Nashville,,1485889200000.0,36.14,-86.74,BCaldwell,TN,1508734572000.0,4126912
11800374,Nashville,,1394220792000.0,36.11,-86.78,Becky Dan,TN,1504439843000.0,4126912
217669549,Nashville,,1480809899000.0,36.17,-86.79,Becky Jackson,TN,1480809899000.0,4126912
200807245,Murfreesboro,,1456972641000.0,35.87,-86.44,Becky T.,TN,1482472406000.0,4126912
152663292,Franklin,,1464408626000.0,35.93,-86.81,Ben Brown,TN,1464408626000.0,4126912
219105467,Nashville,,1483391531000.0,36.17,-86.78,Ben Guenther,TN,1483391531000.0,4126912
204475423,Franklin,,1462305034000.0,35.93,-86.81,Ben Roddey,TN,1490306061000.0,4126912
211872152,Nashville,,1472452886000.0,36.09,-86.82,Ben Zhu,TN,1508626953000.0,4126912
46343162,Franklin,,1412084803000.0,35.92,-86.89,Benjamin Brown,TN,1412084803000.0,4126912
97363662,Nashville,,1452404386000.0,36.17,-86.78,Bernard Savage,TN,1485722116000.0,4126912
236597654,Springfield,,1505499880000.0,36.52,-86.87,Bernie Kl,TN,1505499880000.0,4126912
188438595,Nashville,,1433890716000.0,36.21,-86.72,Beth,TN,1434064709000.0,4126912
235699002,Franklin,,1504617746000.0,35.92,-86.89,Beth Dunlap,TN,1504617746000.0,4126912
78524382,Nashville,,1497569554000.0,36.09,-86.82,Beth Inglish,TN,1506547185000.0,4126912
12573789,Nashville,Nashville,1395115346000.0,36.13,-86.8,Beth Matter,TN,1426728514000.0,4126912
7874618,Nashville,,1474816324000.0,36.22,-86.77,Beth Terrell,TN,1501182237000.0,4126912
62048162,Franklin,,1347417286000.0,35.93,-86.81,Bethany Harris,TN,1347417286000.0,4126912
193658049,Nashville,,1445746371000.0,36.17,-86.78,Betsy Everett,TN,1448075409000.0,4126912
229821403,Brentwood,,1497617997000.0,36.0,-86.79,Bettie Hines,TN,1497617997000.0,4126912
87208402,Smyrna,"Smyrna, TN",1450851541000.0,35.97,-86.51,Beverly Taylor,TN,1454451354000.0,4126912
121602682,Memphis,,1481990055000.0,35.07,-89.96,Bikram,TN,1481990055000.0,4126912
73976442,Nashville,,1400430975000.0,36.11,-86.86,Bill Bayrd,TN,1400430975000.0,4126912
222093767,Nashville,,1487179800000.0,36.17,-86.78,BILL CAKMIS,TN,1487179800000.0,4126912
218199555,Nashville,,1481743595000.0,36.16,-86.79,Bill Caywood,TN,1481743595000.0,4126912
184112483,Nashville,,1423269772000.0,36.1,-86.66,Bill G.,TN,1467414163000.0,4126912
127180052,Nashville,,1394303784000.0,36.17,-86.79,Bill Hildebrand,TN,1444314399000.0,4126912
204079230,Nashville,,1461705262000.0,36.14,-86.74,Bill Kimberlin,TN,1461705262000.0,4126912
233304952,Nashville,,1501890691000.0,36.17,-86.72,Bill McDowell,TN,1501890691000.0,4126912
187188675,Bethpage,,1431353622000.0,36.51,-86.32,Bill Roberson,TN,1431353622000.0,4126912
222289339,Nashville,,1487454126000.0,36.17,-86.72,Birtha Street,TN,1487454126000.0,4126912
35865872,Goodlettsville,,1460421800000.0,36.32,-86.72,bjnorthern,TN,1460421800000.0,4126912
9298067,Palmetto,,1409013833000.0,27.54,-82.55,blacknemisis,FL,1451602834000.0,4126912
223407661,Nashville,,1489851224000.0,36.17,-86.79,Bob Duthie,TN,1490363315000.0,4126912
60048232,Nashville,,1394225513000.0,36.17,-86.79,Bob Duthie,TN,1506180776000.0,4126912
12365178,Portland,Portland,1439950189000.0,36.57,-86.49,Bob Sherry,TN,1454202941000.0,4126912
5824712,Mount Juliet,,1420333721000.0,36.22,-86.52,Bob the Builder,TN,1466448809000.0,4126912
216191325,Nashville,,1485042593000.0,36.15,-86.85,Bobby,TN,1487900151000.0,4126912
203216179,Nashville,,1460472011000.0,36.09,-86.82,Bobby DeVoursney,TN,1460472011000.0,4126912
125031252,Nashville,,1458372951000.0,36.17,-86.78,Bobby Mulligan,TN,1458372951000.0,4126912
191943951,Oak Grove,,1440786095000.0,36.68,-87.45,Bonnie Surie,KY,1442510459000.0,4126912
189247500,Murfreesboro,,1435547572000.0,35.82,-86.45,Bonny Meranda,TN,1435547572000.0,4126912
174968612,Dickson,,1429136498000.0,36.08,-87.43,Brad Allen Cathey,TN,1482905006000.0,4126912
203909824,Orlando,,1487884835000.0,28.54,-81.37,BRAD B,FL,1487884835000.0,4126912
65949872,Austin,PA,1468695543000.0,30.27,-97.74,Brad Hertzog,TX,1501727145000.0,4126912
58496332,Nashville,"Nashville, TN",1472519064000.0,36.1,-86.66,Brad Linberg,TN,1501102706000.0,4126912
179219982,Nashville,Nashville,1466037163000.0,36.17,-86.78,Bradley Koenen,TN,1466037163000.0,4126912
193008351,Nashville,,1442789409000.0,36.1,-86.66,Bradly Montague,TN,1442789409000.0,4126912
182825842,Nashville,,1424642331000.0,36.17,-86.78,Brady Bolf,TN,1424642331000.0,4126912
182905651,Nashville,,1430526671000.0,36.07,-86.61,Brandie Jones,TN,1467513749000.0,4126912
183322505,Nashville,,1500093872000.0,36.06,-86.96,Brandon,TN,1500093872000.0,4126912
14135900,Nashville,Nashville,1399296853000.0,36.11,-86.78,Brandon,TN,1399296853000.0,4126912
199783637,Franklin,,1455555416000.0,35.93,-86.81,Brandon,TN,1474917740000.0,4126912
3232539,Nashville,,1389537029000.0,36.13,-86.8,Brandon Burns,TN,1413124507000.0,4126912
184300998,Nashville,"Madisonville, KY",1423506080000.0,36.13,-86.8,Brandon Lee,TN,1440413339000.0,4126912
223839735,Nashville,,1489625445000.0,36.15,-86.86,Brandy Jones,TN,1489625445000.0,4126912
211705099,Nashville,,1472216570000.0,36.17,-86.78,Brayton Doll,TN,1472216570000.0,4126912
182588103,Murfreesboro,,1418353940000.0,35.78,-86.33,Bree,TN,1498755546000.0,4126912
121656302,Nashville,,1413810753000.0,36.11,-86.86,Brenda Long,TN,1413810753000.0,4126912
212540461,Franklin,,1473353765000.0,35.92,-86.89,Brenda Patterson,TN,1473353765000.0,4126912
88028962,Franklin,,1438042129000.0,35.99,-86.9,Brenda Rish,TN,1438042129000.0,4126912
177283622,Nashville,,1464627638000.0,36.13,-86.8,Brendan Kennedy,TN,1499052406000.0,4126912
140942562,Smyrna,,1396861029000.0,35.97,-86.51,Brent Robinson,TN,1504231910000.0,4126912
143191012,Nashville,,1455683631000.0,36.17,-86.78,Bria Lafayette,TN,1455683631000.0,4126912
183113874,Nashville,,1433384635000.0,36.22,-86.86,Brian,TN,1507614952000.0,4126912
11872979,Mount Juliet,Mt. Juliet,1476722792000.0,36.22,-86.52,Brian Benton,TN,1487385694000.0,4126912
222150426,Wilmington,,1501458070000.0,39.75,-75.56,Brian Billings,DE,1501458070000.0,4126912
151401362,Nashville,,1402683538000.0,36.17,-86.78,Brian Caw,TN,1402683538000.0,4126912
22006841,Brentwood,San Antonio,1476889062000.0,36.0,-86.79,Brian Sprayberry,TN,1476889062000.0,4126912
192859192,Nashville,,1490289394000.0,36.11,-86.78,Brian W. Wade,TN,1508407774000.0,4126912
186287890,Nashville,,1429328114000.0,36.1,-86.66,Bright,TN,1430790717000.0,4126912
223858171,Nashville,,1489655409000.0,36.16,-86.79,Brijesh Patel,TN,1490240671000.0,4126912
30936082,Antioch,,1431271982000.0,36.04,-86.64,Britt Thomas,TN,1500915099000.0,4126912
181369272,Hermitage,"Paris, TN",1465310942000.0,36.19,-86.6,Brittany,TN,1468939785000.0,4126912
184670731,Mount Juliet,,1431004103000.0,36.22,-86.52,Brittany Butler,TN,1431004103000.0,4126912
189883761,Murfreesboro,,1436895868000.0,35.82,-86.45,Brittany G,TN,1436895868000.0,4126912
27048762,Knoxville,,1501015718000.0,35.92,-83.88,Brittany Millsaps,TN,1501015718000.0,4126912
94179712,Hendersonville,,1487695975000.0,36.32,-86.61,Brittany Renee Bertoli,TN,1487695975000.0,4126912
193175352,Nashville,,1443623740000.0,36.06,-86.96,Britton Woodall,TN,1458143856000.0,4126912
183760092,Manchester,,1421796686000.0,35.47,-86.11,Bruce Atnip,TN,1421796686000.0,4126912
215085358,Nashville,,1476684862000.0,36.17,-86.78,Bruce Lee,TN,1476684862000.0,4126912
217512994,Nashville,,1480536670000.0,36.17,-86.78,Bruno Buchanan,TN,1480536670000.0,4126912
129122472,Antioch,,1457920787000.0,36.17,-86.88,Bryan Overbey,TN,1484318361000.0,4126912
149235682,Antioch,,1489949417000.0,36.05,-86.68,Bryan White,TN,1489949417000.0,4126912
190899099,Nashville,,1438744795000.0,36.18,-86.74,Bzy We,TN,1438744795000.0,4126912
211519222,Franklin,Hendersonville,1471957913000.0,35.92,-86.89,C N Appleton,TN,1498271184000.0,4126912
196356799,Hendersonville,,1449093542000.0,36.32,-86.61,Caitlin Hart,TN,1487891443000.0,4126912
195750926,Nashville,,1455290407000.0,36.17,-86.78,Caleb,TN,1455843010000.0,4126912
174245272,Columbia,,1465403809000.0,35.61,-87.05,Caleb,TN,1465403809000.0,4126912
230688809,Nashville,,1498685759000.0,36.17,-86.78,Caleb Bates,TN,1498685759000.0,4126912
199941030,Nashville,,1455759129000.0,36.22,-86.77,Caleb Dye,TN,1455987116000.0,4126912
211429413,Brentwood,,1471832652000.0,36.0,-86.79,Caleb Gibson,TN,1471832652000.0,4126912
233534591,Nashville,,1502152849000.0,36.08,-86.72,Caleb Mckenney,TN,1502152849000.0,4126912
212162483,Nashville,,1472844793000.0,36.22,-86.86,Calisha Brooks,TN,1472844793000.0,4126912
203244569,Antioch,"Nashville, TN",1460507340000.0,36.04,-86.64,Calvin J.,TN,1466724238000.0,4126912
24207352,Mount Juliet,,1503751982000.0,36.21,-86.52,Candace,TN,1508255419000.0,4126912
205701291,Mount Juliet,,1464000795000.0,36.22,-86.52,Candace Haynie,TN,1464844823000.0,4126912
186125908,Nashville,,1428923665000.0,36.18,-86.81,Candace Hyde,TN,1428923665000.0,4126912
220154878,Nashville,,1484867316000.0,36.17,-86.78,Candice Cokefair,TN,1484867316000.0,4126912
62363882,Nashville,Nashville,1347722585000.0,36.11,-86.86,Candie Worsham,TN,1350235129000.0,4126912
217854444,Nashville,,1481124437000.0,36.17,-86.78,Carl Bott,TN,1481124437000.0,4126912
224458931,Murfreesboro,"Winnie, TX",1490489202000.0,35.78,-86.33,Carl Keating,TN,1505967292000.0,4126912
219325449,Nashville,,1483643254000.0,36.11,-86.78,Carl Wilson,TN,1483643254000.0,4126912
213753582,Nashville,,1474919269000.0,36.06,-86.96,Carlos Alvarez,TN,1477329006000.0,4126912
202576840,Nashville,,1459597709000.0,36.17,-86.78,Carol,TN,1459597709000.0,4126912
11656125,Nashville,,1403541447000.0,36.15,-86.86,Carol Buttenham,TN,1486758152000.0,4126912
31779072,Nashville,,1346701050000.0,36.17,-86.79,Carole Starr,TN,1361696340000.0,4126912
3410954,Springfield,Springfield,1455206132000.0,36.52,-86.87,Carrie,TN,1455206132000.0,4126912
198306191,Hartsville,,1453171910000.0,36.39,-86.16,Carrie,TN,1458100121000.0,4126912
4128698,Saint Louis,St Louis,1458182313000.0,38.66,-90.46,Carrie Jeffries,MO,1508279903000.0,4126912
13329688,Nashville,,1498347852000.0,36.17,-86.78,Carrie MacDonald,TN,1498347852000.0,4126912
176110612,Nashville,,1462824925000.0,36.18,-86.81,Carrie Pickering,TN,1486755636000.0,4126912
218207640,Nashville,,1488811571000.0,36.08,-86.72,Carter Brewer,TN,1488811571000.0,4126912
220768796,Nashville,,1485459853000.0,36.17,-86.78,Casey Czerpak,TN,1485539719000.0,4126912
186468120,Oak Grove,,1429743311000.0,36.7,-87.45,Casey Imholt,KY,1429743311000.0,4126912
226345715,Nashville,,1493098617000.0,36.17,-86.78,Cason Grace,TN,1493098617000.0,4126912
158178762,Nashville,,1412647229000.0,36.17,-86.78,Cassandra,TN,1433328606000.0,4126912
9244031,Franklin,Franklin,1437515532000.0,35.93,-86.81,Cassandra,TN,1498942251000.0,4126912
11388939,Nashville,Nashville,1470844189000.0,36.14,-86.74,Cassie Kebler,TN,1471577549000.0,4126912
190628077,Murfreesboro,,1438231809000.0,35.78,-86.33,Cassie McCoy,TN,1438231809000.0,4126912
195393515,Franklin,,1447198945000.0,35.99,-86.9,Catherine B.,TN,1447198945000.0,4126912
61296502,Franklin,,1346929807000.0,35.93,-86.81,Catherine Monceaux,TN,1347532283000.0,4126912
189055442,Franklin,Franklin,1478617670000.0,35.93,-86.81,Cathey Stamps,TN,1478617670000.0,4126912
145524752,Nashville,"Nashville, TN",1432827658000.0,36.22,-86.86,Cathy Jobe,TN,1508219292000.0,4126912
238131828,Nashville,,1507174449000.0,36.08,-86.72,CathyLee,TN,1507174449000.0,4126912
27473372,Franklin,,1480331071000.0,35.97,-86.89,Cecilia,TN,1486636122000.0,4126912
200419938,Mount Juliet,,1456422335000.0,36.22,-86.52,Cerridwen,TN,1456422335000.0,4126912
42473222,Nashville,,1420606756000.0,36.17,-86.78,Chad Andersen,TN,1506640092000.0,4126912
185206552,Brentwood,,1426847137000.0,36.0,-86.79,Chad Harlow,TN,1472855785000.0,4126912
190624112,Nashville,,1438221975000.0,36.11,-86.86,Chad Harris,TN,1438221975000.0,4126912
211989450,Brentwood,,1472598269000.0,36.0,-86.79,Chait An Ya,TN,1472598269000.0,4126912
235762559,Spring Hill,,1504665298000.0,35.76,-86.88,Chandler Gourley,TN,1504665298000.0,4126912
190896444,Antioch,,1480556722000.0,36.04,-86.64,Chandra Holloman,TN,1502288296000.0,4126912
11389777,Franklin,"Reno, NV",1411927819000.0,35.93,-86.81,Chanel Smith,TN,1414775023000.0,4126912
197622356,Nashville,,1451920284000.0,36.13,-86.8,Channing Moreland,TN,1451920284000.0,4126912
8435253,Franklin,Franklin,1463900365000.0,35.93,-86.81,charelle ,TN,1463900365000.0,4126912
5129031,Nashville,Nashville,1418676399000.0,36.11,-86.86,Charles,TN,1477121808000.0,4126912
199398584,Hendersonville,,1455758543000.0,36.32,-86.61,Charles Spradley,TN,1455758543000.0,4126912
68865782,Sparta,,1352311397000.0,35.93,-85.47,Charles Tolbert,TN,1352311397000.0,4126912
116753932,Franklin,Nashville,1395616272000.0,35.92,-86.89,Charlie Kaser,TN,1398804060000.0,4126912
208270091,Nashville,,1467528059000.0,36.08,-86.72,Charray Kennedy,TN,1472318354000.0,4126912
232045614,Murfreesboro,,1500332134000.0,35.87,-86.44,Chase York,TN,1500332134000.0,4126912
186214562,Nashville,Nashville,1429136334000.0,36.1,-86.66,Chelsea (Creative) Burns,TN,1450126636000.0,4126912
141715672,Nashville,,1434300790000.0,36.17,-86.78,Cheryl,TN,1435193732000.0,4126912
233783601,Nashville,,1502420759000.0,36.15,-86.86,Chesser,TN,1502420759000.0,4126912
213143597,Nashville,,1474143822000.0,36.09,-86.82,Chris,TN,1487879229000.0,4126912
182787805,Nashville,,1417477017000.0,36.17,-86.78,Chris,TN,1417477017000.0,4126912
193777510,Nashville,,1501187873000.0,36.16,-86.78,Chris,TN,1508800433000.0,4126912
233498174,Brentwood,,1502116768000.0,36.0,-86.79,Chris Becker,TN,1502116768000.0,4126912
125442542,Nashville,Nashville,1499663083000.0,36.17,-86.78,Chris Bell,TN,1499663083000.0,4126912
215179218,Nashville,,1477069750000.0,36.17,-86.78,Chris Burton,TN,1500243992000.0,4126912
186420249,Nashville,,1429642772000.0,36.09,-86.82,Chris Durham,TN,1468531205000.0,4126912
186379477,Nashville,,1430086922000.0,36.17,-86.78,Chris Greene,TN,1442273800000.0,4126912
149171112,Memphis,Memphis,1429195910000.0,35.22,-89.93,Chris Harkins,TN,1501610042000.0,4126912
129001872,Nashville,Nashville,1506394467000.0,36.16,-86.79,Chris Jordon,TN,1506394467000.0,4126912
127791332,Nashville,,1409072043000.0,36.16,-86.79,Chris Keyes,TN,1409072043000.0,4126912
126938822,Hermitage,,1458613565000.0,36.19,-86.6,Chris L,TN,1467474148000.0,4126912
221786010,Nashville,,1486753145000.0,36.17,-86.78,Chris Moore,TN,1497493991000.0,4126912
186237672,Nashville,,1463528526000.0,36.17,-86.78,Chris O'DeNeal,TN,1463528526000.0,4126912
83203842,Nashville,,1499530167000.0,36.17,-86.78,Chris Raines,TN,1499738072000.0,4126912
210257704,Nashville,,1470164379000.0,36.17,-86.72,Chris Sipe,TN,1470164379000.0,4126912
189308536,Spring Hill,,1435677040000.0,35.76,-86.88,Chris Small,TN,1457377692000.0,4126912
191331106,Hermitage,,1439599663000.0,36.19,-86.6,Chris Watkins,TN,1439599663000.0,4126912
216943926,Huntsville,Nashville,1479564512000.0,34.78,-86.61,Chris Watson,AL,1479564512000.0,4126912
14051018,Pompano Beach,"Lynchburg, VA",1502157067000.0,26.31,-80.19,Chris Wyatt,FL,1502157067000.0,4126912
75647182,Nashville,,1412009375000.0,36.16,-86.78,Chrisanthi,TN,1422466193000.0,4126912
62469112,Madison,,1436000241000.0,36.26,-86.71,Christina,TN,1436000241000.0,4126912
130645752,Antioch,Antioch,1408816777000.0,36.04,-86.64,Christine Tolliverc,TN,1409181124000.0,4126912
230680960,Nashville,,1498677542000.0,36.17,-86.72,Christy Dever,TN,1498677542000.0,4126912
187867760,Christiana,,1432742811000.0,35.71,-86.36,Christy Grubbs,TN,1432742811000.0,4126912
208330517,Nashville,"Clint, Texas",1467608076000.0,36.17,-86.78,Cindy,TN,1501194865000.0,4126912
81299752,Paducah,,1377882922000.0,37.07,-88.62,Cindy Baker,KY,1377882922000.0,4126912
185186278,Smyrna,,1426179503000.0,35.97,-86.51,Cindy Hardman Womack-ramirez,TN,1426179503000.0,4126912
196956943,Brentwood,,1477134213000.0,36.0,-86.79,Cindy Porter,TN,1477319588000.0,4126912
41808432,Nashville,,1498675355000.0,36.17,-86.78,Cindy Rushton,TN,1501987195000.0,4126912
185187612,Smyrna,,1426183289000.0,35.97,-86.51,Cindy Womack-Ramirez,TN,1426183289000.0,4126912
224919839,Brentwood,,1491142809000.0,36.0,-86.79,CJ Six,TN,1491142809000.0,4126912
119792682,Nashville,,1486690587000.0,36.17,-86.78,Clark Buckner,TN,1486738625000.0,4126912
224134553,Murfreesboro,,1490041196000.0,35.85,-86.48,Clay Skipworth,TN,1504650722000.0,4126912
229481937,Nashville,,1497184154000.0,36.17,-86.72,Clint Jones,TN,1497184154000.0,4126912
82849812,Nashville,Nashville,1442213628000.0,36.17,-86.72,Clint Stephen Jones,TN,1448311348000.0,4126912
93594822,Nashville,,1421722225000.0,36.17,-86.78,Clyde Bearss,TN,1504144740000.0,4126912
232584990,Nolensville,,1500998872000.0,35.94,-86.67,Codi-Rick Kyle,TN,1500998872000.0,4126912
233208194,Nashville,,1501779201000.0,36.17,-86.78,Cody Hawkins,TN,1501779201000.0,4126912
26320202,Franklin,,1458600986000.0,35.93,-86.81,Cole Johnson,TN,1458600986000.0,4126912
191528834,Harrisburg,Nashville,1456532095000.0,40.26,-76.88,Colin,PA,1461200670000.0,4126912
236364184,Nashville,,1505274420000.0,36.11,-86.86,Colin Pigott,TN,1505274420000.0,4126912
52062312,Nashville,"Brooklyn, NY",1405461016000.0,36.08,-86.72,Colin Yearwood,TN,1504655842000.0,4126912
205688257,Franklin,,1467079379000.0,35.93,-86.81,Collin Scudder,TN,1486611832000.0,4126912
7754661,Nashville,Nashville,1421898428000.0,36.08,-86.72,"Connie, The ProfitABLE Guide",TN,1440301595000.0,4126912
14948701,Nashville,Nashville,1431623170000.0,36.16,-86.79,Cooper McGoodwin,TN,1431623170000.0,4126912
184572148,Nashville,,1424361234000.0,36.09,-86.82,Corey Gonzalez,TN,1424928075000.0,4126912
202668051,Goodlettsville,,1459702083000.0,36.33,-86.74,Corey Moshier,TN,1459702083000.0,4126912
216215848,Madison,,1480207849000.0,36.26,-86.71,Cory Allen Martin,TN,1480207849000.0,4126912
76557592,Brentwood,"Chicago, IL",1487438724000.0,36.0,-86.79,CORY BEAL SR,TN,1487438724000.0,4126912
219731998,Gallatin,,1484154169000.0,36.39,-86.45,Cory Hall,TN,1484154169000.0,4126912
175939802,Nashville,,1412558267000.0,36.09,-86.82,Cory Moore,TN,1412568975000.0,4126912
184807512,Manchester,,1425075142000.0,35.47,-86.11,Craig Jarrell,TN,1498501086000.0,4126912
233649949,Nashville,,1502284880000.0,36.09,-86.82,CrishenCamel,TN,1502284880000.0,4126912
116248362,La Vergne,"Stockton, CA",1504478961000.0,36.01,-86.57,Crystal Bloom,TN,1504478961000.0,4126912
204473125,Antioch,Antioch,1462299932000.0,36.04,-86.64,Crystal Hobson,TN,1462299932000.0,4126912
85145512,Nashville,,1478386840000.0,36.11,-86.86,crystal m.,TN,1478386840000.0,4126912
188343842,Gallatin,,1433709837000.0,36.39,-86.45,Crystal Robynn Moore,TN,1433709837000.0,4126912
199519697,Antioch,,1455163889000.0,36.04,-86.64,Crystal Staples,TN,1455163889000.0,4126912
210392442,Nashville,,1485182054000.0,36.17,-86.78,Curtis Crawford,TN,1485182054000.0,4126912
12098992,Nashville,Nashville tennesse,1467767036000.0,36.16,-86.79,cynthia johnson,TN,1481167451000.0,4126912
200133673,Mount Juliet,,1456029176000.0,36.21,-86.52,Dakota Irsik,TN,1456029176000.0,4126912
7756353,Nashville,,1454529161000.0,36.13,-86.8,Dale Rogers,TN,1484069098000.0,4126912
37529892,Nashville,,1346703383000.0,36.06,-86.96,Dale Thomas ,TN,1413463096000.0,4126912
198941275,Franklin,,1454990000000.0,35.93,-86.81,Dalton McLeod,TN,1454990000000.0,4126912
185135400,Nashville,,1427200279000.0,36.17,-86.72,Damian Serong ,TN,1429560488000.0,4126912
158336642,Nashville,,1444585328000.0,36.17,-86.78,Dan,TN,1504725676000.0,4126912
202000479,Monterrey,,1478113245000.0,25.67,-100.32,Dan Cordero,,1478113245000.0,4126912
216451511,Nashville,,1478794921000.0,36.11,-86.78,Dan O'Rourke,TN,1478794921000.0,4126912
199981939,Nashville,,1456164445000.0,36.14,-86.74,Dan Ventura,TN,1490196946000.0,4126912
7226979,Murfreesboro,Murfreesboro,1450123829000.0,35.87,-86.34,Dana,TN,1506544675000.0,4126912
212423524,Nashville,,1473193004000.0,36.07,-86.73,Dana Grant,TN,1473193004000.0,4126912
188558316,New York,,1455738253000.0,40.73,-73.99,Dana Walsh,NY,1456448337000.0,4126912
3677393,Madison,Nashville,1457883047000.0,36.26,-86.71,daniel,TN,1508456639000.0,4126912
215067867,Nashville,,1476659433000.0,36.17,-86.78,Daniel Akridge,TN,1476659433000.0,4126912
183125753,Chicago,Chicago,1419577035000.0,41.92,-87.7,Daniel Lawhon,IL,1419577035000.0,4126912
187271983,Franklin,"Franklin, TN",1431523426000.0,35.99,-86.9,Daniel Payne,TN,1483929429000.0,4126912
215107648,Nashville,,1476719681000.0,36.09,-86.82,Daniel Stroud,TN,1491088081000.0,4126912
139124672,Brentwood,,1457799129000.0,36.0,-86.79,Danielle Gillian,TN,1457799129000.0,4126912
185314082,Nashville,"Nashville, TN",1464033826000.0,36.17,-86.78,Danielle Hollis,TN,1464033826000.0,4126912
173136742,Brentwood,,1441318328000.0,36.0,-86.79,Danielle Zopf,TN,1496680285000.0,4126912
223354802,Nashville,,1488943152000.0,36.09,-86.82,Danita Browne,TN,1504638003000.0,4126912
40404142,Nashville,,1423949920000.0,36.15,-86.86,darlene,TN,1423949920000.0,4126912
199842432,Franklin,,1504692325000.0,35.99,-86.9,Darlene Mary Rosselli,TN,1506591920000.0,4126912
196661034,Nashville,,1449693790000.0,36.17,-86.72,Dartisha Walden,TN,1449693790000.0,4126912
391708,Nashville,Nashville,1449870137000.0,36.09,-86.82,Dave,TN,1449870137000.0,4126912
4319828,Franklin,"Philadelphia, PA",1418273356000.0,35.93,-86.81,Dave Daniels,TN,1498865941000.0,4126912
3636290,Nashville,Toronto,1459714368000.0,36.16,-86.79,Dave Delaney,TN,1459714368000.0,4126912
7534345,Nashville,"Louisville, KY",1476558990000.0,36.06,-86.96,Dave Harned,TN,1490801552000.0,4126912
196796351,Nashville,,1449986312000.0,36.06,-86.96,Dave Jaworski,TN,1449986312000.0,4126912
155359232,Franklin,,1415668583000.0,35.93,-86.81,Dave Thoma,TN,1415668583000.0,4126912
189918301,Brentwood,,1441715009000.0,36.0,-86.79,David,TN,1505130720000.0,4126912
209338328,Franklin,,1468931325000.0,35.92,-86.89,David Allen,TN,1489007009000.0,4126912
236596849,Franklin,,1505499207000.0,35.92,-86.89,david allen,TN,1505499207000.0,4126912
191776415,Nashville,,1466719174000.0,36.17,-86.79,David Andrew Johnson,TN,1508347712000.0,4126912
185559410,Nashville,Nashville,1427323829000.0,36.14,-86.74,David Carney,TN,1427323829000.0,4126912
86942882,Nashville,,1386429645000.0,36.17,-86.78,David Gardner,TN,1387636322000.0,4126912
191319483,Brentwood,,1480621269000.0,36.0,-86.79,David Goldberg,TN,1498409661000.0,4126912
166884982,Nashville,,1468927713000.0,36.14,-86.74,David Head,TN,1468927713000.0,4126912
193419056,Nashville,,1483961174000.0,36.08,-86.72,David Henry,TN,1483961174000.0,4126912
184130984,Nashville,,1422974557000.0,36.09,-86.82,David Henry,TN,1489741262000.0,4126912
185689933,Nashville,,1428605381000.0,36.15,-86.78,David Hollerith,TN,1433257375000.0,4126912
191321920,Brentwood,,1439583848000.0,36.0,-86.79,David Oswaks,TN,1439583848000.0,4126912
188900860,Franklin,"Nashville, TN",1434833167000.0,35.93,-86.81,David Potter,TN,1434833167000.0,4126912
134073882,Nashville,,1418532490000.0,36.17,-86.78,David Prochaska,TN,1486507481000.0,4126912
220174036,Gallatin,Gallatin,1484708098000.0,36.39,-86.45,David River,TN,1490028276000.0,4126912
144256692,Nashville,,1476412495000.0,36.15,-86.86,David VanWie,TN,1496412517000.0,4126912
89861182,Nashville,,1463854265000.0,36.11,-86.86,David Woolbright,TN,1466101039000.0,4126912
183748811,Los Angeles,Nashville,1421767124000.0,34.07,-118.35,David Zadick,CA,1421956049000.0,4126912
189605618,Nashville,Atlanta,1436289284000.0,36.21,-86.72,Davis D,TN,1436289284000.0,4126912
36377742,Lebanon,lebanon,1478166136000.0,36.21,-86.31,Dawn-Elise Snipes,TN,1478166136000.0,4126912
189733717,Nashville,,1471247023000.0,36.17,-86.78,Dawson Darnell,TN,1471247023000.0,4126912
158848622,Nashville,,1498445880000.0,36.11,-86.78,Daynise,TN,1498445880000.0,4126912
191898305,Primm Springs,,1440696488000.0,35.84,-87.24,Deb Bennett,TN,1504638290000.0,4126912
158390032,Temecula,Temecula,1414356850000.0,33.51,-117.0,Debbie,CA,1423389883000.0,4126912
63169492,Nashville,,1423659450000.0,36.17,-86.72,Debbie Hill,TN,1499361271000.0,4126912
232089387,Nashville,,1500389855000.0,36.06,-86.96,Debbie Posselt,TN,1500389855000.0,4126912
186595566,Nashville,,1430031641000.0,36.09,-86.82,Debora Carroll,TN,1430031641000.0,4126912
189787534,Trezevant,,1436650349000.0,36.03,-88.6,Debora Sampson,TN,1436650349000.0,4126912
11303118,Nashville,Nashville,1340468192000.0,36.17,-86.72,Deborah Bishop ,TN,1461958060000.0,4126912
12437829,Nashville,"Atlanta, GA",1359132407000.0,36.08,-86.72,Deborah Wilbrink,TN,1504271855000.0,4126912
174993022,Hendersonville,,1508477163000.0,36.32,-86.61,Debra,TN,1508477163000.0,4126912
179364462,Antioch,,1456021641000.0,36.17,-86.88,Debra Barfield,TN,1499545327000.0,4126912
199105883,Nashville,,1454522229000.0,36.17,-86.72,Debra Dimmitt Pepper,TN,1454522229000.0,4126912
187991432,Hermitage,,1432998892000.0,36.19,-86.6,Debra Henderson,TN,1432998892000.0,4126912
127168452,Nashville,,1445591125000.0,36.22,-86.77,Dee,TN,1485645973000.0,4126912
232813802,Antioch,,1501280552000.0,36.04,-86.64,Deezy,TN,1501280552000.0,4126912
196606751,Clarksville,,1449594279000.0,36.53,-87.35,Deion Mendez,TN,1449594279000.0,4126912
102916732,Nashville,Denver,1437712650000.0,36.17,-86.78,DeJarvis Floyd,TN,1443099716000.0,4126912
12479892,Nashville,,1426678842000.0,36.13,-86.8,Deke Smith,TN,1426678842000.0,4126912
78135032,Nashville,,1474421171000.0,36.17,-86.78,Denise,TN,1474421171000.0,4126912
16136521,Antioch,,1453431273000.0,36.04,-86.64,denise,TN,1499300155000.0,4126912
51741882,Nashville,,1409019938000.0,36.21,-86.72,Denise Miller,TN,1459689282000.0,4126912
190930530,Nashville,,1438809652000.0,36.11,-86.78,Denise Roxen,TN,1438809652000.0,4126912
192510472,Brentwood,,1441850764000.0,36.0,-86.79,Denise Siegel,TN,1441850764000.0,4126912
198718480,La Vergne,,1453918019000.0,36.01,-86.57,Denisha Vazquez,TN,1453918019000.0,4126912
210614410,Hendersonville,,1479430499000.0,36.32,-86.61,Dennis McGhee,TN,1480108993000.0,4126912
237004861,Nashville,,1505918334000.0,36.09,-86.82,Dennis Winn,TN,1505918334000.0,4126912
234926787,Brentwood,,1503746466000.0,36.0,-86.79,Deontae Henderson,TN,1503746466000.0,4126912
3733985,Nashville,Nashville,1395964509000.0,36.06,-86.96,Derek Q. Sanders,TN,1495202448000.0,4126912
144390132,Nashville,,1398821338000.0,36.09,-86.82,Derek Wolfford,TN,1405965789000.0,4126912
197575094,Nashville,,1451836747000.0,36.14,-86.74,Derrick Boswell,TN,1453769290000.0,4126912
197975873,Nashville,,1452557812000.0,36.18,-86.81,Derrick Strode,TN,1452557812000.0,4126912
11993883,Nashville,,1407336234000.0,36.16,-86.79,Desmona Allison,TN,1407336234000.0,4126912
214465025,Hermitage,,1475770245000.0,36.19,-86.6,Devron T Davis,TN,1476391973000.0,4126912
30802182,Nashville,,1477012711000.0,36.08,-86.72,Dez Stephens,TN,1480981606000.0,4126912
205303517,Nashville,,1463451498000.0,36.09,-86.82,Dian R Bridges,TN,1463451498000.0,4126912
10525304,Hannoversch Münden,Cali- Colombia,1395257292000.0,51.42,9.68,Diana G,,1414535755000.0,4126912
233818339,Nashville,,1502467788000.0,36.14,-86.74,Diana Sumpter,TN,1502467788000.0,4126912
183296794,Antioch,,1450146303000.0,36.04,-86.64,Diane,TN,1451630512000.0,4126912
31322162,Nashville,,1418658662000.0,36.17,-86.78,Dick Pepper,TN,1501608253000.0,4126912
132830502,Nashville,,1396032801000.0,36.14,-86.74,Didi Biesman,TN,1498750354000.0,4126912
129447572,Kingston Springs,,1487593139000.0,36.09,-87.12,Didi Sparks,TN,1508214048000.0,4126912
184970530,Franklin,,1477153741000.0,35.92,-86.88,Diego G Bodart,TN,1480914412000.0,4126912
227992888,Murfreesboro,,1495331325000.0,35.78,-86.33,Dimitriy Petrov,TN,1506636124000.0,4126912
183811463,Antioch,"Nashville, TN",1435077057000.0,36.04,-86.64,Dionne Harris,TN,1487444170000.0,4126912
198566750,Nashville,,1453660915000.0,36.08,-86.72,Dominique DeeDee Scappucci-Robin,TN,1453660915000.0,4126912
188348741,Fayetteville,,1438050584000.0,35.18,-86.57,Don,TN,1500982583000.0,4126912
187452270,Brentwood,,1431973100000.0,36.0,-86.79,Dorie Cofer,TN,1442629913000.0,4126912
77263282,Clarksville,"Pioneer, LA",1395763529000.0,36.53,-87.35,Dorothy Sparrow-Stuart,TN,1461420295000.0,4126912
216959689,Augusta,,1479586471000.0,33.47,-82.06,dotun fakile,GA,1479586471000.0,4126912
222153711,Nashville,,1487265147000.0,36.18,-86.74,Doug Altenbern,TN,1498780086000.0,4126912
13649745,Nashville,Nashville,1449148256000.0,36.1,-86.66,Doug Deneve,TN,1502795910000.0,4126912
10189008,Franklin,Franklin,1401675833000.0,35.93,-86.81,Doug Gray,TN,1440694531000.0,4126912
199674622,Nolensville,,1455399101000.0,35.94,-86.67,Doug LaMey,TN,1455579885000.0,4126912
182359282,Nashville,,1498027878000.0,36.17,-86.72,Doug Trasher,TN,1498027878000.0,4126912
184729055,Nashville,,1446587463000.0,36.17,-86.78,Doug V,TN,1460662063000.0,4126912
184031807,Nashville,,1422647569000.0,36.09,-86.82,Dr. Apelu Poe,TN,1424833542000.0,4126912
34064612,Nashville,,1487792022000.0,36.08,-86.72,Dr. Brent Davis,TN,1487792022000.0,4126912
135042632,Spring Hill,Spring Hill,1472683206000.0,35.76,-86.88,Dr. Fumi Hancock,TN,1493105369000.0,4126912
190123759,Nashville,,1443073814000.0,36.18,-86.81,Dr. Gerald Onuoha MD,TN,1443073814000.0,4126912
188465755,Carrollton,,1434074785000.0,33.58,-85.09,Dr. Randel,GA,1434074785000.0,4126912
232718134,Nashville,,1501167657000.0,36.17,-86.78,Drew Peterson,TN,1501167657000.0,4126912
206523256,Antioch,,1465174171000.0,36.17,-86.88,duane johnson,TN,1468702286000.0,4126912
194195000,Thompsons Station,,1445012153000.0,35.8,-86.9,Dustin Jenkins,TN,1445012153000.0,4126912
53772752,Hendersonville,,1483407997000.0,36.32,-86.61,Dustin Salomon,TN,1483407997000.0,4126912
183811100,Nashville,,1421966712000.0,36.15,-86.78,DuWayne Sterling,TN,1437723004000.0,4126912
186152154,Nashville,Nashville,1428978765000.0,36.06,-86.96,Dwayne C Bass,TN,1428978765000.0,4126912
222965106,Nashville,,1488396768000.0,36.16,-86.79,Dylan Snowden,TN,1490304393000.0,4126912
31232812,Nashville,,1367114511000.0,36.17,-86.78,e buntin,TN,1374247995000.0,4126912
198763296,Nashville,,1454599746000.0,36.17,-86.78,Earice Roberts,TN,1454599746000.0,4126912
237134582,Nashville,,1507216519000.0,36.08,-86.72,Easy Anderson,TN,1507216519000.0,4126912
11227663,Clarksville,,1350699974000.0,36.49,-87.23,Ed Jolin,TN,1508455870000.0,4126912
94641432,Nashville,,1436937172000.0,36.17,-86.78,Eddie,TN,1436937172000.0,4126912
191358441,Franklin,,1447120523000.0,35.92,-86.89,Eddie Irvin,TN,1453860485000.0,4126912
194101037,Nashville,"Nashville,TN",1444837441000.0,36.11,-86.78,Eddie Winkenhofer,TN,1445311571000.0,4126912
72768702,Nashville,,1463858589000.0,36.17,-86.78,Edward J. Zinkiewicz,TN,1501250073000.0,4126912
87429252,Nashville,Nashville,1450866268000.0,36.18,-86.74,Eileen Santangelo,TN,1455089608000.0,4126912
78275302,Nashville,,1404265716000.0,36.11,-86.86,Elaine Allen,TN,1501108332000.0,4126912
211244106,Nashville,,1471564543000.0,36.17,-86.78,Elder Howard C. Young III,TN,1471564543000.0,4126912
7133630,Nashville,Poland ,1429970638000.0,36.15,-86.86,Elizabeth Gregal,TN,1487794684000.0,4126912
220368241,Fort Lauderdale,,1500493760000.0,26.09,-80.24,Elizabeth W,FL,1500493760000.0,4126912
217962677,Nashville,,1487561204000.0,36.15,-86.86,Elle,TN,1487777973000.0,4126912
7242438,Nashville,,1420460031000.0,36.16,-86.79,Ellen W,TN,1501757737000.0,4126912
236505264,Brentwood,,1505410106000.0,36.0,-86.79,Emerson,TN,1506723085000.0,4126912
178935232,Nashville,,1423598134000.0,36.08,-86.72,Emily Capo,TN,1490298017000.0,4126912
189955341,Clarksville,,1436974330000.0,36.56,-87.41,Emma Gibbs,TN,1436974330000.0,4126912
188481272,Antioch,,1433976096000.0,36.04,-86.64,Enzo Enias Jonga,TN,1433976096000.0,4126912
199084409,Nashville,,1458761342000.0,36.11,-86.86,Eric B,TN,1458761342000.0,4126912
195630319,Mount Juliet,,1447650742000.0,36.22,-86.52,Eric Ellmo,TN,1447650742000.0,4126912
232266489,La Vergne,,1500597748000.0,36.01,-86.57,Eric Jackson,TN,1500597748000.0,4126912
191811150,Nashville,,1485469362000.0,36.22,-86.86,Eric McAnally,TN,1485469362000.0,4126912
97153282,Nashville,,1440453874000.0,36.16,-86.66,Eric Nordhoff,TN,1440453874000.0,4126912
156873382,Nashville,Nashville,1422299072000.0,36.17,-86.79,Eric Rambow,TN,1464366198000.0,4126912
202723967,Atlanta,,1460270861000.0,33.79,-84.39,Eric Stephan,GA,1460270861000.0,4126912
198828801,Nashville,,1454094159000.0,36.08,-86.72,Eric Wells,TN,1454094159000.0,4126912
100513112,Nashville,,1497422438000.0,36.17,-86.78,Erica Johnson,TN,1504742619000.0,4126912
183322617,Murfreesboro,"Nashville, TN",1420420640000.0,35.78,-86.33,Erica Johnson,TN,1433608123000.0,4126912
199507852,Nashville,,1455148228000.0,36.08,-86.72,Erika HersheyKisses Johnson,TN,1463781107000.0,4126912
9383155,Nashville,,1453694518000.0,36.16,-86.79,Erin Pauling,TN,1498778124000.0,4126912
221625355,Nashville,,1486532128000.0,36.17,-86.72,Eva Smith,TN,1486532128000.0,4126912
226451660,Gallatin,,1493235201000.0,36.39,-86.45,Evan Grabenstein,TN,1493235201000.0,4126912
211777421,Nashville,,1487732328000.0,36.17,-86.72,Evan Ludin,TN,1495321379000.0,4126912
204661619,Franklin,,1462566758000.0,35.93,-86.81,Farrukh Khalikov,TN,1462566758000.0,4126912
213428593,Cleveland,,1507602357000.0,41.44,-81.66,Fathom Fultz,OH,1507602357000.0,4126912
12793410,Mount Juliet,,1499778499000.0,36.22,-86.52,Felicia ,TN,1507898939000.0,4126912
76207662,Franklin,,1358180411000.0,35.93,-86.81,Felicia Demos,TN,1413461816000.0,4126912
194955358,Smyrna,,1446476609000.0,35.97,-86.51,Felicia Dortch,TN,1448052809000.0,4126912
190974344,Nashville,,1438896869000.0,36.08,-86.72,Fernando Avalos,TN,1494860223000.0,4126912
219235312,Austin,,1501607715000.0,35.0,-91.97,Finlay Power,AR,1501607715000.0,4126912
118863742,Nashville,,1454844993000.0,36.17,-86.78,Firoj,TN,1454844993000.0,4126912
198586815,Nashville,,1453693657000.0,36.17,-86.78,Fletcher Pickering,TN,1453693657000.0,4126912
188701104,Brentwood,Brentwood,1434425191000.0,36.0,-86.79,Forrest Edwards,TN,1434603697000.0,4126912
185244720,Nashville,,1426513141000.0,36.08,-86.72,Forrest White,TN,1481213744000.0,4126912
132719282,Nashville,,1395158453000.0,36.13,-86.8,Frances Woodall,TN,1445553056000.0,4126912
104171062,Nashville,,1403576644000.0,36.11,-86.86,Francisco,TN,1408408427000.0,4126912
199916410,Vanleer,Vanleer,1493230254000.0,36.22,-87.46,Fred Acker,TN,1493230254000.0,4126912
230995450,Nashville,,1499077426000.0,36.17,-86.78,Fred Williams,TN,1499077426000.0,4126912
207165574,Tullahoma,,1466001654000.0,35.37,-86.21,Freddie Chambers,TN,1466001654000.0,4126912
215478767,Nashville,,1477326484000.0,36.09,-86.82,g christiansen esteves,TN,1501109044000.0,4126912
238667312,Nashville,,1507747992000.0,36.09,-86.82,Gabby Maldonado,TN,1507747992000.0,4126912
192443290,Nashville,,1441733544000.0,36.13,-86.8,Gabe Lamberth,TN,1441733544000.0,4126912
219797651,Nashville,,1484238427000.0,36.17,-86.78,Gabe Wateski,TN,1484238427000.0,4126912
229181867,Murfreesboro,,1496797707000.0,35.78,-86.33,Gabrielle ,TN,1502313702000.0,4126912
183299624,Nashville,,1420348351000.0,36.17,-86.78,Gabrielle Garner,TN,1420348351000.0,4126912
213267773,Franklin,,1474303112000.0,35.92,-86.89,Gabrielle Williams,TN,1474303112000.0,4126912
4169858,Nashville,Nashville,1437090611000.0,36.17,-86.72,Gaines Kergosien,TN,1468384825000.0,4126912
41505052,Farmington,Las Vegas,1409719305000.0,42.51,-83.41,Ganapathy,MI,1409719305000.0,4126912
14025311,Brentwood,,1355535734000.0,36.0,-86.79,Garrett Pate,TN,1397568038000.0,4126912
117599352,Nashville,,1394238516000.0,36.17,-86.79,Gary Aydelott,TN,1483941468000.0,4126912
185227421,Antioch,,1484632825000.0,36.04,-86.64,Gary Duncan,TN,1501121769000.0,4126912
85355912,Nashville,,1394575286000.0,36.13,-86.8,Gary Meisner,TN,1485548603000.0,4126912
137425392,Franklin,,1487895834000.0,35.92,-86.89,Gaurav,TN,1498841066000.0,4126912
83036002,Nashville,nashville,1485020239000.0,36.17,-86.78,gechi,TN,1485020239000.0,4126912
220422771,Nashville,,1485153889000.0,36.17,-86.78,Gem Davis,TN,1485153889000.0,4126912
130734172,Goodlettsville,,1449091921000.0,36.33,-86.74,Gibbscars Gibbscars,TN,1449091921000.0,4126912
132657812,Wartrace,,1445877931000.0,35.5,-86.34,Gina Witten,TN,1470018103000.0,4126912
155383302,Nashville,,1411054399000.0,36.17,-86.78,GIRIJA SAHU,TN,1430625408000.0,4126912
235133688,La Vergne,,1503984531000.0,36.0,-86.57,Giulianna McKenney,TN,1503984531000.0,4126912
203245339,Antioch,,1466452426000.0,36.04,-86.64,Glenn Dixon,TN,1466452426000.0,4126912
230591585,Nashville,,1498574287000.0,36.17,-86.72,Glynne Blackwell,TN,1504650870000.0,4126912
184414122,Nashville,,1423969738000.0,36.13,-86.8,Grace McCaw,TN,1442331756000.0,4126912
188816707,Nashville,,1467040515000.0,36.11,-86.78,Grant Blevins,TN,1467811051000.0,4126912
197722106,Brentwood,,1452103135000.0,36.0,-86.79,Grant Ellis,TN,1452103135000.0,4126912
10813219,Nashville,nashville,1495371436000.0,36.17,-86.72,Grass fed girl,TN,1495457873000.0,4126912
31072572,Nashville,"Wilmington, NC",1406042292000.0,36.11,-86.86,Greg,TN,1406213944000.0,4126912
185101115,Saint Simons Island,,1427826449000.0,31.17,-81.38,Greg,GA,1427857244000.0,4126912
223686613,Ardmore,,1489514673000.0,35.08,-86.89,Greg,TN,1508772887000.0,4126912
212283585,Nashville,,1473013698000.0,36.17,-86.79,Greg Crocker,TN,1473013698000.0,4126912
190931691,Nashville,,1438811529000.0,36.11,-86.86,Greg Selby,TN,1438811529000.0,4126912
194337430,Smyrna,,1445281884000.0,35.97,-86.51,Greg Vogel,TN,1487796611000.0,4126912
206224106,Murfreesboro,,1464732062000.0,35.87,-86.44,Greg Young,TN,1464732062000.0,4126912
215712716,Nashville,,1477616673000.0,36.14,-86.8,Gregory Shawley,TN,1477656726000.0,4126912
173042152,Los Angeles,,1456108651000.0,34.06,-118.24,H Page Howe,CA,1506132773000.0,4126912
212158485,Nashville,,1486679409000.0,36.17,-86.79,Hai Anh Dinh,TN,1487607207000.0,4126912
206055058,Murfreesboro,,1468571147000.0,35.87,-86.34,Hani,TN,1468571147000.0,4126912
215913163,Nashville,,1477941470000.0,36.09,-86.82,Harrison Connally,TN,1478293133000.0,4126912
55782622,Nashville,,1356541588000.0,36.17,-86.79,Harry,TN,1356541588000.0,4126912
194216174,Clarksville,,1445148537000.0,36.53,-87.35,Heather,TN,1455607159000.0,4126912
198566227,Nashville,,1453675823000.0,36.17,-86.78,Heather Alannah,TN,1454027649000.0,4126912
203452801,Antioch,"Clinton, MS",1460819726000.0,36.04,-86.64,Heather S,TN,1460819726000.0,4126912
12584282,Nashville,Nashville,1436304270000.0,36.22,-86.77,heather young,TN,1437405231000.0,4126912
2277919,Nashville,,1489166706000.0,36.13,-86.8,hello2farewell,TN,1501216974000.0,4126912
11629387,Nashville,,1455829963000.0,36.16,-86.79,Holly Myers,TN,1455829963000.0,4126912
190551228,Nashville,,1448434134000.0,36.18,-86.74,Holly Stewart,TN,1459228754000.0,4126912
209493810,Nashville,,1469132678000.0,36.17,-86.78,Holly Wright,TN,1472653850000.0,4126912
235088735,Nashville,Y.S.,1508654439000.0,36.16,-86.78,hopesdreams,TN,1508785727000.0,4126912
205274144,Nashville,Nashville,1463419762000.0,36.06,-86.96,Houston Hickey,TN,1498377302000.0,4126912
237466286,Columbia,,1506435385000.0,35.61,-87.05,Hunter Hodges,TN,1506435385000.0,4126912
135422042,Nashville,,1393691363000.0,36.08,-86.72,International Office Products,TN,1394675416000.0,4126912
236343325,Nashville,,1505254751000.0,36.17,-86.78,Isabel Barnett,TN,1506601189000.0,4126912
198777590,Nolensville,,1454011374000.0,35.94,-86.67,Isam Aziz,TN,1454011374000.0,4126912
185387490,Silver Spring,Silver Spring,1426797503000.0,39.0,-77.04,Isha,MD,1454190737000.0,4126912
183341008,Franklin,,1443629052000.0,35.93,-86.87,J Todd Henry,TN,1476626620000.0,4126912
132260792,Franklin,,1449562708000.0,35.99,-86.9,Jack,TN,1450398133000.0,4126912
208990193,Gallatin,,1468470427000.0,36.39,-86.45,Jack,TN,1468470427000.0,4126912
234338863,Nashville,,1503079472000.0,36.16,-86.79,Jack Rogers,TN,1504649948000.0,4126912
208367877,Nashville,,1467660729000.0,36.09,-86.82,Jack Williams,TN,1468509043000.0,4126912
189208706,Nashville,,1451883130000.0,36.1,-86.66,Jacki G,TN,1506825829000.0,4126912
184419100,Lebanon,,1462308139000.0,36.21,-86.31,Jacob Lovell,TN,1468516627000.0,4126912
234736101,Nashville,,1503517508000.0,36.17,-86.78,Jacob Wimsatt,TN,1503517508000.0,4126912
7915902,Nashville,Nashville,1425790230000.0,36.22,-86.77,Jacque Lewis,TN,1425790230000.0,4126912
13912713,Nashville,Nashville,1456856736000.0,36.17,-86.78,Jacqueline Scully,TN,1456856736000.0,4126912
184187036,Nashville,Nashville,1433545797000.0,36.14,-86.74,Jake Hare,TN,1440597475000.0,4126912
5861048,Murfreesboro,,1340515867000.0,35.87,-86.44,Jake Robinson,TN,1506574173000.0,4126912
193205082,Fayetteville,,1443149020000.0,36.05,-94.14,James David Thomason,AR,1443149020000.0,4126912
231316095,Murfreesboro,,1499462266000.0,35.82,-86.45,James Duncan,TN,1499462266000.0,4126912
188800287,Decatur,,1434629547000.0,33.82,-84.28,James Hammond,GA,1434629547000.0,4126912
220257665,Nashville,,1484807077000.0,36.15,-86.8,James Huang,TN,1485067401000.0,4126912
25719992,Murfreesboro,,1454294068000.0,35.87,-86.34,James R. Wirshing,TN,1454294068000.0,4126912
137875882,Nashville,,1486759105000.0,36.14,-86.74,James Webb,TN,1486759105000.0,4126912
232883053,Nashville,,1501370114000.0,36.09,-86.82,James Williams,TN,1501370114000.0,4126912
183937030,Nashville,,1436011133000.0,36.17,-86.78,Jamie Bedgood,TN,1464580419000.0,4126912
130952122,Nashville,,1456221849000.0,36.16,-86.79,Jamie Winn Harris,TN,1499303483000.0,4126912
33549802,Gallatin,,1428366764000.0,36.39,-86.45,Jan,TN,1485102097000.0,4126912
201993703,Nashville,,1458679100000.0,36.17,-86.72,Jana Kennedy,TN,1458679100000.0,4126912
90248682,Clarksville,"Nashville, TN",1443145698000.0,36.53,-87.35,Janay,TN,1443145698000.0,4126912
184408084,Nashville,,1427743483000.0,36.17,-86.72,Jane Lee,TN,1499303200000.0,4126912
223707821,Nashville,,1489444595000.0,36.17,-86.72,Jane Y,TN,1489444595000.0,4126912
66358532,Nashville,,1442151280000.0,36.08,-86.72,Janell Webb,TN,1452720721000.0,4126912
205681232,Nashville,,1463967084000.0,36.08,-86.72,Janelle Avery,TN,1463967084000.0,4126912
13780685,Nashville,,1351060685000.0,36.13,-86.8,Janice Lawrence,TN,1398912542000.0,4126912
222899804,Nashville,,1488303020000.0,36.17,-86.78,Jaquelin,TN,1488303020000.0,4126912
207435344,Shelbyville,,1466380827000.0,35.48,-86.47,JaQuetta Davis,TN,1466380827000.0,4126912
206300712,Nashville,,1464837847000.0,36.08,-86.72,Jared DeLong,TN,1464837847000.0,4126912
208631635,Nashville,Nashville,1468012245000.0,36.17,-86.78,Jared Romano,TN,1468012245000.0,4126912
123245352,Nashville,,1416590878000.0,36.15,-86.86,Jared Usrey,TN,1439899159000.0,4126912
195172185,Nashville,,1463099154000.0,36.17,-86.72,Jarvis Sheffield,TN,1463099154000.0,4126912
92755402,Nashville,"Memphis, TN",1476062842000.0,36.17,-86.72,Jasmine Garner,TN,1477353064000.0,4126912
197087035,Nashville,,1453953639000.0,36.17,-86.78,Jasmine W,TN,1455806017000.0,4126912
28958342,Nashville,,1422918866000.0,36.11,-86.86,Jason,TN,1422918866000.0,4126912
226406820,Nashville,,1493172748000.0,36.17,-86.79,Jason Badger,TN,1493172748000.0,4126912
104927542,Brentwood,,1447426180000.0,36.0,-86.79,Jason Charles,TN,1447426180000.0,4126912
197491039,Mountain View,,1451669631000.0,37.41,-122.08,Jason Christopher,CA,1451669631000.0,4126912
188505486,Hixson,,1434033649000.0,35.16,-85.21,Jason Gilchrist,TN,1434033649000.0,4126912
114078252,Nashville,Nashville,1427284977000.0,36.14,-86.74,Jason Loyet,TN,1427284977000.0,4126912
197013336,Mc Kenzie,,1450492073000.0,36.13,-88.52,Jason Martin,TN,1467571219000.0,4126912
9698215,Murfreesboro,"Murfreesboro, TN",1456937414000.0,35.82,-86.45,Jason Stiltner,TN,1456937414000.0,4126912
125613522,Nashville,,1484932604000.0,36.11,-86.78,Jason Westbrooks,TN,1506639731000.0,4126912
214709916,Nashville,,1476134893000.0,36.21,-86.72,Javier Greene,TN,1476134893000.0,4126912
184847395,Nashville,,1430280299000.0,36.18,-86.81,Jayme A. Rosenberger,TN,1430280299000.0,4126912
158791182,Nashville,,1406596636000.0,36.17,-86.79,JC Rucker,TN,1406596636000.0,4126912
193523330,Nashville,,1443750944000.0,36.15,-86.86,Jeanie Snyder,TN,1443750944000.0,4126912
3205027,Nashville,Charlotte,1477283617000.0,36.17,-86.78,Jeff,TN,1477283617000.0,4126912
183823141,Nashville,,1421966721000.0,36.09,-86.82,Jeff Cornwall,TN,1421966721000.0,4126912
210503737,Nashville,,1470513273000.0,36.06,-86.96,Jeff DeGraauw,TN,1471653329000.0,4126912
160566722,Nashville,Nashville Tn.,1508595840000.0,36.15,-86.86,Jeff Fasano,TN,1508595840000.0,4126912
60966482,Pegram,,1427352069000.0,36.12,-87.03,Jeff Huffman,TN,1433270067000.0,4126912
42021602,Nashville,,1398880953000.0,36.13,-86.8,Jeff Livak,TN,1422301527000.0,4126912
222960010,Nashville,,1501033962000.0,36.15,-86.86,Jeff Lockwood,TN,1501033962000.0,4126912
188085355,Nashville,,1433180588000.0,36.13,-86.8,Jeff Siebach,TN,1437403298000.0,4126912
118091382,Indianapolis,"Detroit, MI",1419390750000.0,39.9,-86.23,Jeffrey,IN,1468882408000.0,4126912
12537776,Freeport,Freeport,1429740693000.0,30.46,-86.22,Jen Blumenthal,FL,1508202192000.0,4126912
52646322,Nashville,,1408981529000.0,36.18,-86.81,Jenn,TN,1408981529000.0,4126912
160244692,Franklin,,1407362805000.0,35.92,-86.89,Jenna Margrave Palmer,TN,1410271456000.0,4126912
8273538,Nashville,Nashville,1394219653000.0,36.11,-86.86,Jennifer ,TN,1501100982000.0,4126912
70196362,Gallatin,,1487686972000.0,36.39,-86.45,Jennifer,TN,1494939238000.0,4126912
34833342,Altamonte Springs,"Nashville, TN",1456806693000.0,28.66,-81.37,Jennifer Christian,FL,1466708797000.0,4126912
224194777,Nashville,,1490121786000.0,36.08,-86.72,Jennifer Paige,TN,1492978579000.0,4126912
223394348,Murfreesboro,,1489003120000.0,35.87,-86.44,Jeremy Adams,TN,1489003120000.0,4126912
192841598,Madison,,1442753649000.0,36.26,-86.71,Jeremy Blankenship,TN,1484181402000.0,4126912
220757388,Nashville,,1485447457000.0,36.15,-86.86,jeremy curtis,TN,1485447457000.0,4126912
186798965,Woodbury,,1430481223000.0,35.84,-86.04,Jeremy DeHay,TN,1485148010000.0,4126912
215906368,Old Hickory,,1477932897000.0,36.25,-86.63,Jeremy H,TN,1477932897000.0,4126912
197344428,Nashville,,1451338163000.0,36.1,-86.66,Jeremy Pope,TN,1451338163000.0,4126912
198079256,Murfreesboro,"Huntsville, AL",1452747681000.0,35.87,-86.34,Jeremy R. Wenger,TN,1452747681000.0,4126912
190173493,Nashville,,1437414628000.0,36.13,-86.8,Jeremy Rutherford,TN,1437414628000.0,4126912
3472875,Bon Aqua,,1420994089000.0,35.93,-87.25,jerry,TN,1422898986000.0,4126912
188783211,Nashville,,1436990224000.0,36.17,-86.78,Jesse Van de Veer,TN,1436990224000.0,4126912
13203057,Stamford,Stamford,1427818752000.0,41.05,-73.54,Jessica,CT,1458364521000.0,4126912
59475472,Nashville,,1412004171000.0,36.08,-86.72,Jessica Jernigan,TN,1504656143000.0,4126912
190981303,Nashville,,1438908863000.0,36.13,-86.8,Jessica Klein D'Haese,TN,1501101495000.0,4126912
142557052,Nashville,,1397905713000.0,36.14,-86.74,Jessica Morris,TN,1429806753000.0,4126912
13715764,Nashville,,1452179679000.0,36.17,-86.78,Jessica Richards,TN,1498686329000.0,4126912
49099642,Nashville,Florida,1345767807000.0,36.14,-86.74,Jessie,TN,1348455498000.0,4126912
96894542,Hendersonville,"Tipp City, OH",1408654051000.0,36.32,-86.61,Jill Nesbitt,TN,1495757126000.0,4126912
7553272,Nashville,Nashville,1363722950000.0,36.11,-86.86,Jim,TN,1440630536000.0,4126912
206962040,Brentwood,,1465728990000.0,36.0,-86.79,Jim Bernie,TN,1465728990000.0,4126912
14472883,Nashville,,1464564317000.0,36.17,-86.78,Jim Hitch,TN,1464564317000.0,4126912
217231739,Nashville,,1491239206000.0,36.14,-86.74,Jimmie Baugh,TN,1491239206000.0,4126912
191377006,Franklin,Hometown USA,1439695223000.0,35.92,-86.89,Jimmy Junior,TN,1439850345000.0,4126912
193602980,Nashville,,1443910790000.0,36.11,-86.78,Jin H Shen,TN,1443910790000.0,4126912
198283613,Murfreesboro,,1453139447000.0,35.87,-86.44,Jina Van,TN,1453139447000.0,4126912
219212314,Nashville,,1485215738000.0,36.11,-86.78,Joanie,TN,1485215738000.0,4126912
187334729,Nashville,Nashville,1431648556000.0,36.18,-86.81,JoAnn Washington,TN,1456711583000.0,4126912
15575201,Lebanon,"Staten Island,NY",1346090979000.0,36.21,-86.31,Joanne Eckton,TN,1508683721000.0,4126912
132122522,Franklin,,1491428176000.0,35.92,-86.89,Joanne Kraft,TN,1491428176000.0,4126912
191579175,Brentwood,,1440088535000.0,36.0,-86.79,Joanne L,TN,1440761935000.0,4126912
32809502,Nashville,,1473187620000.0,36.17,-86.78,Jodie,TN,1473187620000.0,4126912
187781527,Franklin,,1432578199000.0,35.99,-86.9,Jodie Spelman,TN,1432578199000.0,4126912
225531247,Franklin,,1492052162000.0,35.92,-86.89,Jody Elston,TN,1498743425000.0,4126912
220540815,Spring Hill,,1485183976000.0,35.76,-86.88,Joe,TN,1501086650000.0,4126912
12663447,Hendersonville,"Hendersonville, TN",1429811658000.0,36.32,-86.61,Joe,TN,1429811658000.0,4126912
238030968,Lewisburg,,1507062517000.0,35.45,-86.8,Joe Fensler,TN,1507062517000.0,4126912
181457472,Nashville,"Erie, PA",1467592913000.0,36.17,-86.78,Joe Mifsud,TN,1467592913000.0,4126912
52370712,Pulaski,,1354439263000.0,35.19,-87.03,Joe Rada,TN,1371415007000.0,4126912
230682473,Nashville,,1498678813000.0,36.08,-86.72,Joel,TN,1498678813000.0,4126912
147442982,Mc Kenzie,,1400548509000.0,36.13,-88.52,Joel T. Washburn,TN,1506345194000.0,4126912
57991062,Nashville,Nashville,1435269519000.0,36.18,-86.74,Joey LeGrand,TN,1464792635000.0,4126912
14308592,Murfreesboro,Murfreesboro,1450616062000.0,35.87,-86.34,Joey McGuire,TN,1450616062000.0,4126912
114279782,Nashville,Doylestown,1463545686000.0,36.16,-86.79,John,TN,1469155571000.0,4126912
187049615,Westpoint,,1431029424000.0,35.15,-87.53,John Adair,TN,1431029424000.0,4126912
106849652,Nashville,,1438068658000.0,36.17,-86.79,John Cantu,TN,1438068658000.0,4126912
134025492,Franklin,,1418276028000.0,35.92,-86.89,John E. Mason,TN,1418276028000.0,4126912
222128033,Nashville,,1487220869000.0,36.17,-86.78,John Gladney,TN,1504042730000.0,4126912
49293072,Nashville,Brentwood TN,1465265768000.0,36.09,-86.82,John Griffin,TN,1468894742000.0,4126912
191483149,Spring Hill,,1439903545000.0,35.76,-86.88,John Hines,TN,1439903545000.0,4126912
125145522,Nashville,Nashville,1400597159000.0,36.06,-86.96,John MaGuirk,TN,1472399250000.0,4126912
215402116,Columbia,,1486691204000.0,35.61,-87.05,John Meese,TN,1488475153000.0,4126912
196079571,Nashville,,1452182704000.0,36.17,-86.78,John Poteat,TN,1452182704000.0,4126912
221375820,Murfreesboro,,1486221392000.0,35.78,-86.33,John Vanderbur,TN,1486221392000.0,4126912
224842788,Nashville,,1491023720000.0,36.07,-86.78,John Whittaker,TN,1491023720000.0,4126912
190972274,Smyrna,,1438892903000.0,35.97,-86.51,John Wiser,TN,1438958249000.0,4126912
186018696,Murfreesboro,,1428635946000.0,35.87,-86.44,Johnathan B. Smith,TN,1428635946000.0,4126912
131645732,Hermitage,Nashville,1439678950000.0,36.19,-86.6,Jon Morrell,TN,1501618779000.0,4126912
195067107,Lebanon,,1446594685000.0,36.21,-86.31,Jon Rollin,TN,1446594685000.0,4126912
32900532,Franklin,,1399326355000.0,35.92,-86.89,Jon Sterns,TN,1399326355000.0,4126912
219698471,Nashville,,1484105057000.0,36.18,-86.81,Jon-luke Donnangelo,TN,1485122380000.0,4126912
190886838,Hendersonville,,1438724694000.0,36.32,-86.61,Jonathan Blayney,TN,1508117912000.0,4126912
26657712,Franklin,Franklin,1426421282000.0,35.93,-86.81,Jonathan Field,TN,1426421282000.0,4126912
186579655,Elkton,Elkton,1456119313000.0,36.87,-87.18,Jonathan Foster,KY,1458904470000.0,4126912
211874270,Nashville,,1472446755000.0,36.08,-86.72,Jonathan Luther Fuqua,TN,1472446755000.0,4126912
97740472,Nashville,,1439074507000.0,36.17,-86.78,Jordan Blumhardt,TN,1439074507000.0,4126912
215148163,La Vergne,,1476770619000.0,36.01,-86.57,Jordan C.,TN,1501260412000.0,4126912
231339783,Nashville,,1499489867000.0,36.07,-86.73,Jordon Washington,TN,1499489867000.0,4126912
142188372,Clarksville,"San Jose, CR",1399565536000.0,36.53,-87.35,Jorge Reyes,TN,1399565536000.0,4126912
217660132,Brentwood,,1491233931000.0,36.0,-86.79,Jose Arocho,TN,1498321211000.0,4126912
204327287,Franklin,,1462079832000.0,35.92,-86.89,Joseph Bastien,TN,1462079832000.0,4126912
9090284,Nashville,Red Bluff,1466390857000.0,36.22,-86.77,Joseph Graves,TN,1508763142000.0,4126912
189718080,Murfreesboro,,1436504583000.0,35.78,-86.33,Joseph Kathmann,TN,1436504583000.0,4126912
11244289,Nashville,Charlotte,1451505285000.0,36.17,-86.78,Josh,TN,1451505285000.0,4126912
209380006,Murfreesboro,,1481073025000.0,35.78,-86.33,Josh Griffin,TN,1485230727000.0,4126912
58635852,Franklin,,1345066021000.0,35.93,-86.81,Josh Michael,TN,1357318587000.0,4126912
18345641,Nashville,Nashville,1430747284000.0,36.15,-86.86,Josh Palmer,TN,1430747284000.0,4126912
78490972,Nashville,Nashville,1476761425000.0,36.13,-86.8,Josh stimpson,TN,1476761425000.0,4126912
183189122,Nashville,Atlanta,1493898802000.0,36.17,-86.78,Joshjuan,TN,1493898802000.0,4126912
8736052,Brentwood,"Nashville, TN",1432081905000.0,36.0,-86.79,Joshua,TN,1498835883000.0,4126912
188508736,Nashville,,1434040740000.0,36.14,-86.74,Joshua Brooks,TN,1436147815000.0,4126912
5351550,Nashville,,1486486782000.0,36.17,-86.79,Joshua Pruitt,TN,1486486782000.0,4126912
230423216,Nashville,,1498363916000.0,36.17,-86.78,Joshua Puckett,TN,1498363916000.0,4126912
106789012,Franklin,,1393962476000.0,35.92,-86.89,Joshua Stalets,TN,1441809769000.0,4126912
222747802,Clarksville,,1488087569000.0,36.53,-87.35,Josiah Caspersen,TN,1488087569000.0,4126912
231750492,Antioch,,1499965283000.0,36.04,-86.64,Jovan Koolj McLean,TN,1499965283000.0,4126912
230197343,Franklin,Franklin,1498404859000.0,36.73,-86.57,Joy Rose,KY,1498404859000.0,4126912
157248622,Nashville,,1421468496000.0,36.16,-86.79,Juan Job,TN,1477062067000.0,4126912
82838762,Murfreesboro,Cabo Rojo,1479258685000.0,35.83,-86.45,Juan R Gomez Hoyos,TN,1507346324000.0,4126912
189844387,Hermitage,Nashville TN,1465348749000.0,36.19,-86.6,Judy,TN,1484239548000.0,4126912
133437732,Spring Hill,"Beech Bluff, TN",1465517759000.0,35.76,-86.88,judymc1961,TN,1465517759000.0,4126912
12752088,Franklin,"Franklin, TN",1397007523000.0,35.93,-86.81,Jules,TN,1412116228000.0,4126912
189533239,Nashville,,1438121619000.0,36.21,-86.72,Julia,TN,1443138222000.0,4126912
207617780,Brentwood,,1466622411000.0,36.0,-86.79,Julia Blair,TN,1466622411000.0,4126912
194629997,Nashville,,1453676966000.0,36.09,-86.82,Julia Bruck,TN,1468965402000.0,4126912
197455036,Murfreesboro,,1484445715000.0,35.82,-86.45,Juliana Stafford,TN,1485731440000.0,4126912
182746562,Nashville,,1445033527000.0,36.17,-86.72,Julie Berry,TN,1445033527000.0,4126912
204399454,Albertville,,1487472579000.0,45.24,-93.65,Julie Gordon,MN,1487472579000.0,4126912
8051753,Hermitage,,1492051238000.0,36.19,-86.6,Julie Hamilton,TN,1493698768000.0,4126912
47738392,Franklin,,1418750507000.0,35.92,-86.89,Julie Hinton,TN,1427213454000.0,4126912
137821062,Mount Juliet,Mount Juliet,1417539626000.0,36.22,-86.52,Julie N' James Tucker,TN,1418683800000.0,4126912
200612671,Murfreesboro,,1458052490000.0,35.82,-86.45,Junie George,TN,1486349718000.0,4126912
218308361,Nashville,,1500599756000.0,36.22,-86.74,Jurell James,TN,1508510975000.0,4126912
185315274,Nashville,,1426571401000.0,36.17,-86.78,Justin Beene,TN,1433269181000.0,4126912
188079507,Ashland City,,1506302971000.0,36.28,-87.07,Justin Hensley,TN,1506302971000.0,4126912
231880737,Nashville,,1500133119000.0,36.11,-86.78,Justin Judson,TN,1500133119000.0,4126912
210800253,Nashville,,1470928824000.0,36.08,-86.72,Justin Kendall,TN,1470928824000.0,4126912
28803812,Nashville,,1401258333000.0,36.17,-86.78,Justin Tarr,TN,1403725463000.0,4126912
214482662,Nashville,,1475791142000.0,36.11,-86.86,K. Brown,TN,1483928991000.0,4126912
158765232,Clarksville,,1453331853000.0,36.53,-87.35,KacieJo,TN,1454527064000.0,4126912
200487104,Nashville,Nashville,1456519329000.0,36.17,-86.78,Kanesha Patterson,TN,1500078373000.0,4126912
214273295,Nashville,,1477277578000.0,36.08,-86.72,Kara ,TN,1477277578000.0,4126912
195479654,Nashville,,1451879616000.0,36.08,-86.72,Kara Anderson-Roush,TN,1456153729000.0,4126912
218064297,Nashville,,1484918635000.0,36.17,-86.78,Kara Suzanne,TN,1487887432000.0,4126912
4601150,Cunningham,Charleston IL,1485224534000.0,36.38,-87.41,Karen Bergeron,TN,1486668253000.0,4126912
194035192,Huntsville,,1444769568000.0,34.73,-86.57,Karen Goins,AL,1496336666000.0,4126912
191944253,Murfreesboro,,1440786715000.0,35.78,-86.33,Karen Green,TN,1440786715000.0,4126912
205933914,Goodlettsville,,1480368962000.0,36.33,-86.74,Karen Lewis,TN,1507778495000.0,4126912
224327614,Nashville,,1490303980000.0,36.17,-86.79,Kari West,TN,1490303980000.0,4126912
182568739,Clarksville,Clarksville,1422373018000.0,36.56,-87.41,Karsten Ferguson,TN,1469394664000.0,4126912
60195472,Nashville,Nashville,1486906058000.0,36.08,-86.72,Karthik Kornalies,TN,1497125205000.0,4126912
231185767,Nashville,,1499303695000.0,36.09,-86.82,Kassi Franks,TN,1499303695000.0,4126912
10943874,Nashville,"Newburyport, MA",1508294095000.0,36.18,-86.74,Kate,TN,1508294095000.0,4126912
219220399,Nashville,,1483507153000.0,36.11,-86.86,Kate Ginn,TN,1483507153000.0,4126912
6697866,Franklin,"Nashville, TN",1394214918000.0,35.92,-86.89,Kathryn Alexander,TN,1502829011000.0,4126912
230666029,Nashville,,1498662105000.0,36.09,-86.82,Kathy Carter,TN,1507778542000.0,4126912
183346347,Goodlettsville,,1427807877000.0,36.33,-86.74,Kathy Emmerling,TN,1429563182000.0,4126912
148878482,Nashville,Nashville,1412475021000.0,36.1,-86.66,Katie,TN,1437665320000.0,4126912
107616012,Nashville,,1437661514000.0,36.17,-86.78,Katie Allred,TN,1437661514000.0,4126912
229591830,Nashville,,1497311860000.0,36.14,-86.8,Katie Schimmel,TN,1497311860000.0,4126912
229785247,Spring Hill,,1497563589000.0,35.76,-86.88,Katie Strader,TN,1497563589000.0,4126912
173230322,Duluth,"Gulfport, MS",1485457069000.0,34.05,-84.18,Katrina Faulkner,GA,1485457069000.0,4126912
190134377,Franklin,"San Francisco, CA",1437602855000.0,35.93,-86.81,Katy Ochoa,TN,1450369277000.0,4126912
14127511,Franklin,Franklin,1433829262000.0,35.92,-86.89,Kay,TN,1485184811000.0,4126912
56997982,Nashville,"Springfield, IL",1478842002000.0,36.08,-86.72,Keegan Singh,TN,1478842002000.0,4126912
135932122,Nashville,,1474984843000.0,36.17,-86.78,Keith Bresée,TN,1474984843000.0,4126912
5607195,Murfreesboro,,1418535883000.0,35.78,-86.33,Keith Sager,TN,1506603479000.0,4126912
197616731,Brentwood,,1451909747000.0,36.0,-86.79,Keith Smith,TN,1456229934000.0,4126912
184410564,Nashville,,1424646365000.0,36.17,-86.78,Kela Reed,TN,1424836317000.0,4126912
106245022,Franklin,,1434204265000.0,35.93,-86.81,Kelli Zane,TN,1472230029000.0,4126912
183560521,Franklin,"Austin, TX",1466862703000.0,35.92,-86.89,Kelly,TN,1498659600000.0,4126912
93407332,Nashville,Antioch,1449519527000.0,36.1,-86.66,Kelly Marie,TN,1449519527000.0,4126912
93917022,Nashville,"Cincinnati, OH",1432694614000.0,36.13,-86.8,Kelsey,TN,1432825594000.0,4126912
194252991,Nashville,,1446828056000.0,36.06,-86.96,Kelsey Christian,TN,1477417290000.0,4126912
8824247,Primm Springs,Los Angeles,1457925312000.0,35.84,-87.24,Kelsey Phillip Payne,TN,1462586253000.0,4126912
231611613,Nashville,,1499806051000.0,36.08,-86.72,Kemi Elufiede,TN,1499806051000.0,4126912
119285082,Murfreesboro,"Homestead, PA",1428854261000.0,35.87,-86.44,Ken Hreha,TN,1443138040000.0,4126912
192336911,Nashville,,1445451458000.0,36.09,-86.82,Ken Stockdale,TN,1445451458000.0,4126912
3591386,Madison,Madison,1448735825000.0,36.26,-86.71,Ken White,TN,1452952399000.0,4126912
86724502,Nashville,,1365863236000.0,36.17,-86.78,Kendra,TN,1500064082000.0,4126912
200227453,Nashville,,1456894229000.0,36.06,-86.96,Keniece Burks,TN,1463868258000.0,4126912
199071516,Brentwood,,1454463700000.0,36.0,-86.79,Kenneth Wilkins,TN,1454463700000.0,4126912
3500673,Olympia,Olympia,1496771266000.0,47.07,-122.79,Kenny,WA,1496771266000.0,4126912
146507332,Franklin,Franklin,1460601312000.0,35.92,-86.89,Keri Jordan,TN,1466012426000.0,4126912
9468223,Virginia Beach,,1497848129000.0,36.86,-76.01,Keri Potter,VA,1498448964000.0,4126912
199911173,Nashville,Ashland City,1455728303000.0,36.09,-86.82,Kevin Davenport,TN,1456340663000.0,4126912
101990112,Nashville,rochester,1466708026000.0,36.18,-86.74,Kevin Fellows,TN,1466708026000.0,4126912
224631915,Clarksville,,1490727408000.0,36.53,-87.35,Kevin Maldonado,TN,1490727408000.0,4126912
203322230,Brentwood,,1474092463000.0,36.0,-86.79,Kevin Manning,TN,1500701022000.0,4126912
182718557,Lyon,Lyon,1433530111000.0,45.76,4.83,Kevin Murphy,,1461783643000.0,4126912
13293891,Salt Lake City,,1452110672000.0,40.77,-111.84,Kim,UT,1452110672000.0,4126912
49816142,Nashville,,1429270430000.0,36.13,-86.8,Kim Higdon,TN,1507797136000.0,4126912
227001192,Greenbrier,,1493990419000.0,36.43,-86.8,Kim Jackson Smith,TN,1493990419000.0,4126912
3016909,Nashville,Nashville,1438270623000.0,36.15,-86.86,Kim L.,TN,1468423410000.0,4126912
238169671,Antioch,,1507222827000.0,36.17,-86.88,"Kimberly ""Brownie"" Vaughn",TN,1507222827000.0,4126912
184283965,Phoenix,Phoenix,1423450684000.0,33.69,-112.0,Kimberly Denise,AZ,1423450684000.0,4126912
201112288,Nashville,,1457413716000.0,36.17,-86.72,Kirill Wouldntyouliketoknow,TN,1457413716000.0,4126912
232981847,Nashville,,1501502255000.0,36.17,-86.78,Kirsten Grimes,TN,1501502255000.0,4126912
10285334,Nashville,,1490325360000.0,36.11,-86.78,Kmagg,TN,1490325360000.0,4126912
185075375,Nashville,,1425854097000.0,36.14,-86.74,Kourtney Greene,TN,1425854097000.0,4126912
212621817,Nashville,,1481463972000.0,36.17,-86.78,Krestofer,TN,1481463972000.0,4126912
155278092,Nashville,Port Huron MI,1464478039000.0,36.08,-86.72,Kris Bettridge,TN,1467430003000.0,4126912
206735625,Nashville,,1465413847000.0,36.08,-86.71,Krish,TN,1466389119000.0,4126912
182662859,Murfreesboro,,1440646067000.0,35.87,-86.34,Kristen Brown,TN,1440646067000.0,4126912
196013110,Nashville,,1448383161000.0,36.17,-86.78,Kristen Brown,TN,1448383161000.0,4126912
224778980,Spring Hill,,1490926802000.0,35.76,-86.88,Kristen Gracin Shrimpton,TN,1494864527000.0,4126912
184890939,Brentwood,,1425324644000.0,36.0,-86.79,Kristi Dorn Hart,TN,1425324644000.0,4126912
8667049,Nashville,Nashville,1421382632000.0,36.06,-86.96,Kristi G,TN,1472328778000.0,4126912
12786520,Nashville,Sacramento,1446677797000.0,36.14,-86.74,Kristian,TN,1446677797000.0,4126912
221408698,Nashville,,1487514762000.0,36.17,-86.78,Kristin,TN,1508242376000.0,4126912
14177771,Hendersonville,,1438094128000.0,36.32,-86.61,Kristin Westerman,TN,1465857542000.0,4126912
229030228,Clarksville,,1496620964000.0,36.53,-87.35,Kristina Masibo-Roling,TN,1498696618000.0,4126912
80484872,Nashville,,1439605355000.0,36.11,-86.86,Krys Midgett,TN,1440302433000.0,4126912
184727364,Antioch,,1424822983000.0,36.04,-86.64,Krystal Keys,TN,1424822983000.0,4126912
230625165,Clarksville,,1498607064000.0,36.53,-87.35,Krystal Richmond,TN,1499733200000.0,4126912
201083161,Nashville,,1459183636000.0,36.08,-86.72,Kumar,TN,1475109150000.0,4126912
4537673,Franklin,Nashville,1427741688000.0,35.92,-86.89,Kyle Jones,TN,1427741688000.0,4126912
229584064,Nashville,,1497303556000.0,36.11,-86.86,Kyle O'Leary,TN,1497303556000.0,4126912
5489286,Clarksville,"Clarksville, TN",1422187634000.0,36.6,-87.34,LaCita,TN,1422306641000.0,4126912
197797454,Brentwood,,1452233451000.0,36.0,-86.79,Lamar Wilson,TN,1452233451000.0,4126912
145078312,Nashville,,1496486409000.0,36.17,-86.72,Lamont Turner,TN,1496486409000.0,4126912
225016930,Nashville,,1491270597000.0,36.13,-86.8,Lan Le,TN,1491270597000.0,4126912
7979701,Brentwood,"Riverside, CA",1469507861000.0,36.0,-86.79,Landon Hale,TN,1507910309000.0,4126912
9770454,Antioch,"Detroit Lakes, MN",1372188733000.0,36.04,-86.64,Lanita,TN,1500812836000.0,4126912
173571962,Nashville,,1411593705000.0,36.16,-86.79,Lantz Wheeler,TN,1411593705000.0,4126912
115943912,Nashville,,1394231696000.0,36.17,-86.79,Larry Brashear,TN,1412726304000.0,4126912
194863118,Nashville,,1465163419000.0,36.1,-86.66,Larry Creson,TN,1501118837000.0,4126912
216185952,Smyrna,,1478366408000.0,35.97,-86.51,Latesha Fitzgerald,TN,1490096650000.0,4126912
190040055,Hermitage,,1437148013000.0,36.19,-86.6,LaTishia,TN,1445010910000.0,4126912
12567737,Antioch,,1435481803000.0,36.17,-86.88,Latonya King (Fit for a Queen),TN,1435481803000.0,4126912
228706271,Hendersonville,,1496222097000.0,36.32,-86.61,Latoya Wells,TN,1496222097000.0,4126912
210481583,Nashville,,1487739471000.0,36.17,-86.78,Laura,TN,1496368724000.0,4126912
198600935,Nashville,,1459028357000.0,36.17,-86.78,Laura L,TN,1467476456000.0,4126912
152815742,Saint Petersburg,"St. Petersburg, FL",1403467531000.0,27.69,-82.71,Laura Lee,FL,1504640350000.0,4126912
76612312,Old Hickory,,1452411525000.0,36.25,-86.63,laurel garnett,TN,1452411525000.0,4126912
123005422,Brentwood,,1412640683000.0,36.0,-86.79,Lauren,TN,1412640683000.0,4126912
520451,Mount Juliet,"Round Rock, TX",1448554667000.0,36.22,-86.52,Lauren,TN,1487863895000.0,4126912
184526486,Brentwood,Brentwood,1438519720000.0,36.0,-86.79,Lauren Elizabeth,TN,1438519720000.0,4126912
202383180,Nashville,,1459277364000.0,36.11,-86.86,Lauren Kiproff,TN,1472234992000.0,4126912
226336954,Spring Hill,,1493086359000.0,35.76,-86.88,Lauren Singh,TN,1503381518000.0,4126912
29906712,Nashville,,1411829827000.0,36.17,-86.78,Laurie,TN,1476999636000.0,4126912
11759637,Nashville,,1429933431000.0,36.09,-86.82,Laurie Delk,TN,1466728524000.0,4126912
11792486,Franklin,,1340715301000.0,35.93,-86.81,Laurie Marks,TN,1390875893000.0,4126912
188406027,Clarksville,,1433826744000.0,36.49,-87.23,Lavelle J,TN,1481228869000.0,4126912
239149538,Nashville,,1508630701000.0,36.17,-86.78,Lawrence Coley,TN,1508630701000.0,4126912
7980746,Nashville,,1477140311000.0,36.18,-86.72,Leanne Ellington,TN,1508691329000.0,4126912
47682132,Brentwood,,1443393877000.0,36.0,-86.79,Lee Lentz,TN,1443393877000.0,4126912
216105565,Nashville,,1478232367000.0,36.09,-86.82,Lee Olson,TN,1478232367000.0,4126912
185356226,Nashville,,1426702025000.0,36.09,-86.82,LeeAnn Carlen,TN,1426702025000.0,4126912
83548732,Chicago,,1472229712000.0,41.88,-87.62,Leia Avery,IL,1472229712000.0,4126912
195466745,Nashville,,1447338785000.0,36.17,-86.72,Leigh Anne Lewis,TN,1447338785000.0,4126912
187200138,Hendersonville,,1432677528000.0,36.32,-86.61,Leila Li,TN,1432677528000.0,4126912
176814902,Madison,,1412901003000.0,36.26,-86.71,Leo Campos,TN,1412901003000.0,4126912
101443692,Nashville,"Ebenezer, Mississippi",1490638036000.0,36.11,-86.86,Leo Paul,TN,1491235460000.0,4126912
165650982,Baltimore,"Los Angeles, CA",1420168509000.0,39.29,-76.62,Leona,MD,1487897466000.0,4126912
199349248,Nashville,,1487451458000.0,36.18,-86.74,Leona Edwards,TN,1489090127000.0,4126912
7005487,Franklin,Franklin,1351975497000.0,35.93,-86.84,Leslie A. Butler,TN,1466721415000.0,4126912
215349195,Nashville,,1477071499000.0,36.09,-86.82,Leslie Exley,TN,1477071499000.0,4126912
186845127,Columbia,,1431768829000.0,34.0,-81.03,Leslie Hillard,SC,1431888433000.0,4126912
198188414,Brentwood,,1452965137000.0,36.0,-86.79,Leslie Murray,TN,1452965137000.0,4126912
8797859,Birmingham,,1474677296000.0,33.52,-86.81,Lexi,AL,1474677296000.0,4126912
149938822,Brentwood,,1439836159000.0,36.0,-86.79,Libby,TN,1439836159000.0,4126912
216309238,Nashville,,1504763141000.0,36.17,-86.78,Lilly Coley,TN,1508381726000.0,4126912
232108680,Hendersonville,,1500409793000.0,36.32,-86.61,Lime Noodles,TN,1500409793000.0,4126912
58950342,Brentwood,,1498776147000.0,36.0,-86.79,Linda,TN,1506563363000.0,4126912
73359812,Nashville,,1425219900000.0,36.06,-86.96,Linda,TN,1429282300000.0,4126912
190498685,Grants Pass,"Grants Pass, OR",1438010744000.0,42.4,-123.36,Linda Louise,OR,1438186350000.0,4126912
230214484,Franklin,,1498096918000.0,35.92,-86.89,Lindsay Elliott,TN,1498096918000.0,4126912
189349121,Springfield,,1435761451000.0,36.52,-86.87,Lindsay Robertson ,TN,1435761451000.0,4126912
187539744,Nashville,,1476463905000.0,36.13,-86.82,Lindsay Turner,TN,1476463905000.0,4126912
191098462,Nashville,Nashville,1485883346000.0,36.17,-86.79,Lindsey Miller,TN,1489706083000.0,4126912
84855692,Brentwood,Des Moines,1418615745000.0,36.0,-86.79,Lisa,TN,1466107438000.0,4126912
186241253,Columbia,"Melbourne ,Australia",1429412581000.0,35.61,-87.05,Lisa Lammers,TN,1508656304000.0,4126912
50764602,Nashville,Philadelphia,1420493301000.0,36.17,-86.78,Lisa Marie  / Realtor,TN,1423518964000.0,4126912
128146292,Nashville,,1429745319000.0,36.13,-86.8,Lisa O'Dell,TN,1496893562000.0,4126912
12153239,Nashville,Nashville,1348601630000.0,36.17,-86.78,Lisa Richards-Wascher,TN,1499297395000.0,4126912
174722792,Nashville,,1427763062000.0,36.18,-86.74,Lisa Rivas,TN,1437657603000.0,4126912
16364791,Nashville,"Oroville, Ca",1441755773000.0,36.06,-86.96,Lisa Shearer,TN,1486692161000.0,4126912
183783884,Nashville,,1427145961000.0,36.17,-86.78,Liza D,TN,1472659347000.0,4126912
92841362,Bowling Green,,1398437838000.0,37.02,-86.46,Lizabeth Casada,KY,1414508509000.0,4126912
239401210,Nashville,,1508599982000.0,36.17,-86.78,Lizzy Davis,TN,1508599982000.0,4126912
218469425,Nashville,,1482268585000.0,36.09,-86.82,Logan Ardry,TN,1494622302000.0,4126912
197481931,London,,1451665601000.0,51.52,-0.1,Lola,17,1451665601000.0,4126912
184458412,Nashville,,1437387859000.0,36.17,-86.78,lonnie,TN,1438975931000.0,4126912
86520422,Madison,Madison,1508808329000.0,36.26,-86.71,Lora,TN,1508808329000.0,4126912
190044235,Madison,,1437156111000.0,36.26,-86.71,Lorene,TN,1439991033000.0,4126912
223015434,Nashville,,1488470114000.0,36.16,-86.79,Lori Barratt,TN,1488470114000.0,4126912
60066822,Franklin,,1346711033000.0,35.93,-86.81,lorin Hendrixson,TN,1348438633000.0,4126912
188151049,Nashville,,1444863224000.0,36.17,-86.78,Lorne Swain,TN,1461427169000.0,4126912
212038445,Nashville,,1472668418000.0,36.09,-86.82,Lorraine Seta,TN,1485275621000.0,4126912
196826636,Burns,,1450054347000.0,36.04,-87.26,lorri Sciaraffo,TN,1450054347000.0,4126912
135632232,Brentwood,Brentwood,1448146132000.0,36.0,-86.79,Lou Ann,TN,1490288873000.0,4126912
192853680,Columbia,,1442497992000.0,33.99,-81.03,Luke B,SC,1442497992000.0,4126912
212722637,Nashville,,1473599878000.0,36.16,-86.79,Lynn,TN,1473599878000.0,4126912
190509926,Hopkinsville,,1481213799000.0,36.87,-87.48,Lynn Smith,KY,1481250824000.0,4126912
199547470,Nashville,,1455211571000.0,36.07,-86.78,Lynn Spicer,TN,1455211571000.0,4126912
191452354,Pegram,,1439842849000.0,36.12,-87.03,M Shaffer,TN,1442850507000.0,4126912
198713566,Nashville,,1458412745000.0,36.17,-86.78,Madeline,TN,1497276632000.0,4126912
207023582,Nashville,,1476681892000.0,36.17,-86.78,Madi,TN,1477406416000.0,4126912
180798072,Nashville,,1419911976000.0,36.17,-86.79,maggie gilchrist,TN,1504650101000.0,4126912
198075659,Nashville,,1452743006000.0,36.16,-86.79,MaiLinh,TN,1481125355000.0,4126912
201647608,Clarksville,"Wahiawa, HI",1460028719000.0,36.53,-87.35,Maiya,TN,1460728069000.0,4126912
238889393,Smyrna,,1508009806000.0,35.97,-86.51,Malcolm Froome,TN,1508009806000.0,4126912
90827372,West Lafayette,,1453686838000.0,40.5,-86.97,Malina Padgett,IN,1454300563000.0,4126912
238677236,Franklin,,1507757858000.0,35.93,-86.81,Mandy Davis,TN,1507757858000.0,4126912
216371152,Nashville,,1478647031000.0,36.16,-86.79,Mandy Robinson Walley,TN,1478647031000.0,4126912
194692469,Brentwood,,1445908564000.0,36.0,-86.79,Manoja Muthukumar,TN,1445908564000.0,4126912
75871012,Nashville,,1473983266000.0,36.16,-86.79,Marc,TN,1490290895000.0,4126912
66170112,Nashville,,1449495077000.0,36.11,-86.86,Marc Smith,TN,1489713110000.0,4126912
13459327,Nashville,,1445461258000.0,36.13,-86.8,Marci Wilson-Boggs,TN,1445461258000.0,4126912
17226541,Nashville,,1368884368000.0,36.17,-86.78,Marcia Harris,TN,1472665316000.0,4126912
135904352,Franklin,,1419134570000.0,35.92,-86.89,Marcos Flores,TN,1432779213000.0,4126912
205673358,Nashville,,1463962157000.0,36.09,-86.82,Margaret Davidson Organ,TN,1464003125000.0,4126912
28294922,Clarksville,Folsom,1486658767000.0,36.49,-87.23,Margarita,TN,1486658767000.0,4126912
117669402,Nashville,,1394234173000.0,36.17,-86.79,Mari Yadro,TN,1501789983000.0,4126912
5459777,Brentwood,,1435918568000.0,36.0,-86.79,Maria,TN,1438122403000.0,4126912
102737592,Nashville,,1394304060000.0,36.17,-86.78,Mariel Diaz,TN,1417051950000.0,4126912
12463533,Shelbyville,,1401437767000.0,35.48,-86.47,Marilyn Bloodworth,TN,1505384310000.0,4126912
11411454,Brentwood,,1483738225000.0,36.0,-86.79,Mario Gomez,TN,1486661372000.0,4126912
235695658,Franklin,,1504917904000.0,35.93,-86.84,Marjorie Morris,TN,1504917904000.0,4126912
182626228,Brentwood,,1416592377000.0,36.0,-86.79,Mark,TN,1508790227000.0,4126912
130676172,Nashville,,1459266427000.0,36.17,-86.79,Mark,TN,1466223210000.0,4126912
190004053,Portland,,1437071527000.0,36.57,-86.49,Mark Arzillo,TN,1437071527000.0,4126912
5860067,Nashville,,1483488238000.0,36.17,-86.78,Mark Daniel,TN,1506958202000.0,4126912
223153097,Hermitage,,1488661069000.0,36.19,-86.6,Mark Hoke,TN,1488661069000.0,4126912
44942272,Nashville,Nashville,1346727467000.0,36.17,-86.79,Mark Tune,TN,1508794726000.0,4126912
191318476,Franklin,,1439577273000.0,35.92,-86.89,Mark Weber,TN,1439577273000.0,4126912
184259142,Nashville,,1429556927000.0,36.11,-86.78,Markeith A. Braden,TN,1507824994000.0,4126912
4115547,Gallatin,"Byron, NE",1468285595000.0,36.39,-86.45,Marlin,TN,1487895761000.0,4126912
13452195,Nashville,"Birmingham, AL",1472228515000.0,36.18,-86.81,Marshall A. Latimore,TN,1485394731000.0,4126912
186222730,Nashville,,1430770586000.0,36.06,-86.96,Martha Lupai,TN,1472266820000.0,4126912
221212756,Nashville,,1486023230000.0,36.17,-86.78,Martynas ustavi?ius,TN,1486023230000.0,4126912
189230249,Nashville,,1435517696000.0,36.06,-86.96,Mary Allison,TN,1445050588000.0,4126912
219744699,Nashville,,1484527107000.0,36.14,-86.81,Mary Elizabeth Pellett,TN,1484527107000.0,4126912
62858542,Hendersonville,,1437454456000.0,36.32,-86.61,Mary Johnson,TN,1437454456000.0,4126912
205904868,Brentwood,,1464277615000.0,36.0,-86.79,Mary Parker,TN,1464277615000.0,4126912
238859932,Clarksville,,1507977036000.0,36.53,-87.35,Masalu Jacob,TN,1507977036000.0,4126912
192588334,Nashville,,1442057942000.0,36.17,-86.78,Matt,TN,1442057942000.0,4126912
59916552,Brentwood,Knoxville,1413851661000.0,36.0,-86.79,Matt,TN,1485063210000.0,4126912
156573682,Nashville,,1405457088000.0,36.09,-86.82,Matt Chapman,TN,1405457088000.0,4126912
184642311,Murfreesboro,,1486722977000.0,35.87,-86.34,Matt Dravis,TN,1506621994000.0,4126912
62850222,Spring Hill,Spring Hill,1434027181000.0,35.76,-86.88,Matt Lano,TN,1435080560000.0,4126912
174336202,Nashville,,1446001598000.0,36.17,-86.78,Matt Paisley,TN,1446089924000.0,4126912
206646757,Lewisburg,,1465309260000.0,35.45,-86.8,Matt Stoltz,TN,1465309260000.0,4126912
183023248,Brentwood,,1491655355000.0,36.0,-86.79,Matthew A. Overlund,TN,1491655355000.0,4126912
202106678,Nashville,,1458856218000.0,36.18,-86.74,Matthew Austin bell,TN,1458856218000.0,4126912
228614899,Manchester,,1496106032000.0,35.47,-86.11,Matthew B Powers,TN,1496106032000.0,4126912
186638845,Nashville,Nashville,1464305210000.0,36.14,-86.74,Matthew Nicholas,TN,1466379036000.0,4126912
232660655,Nashville,,1501095272000.0,36.17,-86.79,Matthew Skinner,TN,1501095272000.0,4126912
87675622,Nashville,,1481121970000.0,36.17,-86.78,matty gilmore,TN,1481121970000.0,4126912
229740492,Nashville,,1497501238000.0,36.09,-86.82,Max Garceau,TN,1497857449000.0,4126912
99979372,Paris,,1450040811000.0,48.86,2.34,Maxime Riahi,,1466487275000.0,4126912
127251592,Arlington,arlington,1445402752000.0,42.42,-71.16,maya,MA,1456079494000.0,4126912
8849634,Spring Hill,,1427470741000.0,35.76,-86.88,mayra,TN,1506291825000.0,4126912
204338523,Murfreesboro,,1499952121000.0,35.82,-86.45,Mbombo Kazadi,TN,1499952121000.0,4126912
222408471,Hermitage,,1502768403000.0,36.19,-86.6,Mckenzie Price,TN,1502768403000.0,4126912
235346322,Nashville,,1504214161000.0,36.07,-86.78,Meagan & Eric ,TN,1508003796000.0,4126912
139893442,Nashville,,1441058607000.0,36.17,-86.78,Megan Fister,TN,1487811534000.0,4126912
7932333,Nashville,Nashville,1489288279000.0,36.21,-86.72,Megan Johnson,TN,1498762671000.0,4126912
128418722,Memphis,Nashville,1474074280000.0,35.15,-89.94,Mehdi Chaib,TN,1485280474000.0,4126912
189622840,Franklin,,1441209541000.0,35.93,-86.81,Mel B,TN,1487471768000.0,4126912
106022732,Hermitage,"Hermitage, TN",1415055182000.0,36.19,-86.6,Melinda Judy,TN,1449003640000.0,4126912
11378002,Nashville,Illinois ,1411980521000.0,36.17,-86.79,Melinda Plummer,TN,1498750599000.0,4126912
105500632,Nashville,,1406030774000.0,36.17,-86.78,Melissa,TN,1418707248000.0,4126912
190636039,Nashville,,1438247280000.0,36.08,-86.72,Melissa Marshall-Henning,TN,1438247280000.0,4126912
189908483,Antioch,,1436882418000.0,36.04,-86.64,Melissa Reilly Petak,TN,1436882418000.0,4126912
41002002,Nashville,,1466102050000.0,36.17,-86.79,Melissa Smithson,TN,1466102050000.0,4126912
235281730,Hendersonville,,1504139915000.0,36.32,-86.61,Melissa Sullo,TN,1504139915000.0,4126912
228060182,Nashville,,1495413877000.0,36.17,-86.78,Mercedes Miranda,TN,1495413877000.0,4126912
119541152,Nashville,,1434599602000.0,36.17,-86.78,Mewael,TN,1456089624000.0,4126912
207641843,Nashville,,1466651673000.0,36.13,-86.8,Mia,TN,1501572864000.0,4126912
187111268,Nashville,,1431392836000.0,36.08,-86.72,Micha Johnson-Muhammad,TN,1432382489000.0,4126912
10849614,Nashville,"Fort Myers, FL",1411618178000.0,36.08,-86.72,Michael,TN,1468505000000.0,4126912
187948177,Nashville,,1445000906000.0,36.16,-86.66,Michael,TN,1445000906000.0,4126912
186712622,Nashville,,1462664385000.0,36.17,-86.78,Michael,TN,1506594328000.0,4126912
185670722,Brentwood,,1427686081000.0,36.0,-86.79,Michael,TN,1445454579000.0,4126912
217355171,Spring Hill,,1480277594000.0,35.76,-86.88,Michael,TN,1507777913000.0,4126912
204254423,Nashville,,1461969659000.0,36.17,-86.72,Michael  Rance,TN,1490331017000.0,4126912
57560002,Nashville,,1432307862000.0,36.16,-86.79,Michael Catalano,TN,1436892694000.0,4126912
98296172,Franklin,Franklin,1478531818000.0,35.92,-86.89,Michael Cherkassky,TN,1487279938000.0,4126912
207531257,Murfreesboro,,1466511207000.0,35.78,-86.33,Michael Cusick,TN,1466511207000.0,4126912
4667895,Nashville,"Dover, NH",1474898364000.0,36.11,-86.86,Michael Goode,TN,1507785607000.0,4126912
2459680,Smyrna,,1453850933000.0,35.97,-86.51,Michael H,TN,1453850933000.0,4126912
188459918,Nashville,,1433940007000.0,36.16,-86.77,Michael Hemmelgarn,TN,1472233181000.0,4126912
92822122,Nashville,Nashville,1463496330000.0,36.08,-86.72,Michael Hersey,TN,1477922864000.0,4126912
221553263,Nashville,,1486482705000.0,36.09,-86.82,Michael Kennedy,TN,1507776380000.0,4126912
188467589,Nashville,,1435078719000.0,36.18,-86.74,Michael Lauren,TN,1435265969000.0,4126912
187548585,Christiana,,1493596356000.0,35.71,-86.36,Michael Levashov,TN,1493596356000.0,4126912
7836904,Hermitage,,1426702684000.0,36.19,-86.6,Michael McCann,TN,1426702684000.0,4126912
192581930,Franklin,,1442960021000.0,35.92,-86.89,Michael Medley,TN,1442960021000.0,4126912
195145042,Franklin,,1446989533000.0,35.92,-86.89,Michael Roberts,TN,1499299374000.0,4126912
217249698,Spring Hill,,1480443051000.0,35.76,-86.88,Michael Taylor,TN,1490310330000.0,4126912
151315052,Columbia,"Athens, AL",1499999077000.0,35.61,-87.05,Michael Tucker,TN,1499999077000.0,4126912
1281684,Nashville,Nashville,1342733344000.0,36.08,-86.72,Michael Turner,TN,1494181816000.0,4126912
161870162,Westmoreland,Westmoreland,1413938053000.0,36.57,-86.22,Michael Vertrees,TN,1422371538000.0,4126912
6584686,Franklin,Atlanta,1435624815000.0,35.92,-86.89,Michael Walley,TN,1487394292000.0,4126912
219934407,Louisville,,1485047422000.0,38.26,-85.75,Micheal Major,KY,1485047422000.0,4126912
55650402,Smyrna,Studio City,1478041512000.0,35.97,-86.51,Micheala,TN,1485301521000.0,4126912
97272342,Potwin,,1370879308000.0,37.94,-97.02,Michele Waple,KS,1370879308000.0,4126912
105128552,Nashville,,1477979571000.0,36.06,-86.96,Michelle,TN,1487793877000.0,4126912
127222512,Los Angeles,"Los Angeles, CA",1404781816000.0,33.97,-118.24,Michelle,CA,1428168647000.0,4126912
209506895,Nashville,,1474295087000.0,36.08,-86.72,Michelle Chhong,TN,1474295087000.0,4126912
12332465,Nashville,,1443802583000.0,36.16,-86.79,Michelle Kroft,TN,1443802583000.0,4126912
46486792,Nashville,,1453850783000.0,36.17,-86.78,Michelle McManus,TN,1459398316000.0,4126912
106902342,Nashville,,1426748560000.0,36.08,-86.72,Michelle Price-Johnson,TN,1500432976000.0,4126912
79230822,Nashville,,1487042469000.0,36.13,-86.8,Micki Stayton,TN,1487042469000.0,4126912
69533152,Smyrna,,1369057997000.0,35.97,-86.51,Mike,TN,1369057997000.0,4126912
186662002,Murfreesboro,,1430170775000.0,35.78,-86.33,Mike,TN,1440625815000.0,4126912
7363078,Brentwood,Brentwood,1421436029000.0,36.0,-86.79,Mike,TN,1495190462000.0,4126912
223100389,Franklin,,1488581574000.0,35.93,-86.81,Mike,TN,1488841467000.0,4126912
136641582,Nashville,Colorado,1489613905000.0,36.13,-86.8,Mike Bryant,TN,1489613905000.0,4126912
10045950,Hendersonville,,1437659284000.0,36.32,-86.61,Mike H,TN,1437659284000.0,4126912
194304460,Mount Juliet,,1445218411000.0,36.22,-86.52,Mike L,TN,1445218411000.0,4126912
232459866,Murfreesboro,,1500847688000.0,35.82,-86.45,Mike Mooney,TN,1500847688000.0,4126912
209541912,Nashville,,1469238681000.0,36.17,-86.78,Mike N Michelle Hines,TN,1474695619000.0,4126912
216672191,Nashville,,1484680455000.0,36.17,-86.78,Mike Shannon,TN,1485733481000.0,4126912
185185088,Nashville,,1426176296000.0,36.15,-86.86,Mike Stabile,TN,1440635722000.0,4126912
188595656,Nashville,,1434216829000.0,36.11,-86.86,Mikki M,TN,1434216829000.0,4126912
14129264,Nashville,"Memphis, TN",1460377792000.0,36.17,-86.78,Miller,TN,1498753343000.0,4126912
203227826,Smyrna,,1460485073000.0,35.97,-86.51,Milton,TN,1460485073000.0,4126912
194875027,Nashville,,1446244159000.0,36.08,-86.72,Minh Le,TN,1446244159000.0,4126912
222545777,Nashville,,1487800224000.0,36.17,-86.78,Miranda Rich,TN,1487800224000.0,4126912
11621022,Asheville, ,1342699280000.0,35.59,-82.56,Miryam & Danny French,NC,1378907406000.0,4126912
182558340,Brentwood,,1416080357000.0,35.95,-86.81,Missy Jacobs,TN,1416080357000.0,4126912
202524596,Franklin,,1459484269000.0,35.92,-86.89,MisterMatt,TN,1475091207000.0,4126912
201387186,Nashville,,1457819480000.0,36.06,-86.96,Misti Goff,TN,1457819480000.0,4126912
220078389,Nashville,,1484598488000.0,36.13,-86.8,Misty L Stacey Lmt,TN,1484598488000.0,4126912
80311832,Brentwood,,1423600715000.0,36.0,-86.79,Mitchell Lilly,TN,1423600715000.0,4126912
222271784,Nashville,,1487432827000.0,36.06,-86.96,Mitech Partners,TN,1487432827000.0,4126912
183381715,Nashville,Memphis,1476720796000.0,36.08,-86.72,Miyana,TN,1477363593000.0,4126912
179723222,Nashville,,1460099784000.0,36.17,-86.78,MJ,TN,1460099784000.0,4126912
8213592,Clarksville,Houston,1400544991000.0,36.53,-87.35,mlsj1,TN,1433342928000.0,4126912
114264102,Nashville,,1497671760000.0,36.17,-86.78,Mo. Hathut,TN,1506608666000.0,4126912
219299925,London,,1501569575000.0,51.52,-0.1,Mohammed Pollard,17,1501569575000.0,4126912
3695527,Nashville,Poplar Bluff,1459366731000.0,36.09,-86.82,Monica,TN,1484464895000.0,4126912
221566519,Franklin,Franklin,1486468053000.0,35.92,-86.89,Monica Restrepo,TN,1486468053000.0,4126912
182952938,Brentwood,,1458017394000.0,36.0,-86.79,Morgan Cole,TN,1458017394000.0,4126912
73411402,Nashville,,1356159519000.0,36.17,-86.78,Morgan Janyja,TN,1357947701000.0,4126912
217113701,Nashville,,1479831288000.0,36.17,-86.72,Mrz Kennetha Patterson,TN,1479831288000.0,4126912
219093631,Nashville,,1487556073000.0,36.21,-86.72,Ms615reality,TN,1487556073000.0,4126912
185638995,Los Angeles,,1430821558000.0,33.97,-118.24,Msundaylove,CA,1430821558000.0,4126912
199903439,Nashville,,1455714517000.0,36.06,-86.96,musicitygal,TN,1455714517000.0,4126912
192311236,Nashville,,1441494749000.0,36.08,-86.72,Mutaz Shahin,TN,1441494749000.0,4126912
40633972,Mount Juliet,Nashville,1498156472000.0,36.22,-86.52,Myron Grover,TN,1501459348000.0,4126912
193593873,Madison,,1443895106000.0,36.26,-86.71,MzKiwi Kesha,TN,1443895106000.0,4126912
170306142,Nashville,"Seattle, WA",1410493797000.0,36.11,-86.86,Nakita Springsted-Knudson,TN,1410493797000.0,4126912
236078938,Nashville,,1504997033000.0,36.13,-86.8,Nancy Leach,TN,1504997033000.0,4126912
51150252,Franklin,Franklin,1340201628000.0,35.92,-86.89,Nancy Nichols,TN,1472406189000.0,4126912
133872732,Brentwood,,1488551558000.0,36.0,-86.79,nancy stevens,TN,1508201920000.0,4126912
8720772,Nashville,Nashville,1346696585000.0,36.08,-86.72,Nancy W,TN,1347417552000.0,4126912
198306651,Franklin,,1453172357000.0,35.92,-86.89,Naomi Florence,TN,1453172357000.0,4126912
184590511,Fairview,,1424411134000.0,35.97,-87.13,Nashe Edit,TN,1508202010000.0,4126912
4389320,Nashville,Charlotte,1485911341000.0,36.17,-86.78,Nat,TN,1506694400000.0,4126912
22062221,Nashville,"Annapolis, MD",1504470209000.0,36.17,-86.72,Natalie,TN,1504730672000.0,4126912
58394792,Hendersonville,Hendersonville,1413236835000.0,36.32,-86.61,Natalie,TN,1435100554000.0,4126912
59588322,Nashville,,1443498949000.0,36.13,-86.8,Natalie Fletcher,TN,1443498949000.0,4126912
97734162,Murfreesboro,Murfreesboro,1424804649000.0,35.87,-86.44,Natalie Manor,TN,1498276963000.0,4126912
216267556,Nolensville,,1478487082000.0,35.94,-86.67,Natasha Smith,TN,1478487082000.0,4126912
239125186,Franklin,,1508274928000.0,35.99,-86.9,Nate Maddox,TN,1508274928000.0,4126912
235994727,Nashville,,1507054034000.0,36.17,-86.79,Nathan,TN,1507115336000.0,4126912
225192460,Nashville,,1491522741000.0,36.17,-86.78,Nathan Ketsdever,TN,1491522741000.0,4126912
196682395,Smyrna,,1449732859000.0,35.97,-86.51,Nathan Valentine,TN,1449768219000.0,4126912
189770400,Antioch,,1436619917000.0,36.17,-86.88,Nathaniel oboh,TN,1455016021000.0,4126912
223852135,Nashville,,1489643162000.0,36.16,-86.79,natosha parr,TN,1489643162000.0,4126912
60919842,Franklin,,1346693877000.0,35.93,-86.81,Naykishia D. Head,TN,1346694853000.0,4126912
186921100,Nashville,,1500836842000.0,36.15,-86.86,Netra,TN,1508435153000.0,4126912
211100586,Nashville,,1471363916000.0,36.17,-86.78,Ngawang Losel,TN,1471363916000.0,4126912
212156131,Jackson,,1472838931000.0,32.36,-90.17,Nicholas B,MS,1472838931000.0,4126912
156250072,Fort Walton Beach,"Little Rock, AR",1417992495000.0,30.41,-86.61,Nicholas Stringham,FL,1418170441000.0,4126912
187273009,Nashville,Nashville,1501091552000.0,36.16,-86.78,Nick 'Legend Rival' Seawright,TN,1501091552000.0,4126912
183200811,Antioch,"Oswego, IL",1419976216000.0,36.17,-86.88,Nick Kochetta,TN,1419976216000.0,4126912
189771155,Nashville,,1437054604000.0,36.08,-86.72,Nick Miller,TN,1443552694000.0,4126912
186237400,Murfreesboro,,1429199299000.0,35.87,-86.44,Nicki Jacobs,TN,1429199299000.0,4126912
190798233,Franklin,,1438561529000.0,35.93,-86.81,Nicole Digesare,TN,1456267710000.0,4126912
147102022,Nashville,,1402432114000.0,36.17,-86.79,Nicole Hoglund,TN,1405304445000.0,4126912
176095742,Nashville,,1420785697000.0,36.13,-86.8,Nicole J,TN,1477941901000.0,4126912
2278740,Smyrna,Smyrna,1460453588000.0,35.97,-86.51,Nikki,TN,1485033255000.0,4126912
188691936,Spring Hill,,1460750562000.0,35.76,-86.88,Nikki Tatum,TN,1472230694000.0,4126912
225545388,Nashville,,1492026605000.0,36.17,-86.72,niraj joshi,TN,1492026605000.0,4126912
218071628,Nashville,,1481510235000.0,36.08,-86.72,Noah Wilkinson,TN,1483940257000.0,4126912
7090859,Nashville,Thomasville ,1415731169000.0,36.17,-86.78,ogden rattliff,TN,1507171783000.0,4126912
234168251,Franklin,,1502888635000.0,35.93,-86.81,Olivia Oetjens,TN,1502888635000.0,4126912
190908814,Brentwood,,1438770565000.0,36.0,-86.79,Olusola,TN,1453401277000.0,4126912
221191725,Nashville,,1487478765000.0,36.08,-86.72,Omar Ali,TN,1506643296000.0,4126912
220569396,Nashville,,1498135788000.0,36.16,-86.77,Onkea Harvell,TN,1498777752000.0,4126912
191454247,Antioch,,1439845309000.0,36.04,-86.64,Osikhena Omoh Ojior,TN,1439845309000.0,4126912
113522242,Nashville,Valrico,1445298276000.0,36.16,-86.79,Osvaldo Gonzalez,TN,1445561539000.0,4126912
93868922,Nashville,,1466206234000.0,36.17,-86.78,Oulaivanh Bouapha,TN,1507081549000.0,4126912
215395595,Nashville,,1477145506000.0,36.09,-86.82,Page H Howe,TN,1477145506000.0,4126912
185576959,Brookside,Brookside,1485198031000.0,40.8,-74.57,Paige Alexandra,NJ,1491271050000.0,4126912
185586589,Franklin,,1427409602000.0,35.99,-86.9,Paige Cram ,TN,1427409602000.0,4126912
13564773,Nashville,,1469856008000.0,36.16,-86.79,Pam,TN,1469856008000.0,4126912
209843887,Nashville,,1483334143000.0,36.21,-86.72,Pam  Evischi,TN,1487262889000.0,4126912
197540503,Murfreesboro,,1451768142000.0,35.87,-86.44,Pam Pack,TN,1451768142000.0,4126912
186388465,Naples,Brentwood,1429572900000.0,26.11,-81.74,Pamela,FL,1429572900000.0,4126912
12184310,Nashville,,1405216793000.0,36.1,-86.66,Pamela A. Coyle,TN,1496709921000.0,4126912
220780659,Brentwood,,1485472322000.0,36.0,-86.79,Pamela Chinchilla,TN,1508308485000.0,4126912
11883968,Franklin,Franklin,1436871084000.0,35.92,-86.89,Pat Thurmond,TN,1442490917000.0,4126912
183681628,Nashville,,1466463750000.0,36.16,-86.79,Patricia F,TN,1466738851000.0,4126912
182946725,La Vergne,,1418345031000.0,36.01,-86.57,Patricia wilson,TN,1418345031000.0,4126912
183324154,Nashville,,1420424470000.0,36.06,-86.96,Patrick,TN,1421955981000.0,4126912
11315642,Nashville,,1432516075000.0,36.13,-86.8,Patrick ,TN,1486407448000.0,4126912
207065875,Nashville,Nashville,1465862391000.0,36.17,-86.78,Patrick Adrianus,TN,1465862391000.0,4126912
13542605,Nashville,Cleveland,1497622614000.0,36.08,-86.95,Patrick Alicie,TN,1498319524000.0,4126912
205095793,Nashville,,1463183990000.0,36.08,-86.72,Patrick Duteau,TN,1463183990000.0,4126912
186701533,Birmingham,"Huntsville, AL",1458762252000.0,33.43,-86.73,Patrick Greene,AL,1458762252000.0,4126912
206117757,Clarksville,,1464592281000.0,36.56,-87.41,Patrick Miles,TN,1464592281000.0,4126912
189429976,Nashville,,1435934405000.0,36.09,-86.82,Patti Polk,TN,1456174892000.0,4126912
81827112,Nashville,,1412011789000.0,36.13,-86.8,paul,TN,1451410810000.0,4126912
220635800,Hendersonville,,1485291284000.0,36.32,-86.61,Paul Bard,TN,1485291284000.0,4126912
17045261,White House,White House,1427235549000.0,36.48,-86.69,Paul Farmer,TN,1427255973000.0,4126912
184284446,Madison,,1423451943000.0,36.26,-86.71,Paul Gardiner,TN,1427152517000.0,4126912
184531258,Nashville,Knoxville,1488913210000.0,36.17,-86.78,Paul Paulus,TN,1506686596000.0,4126912
71741282,Ann Arbor,Ann Arbor,1476834762000.0,42.27,-83.81,Paul Sharer,MI,1508200902000.0,4126912
133055732,Austin,,1445479520000.0,30.27,-97.74,Paul Taylor,TX,1445479520000.0,4126912
222142396,Columbia,,1487246561000.0,35.61,-87.05,Paula Bean,TN,1487246561000.0,4126912
19715061,West Chester,,1455380237000.0,39.95,-75.59,Pavan Surabhi,PA,1455380237000.0,4126912
162139212,Nashville,,1426025208000.0,36.14,-86.74,Peggy,TN,1426082896000.0,4126912
219848852,La Vergne,,1484307506000.0,36.01,-86.57,Pegs Patton,TN,1506177690000.0,4126912
194171127,Columbia,,1444962239000.0,35.61,-87.05,Penny L,TN,1444962239000.0,4126912
1074379,Hendersonville,"McEwen, TN",1404153212000.0,36.3,-86.62,Perry Davis Jr,TN,1438959879000.0,4126912
187021357,Antioch,,1430963513000.0,36.04,-86.64,Pete Wiggins,TN,1430963513000.0,4126912
12365446,Nashville,"Asheville, NC",1428892645000.0,36.16,-86.78,Peter,TN,1441074997000.0,4126912
192504307,Nashville,,1442501113000.0,36.17,-86.78,Peter,TN,1443479044000.0,4126912
187913704,Nashville,,1433438206000.0,36.17,-86.78,Peter Moelius,TN,1500233331000.0,4126912
928972,Nashville,NYC,1464840115000.0,36.1,-86.66,Phil,TN,1504955278000.0,4126912
174991262,Hendersonville,,1412347705000.0,36.32,-86.61,Phil Smith,TN,1444074920000.0,4126912
69653682,Nashville,Nashville,1422550908000.0,36.11,-86.86,Philip Brown,TN,1487960013000.0,4126912
212031972,Nashville,,1472661253000.0,36.17,-86.78,Philip Paul Beyer,TN,1472661253000.0,4126912
162419382,Nashville,Nashville,1483978413000.0,36.16,-86.79,Philip Teagle,TN,1483978413000.0,4126912
184028419,Franklin,Hendersonville,1488408180000.0,35.93,-86.81,Phillip and Ritzy Pitts,TN,1508381329000.0,4126912
204547781,Goodlettsville,,1466516082000.0,36.33,-86.74,Phillip Bernier,TN,1466719638000.0,4126912
217943357,Nashville,,1481282835000.0,36.09,-86.82,Phillip Brol,TN,1481282835000.0,4126912
185524604,Nashville,,1427222197000.0,36.09,-86.82,Phoenix Ryane,TN,1427222197000.0,4126912
5829239,Columbus,Columbus OH area mostly,1350246329000.0,39.92,-82.88,Phyllis,OH,1398353235000.0,4126912
209414848,Nashville,,1476469156000.0,36.07,-86.73,Piyush Patel,TN,1477407387000.0,4126912
184431445,Clarksville,,1423921072000.0,36.53,-87.35,Porscha Mpd Davis,TN,1423921072000.0,4126912
15369081,Nashville,Nashville,1430680814000.0,36.1,-86.66,Porsche Bailey-Brown,TN,1437652891000.0,4126912
206284344,Franklin,,1464816245000.0,35.92,-86.89,Preston Gordon,TN,1464816245000.0,4126912
216269148,Brentwood,,1483733592000.0,36.0,-86.79,Q. White,TN,1496412942000.0,4126912
191201427,Nashville,,1439341354000.0,36.09,-86.82,Quentarius Wade,TN,1439341354000.0,4126912
9454697,Franklin,Franklin,1348238245000.0,35.92,-86.89,Rachel,TN,1350749525000.0,4126912
217777853,Nashville,,1480994065000.0,36.11,-86.86,Rachel Blackburn,TN,1480994065000.0,4126912
195748903,Shelbyville,,1447870772000.0,35.48,-86.47,Rachel Teague,TN,1448044257000.0,4126912
225999130,Nashville,,1492634620000.0,36.14,-86.74,Raghavendra Kommareddy,TN,1492634620000.0,4126912
187620191,Vancouver,Ladner,1460603473000.0,49.28,-123.04,Raj Opal,BC,1460603473000.0,4126912
203228398,Houston,,1460600058000.0,29.72,-95.22,Raja,TX,1477232866000.0,4126912
48088022,Nashville,,1413930647000.0,36.17,-86.78,Rajeev Polepalli,TN,1418249527000.0,4126912
197130829,Chandigarh,,1450852723000.0,30.75,76.78,Rajiv Singha,,1450852723000.0,4126912
13578367,Richmond,Richmond,1340505615000.0,29.62,-95.65,Ralph,TX,1340505615000.0,4126912
9881182,Nashville,Germany,1440942092000.0,36.17,-86.78,Ralph,TN,1480026042000.0,4126912
184991548,Nashville,,1430698227000.0,36.17,-86.78,Ram,TN,1487896125000.0,4126912
140262922,Huntsville,,1434999366000.0,34.73,-86.57,Ramona Jay Cramer,AL,1434999366000.0,4126912
184418986,Nashville,,1488204100000.0,36.09,-86.82,Randall Toney,TN,1488204100000.0,4126912
215637644,Nashville,,1477505086000.0,36.09,-86.82,Randy Brown,TN,1477505086000.0,4126912
97756362,Nashville,,1453125788000.0,36.14,-86.74,Randy Rudder,TN,1454198833000.0,4126912
27929612,Nashville,,1472667426000.0,36.17,-86.78,Randy Rudder,TN,1501003279000.0,4126912
197728974,Nashville,,1452153799000.0,36.17,-86.78,"Randy Tillman, D.C.",TN,1452153799000.0,4126912
201279901,Old Hickory,,1506574463000.0,36.25,-86.63,Ransom Patterson,TN,1506574463000.0,4126912
181395892,Nashville,"Bozeman, MT",1431821878000.0,36.18,-86.81,RaShelle,TN,1486044712000.0,4126912
196748345,Nashville,,1449878348000.0,36.09,-86.82,Ray,TN,1500524672000.0,4126912
34814052,Nashville,,1487326447000.0,36.1,-86.66,Ray Cristobal,TN,1506431613000.0,4126912
198310453,Nashville,,1453178917000.0,36.21,-86.72,Ray Hackney,TN,1453178917000.0,4126912
193708077,Hermitage,,1444105062000.0,36.19,-86.6,Raymond Google Sr. ,TN,1447090548000.0,4126912
187371529,Franklin,,1484887137000.0,35.92,-86.89,RC,TN,1507864474000.0,4126912
100367272,Nashville,,1394214769000.0,36.13,-86.8,Rebecca Cronin-Dixon,TN,1403642620000.0,4126912
27231382,Nashville,"Hillsboro, OH",1445819866000.0,36.06,-86.96,Rebecca Dorton,TN,1445819866000.0,4126912
14570291,Nashville,,1431998317000.0,36.22,-86.86,Rebecca Whitney,TN,1475124363000.0,4126912
189938513,Brentwood,,1451351775000.0,36.0,-86.79,Rebekah,TN,1451351775000.0,4126912
225338441,Nashville,,1491747622000.0,36.11,-86.86,Remzee Ayorinde,TN,1496133858000.0,4126912
206848046,Nashville,,1465569957000.0,36.17,-86.78,Ren Teagle,TN,1465569957000.0,4126912
232717997,Brentwood,,1501163187000.0,36.0,-86.79,Renaldo Gomes,TN,1501163187000.0,4126912
10108476,Nashville,,1395755818000.0,36.17,-86.72,Renata ,TN,1495152075000.0,4126912
183726916,Spring Hill,,1421705284000.0,35.76,-86.88,Rene,TN,1421705284000.0,4126912
43332952,Nashville,Nashville,1400135035000.0,36.17,-86.78,Rene'e,TN,1495696710000.0,4126912
221161925,Clarksville,,1485975285000.0,36.56,-87.41,Renee Palicia,TN,1485975285000.0,4126912
193073006,Nashville,,1442897368000.0,36.17,-86.72,Renita Dixon,TN,1442897368000.0,4126912
113983142,Smyrna,,1394260077000.0,36.17,-86.4,Reynard M. Martin,TN,1458671359000.0,4126912
238004137,Nashville,,1507038187000.0,36.06,-86.96,Rhia Nelson,TN,1507038187000.0,4126912
74011552,Nashville,,1448753509000.0,36.13,-86.8,Rho,TN,1505688361000.0,4126912
185407708,Nashville,,1426866948000.0,36.17,-86.78,Rhonda Lamb,TN,1502497080000.0,4126912
164319,Nashville,,1340470100000.0,36.17,-86.78,Ric,TN,1504650285000.0,4126912
152960022,Brentwood,,1477154042000.0,36.0,-86.79,Rich,TN,1504637484000.0,4126912
100310052,Brentwood,,1405986028000.0,36.0,-86.79,Rich Lanam,TN,1486613646000.0,4126912
153185242,Nashville,,1403643586000.0,36.17,-86.78,Richard Harris,TN,1501198376000.0,4126912
17177591,Nashville,Atlanta,1487606147000.0,36.18,-86.81,Richard Rissanen,TN,1494458922000.0,4126912
141051362,San Francisco,San Francisco,1404849868000.0,37.79,-122.42,Richmond Watkins,CA,1404849868000.0,4126912
233824464,Culleoka,,1502474814000.0,35.46,-86.99,rick,TN,1502474814000.0,4126912
191326262,Ashland City,,1440314720000.0,36.28,-87.07,Rick Amburgey,TN,1440314720000.0,4126912
190795680,Spring Hill,,1438557768000.0,35.76,-86.88,Rita,TN,1438557768000.0,4126912
211226303,Nashville,,1471542360000.0,36.18,-86.81,Rita Robertson,TN,1471542360000.0,4126912
184068526,Smyrna,,1422777224000.0,35.97,-86.51,Rob Arriaga,TN,1447731361000.0,4126912
91960712,Nashville,,1428120915000.0,36.17,-86.78,Rob Greenhalgh,TN,1437616686000.0,4126912
163480972,Nashville,,1408982459000.0,36.09,-86.82,Rob Salerno,TN,1409188663000.0,4126912
184066993,Nashville,Evansville,1480894466000.0,36.17,-86.78,Rob Wilson,TN,1508203499000.0,4126912
15545871,Franklin,"Huntsville, AL",1497528097000.0,35.92,-86.89,Robb,TN,1507777492000.0,4126912
185104747,Milwaukee,,1425934922000.0,43.04,-87.92,Robbie Maris,WI,1425938653000.0,4126912
189065135,Columbia,,1435169132000.0,35.61,-87.05,Robert Biehn,TN,1435169132000.0,4126912
11729281,Saratoga Springs,Saratoga Springs,1437501453000.0,43.08,-73.77,Robert Braathe,NY,1438125163000.0,4126912
222890080,Franklin,,1488291307000.0,35.92,-86.89,Robert English,TN,1488291307000.0,4126912
12296568,Nashville,,1398891036000.0,36.17,-86.78,Robert Goldstein,TN,1398891036000.0,4126912
41240712,Nashville,,1448926204000.0,36.08,-86.72,Robert Hartline,TN,1450299140000.0,4126912
87349372,Nashville,,1364872361000.0,36.17,-86.78,Robert Jobe,TN,1364872361000.0,4126912
207813691,La Vergne,,1468268707000.0,36.01,-86.57,Robert Rickman,TN,1468955817000.0,4126912
110274242,Alpine,Alpine,1395077902000.0,36.37,-85.15,Robert Walker,TN,1427137139000.0,4126912
11705428,Nashville,Nashville,1353176659000.0,36.17,-86.78,Robin Kalata,TN,1411671726000.0,4126912
13590820,Thompsons Station,Nashville,1491340595000.0,35.8,-86.9,Robin Tucker,TN,1496866401000.0,4126912
206464818,Franklin,,1465068181000.0,35.92,-86.89,Robin Turner Hawkins,TN,1465068181000.0,4126912
194646054,Clarksville,,1445830429000.0,36.56,-87.41,Rocky Pridemore,TN,1445830429000.0,4126912
231842218,Brentwood,,1500579116000.0,36.0,-86.79,Rodger,TN,1500579116000.0,4126912
227008975,Nashville,,1494014751000.0,36.09,-86.82,RODNEY HILLIARD,TN,1494014751000.0,4126912
201066414,Nashville,,1485792679000.0,36.17,-86.78,Roland Shields,TN,1485792679000.0,4126912
11540932,Nashville,,1430576239000.0,36.13,-86.8,Rolanda Amos,TN,1508465874000.0,4126912
5083413,Nashville,Pittsburgh,1381450955000.0,36.14,-86.74,Ron,TN,1381945303000.0,4126912
225188047,Nashville,Nashville,1499397834000.0,36.15,-86.86,Ron,TN,1502045465000.0,4126912
6548558,Nashville,"Chester, West Virginia",1347305529000.0,36.13,-86.8,Ron Brunk,TN,1485375297000.0,4126912
224858250,Hendersonville,,1491054709000.0,36.3,-86.62,Ron J. Abraham,TN,1501083240000.0,4126912
10775895,Nashville,,1401407318000.0,36.18,-86.81,Ron Ledford Jr,TN,1464367964000.0,4126912
53986992,Franklin,"Franklin, TN",1444935064000.0,35.92,-86.89,ron meda,TN,1447166746000.0,4126912
74650982,Franklin,,1413342412000.0,35.92,-86.89,Ron Whitler,TN,1486909428000.0,4126912
217750158,Nashville,,1480953704000.0,36.17,-86.79,Rory Linton,TN,1480953704000.0,4126912
81632702,Austin,,1405700024000.0,30.29,-97.73,Roshan Gowda,TX,1429529087000.0,4126912
10119159,Hermitage,,1389846125000.0,36.19,-86.6,Ross Jones,TN,1500987232000.0,4126912
234722718,Nashville,,1505855630000.0,36.1,-86.66,Ross Menke,TN,1508333900000.0,4126912
186669140,Thompsons Station,,1430183920000.0,35.8,-86.9,Roy Mangrum,TN,1430183920000.0,4126912
180576812,Nashville,,1414535894000.0,36.09,-86.82,Roy Martin,TN,1424824239000.0,4126912
8179817,Colorado Springs,Colorado Springs,1426973241000.0,38.83,-104.82,Royce Gomez,CO,1462760415000.0,4126912
222350414,Murfreesboro,Murfreesboro,1487690575000.0,35.87,-86.34,rtm,TN,1496396389000.0,4126912
27465332,Nashville,Nashville,1460404738000.0,36.16,-86.79,Ruben Adery,TN,1498827599000.0,4126912
223738717,Brentwood,,1497482662000.0,36.0,-86.79,Ruby MBA Professional,TN,1507598156000.0,4126912
2652159,Smyrna,Smyrna,1470846454000.0,35.97,-86.51,Russell,TN,1486615053000.0,4126912
3453866,Antioch,,1432262053000.0,36.04,-86.64,Ruth Gomez,TN,1432262053000.0,4126912
5414372,Nashville,Nashville,1445484652000.0,36.16,-86.79,Ryan,TN,1456274852000.0,4126912
226704978,Nashville,,1493589143000.0,36.11,-86.78,Ryan Carroll,TN,1496731150000.0,4126912
227922819,Franklin,,1495224374000.0,35.92,-86.89,Ryan Florida,TN,1495224374000.0,4126912
222410791,Nashville,,1487621644000.0,36.09,-86.82,Ryan Frederick,TN,1487621644000.0,4126912
214321375,Nashville,,,36.13,-86.79,,TN,,4126912
215357947,Nashville,,1477082822000.0,36.17,-86.78,Ryan Macy,TN,1477082822000.0,4126912
208081061,Franklin,,1467255619000.0,35.92,-86.89,Ryan McConnell,TN,1467255619000.0,4126912
215070403,Nashville,,1487047630000.0,36.15,-86.68,Ryan Stewart,TN,1487047630000.0,4126912
34208282,Nashville,,1475513427000.0,36.08,-86.72,Ryan Trebilcock,TN,1485177547000.0,4126912
188734438,Hermitage,Hermitage,1438198510000.0,36.19,-86.6,Ryan Yamada,TN,1438198510000.0,4126912
195987999,Alpharetta,,1456623098000.0,34.12,-84.3,s.k,GA,1468276825000.0,4126912
231114392,Nashville,,1499215421000.0,36.17,-86.78,Sabrina,TN,1499215421000.0,4126912
190090311,Nashville,,1438625912000.0,36.16,-86.79,Sabrina Scrivens,TN,1438625912000.0,4126912
166082312,Nashville,Franklin,1500516068000.0,36.13,-86.86,Sagar,TN,1500932244000.0,4126912
223829558,Nashville,,1489614952000.0,36.17,-86.78,saida osman,TN,1489614952000.0,4126912
7660860,Nashville,Nashville,1472032285000.0,36.13,-86.8,Sally Hendrick,TN,1472032285000.0,4126912
38515622,Nashville,,1463168706000.0,36.13,-86.8,Sam,TN,1463168706000.0,4126912
208012431,Franklin,Antioch,1468276465000.0,35.92,-86.89,Sam Sesin,TN,1476388572000.0,4126912
26787912,Smyrna,,1465264445000.0,35.97,-86.51,samahria richie,TN,1496857376000.0,4126912
196467754,Nashville,,1449326027000.0,36.08,-86.72,Samantha Abu-Bakr ,TN,1449326027000.0,4126912
91927932,Nashville,"Nashville, TN",1444614351000.0,36.17,-86.78,Samantha Pointer,TN,1444614351000.0,4126912
186529443,Antioch,,1429889676000.0,36.04,-86.64,Samarra,TN,1473851149000.0,4126912
207103295,Nashville,,1497332301000.0,36.17,-86.78,Samuel Owoyemi,TN,1498780287000.0,4126912
15446041,Nashville,Nashville,1461594492000.0,36.08,-86.72,Samuel Palaparthy,TN,1499098066000.0,4126912
221128997,Nashville,,1485912561000.0,36.17,-86.78,Sandeep Reddy,TN,1501638000000.0,4126912
190744566,Nashville,Nashville,1490403896000.0,36.15,-86.86,Sandra,TN,1490403896000.0,4126912
191634216,Antioch,Antioch,1440202835000.0,36.04,-86.64,Sandra 2013,TN,1440202835000.0,4126912
83999952,Nashville,,1444427087000.0,36.17,-86.78,sandra porter,TN,1492223449000.0,4126912
213880135,Kapra,,1479965622000.0,17.37,78.48,Saneesh,,1483963647000.0,4126912
234032624,Nashville,,1502732852000.0,36.17,-86.72,Sara Campbell,TN,1505128569000.0,4126912
184452253,Lebanon,,1423990645000.0,36.21,-86.31,Sara Drennen,TN,1423990645000.0,4126912
78141972,Nashville,N/A,1483156113000.0,36.21,-86.72,Sarah,TN,1507776623000.0,4126912
199256702,Saint Louis,,1454768717000.0,38.7,-90.46,Sarah Asio,MO,1454768717000.0,4126912
178585042,Nashville,,1505683814000.0,36.17,-86.78,Sarah Chilton,TN,1505683814000.0,4126912
114745012,Nashville,"Jackson, KY",1411255047000.0,36.18,-86.74,Sarah Clevenger,TN,1413784541000.0,4126912
231371988,Franklin,,1499576482000.0,35.92,-86.87,Sarah Jo Brinson,TN,1499576482000.0,4126912
213058310,Nashville,,1474035899000.0,36.17,-86.78,Sarah Murphy,TN,1474035899000.0,4126912
210744268,Nashville,,1470846784000.0,36.17,-86.78,Sarah Murphy,TN,1470846784000.0,4126912
186094747,Nashville,"Houston, TX",1467691322000.0,36.17,-86.78,Sarah Smile,TN,1487839457000.0,4126912
62172152,Franklin,Franklin,1429939912000.0,35.93,-86.81,Saurav Mahajan,TN,1429939912000.0,4126912
232086715,Franklin,,1500388520000.0,35.92,-86.89,Savannah Benefield,TN,1500670946000.0,4126912
182609039,Austin,,1438476110000.0,30.18,-97.85,Saxon Stoner,TX,1508293203000.0,4126912
42767962,Nashville,USA,1485279390000.0,36.17,-86.78,Scott,TN,1485279390000.0,4126912
212790320,Nashville,,1473697070000.0,36.11,-86.86,Scott Field,TN,1483934972000.0,4126912
74778672,Nashville,Nashville,1462665143000.0,36.11,-86.78,Scott MacConnell,TN,1462665143000.0,4126912
13220077,Nashville,,1447283377000.0,36.17,-86.78,SD,TN,1450104783000.0,4126912
186309072,Stockholm,Stockholm,1472157733000.0,59.33,18.07,Sean,,1472157733000.0,4126912
200595234,Nashville,,1457972480000.0,36.09,-86.82,Sean Bedingfield,TN,1457972480000.0,4126912
10592598,Franklin,,1493178398000.0,35.92,-86.89,Sean McLellan,TN,1493178398000.0,4126912
184138725,Nashville,,1422994321000.0,36.17,-86.78,Sean Swenson,TN,1422994321000.0,4126912
92795252,Nashville,,1440135869000.0,36.17,-86.78,Sekou,TN,1481035333000.0,4126912
213057521,Nashville,,1485454600000.0,36.17,-86.78,SELINA BANDA,TN,1485472469000.0,4126912
191242418,Nashville,,1499343966000.0,36.22,-86.77,Shae Johnson,TN,1504808336000.0,4126912
225255212,Nashville,,1491616617000.0,36.13,-86.8,Shah Gaurav,TN,1491616617000.0,4126912
214578793,Antioch,,1492539295000.0,36.04,-86.64,Shalee Marshall,TN,1492539295000.0,4126912
189745900,Nashville,,1436564507000.0,36.22,-86.86,Shameka Johns,TN,1436564507000.0,4126912
69167772,La Vergne,"Rockford, Illinois",1446006522000.0,36.01,-86.57,shannon,TN,1498852144000.0,4126912
196944701,Vero Beach,Vero Beach,1450320377000.0,27.6,-80.45,Shannon de Lima,FL,1450320377000.0,4126912
190553764,Nashville,,1438101676000.0,36.21,-86.72,Shannon Ware,TN,1438101676000.0,4126912
189350049,Nashville,,1446320151000.0,36.17,-86.78,Shante Fentress,TN,1466697916000.0,4126912
234303391,Madison,,1506305539000.0,36.26,-86.71,Shaquille D. Graham,TN,1508201633000.0,4126912
227265962,Nashville,Nashville,1499435697000.0,36.22,-86.77,Sharika,TN,1500393529000.0,4126912
91770992,Franklin,,1367512199000.0,35.92,-86.89,Sharilyn Suzette Smith Grayson,TN,1367512199000.0,4126912
191206714,Clarksville,,1439350209000.0,36.56,-87.41,Sharon Davis ,TN,1445651363000.0,4126912
2574763,Hendersonville,Petaling Jaya,1439753553000.0,36.32,-86.61,Sharon Harty,TN,1486790042000.0,4126912
19658701,Nashville,Minnesota,1447891710000.0,36.06,-86.96,Shatona Groves,TN,1508352695000.0,4126912
197181938,Nashville,,1450991733000.0,36.17,-86.78,Shaun Poore ,TN,1499617324000.0,4126912
41870092,Bethesda,,1360538944000.0,38.96,-77.12,Shauna,MD,1444327453000.0,4126912
217377860,Gallatin,,1480311920000.0,36.39,-86.45,Shawn Cole,TN,1489857825000.0,4126912
100449852,Spring Hill,,1481549372000.0,35.76,-86.88,Shawn Knight,TN,1481549372000.0,4126912
200470862,Nashville,,1471989838000.0,36.17,-86.78,Shawntaz Crawford,TN,1472226638000.0,4126912
137824822,Nashville,,1398655884000.0,36.21,-86.72,Shay Jordan,TN,1398655884000.0,4126912
217563923,Nashville,,1480623965000.0,36.17,-86.78,Shay Young,TN,1480623965000.0,4126912
84227122,Clarksville,,1501623578000.0,36.53,-87.35,Sheba,TN,1508769999000.0,4126912
184266955,Nashville,,1424909972000.0,36.08,-86.72,Sheena Brooks,TN,1424909972000.0,4126912
191901389,Nashville,,1440701617000.0,36.07,-86.78,Sheila Ewing-Agnew,TN,1440701617000.0,4126912
231083258,Nashville,,1499182524000.0,36.17,-86.72,Shekinah Christian,TN,1499182524000.0,4126912
201197304,Mount Juliet,,1457543502000.0,36.22,-86.52,Shelby,TN,1457543502000.0,4126912
193967247,Nashville,,1444594026000.0,36.17,-86.72,Shelby Scott,TN,1444594026000.0,4126912
209481671,Spring Hill,,1469119835000.0,35.76,-86.88,Shelley Edwards Jeffries,TN,1469119835000.0,4126912
22151391,Nashville,,1436718401000.0,36.16,-86.79,Sher Powers,TN,1456187149000.0,4126912
101305342,Franklin,,1373303326000.0,35.93,-86.81,Sheri Johnson,TN,1373303326000.0,4126912
61388892,Lewisburg,,1348180702000.0,35.45,-86.8,Sherry Ferguson,TN,1357325193000.0,4126912
224302706,Nashville,,1490274940000.0,36.17,-86.78,Sherry Nicole Hemric,TN,1490274940000.0,4126912
162098432,Nolensville,,1501252209000.0,35.94,-86.67,Sherry Smothermon-Short,TN,1504622987000.0,4126912
112205682,Nashville,,1403409607000.0,36.09,-86.82,Shonka,TN,1453717352000.0,4126912
185897279,Nashville,,1445636513000.0,36.15,-86.86,Shruti,TN,1453760997000.0,4126912
13020249,Brentwood,"Canton, NC",1340486308000.0,36.0,-86.79,Sibyl White,TN,1359301540000.0,4126912
107663072,Spring Hill,Spring Hills,1469847237000.0,35.76,-86.88,Sidar Cisneros,TN,1474859064000.0,4126912
150289852,Nashville,,1424716725000.0,36.17,-86.72,Simone Gonzalez,TN,1468807941000.0,4126912
4375859,Nashville,FLA,1422579407000.0,36.15,-86.86,socrow,TN,1498833348000.0,4126912
137420832,Nashville,,1457816030000.0,36.15,-86.8,Sol,TN,1479516316000.0,4126912
193364727,Antioch,,1443459224000.0,36.04,-86.64,Southern Comfort Home Inspection,TN,1443459224000.0,4126912
219230583,Barcelona,,1501607976000.0,41.4,2.17,Spencer Heath,,1501607976000.0,4126912
232583106,Russellville,,1501079247000.0,36.83,-86.92,Staci DeArmond,KY,1505219661000.0,4126912
185140314,Las Vegas,Las Vegas,1426032978000.0,36.02,-115.15,Stacia Jo,NV,1472233612000.0,4126912
233216153,Nashville,,1501787353000.0,36.13,-86.8,Stacie Holland,TN,1501787353000.0,4126912
204911817,Hermitage,,1462923575000.0,36.19,-86.6,Stacy Hendrixson,TN,1462923575000.0,4126912
13138094,Bangalore,Marathahalli,1433759648000.0,12.97,77.56,Stanislaus Ravindhra Kumar,,1447723401000.0,4126912
182872288,Lebanon,Lebanon,1453867342000.0,36.21,-86.31,Stanley Davenport,TN,1458167463000.0,4126912
208751333,Nashville,,1468172518000.0,36.08,-86.72,Steph Bergy,TN,1468172518000.0,4126912
123283912,Nashville,,1498521298000.0,36.22,-86.77,Stephanie ,TN,1499372998000.0,4126912
213226004,Portland,Portland,1474942778000.0,45.51,-122.6,Stephanie Graves,OR,1475250069000.0,4126912
193013984,Nashville,,1442795066000.0,36.17,-86.72,Stephanie Reith,TN,1442795066000.0,4126912
230132340,Spring Hill,,1498011526000.0,35.76,-86.88,Stephanie Wilson,TN,1500857631000.0,4126912
214419992,Hopkinsville,,1504632602000.0,36.87,-87.48,Stephen,KY,1506803769000.0,4126912
239303068,Clarksville,,1508482463000.0,36.56,-87.35,Stephen B,TN,1508482463000.0,4126912
201753556,Mount Juliet,,1458335186000.0,36.22,-86.52,Stephen Gilbert,TN,1483942376000.0,4126912
214391673,Nashville,,1475673287000.0,36.11,-86.86,Stephen P,TN,1475673287000.0,4126912
9683224,La Vergne,,1446047687000.0,36.01,-86.57,Stephen Seifert,TN,1506989501000.0,4126912
33706392,Franklin,,1474665724000.0,35.92,-86.91,Sterling,TN,1504834728000.0,4126912
231625523,Nashville,,1499820668000.0,36.17,-86.78,Steve,TN,1500678653000.0,4126912
45955362,Mount Juliet,"Miami, FL",1452210360000.0,36.22,-86.52,Steve Baker,TN,1452210360000.0,4126912
137269002,Nashville,,1395964933000.0,36.13,-86.8,Steve Glovsky,TN,1461766488000.0,4126912
204677453,Nashville,,1466222483000.0,36.17,-86.78,Steve Glovsky,TN,1481265051000.0,4126912
213413268,Brentwood,,1474476853000.0,36.0,-86.79,Steve Jones,TN,1474476853000.0,4126912
196176929,Hermitage,,1474771594000.0,36.19,-86.6,Steve Kozy,TN,1474771594000.0,4126912
207631040,Nashville,,1480380974000.0,36.17,-86.78,Steve Lilly,TN,1490140317000.0,4126912
230339390,Nashville,,1498256749000.0,36.09,-86.82,Steve M.,TN,1502326048000.0,4126912
194640094,Nashville,,1445820506000.0,36.17,-86.78,Steve Nyemba,TN,1445820506000.0,4126912
185408999,Nashville,,1426869850000.0,36.17,-86.72,Steve Raimo,TN,1426869850000.0,4126912
2703855,Nashville,"Owensboro, KY",1449236252000.0,36.18,-86.74,"Steve Roehm, MHt, MNLP, CMT",TN,1500724776000.0,4126912
186333657,Nashville,,1429447867000.0,36.17,-86.72,Steve Y,TN,1429708055000.0,4126912
239205572,Murfreesboro,,1508366915000.0,35.87,-86.44,Steven Butler,TN,1508366915000.0,4126912
184744302,Nashville,,1461766042000.0,36.08,-86.72,Steven G. Sigmon,TN,1461782888000.0,4126912
199469476,Nashville,,1455090294000.0,36.16,-86.79,Steven Goss,TN,1455090294000.0,4126912
204142040,Nashville,,1487222174000.0,36.07,-86.78,Steven Kroeger,TN,1487860452000.0,4126912
221725052,Nashville,,1486666871000.0,36.21,-86.72,Steven Woodson,TN,1486666871000.0,4126912
3622988,Clarksville,Clarksville,1477505602000.0,36.49,-87.23,Storm,TN,1503369684000.0,4126912
11425767,Nashville,Nashville,1441719702000.0,36.13,-86.8,Stuart Brent,TN,1441719702000.0,4126912
229114345,Franklin,,1496716846000.0,35.92,-86.89,Sue Manley Lombardo,TN,1496716846000.0,4126912
201881464,Goodlettsville,,1458603748000.0,36.33,-86.74,Sue OFallon,TN,1463868383000.0,4126912
12753254,Pewaukee,Milwaukee,1421164742000.0,43.08,-88.26,Sufi,WI,1456244018000.0,4126912
188986907,Nashville,"Nashville, TN",1435009645000.0,36.22,-86.77,suggaNspice.net & ShoeFetish.biz,TN,1435626458000.0,4126912
190729691,Chattanooga,,1438440045000.0,35.05,-85.3,Sujin,TN,1438440045000.0,4126912
187221306,Antioch,,1441506325000.0,36.04,-86.64,Surreal,TN,1490588667000.0,4126912
12793115,Hermitage,,1340468814000.0,36.19,-86.6,Susan Burdorf,TN,1424950174000.0,4126912
8698539,Brentwood,,1340633303000.0,36.0,-86.79,Susan Schaefer,TN,1340633303000.0,4126912
211926506,Nashville,,1472517124000.0,36.17,-86.72,Sushant,TN,1472517124000.0,4126912
8770254,Franklin,"Franklin, TN",1502452563000.0,35.92,-86.89,Sutton Parks,TN,1502452563000.0,4126912
479232,Nashville,Nashville,1426447815000.0,36.08,-86.72,sydc,TN,1486648396000.0,4126912
189605209,Nashville,,1436288783000.0,36.13,-86.8,Sydney Raines,TN,1436288783000.0,4126912
152734902,Chattanooga,"Nashville, TN",1420243507000.0,35.04,-85.31,Symone Redmond,TN,1425391303000.0,4126912
182903698,Cottontown,,1418087252000.0,36.49,-86.59,T.Rex,TN,1487636599000.0,4126912
216517160,Nashville,,1478897912000.0,36.09,-86.82,Taiwanda Bason,TN,1485491939000.0,4126912
210520916,Antioch,,1470534527000.0,36.04,-86.64,Taku Kataura,TN,1470534527000.0,4126912
34526012,Brentwood,Nashville/Atlanta,1452795348000.0,36.0,-86.79,Tam,TN,1499499504000.0,4126912
228190851,Springfield,,1499988077000.0,36.52,-86.87,Tamara Beard,TN,1501124320000.0,4126912
202684920,Nashville,,1461459783000.0,36.11,-86.78,Tamaria Smith,TN,1466979188000.0,4126912
239195203,Nashville,,1508359330000.0,36.06,-86.96,Tameria Sneed,TN,1508359330000.0,4126912
205196518,Louisville,,1467683503000.0,38.16,-85.79,Tammie Floyd,KY,1471204277000.0,4126912
110335242,Franklin,,1452227579000.0,35.93,-86.81,Tammy Hart,TN,1452227579000.0,4126912
235359560,Spring Hill,,1504297449000.0,35.76,-86.91,Tammy Kelley,TN,1504297449000.0,4126912
215491339,Nashville,,1477285468000.0,36.17,-86.78,Tammy Winston,TN,1477285468000.0,4126912
227531109,Murfreesboro,,1494713150000.0,35.87,-86.44,Tanner Fite,TN,1494713150000.0,4126912
187254915,Brisbane,,1480546309000.0,-27.47,153.03,Taplino Dahmari,,1480546309000.0,4126912
222065087,Nashville,,1487134658000.0,36.14,-86.74,Tarekegn Sisay,TN,1487134658000.0,4126912
210228447,Nashville,,1470109554000.0,36.18,-86.74,Tarleshia Johnson,TN,1470109554000.0,4126912
231233914,Nashville,,1499365990000.0,36.17,-86.78,Tasheka Terry,TN,1499365990000.0,4126912
21656671,Nashville,Nashville,1393981672000.0,36.18,-86.81,Taurus Carter,TN,1474816568000.0,4126912
5790812,Nashville,,1464782427000.0,36.08,-86.72,Tausha,TN,1464782427000.0,4126912
236317581,Nashville,,1505239519000.0,36.16,-86.79,Taylar Proctor,TN,1505239519000.0,4126912
5965232,Murfreesboro,Murfreesboro,1427376518000.0,35.82,-86.45,Taylor,TN,1468880510000.0,4126912
217926280,Nashville,,1481246339000.0,36.09,-86.82,Taylor Cochran,TN,1481246339000.0,4126912
48237692,Nashville,Nashville,1395964667000.0,36.17,-86.78,Taylor Fraley,TN,1424716449000.0,4126912
228153255,Nashville,,1495497402000.0,36.09,-86.82,Taylor Johnson,TN,1495497402000.0,4126912
126066112,Nashville,Nashville,1455302084000.0,36.17,-86.78,Taylor Michael Matson,TN,1468990916000.0,4126912
197780056,Nashville,,1452204607000.0,36.06,-86.96,Taylor Preston,TN,1453952997000.0,4126912
187356606,Nashville,,1436812391000.0,36.09,-86.82,Ted Ciuba,TN,1501609733000.0,4126912
137230272,Hendersonville,,1410389503000.0,36.33,-86.66,ted fleming,TN,1508732815000.0,4126912
193037942,Nashville,,1442843364000.0,36.08,-86.72,Tee Banks,TN,1445566313000.0,4126912
12525362,Nashville,East Nashville,1434963225000.0,36.18,-86.74,TeeJay,TN,1435192965000.0,4126912
10222331,Clarksville,"Champaign, IL",1428930748000.0,36.56,-87.41,Teena,TN,1452468924000.0,4126912
185362461,Goodlettsville,,1426717529000.0,36.33,-86.74,Tender Heart,TN,1426717529000.0,4126912
173642582,Paducah,"Annapolis, MD",1488513947000.0,37.04,-88.71,Terri Buri,KY,1506560021000.0,4126912
204540190,Antioch,,1462631091000.0,36.04,-86.64,Terry Maddox,TN,1466736668000.0,4126912
186261612,Nashville,,1429256715000.0,36.14,-86.74,Terry McMoore,TN,1499034173000.0,4126912
192235411,Nashville,,1441342820000.0,36.06,-86.96,The,TN,1466522971000.0,4126912
202080627,Gallatin,,1458817962000.0,36.39,-86.45,The Cake Smartist,TN,1458817962000.0,4126912
202858187,Hendersonville,,1459968349000.0,36.32,-86.61,Thom Golden,TN,1459968349000.0,4126912
184369702,Nashville,"Gloucester, MA",1423711588000.0,36.06,-86.96,Thomas,TN,1423711588000.0,4126912
183593636,Presque Isle,"Presque Isle, ME",1482977625000.0,46.68,-68.01,Thomas Buckingham,ME,1498794603000.0,4126912
139006842,Nashville,,1418103281000.0,36.15,-86.81,Thomas Gideon,TN,1487802614000.0,4126912
214903585,Murfreesboro,,1476416343000.0,35.87,-86.44,Thomas Helm,TN,1482020914000.0,4126912
11191503,Nashville,Nashville,1438966242000.0,36.17,-86.78,Thomas Humphrey,TN,1438966242000.0,4126912
210182891,Mount Juliet,,1470064469000.0,36.21,-86.52,Tia,TN,1470078269000.0,4126912
7484313,Montgomery,San Diego/Philadelphia,1497808643000.0,32.4,-86.33,Tiffany,AL,1506553120000.0,4126912
200862670,Nashville,,1459110495000.0,36.16,-86.79,Tiffany,TN,1459110495000.0,4126912
191904975,Vine Grove,,1440707440000.0,37.81,-85.99,Tiffany Dunigan,KY,1440707440000.0,4126912
194647373,Arrington,,1445832406000.0,35.86,-86.66,Tiffany Hays,TN,1486612020000.0,4126912
203231333,Atlanta,Houston,1489092122000.0,33.75,-84.39,Tiffany Largie,GA,1489092122000.0,4126912
201697542,Franklin,,1458250522000.0,35.92,-86.89,Tiger Webster,TN,1461969197000.0,4126912
198659262,Nashville,,1453826027000.0,36.11,-86.86,Tim,TN,1453826027000.0,4126912
12784425,Nashville,,1391136354000.0,36.17,-86.78,Tim Bruxvoort,TN,1443552441000.0,4126912
9470306,Nashville,,1340468043000.0,36.11,-86.86,Tim Cummings,TN,1472434431000.0,4126912
186513114,Antioch,,1429841268000.0,36.04,-86.64,Tim Litzinger,TN,1453173883000.0,4126912
194532605,Franklin,,1445632142000.0,35.99,-86.9,Tim McNamara ,TN,1445632142000.0,4126912
23307071,Nashville,Nashville,1417564763000.0,36.22,-86.77,Timmery,TN,1443552819000.0,4126912
51364572,Nashville,,1340557193000.0,36.22,-86.86,timothy,TN,1347404214000.0,4126912
204154634,Nashville,,1461812825000.0,36.09,-86.82,Timothy Cole,TN,1461812825000.0,4126912
62564532,Old Hickory,"New York, NY",1474742055000.0,36.2,-86.62,Tina Perry,TN,1504679438000.0,4126912
183451063,Richmond Hill,"Savannah, GA",1423099015000.0,31.88,-81.28,Tiran Shuman,GA,1423099015000.0,4126912
96945342,Indianapolis,Indianapolis,1404686730000.0,39.79,-86.3,Tisha Livingston,IN,1436876563000.0,4126912
14578863,Eagleville,,1421817143000.0,36.11,-86.78,Toby Lemley,TN,1421817143000.0,4126912
1831823,Brentwood,Nashville,1399436611000.0,36.0,-86.79,Todd,TN,1424462913000.0,4126912
5861026,Hendersonville,"Bloomington, IL",1340570775000.0,36.32,-86.61,Todd,TN,1504664039000.0,4126912
196687395,Brentwood,,1450269386000.0,36.0,-86.79,Todd Buchanan,TN,1454042148000.0,4126912
3955905,Murfreesboro,"Hawthorne, NJ",1396063127000.0,35.87,-86.44,Todd O'Neill,TN,1442600702000.0,4126912
62268012,Murfreesboro,Murfreesboro,1416427347000.0,35.82,-86.45,Tom,TN,1422308603000.0,4126912
218764891,Nashville,,1485142154000.0,36.16,-86.66,Tom Belcher,TN,1485142154000.0,4126912
206383524,Mount Juliet,,1464959728000.0,36.21,-86.52,Tom Sanchez,TN,1464959728000.0,4126912
180860502,Nashville,,1440621656000.0,36.11,-86.86,Tom Truitt,TN,1477262573000.0,4126912
239487085,Nashville,,1508697692000.0,36.08,-86.72,Tom Wiser,TN,1508697692000.0,4126912
184354271,Columbia,,1423671050000.0,35.61,-87.05,Tommy Lemon,TN,1423671050000.0,4126912
189796987,Nashville,,1445380954000.0,36.17,-86.78,Tommy Pruchinski,TN,1445380954000.0,4126912
217403071,Nashville,,1508291019000.0,36.17,-86.78,Toni,TN,1508291019000.0,4126912
194743908,Nashville,,1445995718000.0,36.17,-86.78,Tony Montana,TN,1450456038000.0,4126912
1889955,Murfreesboro,Hong Kong,1425301299000.0,35.82,-86.44,Tony Wan,TN,1425301299000.0,4126912
30780262,Hermitage,DMV,1501958023000.0,36.18,-86.6,Tonya,TN,1506172256000.0,4126912
186083751,Hendersonville,,1428808693000.0,36.32,-86.61,TonyaMcBride,TN,1428808693000.0,4126912
198948915,Mount Juliet,,1461789740000.0,36.22,-86.52,Torri,TN,1461789740000.0,4126912
204964076,Nashville,,1467571988000.0,36.08,-86.72,Tracey Mathis Jr.,TN,1467571988000.0,4126912
217108779,Nashville,,1479823603000.0,36.17,-86.72,Tracie Montgomery,TN,1479823603000.0,4126912
8228323,Nashville,,1412517174000.0,36.17,-86.78,tracy ,TN,1508248788000.0,4126912
203170465,Brentwood,,1460406548000.0,36.0,-86.79,Tramaine Crook,TN,1460406548000.0,4126912
100781292,Nashville,"Nashville, TN",1439401009000.0,36.18,-86.69,Travelle,TN,1445556887000.0,4126912
45685352,Nashville,,1461698154000.0,36.17,-86.78,Travis Petelle,TN,1496343659000.0,4126912
184332334,Nashville,,1427107341000.0,36.17,-86.78,Tremaine James,TN,1486548202000.0,4126912
221180409,Nashville,,1485981603000.0,36.18,-86.81,Trevor Boren,TN,1485981603000.0,4126912
229526648,Clarksville,,1497235312000.0,36.53,-87.35,Tricia Hale,TN,1497235312000.0,4126912
229895339,Fort Campbell,,1497717704000.0,36.65,-87.46,Trish,KY,1497717704000.0,4126912
190790257,Antioch,,1453837776000.0,36.04,-86.64,Trish Lober,TN,1455805269000.0,4126912
12539308,Nashville,,1449970787000.0,36.08,-86.72,Troy,TN,1506635008000.0,4126912
190469770,Bangalore,,1481479457000.0,12.98,77.53,Trupti Nayak,,1481479457000.0,4126912
201445156,Nashville,"Nashville, TN",1459973672000.0,36.17,-86.78,Ty Gilliam,TN,1464030130000.0,4126912
36167202,Nashville,Nashville,1430967057000.0,36.06,-86.96,Ty Hamilton,TN,1430967057000.0,4126912
218222071,Nashville,,1481782410000.0,36.07,-86.73,Tyler Murray,TN,1481782410000.0,4126912
185257594,Franklin,Nashville,1454619974000.0,35.93,-86.81,Tyler Shane Nichols,TN,1454619974000.0,4126912
223215742,Murfreesboro,,1489076928000.0,35.82,-86.45,Tyrella Slemp,TN,1490841493000.0,4126912
32159462,Nashville,,1477563380000.0,36.17,-86.78,Uchendi Nwani,TN,1499372941000.0,4126912
183816170,Cookeville,,1421958765000.0,36.2,-85.52,Valerie,TN,1422128311000.0,4126912
196619550,Nashville,,1449611737000.0,36.18,-86.74,Vanessa Helene,TN,1449611737000.0,4126912
79866892,Brentwood,,1453834662000.0,36.0,-86.79,Vanessa Lentz,TN,1487908358000.0,4126912
198266734,Murfreesboro,,1453107360000.0,35.78,-86.33,Veljko B.,TN,1455815263000.0,4126912
94818832,Nashville,,1442968739000.0,36.17,-86.79,Veronica Leto,TN,1445460171000.0,4126912
235884686,Nashville,,1504794913000.0,36.06,-86.96,Veronica Perry,TN,1504794913000.0,4126912
187484619,Brentwood,,1431973881000.0,36.0,-86.79,Vic Rumore,TN,1485267684000.0,4126912
220597234,Nashville,,1485248067000.0,36.06,-86.96,Vicky,TN,1501721782000.0,4126912
221755997,Nashville,,1487807548000.0,36.11,-86.78,Victor Bradley,TN,1498679043000.0,4126912
191190202,Nashville,,1506209039000.0,36.17,-86.78,Victor Ochoa,TN,1508596980000.0,4126912
150144022,Nashville,,1401994500000.0,36.09,-86.82,Victoria McClaran,TN,1401994500000.0,4126912
223599428,Springfield,,1490566043000.0,36.52,-86.87,victoria riley,TN,1490566043000.0,4126912
203230669,Nashville,,1460488748000.0,36.1,-86.66,Victoria Woodworth,TN,1474307059000.0,4126912
195499662,Clarksville,,1447395597000.0,36.56,-87.41,Vievy,TN,1447395597000.0,4126912
185207862,Fairview,,1479573474000.0,35.97,-87.13,Vincent,TN,1479573474000.0,4126912
1966421,Nashville,,1430401429000.0,36.17,-86.72,Vinny Ribas,TN,1430401429000.0,4126912
11488999,Clarksville,Oklahoma,1478734393000.0,36.56,-87.41,Vondell Richmond,TN,1485411249000.0,4126912
130960592,Nashville,,1411099746000.0,36.17,-86.78,Wade Reichert,TN,1411099746000.0,4126912
106943582,Nashville,,1436167285000.0,36.17,-86.78,Wale Myst,TN,1436167285000.0,4126912
144848672,Nashville,,1429722271000.0,36.09,-86.82,Walker Igleheart,TN,1468940509000.0,4126912
3822505,Nashville,,1355803165000.0,36.06,-86.96,Wanda (peppa),TN,1376522057000.0,4126912
208902374,Clarksville,,1468358237000.0,36.56,-87.41,Wanda A. Gee,TN,1468358237000.0,4126912
129012662,Nashville,,1444677468000.0,36.16,-86.79,Warren Sadler,TN,1444677468000.0,4126912
217058612,Nashville,,1479744954000.0,36.09,-86.82,Warren Troy Bondi,TN,1479744954000.0,4126912
206545047,Nashville,,1498757332000.0,36.08,-86.72,Wayne Alvar,TN,1508793738000.0,4126912
236693603,Nashville,,1505602778000.0,36.18,-86.74,Wayne Killius,TN,1505602778000.0,4126912
219341592,Hendersonville,,1483660332000.0,36.32,-86.61,Wayne Stoutenburg,TN,1483660332000.0,4126912
9180644,Brentwood,,1420668318000.0,36.0,-86.79,Wayne Woodson,TN,1443135536000.0,4126912
197505453,Nashville,,1474996952000.0,36.17,-86.78,Wendy Duncan,TN,1500994797000.0,4126912
214901669,Clarksville,,1476412923000.0,36.53,-87.35,Wes Foster,TN,1485192362000.0,4126912
53991012,Nashville,Nashville,1459619311000.0,36.06,-86.96,Wes Nelson,TN,1466534226000.0,4126912
206748135,Nashville,,1477596187000.0,36.17,-86.78,Whit Joseph,TN,1477596187000.0,4126912
227679314,Nashville,,1494916951000.0,36.17,-86.78,Wilfred Sarenga,TN,1495004311000.0,4126912
22630631,Nashville,Nashville,1458836686000.0,36.18,-86.74,Will ,TN,1458836686000.0,4126912
10990094,Nashville,,1403468239000.0,36.17,-86.72,Will Mulligan,TN,1409166258000.0,4126912
18217941,Nashville,,1366701284000.0,36.17,-86.78,Will Prater,TN,1366701284000.0,4126912
184996090,Nashville,,1426787068000.0,36.22,-86.77,William Moroney,TN,1488327752000.0,4126912
201073345,Pleasant View,,1457367678000.0,36.38,-87.04,William Woolverton,TN,1457367678000.0,4126912
196309677,Muscle Shoals,,1449002960000.0,34.75,-87.64,Willie Simpson,AL,1449002960000.0,4126912
194150054,New York,,1444936192000.0,40.75,-73.99,Willie Thedevilisalie Jones,NY,1507775888000.0,4126912
184755847,Murfreesboro,,1424908588000.0,35.87,-86.44,Wilson Barnes,TN,1424908588000.0,4126912
191558145,Murfreesboro,,1440073581000.0,35.87,-86.44,Winter Marshall,TN,1440073581000.0,4126912
158026872,Nashville,,1502934413000.0,36.17,-86.78,Woody Halloran,TN,1508786842000.0,4126912
189531449,Clarksville,,1436148966000.0,36.56,-87.41,Yara Loua,TN,1436148966000.0,4126912
93699222,Nashville,,1508444790000.0,36.22,-86.77,Yasser Ayed,TN,1508444790000.0,4126912
174031072,Thompsons Station,,1435794304000.0,35.8,-86.9,Yvette,TN,1445389402000.0,4126912
102492162,Nashville,"Huntsville, AL",1453996778000.0,36.17,-86.78,Zac Jones,TN,1455749393000.0,4126912
237635747,Nashville,,1506617679000.0,36.09,-86.82,Zach Kent,TN,1506617679000.0,4126912
233267041,Nashville,,1502338110000.0,36.08,-86.72,Zach Reister,TN,1502338110000.0,4126912
97356192,Nashville,Nashville,1422415199000.0,36.13,-86.8,Zach Schimenz,TN,1427307744000.0,4126912
116128172,Nashville,"Jackson, MS",1437279339000.0,36.17,-86.78,Zachary Esters,TN,1445066408000.0,4126912
11149295,Nashville,Delphos,1497851948000.0,36.17,-86.72,Zack Benner,TN,1497851948000.0,4126912
10419058,Lewisburg,,1396289568000.0,35.45,-86.8,Zak Carter,TN,1396289568000.0,4126912
201148031,Nashville,,1457470104000.0,36.09,-86.82,Zander El-Hindi,TN,1457470104000.0,4126912
186673449,White House,,1430192453000.0,36.48,-86.69,Zarabeth Anderson Licensed Esthe,TN,1430192453000.0,4126912
185165830,Nashville,,1448719170000.0,36.15,-86.86,zarin Buckingham,TN,1498701748000.0,4126912
158138102,Mumbai,sandy springs,1453151244000.0,19.11,72.85,Zubin,,1483922087000.0,4126912
