id,city,hometown,joined,lat,lon,name,state,visited,group_id
33442652,Nashville,,1324879094000,36.17,-86.79,'Ven Moon,TN,1324879094000,504095
4659619,Phoenix,FEMA CAMP,1195206058000,33.58,-112.01,4409,AZ,1348554679000,504095
11003299,Nashville,,1313504573000,36.22,-86.86,Aaron Kelly,TN,1314881625000,504095
6324037,Nashville,,1201893846000,36.17,-86.79,Adam Evans,TN,1201893846000,504095
5793652,Nashville,,1196808223000,36.17,-86.79,Adam Lovell,TN,1202327986000,504095
33897632,Nashville,Murfreesboro,1328139604000,36.1,-86.66,Adam McCook,TN,1328644565000,504095
21601031,Nashville,,1312312213000,36.17,-86.79,Adam Phillips ,TN,1312326137000,504095
40205572,Nashville,,1330631246000,36.17,-86.79,Adam Puckett,TN,1334494563000,504095
39677292,Nashville,,1330352882000,36.17,-86.79,Aislinn,TN,1390990293000,504095
31524012,Nashville,,1322312182000,36.17,-86.79,Alan Alsup,TN,1322312519000,504095
5277939,Nashville,,1191730945000,36.17,-86.79,Albert Hempker,TN,1269890615000,504095
39893212,Spring Hill,,1330385952000,35.76,-86.88,Alex Schneider,TN,1330386261000,504095
8092689,Nashville,,1222293520000,36.17,-86.79,Allison Tinius,TN,1235509075000,504095
6102121,Nashville,,1199994803000,36.17,-86.72,Allison Tinius,TN,1201987735000,504095
31048572,Nashville,,1321651185000,36.17,-86.79,Alyssa Hodges,TN,1331160709000,504095
8818042,Franklin,Smithville,1233760111000,35.92,-86.89,Amanda Smith,TN,1267386836000,504095
46532532,Maryville,,1335928698000,35.75,-83.97,Amy Kathleen Rose,TN,1335928698000,504095
35047822,New York,,1428411948000,40.76,-73.99,Amy Lombard,NY,1435502304000,504095
5326901,Thompsons Station,,1192195974000,35.8,-86.9,Andrea White ,TN,1196525820000,504095
20557251,Brentwood,,1324907341000,36.0,-86.79,Andrew Anderson,TN,1326654135000,504095
4214674,Rockville,,1200417188000,39.09,-77.17,Andrew Panken,MD,1203730767000,504095
129741382,Nashville,,1427939677000,36.17,-86.78,Andrew Richard Stockton Field,TN,1427939677000,504095
5238623,Nashville,,1191360347000,36.17,-86.79,Andy,TN,1191360347000,504095
55699862,Spring Hill,Murfreesboro,1342937918000,35.76,-86.88,Angela,TN,1349953357000,504095
63455302,Nashville,,1348386562000,36.17,-86.78,Angela Roper,TN,1389879570000,504095
41454952,Nashville,,1331682765000,36.17,-86.79,Anne Marie Gary,TN,1387201924000,504095
37187292,Nashville,,1328165264000,36.17,-86.79,Ashley Ashworth,TN,1328899929000,504095
4816176,Nashville,Nashville,1187289949000,36.08,-86.72,Ashley Jordan,TN,1374974687000,504095
36144092,Murfreesboro,,1327355727000,35.87,-86.44,Ashlie Smart,TN,1332547911000,504095
5614460,Nashville,,1194995892000,36.17,-86.79,Audrey Miller,TN,1303535612000,504095
4688577,Nashville,,1186546000000,36.11,-86.86,austin,TN,1202108181000,504095
7827517,Brentwood,,1218469708000,36.0,-86.79,Barry Gregory,TN,1227287049000,504095
4833665,Nashville,,1187465628000,36.08,-86.72,barrydonegan,TN,1371489222000,504095
5564773,Nashville,,1194540514000,36.17,-86.79,Ben Cunningham,TN,1360939905000,504095
219636959,Nashville,,1484028546000,36.17,-86.79,Ben Hardy,TN,1484028546000,504095
6376600,Franklin,,1202356646000,35.92,-86.89,Bex Fogell,TN,1202574474000,504095
5910050,Crossville,,1199068750000,35.95,-85.03,Bob Lord,TN,1221598536000,504095
26201082,Nashville,,1316903630000,36.17,-86.79,Brad Creel,TN,1317092081000,504095
32281832,Cookeville,,1323214863000,36.2,-85.52,Brady Warner Wright,TN,1323214863000,504095
5978049,Nashville,Nashville,1198884638000,36.17,-86.79,Brandi Jeane,TN,1370797788000,504095
105757662,Hendersonville,,1376023957000,36.32,-86.61,Brandon,TN,1403632362000,504095
7824251,Marina del Rey,,1225444727000,33.99,-118.45,Brandon,CA,1225444727000,504095
6053195,Nashville,,1199625746000,36.17,-86.79,Brandy Adams,TN,1199638198000,504095
62418442,Nashville,,1472221642000,36.16,-86.79,Brenda Dillard,TN,1472221642000,504095
44129362,Kingsport,,1334145953000,36.55,-82.55,Brenda Lenard,TN,1334145953000,504095
8158523,Hermitage,,1223351207000,36.19,-86.6,Brent Duncan,TN,1224031727000,504095
6361748,Nashville,,1202592452000,36.17,-86.79,brent ellis,TN,1202592452000,504095
25803222,Nashville,,1316497312000,36.17,-86.79,Brent Reynolds,TN,1318203462000,504095
4066075,Mayer,Spring Valley,1230588243000,34.32,-112.12,Brian,AZ,1230588243000,504095
5635650,Melbourne,,1325932810000,28.07,-80.69,Brian Wowak,FL,1325932810000,504095
4030864,Chattanooga,New Orleans,1195191368000,35.0,-85.23,Briann Lambert,TN,1210818453000,504095
37439192,Nashville,,1328385610000,36.17,-86.79,Bridget Deering,TN,1328385610000,504095
4767585,Nashville,,1186779572000,36.14,-86.74,Britt Childress,TN,1361412116000,504095
26585352,Nashville,,1317265788000,36.17,-86.79,Brooke Heys Isbell,TN,1323199969000,504095
5279110,Nashville,,1191783569000,36.17,-86.79,bruce crawford,TN,1359748167000,504095
4388176,Nashville,,1182531706000,36.17,-86.79,Burgher Builder,TN,1295767206000,504095
4088315,Goodlettsville,Goodlettsville,1185245930000,36.33,-86.74,Byron,TN,1201110746000,504095
27432622,Pittsburgh,,1318107347000,40.5,-80.07,Caitlin Windsor Cunningham,PA,1395179799000,504095
33376112,Nashville,,1324708430000,36.17,-86.79,caleb chandler,TN,1324708795000,504095
16337341,Nashville,,1318822433000,36.22,-86.77,Caleb Plain,TN,1319237428000,504095
4464268,Nashville,,1185329060000,36.11,-86.86,Calway,TN,1186348577000,504095
38434522,Nashville,,1329195922000,36.17,-86.79,Candace Bury,TN,1359672644000,504095
5741451,Portland,,1196281178000,36.57,-86.49,Carol ,TN,1298404104000,504095
5127592,Woodbury,,1190334381000,35.81,-86.07,Carol Fisher,TN,1367613732000,504095
5998281,Woodbury,,1319918256000,35.81,-86.07,Carol Fisher,TN,1395265728000,504095
69873362,Hendersonville,,1353664221000,36.32,-86.61,Carolyn Large,TN,1359309187000,504095
226345715,Nashville,,1493099406000,36.17,-86.78,Cason Grace,TN,1493099406000,504095
54506242,Thompsons Station,,1342073793000,35.8,-86.9,Chad Cordell,TN,1342073793000,504095
5195519,Hendersonville,,1190946372000,36.32,-86.61,Charles,TN,1195524281000,504095
41930382,Nashville,,1332119069000,36.17,-86.79,Charles McCown,TN,1360796977000,504095
5794742,Nashville,,1196816996000,36.17,-86.79,Charles Ware,TN,1419859649000,504095
188143652,Madison,,1490604556000,36.26,-86.71,Charles Whitnel,TN,1500490771000,504095
11371804,Nashville,,1457658865000,36.11,-86.86,Charles Whitnel,TN,1493945528000,504095
10697128,Nashville,,1415525287000,36.11,-86.86,Charles Whitnel,TN,1494625105000,504095
26425862,Nashville,,1317133761000,36.1,-86.66,Charlton Moore,TN,1317141837000,504095
422722,Dandridge,Dandridge,1201193010000,36.02,-83.42,Chris,TN,1278081275000,504095
6449556,Nashville,,1203018425000,36.08,-86.72,Chris ,TN,1334768770000,504095
1759504,Maryville,,1268596936000,35.76,-83.96,Chris,TN,1330821996000,504095
2813004,Memphis,Memphis,1261550094000,35.19,-89.93,Chris,TN,1376944114000,504095
9113556,Nashville,,1330619350000,36.11,-86.86,Chris Bunch,TN,1330634226000,504095
186379477,Nashville,,1429718834000,36.17,-86.78,Chris Greene,TN,1429718834000,504095
7718909,Antioch,"Vernon, NY",1222098177000,36.17,-86.88,Chris Polson,TN,1334931229000,504095
26621412,Nashville,,1317314154000,36.17,-86.79,Chris Scott,TN,1317321446000,504095
5966474,Nashville,Nashville,1198764062000,36.17,-86.72,Chris Tucker,TN,1220653758000,504095
4254867,Nashville,,1180126594000,36.17,-86.79,CHris U,TN,1410985507000,504095
4877534,Nashville,,1187906649000,36.17,-86.79,Chris Young,TN,1414790128000,504095
5654690,Nashville,,1195393986000,36.17,-86.79,Christina,TN,1268694731000,504095
5529305,Green Bay,Saint Paul,1204686601000,44.51,-87.97,Christopher Cudnoski,WI,1204852195000,504095
30927152,Nashville,,1321508734000,36.17,-86.79,Christopher Trovillo,TN,1321508734000,504095
4861922,Harriman,,1193122032000,35.94,-84.5,Cindy,TN,1223271653000,504095
42247042,Nashville,,1332369083000,36.17,-86.79,Clay Roberts,TN,1332369419000,504095
5818793,Paris,,1198796948000,36.3,-88.31,Clint Diggs,TN,1233609780000,504095
9333807,Nashville,,1245788054000,36.15,-86.86,Colin,TN,1245970918000,504095
5758596,Nashville,East Nashville,1196450266000,36.21,-86.72,Colin Lewis,TN,1225740814000,504095
4988784,Nashville,,1189100737000,36.06,-86.96,Craig,TN,1189100737000,504095
37506942,Nashville,,1328453500000,36.17,-86.79,Cris Cunningham,TN,1328687825000,504095
5837314,Nashville,Nashville,1197337658000,36.08,-86.72,Damon Boswell,TN,1239478181000,504095
34649462,Nashville,,1326080841000,36.17,-86.79,Dan Patrick,TN,1326081469000,504095
30243242,Huntsville,,1320811065000,34.67,-86.56,Dana Murphy,AL,1320811065000,504095
558962,Nashville,,1201423071000,36.17,-86.78,dandeloz,TN,1201423071000,504095
3752060,Manchester,,1297762980000,35.47,-86.08,Daniel Buckner,TN,1322474958000,504095
27644372,Nashville,,1330962862000,36.17,-86.78,Daniel Heacock,TN,1416410281000,504095
4316687,Nashville,,1181170927000,36.17,-86.79,Danielle Nix,TN,1197232973000,504095
5819354,Nashville,,1197324400000,36.17,-86.79,Daphne,TN,1381958129000,504095
39349932,Nashville,,1329947387000,36.17,-86.79,Dave Seldon,TN,1329948022000,504095
4499816,Nashville,,1183757491000,36.17,-86.79,david,TN,1197429259000,504095
23736201,Clarksville,,1324571305000,36.53,-87.35,David Brockman,TN,1370103538000,504095
22719011,Nashville,,1313337468000,36.17,-86.79,David E. Walker,TN,1313337468000,504095
6061526,Nashville,,1199685038000,36.17,-86.78,David Goodwin,TN,1253311000000,504095
4994544,Nashville,,1305520873000,36.17,-86.79,David Perry,TN,1493785023000,504095
9060668,Brentwood,,1444567136000,36.0,-86.79,Debbie Shipp,TN,1444567136000,504095
8858536,Jackson,"Jackson, TN",1234241651000,35.61,-88.82,Dedra Stewart,TN,1235668728000,504095
5828374,Los Angeles,tn,1203032489000,33.97,-118.24,deedee,CA,1203032489000,504095
5963171,Nashville,,1198715515000,36.17,-86.79,dennis baker,TN,1234541651000,504095
6274985,Nashville,,1201474883000,36.17,-86.79,Derek Wood,TN,1201551192000,504095
5556861,Nashville,,1194466673000,36.17,-86.79,Deryl Gentry,TN,1198093896000,504095
33278262,Knoxville,,1326075310000,36.03,-83.89,Desa Stables,TN,1326075310000,504095
33305002,Nashville,,1324583796000,36.17,-86.79,DeWayne ,TN,1342650805000,504095
36705092,Nashville,,1327795234000,36.17,-86.79,Donna Carr,TN,1359027327000,504095
6111364,Nashville,,1200072588000,36.17,-86.79,Donnie,TN,1250432581000,504095
5724910,Nashville,,1199035861000,36.22,-86.77,Doug Johnson,TN,1220469580000,504095
32373072,Nashville,,1323312027000,36.17,-86.79,Dr. R. Kenton Craven,TN,1323312027000,504095
6288883,Nashville,,1201581351000,36.17,-86.79,Drew,TN,1237313673000,504095
8897056,Nashville,,1234783037000,36.17,-86.79,Drew Rankin,TN,1330469913000,504095
11053949,Murfreesboro,,1321577942000,35.87,-86.34,Drewpy,TN,1321577942000,504095
14191237,Nashville,,1299533533000,36.17,-86.79,Dusty Hicks,TN,1299533533000,504095
5491560,Nashville,Nashville,1193942577000,36.18,-86.74,dut,TN,1207867860000,504095
953828,Nashville,,1324525843000,36.17,-86.78,edanstey,TN,1326572842000,504095
6081766,Nashville,,1199838943000,36.17,-86.79,eli sorgic,TN,1224043610000,504095
5730904,Madison,,1196187771000,36.26,-86.71,elizabeth,TN,1218033689000,504095
26063452,Nashville,,1316739380000,36.17,-86.79,Elizabeth Davis ,TN,1373672732000,504095
6285814,Nashville,,1201635404000,36.17,-86.79,eric esters,TN,1284672662000,504095
13258893,Howell,,1345222163000,42.62,-83.92,Eric Redfield,MI,1345243494000,504095
29092772,Nashville,,1319671378000,36.17,-86.79,Erich Hershey,TN,1358302104000,504095
38062672,Nashville,"East Greenwich, RI",1387249448000,36.11,-86.86,Erik Turgeon,TN,1387249448000,504095
5847633,Brentwood,Holly woood.......,1197391477000,36.0,-86.79,Eviean Drueaux,TN,1341405213000,504095
17939432,Nashville,,1309099561000,36.13,-86.8,Francisco Rodriguez,TN,1343505530000,504095
4304611,Nashville,,1180999127000,36.17,-86.79,Frank Santa Maria,TN,1276711654000,504095
7421010,Hartland,"Hartland, MI",1213866248000,42.62,-83.71,G. Holland,MI,1228406755000,504095
10577493,Murfreesboro,Murfreesboro,1267042375000,35.87,-86.44,Gabriel,TN,1330730262000,504095
26522542,Nashville,,1317220807000,36.17,-86.79,Gabriel Max Starner,TN,1410908993000,504095
4169858,Nashville,Nashville,1322669141000,36.17,-86.72,Gaines Kergosien,TN,1322669141000,504095
4677789,Nashville,,1185819366000,36.17,-86.79,Garrett Coffer,TN,1289336412000,504095
24984582,Knoxville,,1328577157000,35.97,-84.11,Garry Rausch,TN,1328577157000,504095
5873464,Nashville,,1197651293000,36.17,-86.79,Gary Jones,TN,1389620294000,504095
4232979,Nashville,,1179785252000,36.11,-86.86,Gene Mangrum,TN,1332456052000,504095
6307337,Westmoreland,,1201737460000,36.57,-86.22,Geneva LeClear,TN,1208838099000,504095
5756071,Franklin,,1196429280000,35.92,-86.89,george,TN,1375882500000,504095
114988722,Nashville,,1383450728000,36.16,-86.79,George Lloyd,TN,1383450728000,504095
5730549,Nashville,,1196185705000,36.17,-86.79,Gia Vangieri,TN,1196195051000,504095
183406513,Murfreesboro,Franklin,1420677576000,35.82,-86.45,Gloria Chatham,TN,1436644608000,504095
8840328,Nashville,,1234022173000,36.07,-86.78,Gordon Akin,TN,1247539592000,504095
4214642,Cookeville,Cookeville,1179458414000,36.2,-85.52,greenamp,TN,1180113140000,504095
14965981,Franklin,,1305175589000,35.93,-86.84,Greg & Loretta,TN,1318713448000,504095
6328318,Franklin,Franklin,1227062339000,35.93,-86.84,Greg & Loretta Tripodes,TN,1281205175000,504095
5775677,Bowling Green,,1196810130000,37.02,-86.46,Greg Jent,KY,1242357913000,504095
4993702,Nashville,,1189144137000,36.17,-86.79,greg layne,TN,1315509472000,504095
8356118,Franklin,,1231889822000,35.93,-86.84,Greg Tripodes,TN,1232409168000,504095
5547783,Nashville,Nashville,1194388554000,36.08,-86.72,Grendel,TN,1334781880000,504095
4748161,Nashville,,1186590668000,36.17,-86.78,Gulliver,TN,1347926933000,504095
38171822,Birmingham,"Nashville, TN",1328979520000,33.42,-86.79,Hale White,AL,1330040030000,504095
4635932,Mesa,Mesa,1190741964000,33.44,-111.71,Hamilton Morris,AZ,1194138110000,504095
7524214,Murfreesboro,,1214461556000,35.78,-86.33,harold king,TN,1398819346000,504095
9343687,Nashville,,1239679291000,36.13,-86.8,Hayes Thompson,TN,1239679291000,504095
25691792,Nashville,,1316398330000,36.17,-86.79,Henry MacAfee,TN,1497459543000,504095
183262777,Nashville,,1420250988000,36.11,-86.86,Holly,TN,1420250988000,504095
34106352,Nashville,,1325629579000,36.17,-86.78,Holly Turbeville Hershey,TN,1329197673000,504095
5495385,Manchester,Saint Paul,1196698729000,42.97,-71.44,Hunter,NH,1197144221000,504095
32948002,Nashville,,1324059784000,36.13,-86.8,Hunter Futch,TN,1324060146000,504095
171023272,Nashville,,1410757075000,36.16,-86.79,Ian Tufts,TN,1410757075000,504095
34728552,Tokyo,,1326145329000,35.67,139.77,Indigo Osawa,,1327552195000,504095
39224572,Nashville,,1329857184000,36.17,-86.79,j. clauer,TN,1359147949000,504095
11239830,Nashville,,1263862969000,36.17,-86.79,Jack Crain,TN,1264039833000,504095
39644342,Nashville,,1330187912000,36.17,-86.79,Jackie Laws,TN,1330735019000,504095
21068971,Murfreesboro,,1311655397000,35.82,-86.45,Jacob Bogle,TN,1311655397000,504095
4255906,Nashville,,1180143913000,36.17,-86.79,Jacob Cochrane,TN,1237585064000,504095
27838222,Nashville,,1318460323000,36.17,-86.79,Jacob Goodin,TN,1318460323000,504095
40146162,Nashville,,1330573996000,36.17,-86.79,Jada Ward,TN,1349898876000,504095
42698782,Nashville,,1332779955000,36.17,-86.79,Jaemeson,TN,1332779955000,504095
203653716,Murfreesboro,"Louisville, KY",1461095527000,35.87,-86.44,James,TN,1469846601000,504095
36464792,Nashville,,1327598382000,36.18,-86.81,james clauer,TN,1327598382000,504095
35246062,Nashville,,1326577200000,36.17,-86.79,James Gann,TN,1364615279000,504095
4938335,Center,"Center, KY",1188556569000,37.13,-85.69,James Gledhill,KY,1196350374000,504095
25970212,Nashville,,1316650323000,36.17,-86.79,James Hubble,TN,1413215853000,504095
208081360,Mount Juliet,,1467265462000,36.22,-86.52,James Moore,TN,1467265462000,504095
5903157,Murfreesboro,Murfreesboro,1198122337000,35.87,-86.34,james nunley,TN,1198129026000,504095
36246552,Nashville,,1327422638000,36.17,-86.79,james simmons,TN,1327422638000,504095
1895296,West Palm Beach,West Palm Beach,1215264658000,26.67,-80.06,JamesKelso,FL,1215461275000,504095
8482470,Nashville,,1228794558000,36.17,-86.79,JamesOwens,TN,1269267530000,504095
29877222,Nashville,Nashville ,1320502426000,36.18,-86.74,Jamie McCavanagh ,TN,1391394273000,504095
39535852,Nashville,,1330095758000,36.17,-86.78,Jamie Vallecorsa,TN,1416062803000,504095
33804082,Nashville,,1325340174000,36.17,-86.79,Jared Hatcher,TN,1327699885000,504095
38359652,Nashville,,1329149558000,36.17,-86.79,Jarren J Pope,TN,1329179331000,504095
206030466,Pegram,,1464535704000,36.12,-87.03,Jason,TN,1464535704000,504095
4759024,Nashville,,1186691035000,36.17,-86.79,jason allman,TN,1203263291000,504095
36408632,Nashville,,1327538828000,36.17,-86.79,Jason Dawson,TN,1330002628000,504095
29862202,Nashville,,1320469812000,36.08,-86.72,Jason Dillon,TN,1320469812000,504095
26601122,Nashville,,1317292286000,36.17,-86.79,Jason Klavenga ,TN,1317511675000,504095
33396622,Ashland City,"Bay Minette, AL",1325805109000,36.28,-87.07,Jason Overstreet,TN,1356562025000,504095
5955432,Nashville,,1198637168000,36.1,-86.66,Jason Rutledge,TN,1414777166000,504095
5877548,Nashville,,1197693143000,36.17,-86.79,Jason Woodard,TN,1199997179000,504095
5831490,White House,,1197222367000,36.48,-86.69,Jay,TN,1201020992000,504095
5364090,Nashville,,1192585428000,36.08,-86.72,Jeff,TN,1281029919000,504095
28416912,Nashville,,1319003529000,36.17,-86.79,Jeff Fields,TN,1326982839000,504095
4977207,Nashville,,1188996296000,36.17,-86.79,Jeff Knutson,TN,1200666405000,504095
5891471,Nashville,,1197851885000,36.17,-86.79,Jeff Ward,TN,1213967848000,504095
9340402,Nashville,,1239640942000,36.17,-86.79,Jeffrey Burgett,TN,1316959273000,504095
5945075,Evansville,,1199120242000,38.03,-87.63,Jeffrey H. Jones,IN,1199120242000,504095
34210982,Nashville,,1325713211000,36.17,-86.79,Jenna Holley,TN,1329107441000,504095
5832218,Mount Juliet,,1197230562000,36.22,-86.52,Jennifer,TN,1199047778000,504095
27532902,Mount Juliet,,1318205998000,36.22,-86.52,Jennifer,TN,1361101887000,504095
39424212,Nashville,,1330010806000,36.17,-86.78,Jennifer Lynn Copenhaver,TN,1330010806000,504095
8082406,Nashville,,1222303640000,36.17,-86.79,Jenny Newman,TN,1314729701000,504095
5489720,Nashville,,1193855612000,36.17,-86.79,Jenny Sarcar,TN,1318190954000,504095
5954382,Martin,,1202193462000,36.34,-88.86,Jeremy Ezell,TN,1374983644000,504095
39795792,Nashville,,1332964153000,36.1,-86.66,Jeremy Faulk,TN,1336099060000,504095
4946021,Nashville,,1188648883000,36.17,-86.79,Jeremy T. Harvey,TN,1215460932000,504095
22823381,Murfreesboro,,1326249280000,35.87,-86.44,Jeri Ann Nash,TN,1378914954000,504095
35344132,Nashville,,1326670403000,36.17,-86.79,Jesse,TN,1326670403000,504095
5473218,Cookeville,,1193690847000,36.2,-85.52,Jesse Waldman,TN,1200931436000,504095
35457372,Boston,,1328233678000,42.29,-71.07,JesseAlan Gordon,MA,1328233678000,504095
4582275,Nashville,Summertown,1184694973000,36.17,-86.79,Jessica,TN,1236433825000,504095
4234988,Nashville,,1179812662000,36.11,-86.86,Jessy,TN,1194026189000,504095
4544674,Nashville,,1184261663000,36.17,-86.79,Jim,TN,1199552265000,504095
35276542,Lebanon,Lebanon,1326601810000,36.21,-86.31,Jim Moga,TN,1326671171000,504095
1771408,Lascassas,Lascassas,1184634619000,35.94,-86.27,Jim Sandman,TN,1372201015000,504095
5744766,Nashville,,1196308142000,36.16,-86.79,Jimmy,TN,1370808608000,504095
29455272,Columbia,,1341872941000,35.61,-87.05,Jimmy,TN,1457354702000,504095
2447686,Nashville,nashville,1329443470000,36.08,-86.72,Joe,TN,1357600694000,504095
141329312,Nashville,,1399426809000,36.17,-86.78,Joe Kirkpatrick,TN,1401197805000,504095
5146379,Nashville,,1190480506000,36.17,-86.79,Joey Albin,TN,1190480506000,504095
9600106,Nashville,Nashville,1244000958000,36.15,-86.86,Joey Fuller,TN,1377433864000,504095
14308592,Murfreesboro,Murfreesboro,1337188577000,35.87,-86.34,Joey McGuire,TN,1337188577000,504095
6048830,Nashville,,1199581082000,36.11,-86.86,john,TN,1221668229000,504095
6204571,Nashville,,1200857853000,36.17,-86.79,John,TN,1200857853000,504095
2791261,Nashville,,1179969021000,36.22,-86.77,John Drake,TN,1360153427000,504095
14185585,Nashville,,1299470380000,36.17,-86.79,John Harney,TN,1324250294000,504095
4782213,Columbia,Columbia,1209915361000,34.08,-81.19,John Perna,SC,1307252581000,504095
4318032,Murfreesboro,,1181188051000,35.87,-86.44,John Sherrod,TN,1356408367000,504095
6285390,Nashville,,1201599943000,36.17,-86.79,John Sullivan,TN,1201649418000,504095
5365137,Smyrna,Lavergne,1192596200000,35.97,-86.51,John W. Cunningham,TN,1395255769000,504095
28157592,Nashville,,1318777831000,36.17,-86.79,jon,TN,1318790673000,504095
4650144,Spring Hill,,1185465714000,35.76,-86.88,Jon Harris,TN,1210938522000,504095
1909887,Brentwood,Nashville,1199999736000,36.0,-86.79,Jon Sharp,TN,1202569015000,504095
4926911,Fort Campbell,,1188438622000,36.65,-87.46,jonathan,KY,1189785126000,504095
89857962,Nashville,,1366319342000,36.17,-86.78,Jonathan Sharpe,TN,1366319342000,504095
6011346,Jackson,,1209870649000,32.34,-90.17,jonathans,MS,1209870649000,504095
9667972,Nashville,,1243823669000,36.17,-86.79,Jonner,TN,1328196124000,504095
4354686,Nashville,,1181770364000,36.17,-86.79,Joseph Hickman,TN,1245205253000,504095
6323336,Nashville,,1201885935000,36.17,-86.79,Josh Norville,TN,1202930762000,504095
4299202,Nashville,,1181335741000,36.17,-86.79,Josh Zegel,TN,1220409254000,504095
5288046,Nashville,,1191827324000,36.17,-86.79,Joshua Burlison,TN,1236219882000,504095
34984262,Fayetteville,,1337028487000,35.06,-78.86,Joshua McCarver,NC,1343594519000,504095
25441162,Helena,,1320997439000,46.63,-112.01,Joshua Schultz,MT,1320997439000,504095
5548192,Nashville,,1194390492000,36.17,-86.79,Jourdan Williams,TN,1204127610000,504095
9086886,Nashville,,1236817803000,36.17,-86.79,Joyce,TN,1298312929000,504095
46175282,Clarksville,,1335648463000,36.53,-87.35,Juan Bibiano,TN,1335648463000,504095
10457791,Nashville,"Windsor, NY",1357773748000,36.08,-86.72,Judy Monroe,TN,1426637772000,504095
4794169,Nashville,,1187073211000,36.17,-86.79,Julian Hinson,TN,1353431634000,504095
4719280,Concord,Concord,1306218635000,37.96,-121.96,Jun Dam,CA,1306393765000,504095
5951117,Tuscaloosa,,1264653935000,33.21,-87.49,Justin Mckay,AL,1278704761000,504095
11529339,Clarksville,,1278263347000,36.53,-87.35,Justin Meeks,TN,1296603028000,504095
4354350,Nashville,,1181766751000,36.18,-86.74,Justin Mundie,TN,1256835354000,504095
6019856,Nashville,,1199324439000,36.17,-86.79,K,TN,1202175761000,504095
7445386,Kansas City,"Nashville, TN",1214977897000,39.02,-94.49,"K. Allyn Cosey, II",MO,1313023278000,504095
11083937,Antioch,,1279126722000,36.04,-86.64,Karen,TN,1289507578000,504095
6365671,Nashville,,1202271853000,36.17,-86.79,Karen,TN,1411647421000,504095
5885520,Nashville,,1197784019000,36.17,-86.79,Karen Hertan,TN,1233799296000,504095
14594717,Nashville,,1303955262000,36.17,-86.79,Kari,TN,1303958175000,504095
5908039,Nashville,,1198017537000,36.17,-86.79,Kathleen,TN,1198017537000,504095
29361062,Fall Branch,Nashville,1319980918000,36.43,-82.59,Kathy Louvin,TN,1321623672000,504095
5422261,Brentwood,"Nashville, TN",1199389945000,36.0,-86.79,Katie Anthony,TN,1373708781000,504095
26309262,Murfreesboro,,1335527778000,35.87,-86.44,kayla,TN,1335528167000,504095
4500594,Nashville,,1183764982000,36.17,-86.79,KC Freels,TN,1368137447000,504095
7376173,Nashville,Nashville,1327694023000,36.06,-86.96,Ken Owens,TN,1370286830000,504095
139372192,Knoxville,,1489267610000,36.03,-83.89,Kenny Collins,TN,1489267610000,504095
37182682,Nashville,,1328160824000,36.17,-86.78,Kenzie Young,TN,1330820879000,504095
4823493,New York,,1191786449000,40.79,-73.98,Kevin,NY,1191786449000,504095
4231023,Nashville,,1179766311000,36.11,-86.86,Kevin,TN,1207169827000,504095
5010867,Nashville,Nashville,1311755700000,36.1,-86.66,Kevin Allen,TN,1387221357000,504095
5154956,Crossville,Crossville,1191005610000,35.95,-85.03,kevin allen,TN,1327182732000,504095
11704005,Murfreesboro,,1269041328000,35.87,-86.34,Kevin Colvert,TN,1269041328000,504095
39291392,Nashville,,1329908542000,36.17,-86.79,Kevin Palmer,TN,1329908846000,504095
4342382,Nashville,,1181596706000,36.17,-86.79,Kimberly Hodges,TN,1200511047000,504095
31289862,Nashville,,1321934422000,36.17,-86.79,Kimberly Moffitt,TN,1328905008000,504095
4748779,Nashville,,1186595510000,36.17,-86.79,Kleinheider,TN,1502289939000,504095
16387101,Spring Hill,,1306833808000,35.76,-86.88,Kristin,TN,1306833808000,504095
16746881,Nashville,,1307200148000,36.09,-86.82,Kyle Staff,TN,1328847107000,504095
4396167,Nashville,,1182404218000,36.17,-86.79,Landon Frenzel,TN,1300457994000,504095
33816792,Nashville,,1325355341000,36.17,-86.79,Lara Elizabeth Butler,TN,1327155076000,504095
39590632,Tullahoma,,1330367598000,35.37,-86.21,Larissa Blank,TN,1330367598000,504095
6203130,Nashville,,1200844976000,36.17,-86.79,LARRY BARTLETT,TN,1315231492000,504095
39743142,Cookeville,,1348152847000,36.2,-85.52,Larry Devin Carter,TN,1370528768000,504095
4272509,Morristown,Morristown,1190948377000,36.19,-83.27,Larry LaPlue,TN,1319633069000,504095
6040301,Jackson,Jackson,1327590330000,35.68,-88.82,Larry Sipes,TN,1340286826000,504095
22995081,Nashville,,1313608319000,36.17,-86.79,Lauren,TN,1330478563000,504095
5666188,Nashville,,1195500570000,36.17,-86.79,Lauren Snead,TN,1196202861000,504095
6255340,Nashville,,1201297953000,36.17,-86.79,layne,TN,1351094722000,504095
46472652,Belton,Austin,1336680824000,31.1,-97.47,Leah Edwrds,TX,1337194829000,504095
4596953,Nashville,,1184855170000,36.17,-86.79,Leanne Talley,TN,1233090591000,504095
4283876,Nashville,,1180644936000,36.17,-86.79,Lee,TN,1180651071000,504095
3799117,Smyrna,,1179423103000,35.97,-86.51,Lee,TN,1402799316000,504095
4858428,Nashville,,1187716241000,36.17,-86.79,Lee Whitfield,TN,1234831500000,504095
36111232,Nashville,,1327318617000,36.17,-86.79,Leeannandrichard Skinner,TN,1327522904000,504095
5965500,Chattanooga,Chattanooga,1198742819000,35.03,-85.24,Leroy Grey,TN,1490450803000,504095
6633650,Plano,,1205012317000,33.08,-96.8,LibertyTree,TX,1205012317000,504095
219631521,Lebanon,,1484024141000,36.21,-86.31,Lisa Hardy,TN,1484024141000,504095
4346877,Nashville,,1181681142000,36.17,-86.79,Lissa Nix,TN,1188062616000,504095
13335857,Manassas,,1309653383000,38.67,-77.43,Liz,VA,1326927830000,504095
4364266,Nashville,,1181922603000,36.17,-86.79,Loatt Lishbult,TN,1328201899000,504095
6334033,Nashville,,1201988706000,36.17,-86.79,LP,TN,1202152992000,504095
14059209,Nashville,,1298069376000,36.17,-86.79,Mandy Singleton,TN,1394222525000,504095
12492267,Knoxville,,1327686113000,36.05,-83.92,Mark,TN,1331121529000,504095
4206030,Mount Juliet,,1202143949000,36.21,-86.52,Mark,TN,1202143949000,504095
10897770,Oxford,Oxford,1258773748000,39.49,-84.74,Mark Snider,OH,1366717978000,504095
4618545,Franklin,Franklin,1185117642000,35.93,-86.81,Mary,TN,1197586449000,504095
28425702,Nashville,,1329923353000,36.11,-86.78,Mary Close,TN,1330000280000,504095
54769902,Franklin,,1371074912000,35.92,-86.89,Mary Ellen Redford,TN,1394216431000,504095
12541226,Aurora,,1321913618000,39.58,-104.76,Mary Ellen Redford,CO,1355533244000,504095
34443412,Nashville,,1325903439000,36.13,-86.8,Mary Emily Summerford,TN,1326659946000,504095
5305732,Germantown,,1234016753000,35.07,-89.9,Mary H,TN,1406466126000,504095
208629354,Nashville,,1468515803000,36.17,-86.78,Mary Phelps,TN,1476134917000,504095
6414398,Nashville,,1202703548000,36.17,-86.79,Mata Burke,TN,1204485793000,504095
5542367,Nashville,,1194470311000,36.22,-86.86,matt,TN,1233890681000,504095
22413011,Nashville,,1312995020000,36.17,-86.79,Matt Bartoli,TN,1312995020000,504095
4299869,Winter Park,Winter Park,1180930398000,28.6,-81.3,Matt Collins,FL,1414773806000,504095
33723442,Nashville,,1325231503000,36.17,-86.79,Matt Holton,TN,1375149823000,504095
5979792,Nashville,,1198903911000,36.17,-86.79,Matt Reynolds,TN,1224983846000,504095
3610172,San Antonio,China Grove,1192122024000,29.35,-98.33,Matt Williams,TX,1194554617000,504095
4208595,Bloomington,,1307406350000,39.1,-86.46,Matt Wolf,IN,1315505318000,504095
7553508,Brentwood,,1214862775000,36.0,-86.79,Matthew,TN,1244858788000,504095
38174602,Nashville,,1328981485000,36.17,-86.79,Matthew Cook,TN,1328988244000,504095
5717683,Arlington,Murfreesboro,1196692360000,38.86,-77.1,Matthew Hurtt,VA,1457355368000,504095
5735221,Washington,Nashville,1196222177000,38.89,-76.94,Maurice Muhammad,DC,1303055093000,504095
26125502,Murfreesboro,,1316809043000,35.87,-86.44,Maurice Perry,TN,1316985073000,504095
4254647,Overland Park,,1181603203000,38.99,-94.68,Meg Davis,KS,1216657292000,504095
34691112,Franklin,,1326125678000,35.92,-86.89,Meg Redford,TN,1394872334000,504095
4695629,Nashville,,1186008846000,36.17,-86.79,Megan Williams,TN,1266279686000,504095
5984095,Nashville,,1198960277000,36.17,-86.79,Melanie Campanis,TN,1222287971000,504095
26254332,Nashville,,1317133663000,36.17,-86.79,Melinda McReynolds,TN,1371774424000,504095
4880102,Nashville,,1187931262000,36.17,-86.79,melisa mccullough,TN,1187931262000,504095
51333452,Nashville,,1339720619000,36.17,-86.79,Melody,TN,1358690717000,504095
4669977,Addison,Lubbock,1185993874000,32.96,-96.83,Merrida Childress,TX,1197662996000,504095
4438549,Nashville,,1182983093000,36.17,-86.79,mete erdogan,TN,1183315366000,504095
6050840,Nashville,,1199592485000,36.17,-86.79,Micah D. Bennett,TN,1200077520000,504095
4620983,Cookeville,,1197661646000,36.2,-85.52,Michelle,TN,1242611684000,504095
9764924,New Bethlehem,,1245075987000,41.01,-79.33,mickiq,PA,1245335459000,504095
5675462,Nashville,,1195584885000,36.17,-86.79,Mike Bennett,TN,1199818028000,504095
32258822,Nashville,,1323222935000,36.17,-86.79,mike whitehead,TN,1323222935000,504095
6188658,Manchester,,1200710317000,35.47,-86.08,MikeStensky,TN,1200891117000,504095
6155918,Port Coquitlam,Vancouver,1200433280000,49.24,-122.77,Mitchell,BC,1295850281000,504095
4649896,Dickson,Dickson,1343310502000,36.08,-87.43,Mitchell Stevens,TN,1376794746000,504095
8357261,Denver,Denver,1384143664000,39.7,-105.03,Musicians for Freedom,CO,1388499562000,504095
30452722,Fairfield,,1321035574000,41.01,-91.97,MyLocal Cooperative,IA,1321035574000,504095
9463406,Omaha,"Superior, NE",1327384214000,41.24,-96.06,Nathan,NE,1353375946000,504095
7547668,Madison,,1214788454000,36.26,-86.71,Nick,TN,1320264720000,504095
4304873,Pasadena,,1197224844000,34.14,-118.17,Nick,CA,1197229768000,504095
5282816,Murfreesboro,,1200762791000,35.87,-86.44,Nick Teply,TN,1201485787000,504095
4193153,Pittsburgh,,1207795800000,40.37,-80.02,NickR,PA,1207795800000,504095
6302344,Nashville,,1201701636000,36.17,-86.79,Nina Ground,TN,1298572643000,504095
4482776,Athens,,1187221037000,34.78,-87.08,Noah,AL,1364577789000,504095
136104622,Harvest,,1394154208000,34.83,-86.74,North Alabama Ron Paul,AL,1442894449000,504095
27407182,Nashville,,1344955765000,36.17,-86.78,Oleg Volk,TN,1344991352000,504095
234168251,Franklin,,1502888259000,35.93,-86.81,Olivia Oetjens,TN,1502888259000,504095
8862146,Nashville,,1234295473000,36.17,-86.79,pam,TN,1234295473000,504095
5258137,Paducah,,1191806581000,37.04,-88.71,Pat Brian,KY,1191813855000,504095
5764201,Nashville,,1196513457000,36.17,-86.79,Patrick,TN,1239642787000,504095
4806138,Austin,,1204405506000,30.24,-97.76,Patrick Brendel,TX,1297889092000,504095
5098459,Nashville,Nashville,1193253820000,36.1,-86.66,Paul,TN,1317190220000,504095
19716921,Nashville,,1310260480000,36.16,-86.79,Paul,TN,1311277574000,504095
11139481,Albuquerque,,1284996195000,35.2,-106.64,Paul,NM,1284996624000,504095
1293593,Nashville,Nashville,1187924052000,36.1,-86.66,Paul Couture,TN,1311491957000,504095
33294562,Nashville,,1324571910000,36.17,-86.79,Paul Krueckeberg,TN,1364654866000,504095
9522862,Goodlettsville,Goodlettsville,1248198714000,36.33,-86.74,Paul Stewart,TN,1370818188000,504095
34600132,Nashville,,1326052006000,36.17,-86.79,Paxton Richter,TN,1326052006000,504095
4617355,Nashville,,1185098497000,36.17,-86.79,perry bean,TN,1209227522000,504095
4173849,Brentwood,,1287334287000,36.0,-86.79,Philip,TN,1419825013000,504095
5433008,Nashville,,1193276573000,36.17,-86.79,Quinn,TN,1201791644000,504095
6142574,Nashville,,1200329784000,36.15,-86.86,Rachel Gilleland,TN,1201474134000,504095
17748641,Nashville,,1308258901000,36.11,-86.86,Ralph Brown,TN,1313304400000,504095
3863855,White House,"Indianapolis, IN",1199417497000,36.48,-86.69,Randy H,TN,1499824400000,504095
37369132,Nashville,,1328313719000,36.17,-86.79,Randy Hinger,TN,1328313719000,504095
4517373,Nashville,,1184071087000,36.17,-86.79,randy pendergrass,TN,1334753316000,504095
8046444,Nashville,,1221588840000,36.17,-86.79,Ray Sensing,TN,1221588840000,504095
182882806,Madison,,1434044567000,36.26,-86.71,Rebecca,TN,1434044567000,504095
5642457,Murfreesboro,,1239749840000,35.87,-86.44,rebecca,TN,1241048152000,504095
4175174,Nashville,Tennessee,1264603892000,36.08,-86.72,Rebecca ,TN,1322366917000,504095
7322637,Nashville,Nashviile,1347328007000,36.08,-86.72,Renee,TN,1368135783000,504095
5304318,Nashville,,1191964775000,36.17,-86.79,Renee Danesh,TN,1358297619000,504095
31812232,Nashville,,1322660150000,36.17,-86.79,Rich,TN,1330460708000,504095
5885902,Nashville,Nashville,1197785273000,36.11,-86.78,Rich Hamblen,TN,1344813177000,504095
5928089,Chapel Hill,Chapel Hill,1201913380000,35.62,-86.62,Richard,TN,1227573374000,504095
33489272,Nashville,,1324954835000,36.17,-86.79,Richard Eskildson,TN,1366462817000,504095
4229644,Clinton,Clinton,1203607058000,36.1,-84.14,Richard Esparza,TN,1354159966000,504095
5403792,Antioch,,1196348744000,36.04,-86.64,Rick Smith,TN,1409275766000,504095
4991743,Nashville,,1189125408000,36.17,-86.79,Rob,TN,1195230840000,504095
1881372,North Little Rock,,1238388719000,34.77,-92.25,Rob Richard,AR,1244657671000,504095
6132553,Nashville,,1201035754000,36.17,-86.78,robert e. chaffee,TN,1201035754000,504095
5902000,Nashville,,1199160609000,36.17,-86.79,Robert Wilson,TN,1213326692000,504095
37528622,Nashville,,1329873316000,36.17,-86.78,Robin DeZigns,TN,1341975033000,504095
5900828,Antioch,,1197939813000,36.04,-86.64,Rocky Hammond,TN,1215888925000,504095
22411581,Nashville,,1312993825000,36.17,-86.79,Rod Lee,TN,1313005498000,504095
13435018,Antioch,,1290910584000,36.04,-86.64,Roger Bissell,TN,1354985726000,504095
5956681,Saint Louis,STL,1198657178000,38.66,-90.32,Ron Paul,MO,1198657178000,504095
8396265,Nashville,,1227216476000,36.16,-86.79,RonPaul Supporter,TN,1230522244000,504095
6054626,Livingston,"Punta Gorda, FL",1311877213000,36.39,-85.32,Rose,TN,1504786354000,504095
12669081,Murfreesboro,,1280847954000,35.87,-86.44,Roy,TN,1280847954000,504095
183621154,Smyrna,,1421386271000,35.97,-86.51,Russell Church,TN,1421386271000,504095
5962567,Nashville,,1198710221000,36.17,-86.79,Ryan,TN,1200000221000,504095
50548792,Bell Buckle,,1339129210000,35.6,-86.41,Ryan,TN,1344811134000,504095
31135112,Nashville,,1321759594000,36.17,-86.79,Ryan ,TN,1321774806000,504095
5734331,Nashville,,1196213058000,36.17,-86.79,Ryan Arndt,TN,1278437842000,504095
8174655,Murfreesboro,,1223597880000,35.87,-86.44,Ryan Harring,TN,1360590607000,504095
9655835,Smyrna,Smyrna,1327516545000,35.97,-86.51,Ryan Pickell,TN,1327516545000,504095
39532042,Hendersonville,,1330092762000,36.32,-86.61,Sandy,TN,1330092762000,504095
28827302,Nashville,,1319436793000,36.17,-86.79,Sara Hart,TN,1344915315000,504095
34171412,Clarksville,,1325689937000,36.53,-87.35,Sarah Adams,TN,1336878245000,504095
4883359,Portland,Portland,1187978316000,36.57,-86.49,Sarah Franks,TN,1202418536000,504095
182842955,Franklin,,1417723801000,35.92,-86.89,ScarlettLee,TN,1417723801000,504095
5007383,Christiana,,1191849123000,35.71,-86.36,Scott,TN,1331082681000,504095
10292450,Nashville,Nashville,1324775907000,36.08,-86.72,Scott Monroe,TN,1452483586000,504095
4545813,Nashville,,1184268204000,36.17,-86.79,sean ervin,TN,1184518374000,504095
3905961,Nashville,,1179457177000,36.07,-86.73,Shannon,TN,1487867805000,504095
33683812,Pulaski,,1325193197000,35.19,-87.03,Shannon Dickey,TN,1347333757000,504095
5933316,Nashville,,1198305345000,36.11,-86.86,sharbort,TN,1198305345000,504095
5602421,Antioch,,1194893496000,36.04,-86.64,Shawn Simmons,TN,1201127250000,504095
5338269,Mount Juliet,Mount Juliet,1192320505000,36.22,-86.52,Shelley,TN,1192764532000,504095
5279644,Nashville,,1191732082000,36.17,-86.79,Shellie,TN,1340408197000,504095
6349552,Chattanooga,Chattanooga,1334922640000,35.13,-85.27,sheryl,TN,1404596309000,504095
9377969,Dickson,,1316904183000,36.08,-87.43,Slayde,TN,1318184962000,504095
39474392,Nashville,,1330038235000,36.17,-86.79,Stacey,TN,1330038235000,504095
5992712,Nashville,,1199052546000,36.17,-86.79,stan & caroline,TN,1203455036000,504095
33173192,Nashville,,1324393487000,36.17,-86.79,Stefanie Greenwood Williams,TN,1392072054000,504095
5802874,Nashville,,1196901915000,36.17,-86.79,Stephanie ,TN,1325817724000,504095
24753912,Nashville,,1315471129000,36.17,-86.79,stephanie kunze,TN,1317166687000,504095
38753042,Nashville,,1329456430000,36.17,-86.79,Stephen,TN,1347165787000,504095
36499872,Nashville,,1327617220000,36.17,-86.79,Stephen Barker Liles,TN,1327797588000,504095
4630111,Nashville,,1185238345000,36.17,-86.79,Steve,TN,1185588478000,504095
7321696,Nashville,"Chesapeake, Va",1240306818000,36.17,-86.72,Steve Inman,TN,1321569191000,504095
5393596,Nashville,,1192889236000,36.17,-86.79,steve j,TN,1284752160000,504095
11044578,Madison,,1264578353000,36.26,-86.71,Steve Van Loon,TN,1410791567000,504095
1857977,Goodlettsville,,1190605325000,36.33,-86.74,Steven B.Osborne,TN,1359295417000,504095
35578702,Nashville,,1326855832000,36.17,-86.79,Stevie Powers,TN,1327522345000,504095
35434932,Brentwood,,1326747152000,36.0,-86.79,Stewart Peterson,TN,1481304878000,504095
4413182,Murfreesboro,,1194216982000,35.82,-86.45,Susan,TN,1202665384000,504095
12305734,Nashville,,1280169219000,36.1,-86.66,Susan H.Dalton,TN,1394069886000,504095
54635882,Nashville,,1342170544000,36.17,-86.79,Susanne Banks,TN,1372223170000,504095
12251270,Nashville,,1363088126000,36.17,-86.78,Suz Dav,TN,1371069052000,504095
5762205,Memphis,,1209610454000,35.07,-89.96,Suzanne McHenry,TN,1209610454000,504095
8360301,Spring Hill,,1226635002000,35.76,-86.88,taylor,TN,1508544798000,504095
37013612,Nashville,,1328041433000,36.17,-86.79,Taylor Burgess,TN,1328041433000,504095
1077852,Franklin,Franklin,1196789158000,35.92,-86.89,Teddy Woodward,TN,1289583778000,504095
6455828,Nashville,,1203096413000,36.09,-86.82,Teresa,TN,1355513334000,504095
6204707,Spring Hill,Spring Hill,1252953849000,35.76,-86.88,Teresa Rose,TN,1278269484000,504095
47936612,Nashville,,1337063317000,36.17,-86.79,Terina A. Reagan,TN,1337063916000,504095
4511956,Nashville,,1183917773000,36.17,-86.79,Theresa H.,TN,1202165029000,504095
4301748,Nashville,,1180969043000,36.17,-86.79,Tim,TN,1320851407000,504095
13448280,Seoul,Murfreesboro,1310316276000,37.56,126.99,Tim Ramsay,,1311440666000,504095
14891841,Nashville,,1305099254000,36.17,-86.79,Timothy Hollar,TN,1305099254000,504095
18696911,Nashville,,1309183295000,36.16,-86.79,Tnsons Ofliberty,TN,1322446896000,504095
9387682,Nashville,"Nashville, Tn",1326839136000,36.17,-86.72,Tobster,TN,1326839136000,504095
27863312,Clinton,,1320441984000,36.1,-84.14,Toby Leinart,TN,1321305463000,504095
39320402,Nashville,,1329932108000,36.17,-86.79,Tod Forquer,TN,1329932108000,504095
6014477,Nashville,,1199291798000,36.17,-86.79,Tom Crowley,TN,1202349221000,504095
4320418,Murfreesboro,,1181234952000,35.87,-86.34,Tommy Felts,TN,1198134215000,504095
23299931,Nashville,,1313948198000,36.13,-86.8,Tommy Webster,TN,1313949384000,504095
4586570,Greenback,Greenback,1191165485000,35.66,-84.17,Tona,TN,1493091157000,504095
11226744,Nashville,Birmingham,1306906193000,36.17,-86.78,Tony Dreher,TN,1329161366000,504095
4478770,Nashville,,1184362567000,36.17,-86.79,Trey,TN,1184362567000,504095
14603013,Goodlettsville,,1304047764000,36.33,-86.74,Trinity,TN,1373945833000,504095
5419274,Mount Juliet,,1193155092000,36.22,-86.52,Tyler,TN,1416485836000,504095
58740882,Hendersonville,,1345141563000,36.32,-86.61,Tyler,TN,1349530763000,504095
5328173,Nashville,,1192207124000,36.17,-86.79,Tyree,TN,1235598980000,504095
31225342,Nashville,,1321866882000,36.17,-86.79,Tyren Swanner,TN,1321866882000,504095
22720061,Nashville,,1313338362000,36.17,-86.79,Van Robert Bryant,TN,1313338775000,504095
5900680,Nashville,,1197938214000,36.17,-86.79,Victor Elkins,TN,1202882334000,504095
5020388,Castalian Springs,,1189422845000,36.38,-86.32,Wanda Wood,TN,1316491631000,504095
32881672,Nashville,,1323965870000,36.17,-86.79,Wes,TN,1370872341000,504095
4611772,Clarksville,,1185027386000,36.53,-87.35,"Wesley ""Scott"" Griggs",TN,1187450765000,504095
34231922,Nashville,,1325725225000,36.17,-86.79,Whitney Smith,TN,1368653101000,504095
37007332,Nashville,,1328038244000,36.17,-86.79,whitney smith,TN,1344804188000,504095
3933115,Nashville,,1196880006000,36.11,-86.86,Will Mckenzie,TN,1203630959000,504095
5324355,Nashville,,1192159209000,36.17,-86.79,William Register,TN,1194295748000,504095
5824160,Nashville,,1197136131000,36.17,-86.79,Z,TN,1205783852000,504095
26205672,Nashville,,1316907713000,36.17,-86.79,ZAaron Catfish Nidiffer,TN,1362173928000,504095
6104606,Murfreesboro,,1201034426000,35.87,-86.44,Zachary Camp,TN,1306914762000,504095
