id,city,hometown,joined,lat,lon,name,state,visited,group_id
188745726,Nashville,,1436996341000.0,36.17,-86.78,Aaron M Jernigan,TN,1436996341000.0,5882552
212517213,Eagleville,,1473312127000.0,35.75,-86.64,Aaron Marx,TN,1473312127000.0,5882552
49174402,Nashville,Nashville,1433099113000.0,36.15,-86.8,Abhish,TN,1433099113000.0,5882552
206713140,Nashville,,1465387713000.0,36.07,-86.73,Abhishek,TN,1465387713000.0,5882552
10030119,Nashville,,1384568108000.0,36.17,-86.78,Ada Brown,TN,1444222877000.0,5882552
193234204,Nashville,,1443210877000.0,36.08,-86.72,Ada Mercy ,TN,1443210877000.0,5882552
18310301,El Paso,"Portland, ME",1456023477000.0,31.81,-106.47,Adam,TX,1463365751000.0,5882552
235501367,Hermitage,,1504392573000.0,36.19,-86.6,Adam Knight,TN,1504392573000.0,5882552
226601198,Spring Hill,,1496386854000.0,35.76,-86.88,Adam Scianna,TN,1496386854000.0,5882552
11609066,Fort Campbell,Clarksville,1428859327000.0,36.65,-87.46,Adrian Guajardo,KY,1428859327000.0,5882552
105281552,Murfreesboro,,1437841834000.0,35.78,-86.33,Adrianne,TN,1471736038000.0,5882552
174389252,Nashville,"Nashville, TN",1455724985000.0,36.16,-86.79,Aileen,TN,1455724985000.0,5882552
234843128,Lebanon,,1503639670000.0,36.21,-86.29,Aisha Johnson,TN,1503639670000.0,5882552
57429692,Nashville,,1420461831000.0,36.1,-86.66,alethea harper,TN,1420461831000.0,5882552
55341912,Nashville,Chicago,1492304839000.0,36.17,-86.78,Alex,TN,1492304839000.0,5882552
189173630,Brentwood,,1435396406000.0,36.0,-86.79,Alex Alshaweki,TN,1435396406000.0,5882552
187399398,Nashville,,1431797283000.0,36.08,-86.72,Alex Harris,TN,1431797283000.0,5882552
192629270,Nashville,Nashville,1442080457000.0,36.11,-86.86,Alex Howard,TN,1442080457000.0,5882552
194867817,Murfreesboro,,1446279978000.0,35.82,-86.45,Alex Roa,TN,1450742939000.0,5882552
206301026,Greenville,,1464836697000.0,34.85,-82.4,Alexandria Skyler,SC,1464836697000.0,5882552
208819937,Nashville,,1468259746000.0,36.17,-86.78,Alexisinthere,TN,1468259746000.0,5882552
191965382,Nashville,Nashville,1441678203000.0,36.11,-86.78,Ali Jill,TN,1442163457000.0,5882552
209457033,Nashville,,1469077839000.0,36.17,-86.78,Ali Marie,TN,1469077839000.0,5882552
214538021,Nashville,,1475874892000.0,36.11,-86.86,Ali Ryan,TN,1475874892000.0,5882552
190826445,Murfreesboro,,1438618246000.0,35.82,-86.45,Alicia,TN,1438618246000.0,5882552
6867023,Nashville,Nashville,1444949484000.0,36.08,-86.72,Alison,TN,1444949484000.0,5882552
3466646,Oakland,Oakland,1476556792000.0,37.84,-122.22,Alison Gould,CA,1476556792000.0,5882552
173930692,Nashville,Nashville,1414983883000.0,36.17,-86.72,Alison M.,TN,1487542180000.0,5882552
209247227,Franklin,,1468810974000.0,35.92,-86.89,Allen,TN,1471649545000.0,5882552
188236253,Murfreesboro,,1433476609000.0,35.82,-86.45,Allen Coppock,TN,1433476609000.0,5882552
212837697,Murfreesboro,,1473735847000.0,35.87,-86.34,Allison ,TN,1473735847000.0,5882552
190313602,Bell Buckle,,1437680291000.0,35.6,-86.41,Allison Jones Scribner,TN,1437680291000.0,5882552
185759968,Nashville,,1474848710000.0,36.18,-86.64,Allison Schmitz,TN,1474848710000.0,5882552
222170439,Nashville,,1487697849000.0,36.17,-86.78,Allyson,TN,1487697849000.0,5882552
8300914,Nashville,Nashville,1476296350000.0,36.21,-86.72,Alyssa ,TN,1476296350000.0,5882552
186137286,Nashville,,1428948340000.0,36.16,-86.79,Alyssa Favreau,TN,1428948340000.0,5882552
127161112,Nashville,,1446257425000.0,36.17,-86.78,Amanda,TN,1446257425000.0,5882552
115474722,Nashville,Christchurch NZ,1460420809000.0,36.18,-86.81,Amanda,TN,1460420809000.0,5882552
188676114,Madison,,1434382916000.0,36.26,-86.71,Amanda Heinen,TN,1434387389000.0,5882552
185946557,Smyrna,,1457317233000.0,35.97,-86.51,Amanda Marie Hallam,TN,1457317233000.0,5882552
154127722,Franklin,"Pasadena, Texas",1471665897000.0,35.92,-86.89,Amanda Mitchell,TN,1499919912000.0,5882552
79719332,Murfreesboro,"Nashville, TN",1440473651000.0,35.78,-86.33,Amanda Sacchinelli,TN,1450935409000.0,5882552
14644937,Anchorage,,1475043122000.0,61.19,-149.94,Amanda tinch,AK,1475043122000.0,5882552
188444924,Murfreesboro,,1433902572000.0,35.78,-86.33,Amber,TN,1471804458000.0,5882552
87819932,Kingston Springs,"Kingston Springs, TN",1402884449000.0,36.09,-87.12,Amber D Fite,TN,1402884449000.0,5882552
190026711,Nashville,,1442197390000.0,36.08,-86.72,Amberlee' Brooks,TN,1442197390000.0,5882552
185787368,Austin,dallas,1428093604000.0,30.31,-97.72,Amelia C,TX,1428093604000.0,5882552
182030842,Franklin,,1418229879000.0,35.92,-86.89,Amy,TN,1444588864000.0,5882552
194700104,Nashville,,1445920542000.0,36.09,-86.82,Amy,TN,1446112719000.0,5882552
163378452,Gallatin,,1414939802000.0,36.39,-86.45,Amy,TN,1427988202000.0,5882552
23869092,Nashville,,1364097539000.0,36.17,-86.72,Amy A.,TN,1493132629000.0,5882552
197455700,Nashville,,1451580490000.0,36.17,-86.78,Amy Edwards,TN,1451580490000.0,5882552
6716404,Nashville,,1442882253000.0,36.17,-86.72,Amy Holt,TN,1442882253000.0,5882552
12992627,Hendersonville,,1475957110000.0,36.3,-86.62,Amy Landrus Edwards,TN,1475957110000.0,5882552
185629701,Nashville,,1427561415000.0,36.07,-86.78,Amy Pigott,TN,1427561415000.0,5882552
198028842,Castalian Springs,,1452653435000.0,36.38,-86.32,Anastacia  Shelton,TN,1452653435000.0,5882552
238909084,Nashville,,1508030704000.0,36.1,-86.66,Anastasia Shelton,TN,1508030704000.0,5882552
209574166,Antioch,,1469239402000.0,36.04,-86.64,Andrea ,TN,1499698971000.0,5882552
234124929,Nashville,,1502833182000.0,36.09,-86.82,Andrea Paulson,TN,1502833182000.0,5882552
14172603,Antioch,,1432735006000.0,36.04,-86.64,Andrea Tarpley,TN,1432735006000.0,5882552
22833121,Smyrna,"Nashville, TN",1406242241000.0,35.97,-86.51,Andrea White,TN,1427104710000.0,5882552
215435255,Murfreesboro,,1477200885000.0,35.82,-86.45,Andrew,TN,1505601194000.0,5882552
203894272,Nashville,,1461447479000.0,36.11,-86.86,Andrew B,TN,1461637655000.0,5882552
233699911,Nashville,,1502334483000.0,36.1,-86.66,Andrew B. Owensby,TN,1502334483000.0,5882552
239353936,Nashville,,1508538550000.0,36.07,-86.73,Andrew Ezekiel Troyer,TN,1508538550000.0,5882552
196088392,Murfreesboro,,1448541211000.0,35.78,-86.33,Andrew Gilmore,TN,1448541211000.0,5882552
207729386,Tullahoma,,1480190937000.0,35.37,-86.21,Andrew Milam,TN,1480190937000.0,5882552
81943782,Nashville,,1361675952000.0,36.08,-86.72,Andrew P. Davis,TN,1365470020000.0,5882552
183268581,Nashville,"Nashville, TN",1420309234000.0,36.17,-86.78,Andrew Thompson,TN,1507152716000.0,5882552
211137911,Franklin,,1471411190000.0,35.92,-86.89,Andy,TN,1471411190000.0,5882552
226151366,Antioch,,1492845558000.0,36.04,-86.64,Andy Trujillo,TN,1492845558000.0,5882552
190868664,Spring Hill,,1438695440000.0,35.76,-86.88,Angela Brennan,TN,1469472962000.0,5882552
206907592,Nashville,,1465654893000.0,36.17,-86.78,Angela Everett,TN,1465654893000.0,5882552
190345406,Clarksville,,1437739185000.0,36.53,-87.35,Angelina Jo Johnson ,TN,1437739185000.0,5882552
194018969,Goodlettsville,Goodlettsville,1444685859000.0,36.33,-86.74,Angie Hall,TN,1444685859000.0,5882552
202380875,Old Hickory,,1459435682000.0,36.25,-86.63,Anita Reed,TN,1478827785000.0,5882552
194335623,Smyrna,,1445276792000.0,35.97,-86.51,Ann Lee,TN,1445276792000.0,5882552
185721793,Tuscaloosa,,1434037011000.0,33.19,-87.56,Anna Zimmerman,AL,1434037011000.0,5882552
194530880,Hermitage,,1445629567000.0,36.19,-86.6,Anne C.,TN,1463066368000.0,5882552
187437000,Nashville,,1442108825000.0,36.17,-86.78,Anne Diaz,TN,1442108825000.0,5882552
205751250,Hermitage,,1464059535000.0,36.19,-86.6,Anne Simerly,TN,1464059535000.0,5882552
189494038,Columbia,,1436336068000.0,35.61,-87.05,Annie,TN,1451476452000.0,5882552
215251139,Nashville,,1476916429000.0,36.16,-86.79,Annie S. Lee,TN,1476916429000.0,5882552
8557533,Clarksville,"Camden, SC",1363665531000.0,36.53,-87.35,AnnMarie Hensgens,TN,1411293239000.0,5882552
190353503,Brentwood,Brentwood,1439859995000.0,36.0,-86.79,AP,TN,1439859995000.0,5882552
60070422,Nashville,,1465525501000.0,36.14,-86.74,April Bennett,TN,1467493492000.0,5882552
11689327,Nashville,,1421456086000.0,36.22,-86.77,April Graves,TN,1451484164000.0,5882552
183901202,Murfreesboro,Murfreesboro,1422226726000.0,35.78,-86.33,Archie ,TN,1422233983000.0,5882552
151903822,Fort Campbell,,1412210492000.0,36.65,-87.46,Aren,KY,1412210492000.0,5882552
135477122,Nashville,,1447757440000.0,36.11,-86.78,ARenee,TN,1499639202000.0,5882552
136932852,Nashville,"Brooklyn, NY",1431972081000.0,36.18,-86.74,Ariane Watkins,TN,1455377322000.0,5882552
113030512,Nashville,Nashville,1380200592000.0,36.11,-86.86,Ariel Colburn,TN,1396405602000.0,5882552
117831162,Nashville,Denver,1407477387000.0,36.17,-86.78,Arin Arens,TN,1462417432000.0,5882552
196962600,Nashville,,1451023216000.0,36.17,-86.78,Arkan,TN,1504894719000.0,5882552
238608223,Lebanon,,1507681941000.0,36.21,-86.31,Arlene Murphy,TN,1507681941000.0,5882552
237427415,Federal Way,,1506389044000.0,47.31,-122.31,Ash Marché,WA,1507420353000.0,5882552
185055574,Nashville,,1441739141000.0,36.08,-86.72,Ashish,TN,1474732025000.0,5882552
185614222,Nashville,,1471820204000.0,36.09,-86.82,Ashleigh,TN,1478141580000.0,5882552
192757060,Eugene,,1442316571000.0,44.1,-123.13,Ashley,OR,1442316571000.0,5882552
206900520,Lansing,,1465644499000.0,42.73,-84.55,Ashley B,MI,1467505587000.0,5882552
219965047,Nashville,,1484456453000.0,36.17,-86.78,Ashley Carr,TN,1484456453000.0,5882552
194841560,Nashville,,1446176847000.0,36.1,-86.66,Ashley Carter,TN,1446176847000.0,5882552
187236061,Nashville,,1466627210000.0,36.18,-86.74,Ashley Lauren,TN,1507212366000.0,5882552
191993529,Nashville,,1440887185000.0,36.17,-86.78,Ashley Lynn Hopper,TN,1440887185000.0,5882552
24817142,Murfreesboro,,1459093447000.0,35.78,-86.33,Ashley Pyne,TN,1462313321000.0,5882552
227022050,Nashville,,1494016932000.0,36.17,-86.78,Ashlinn Romagnoli,TN,1494016932000.0,5882552
208523424,Murfreesboro,,1467859607000.0,35.78,-86.33,Audrey,TN,1467859607000.0,5882552
196161128,Nashville,,1448708262000.0,36.08,-86.72,Austin,TN,1448708262000.0,5882552
140397542,Nashville,,1430711836000.0,36.18,-86.74,Austin Bauman,TN,1430711836000.0,5882552
238571578,Nashville,,1507649725000.0,36.17,-86.78,Averie James,TN,1507649725000.0,5882552
105351612,Murfreesboro,,1467772495000.0,35.78,-86.33,Ayesha Larson,TN,1467772495000.0,5882552
75156122,Westmoreland,,1443203272000.0,36.57,-86.22,????? ????????,TN,1446192233000.0,5882552
182956970,Franklin,,1434400412000.0,35.92,-86.89,B. Hannel,TN,1434400412000.0,5882552
26957712,Goodlettsville,,1468995562000.0,36.33,-86.74,Barbara (bubblybabs) Leibert,TN,1468995562000.0,5882552
186052138,Murfreesboro,,1428724016000.0,35.89,-86.32,Barclay Lezon,TN,1468352788000.0,5882552
191803988,Franklin,,1440518472000.0,35.93,-86.81,Beatrice Drewitt,TN,1440518472000.0,5882552
180847532,Nashville,,1458661506000.0,36.17,-86.78,Beatrix Kiddo,TN,1458661506000.0,5882552
13701322,Brentwood,Nashville,1444298776000.0,36.0,-86.79,Beckie Woodmore,TN,1492482488000.0,5882552
191008886,Nashville,,1444655865000.0,36.16,-86.79,Becky,TN,1474761173000.0,5882552
198006116,Fairview,,1452618513000.0,35.97,-87.13,Becky Parrish,TN,1455913580000.0,5882552
193561979,Beaumont,,1443830774000.0,30.09,-94.17,Ben,TX,1443830774000.0,5882552
201348650,Nashville,,1457762942000.0,36.18,-86.74,Ben Turner,TN,1457762942000.0,5882552
184395629,Nashville,,1462208291000.0,36.08,-86.72,Benjamin,TN,1462208291000.0,5882552
192054746,Nashville,,1441004444000.0,36.06,-86.96,bennie malley,TN,1441004444000.0,5882552
195574437,Springfield,Brentwood,1459798522000.0,36.52,-86.87,Bernadette Webster,TN,1507429785000.0,5882552
213189876,Murfreesboro,,1474298526000.0,35.82,-86.45,Beth,TN,1474467781000.0,5882552
15143171,Nashville,,1394335615000.0,36.17,-86.72,Beth,TN,1507394680000.0,5882552
200871063,Nashville,,1457068719000.0,36.17,-86.78,Beth Crick Hudgens,TN,1457107516000.0,5882552
5766763,Nashville,Memphis,1454208064000.0,36.17,-86.78,Bethany,TN,1459994137000.0,5882552
191040284,Antioch,Ohio,1444535052000.0,36.04,-86.64,Bethany,TN,1449033485000.0,5882552
12552243,Mount Juliet,Nashville,1389061724000.0,36.22,-86.52,Bethany,TN,1507413278000.0,5882552
189055100,Nashville,,1452640421000.0,36.08,-86.72,Bethany Alisha,TN,1452640421000.0,5882552
200973565,Nashville,,1457279028000.0,36.06,-86.96,Betsi moody,TN,1457279028000.0,5882552
191573245,Clarksville,,1440077012000.0,36.56,-87.41,Betty,TN,1440077012000.0,5882552
183322936,Nashville,,1420421160000.0,36.17,-86.78,Beverly Ann Hockett,TN,1421352522000.0,5882552
125456582,Hendersonville,Nashville,1401554596000.0,36.32,-86.61,Bex Nicoles,TN,1451787411000.0,5882552
54698892,Nashville,Nashville,1353638207000.0,36.17,-86.72,Bill,TN,1492545151000.0,5882552
42865612,Lyles,"Lyles, TN",1435777526000.0,35.89,-87.34,Bill Arthur,TN,1435777526000.0,5882552
239508029,Nashville,,1508717122000.0,36.08,-86.72,Bill Broucek,TN,1508717122000.0,5882552
198067348,Nashville,"Hackensack, NJ",1452726950000.0,36.08,-86.72,Bill P.,TN,1473628603000.0,5882552
192901361,Nashville,,1442590489000.0,36.06,-86.96,Bill Sizer,TN,1480127539000.0,5882552
78127682,Brentwood,Franklin,1443990164000.0,36.0,-86.79,Bill Tillery,TN,1506970923000.0,5882552
207341936,Murfreesboro,,1466254155000.0,35.78,-86.33,Bill Wilson,TN,1466254155000.0,5882552
188005091,Nashville,,1433021965000.0,36.17,-86.78,Billy Gatons,TN,1489183128000.0,5882552
188561039,Nashville,,1434142892000.0,36.08,-86.72,Birt Douangkesone,TN,1434142892000.0,5882552
208689065,Smyrna,,1468089902000.0,35.97,-86.51,Blair,TN,1469761240000.0,5882552
188313814,Nashville,"Tucson, AZ",1433645991000.0,36.08,-86.72,Blanca V,TN,1460814801000.0,5882552
66910562,Hangzhou,Pennsylvania,1433114115000.0,30.25,120.17,Bob,,1433114115000.0,5882552
173951602,Brentwood,,1441677496000.0,36.0,-86.79,Bob,TN,1454356978000.0,5882552
158910422,Spring Hill,,1451311477000.0,35.76,-86.88,Bob Campbell,TN,1469923335000.0,5882552
195883892,Franklin,"Providence, RI",1448139577000.0,35.92,-86.89,Bobbie Bishandeski,TN,1448139577000.0,5882552
154836782,Hendersonville,,1444151469000.0,36.32,-86.61,Bobbie Jackson,TN,1444151469000.0,5882552
147043082,Brentwood,,1407258607000.0,36.0,-86.79,Bobbie Jean,TN,1450623005000.0,5882552
216191325,Nashville,,1485056369000.0,36.15,-86.85,Bobby,TN,1485056369000.0,5882552
187993802,Spring Hill,,1433002175000.0,35.76,-86.88,bobby kidder,TN,1433002175000.0,5882552
184295332,Nashville,,1423493009000.0,36.08,-86.72,Bonita Blue,TN,1423493009000.0,5882552
84067532,Nashville,,1402959868000.0,36.15,-86.86,Bonnie,TN,1473803224000.0,5882552
145214312,Nashville,"Nashville, TN",1420760307000.0,36.2,-86.8,Bonnie Friend,TN,1444854555000.0,5882552
182801201,Nashville,Nashville,1434666664000.0,36.07,-86.73,brad,TN,1450922102000.0,5882552
192489574,Brentwood,,1441817228000.0,36.0,-86.79,Bradley Collier,TN,1507208988000.0,5882552
69985282,Nashville,,1463787337000.0,36.17,-86.78,Brandi,TN,1463787337000.0,5882552
199190565,Nashville,,1454650624000.0,36.17,-86.78,Brandi Montgomery,TN,1454650624000.0,5882552
184900277,Franklin,,1425402001000.0,35.93,-86.81,Brandon,TN,1425402001000.0,5882552
9370417,Troy,Detroit,1390623582000.0,42.56,-83.17,Brandon,MI,1390623582000.0,5882552
202198455,Hendersonville,,1459007881000.0,36.32,-86.61,Brandon,TN,1459007881000.0,5882552
234459307,Nashville,,1503205463000.0,36.1,-86.66,Brandon Hurst,TN,1503205463000.0,5882552
233710560,Nashville,,1502347196000.0,36.17,-86.78,Brandon Williams,TN,1502347196000.0,5882552
197248311,Cumberland Furnace,,1451128812000.0,36.3,-87.41,Brandy Miner,TN,1451128812000.0,5882552
192066062,Murfreesboro,,1441030701000.0,35.78,-86.33,Brandylynn Nichole Smith,TN,1441030701000.0,5882552
133355872,Nashville,,1473977742000.0,36.17,-86.78,Bree,TN,1473977742000.0,5882552
6165382,Nashville,,1403396234000.0,36.15,-86.86,Brenda,TN,1473793472000.0,5882552
62418442,Nashville,,1472221553000.0,36.16,-86.79,Brenda Dillard,TN,1472221553000.0,5882552
9188552,Nashville,,1448161691000.0,36.08,-86.72,Brenda Kerr,TN,1448161691000.0,5882552
12225195,West Hollywood,,1404910254000.0,34.09,-118.38,Brent Beltrone,CA,1404910254000.0,5882552
239518525,Murfreesboro,,1508727672000.0,35.85,-86.36,Brett A. Baird,TN,1508727672000.0,5882552
186686619,Nashville,,1430228659000.0,36.1,-86.66,Brett Mcavid,TN,1430228659000.0,5882552
237211985,Nashville,,1506150614000.0,36.17,-86.78,Brette Ruff,TN,1506150614000.0,5882552
47097172,Nashville,,1478637946000.0,36.21,-86.72,Brian,TN,1478637946000.0,5882552
233171899,Nashville,,1501728479000.0,36.17,-86.78,briandu,TN,1501728479000.0,5882552
188059130,Gladeville,,1433125922000.0,36.19,-86.28,Brittany Hentz,TN,1451444746000.0,5882552
139059112,Nashville,Nashville,1479413754000.0,36.21,-86.72,Brittany Hyder,TN,1479413754000.0,5882552
186592484,Nashville,,1430025872000.0,36.17,-86.78,Brittanye Schexnayder,TN,1430025872000.0,5882552
40331052,Murfreesboro,,1420055752000.0,35.82,-86.45,Brittney,TN,1420430735000.0,5882552
191651820,Bell Buckle,,1440230796000.0,35.6,-86.41,Brooke,TN,1440230796000.0,5882552
215875831,Nashville,,1477879039000.0,36.17,-86.78,Brooke,TN,1477879039000.0,5882552
8468716,Hendersonville,"New Milford, CT",1465273413000.0,36.31,-86.65,Bruce,TN,1466175074000.0,5882552
183760092,Manchester,,1421796707000.0,35.47,-86.11,Bruce Atnip,TN,1421796707000.0,5882552
239180121,Nashville,,1508342390000.0,36.17,-86.78,Bryan Moore,TN,1508342390000.0,5882552
218200194,Hermitage,Mount Juliet,1481744788000.0,36.19,-86.6,Bryan Saums,TN,1481744788000.0,5882552
190680585,Columbia,,1438334298000.0,35.61,-87.05,Bud Fields,TN,1438334298000.0,5882552
149626502,Mount Juliet,,1446512852000.0,36.23,-86.34,Caitlin,TN,1503968411000.0,5882552
174245272,Columbia,,1465403239000.0,35.61,-87.05,Caleb,TN,1465403239000.0,5882552
230493587,Nashville,,1502252802000.0,36.22,-86.77,Caleb F,TN,1502252802000.0,5882552
199696071,Nashville,,1460313696000.0,36.11,-86.86,Callum,TN,1460313696000.0,5882552
196137209,Nashville,,1448667130000.0,36.17,-86.78,Calvin Hart,TN,1506909161000.0,5882552
231782177,Murfreesboro,,1500001048000.0,35.87,-86.44,Cameron Stacey,TN,1500001048000.0,5882552
198234045,Nashville,,1453051299000.0,36.1,-86.66,Candice myers,TN,1453051299000.0,5882552
239481415,Nashville,,1508691560000.0,36.16,-86.66,Cara Fidler,TN,1508691560000.0,5882552
481401,Nashville,,1433716566000.0,36.17,-86.78,Carey Rogers,TN,1504464686000.0,5882552
214526518,Hendersonville,,1475862406000.0,36.32,-86.61,Carla,TN,1506904889000.0,5882552
24540382,Nashville,,1433858311000.0,36.17,-86.78,Carless,TN,1462393723000.0,5882552
188166086,Brentwood,,1433339299000.0,36.0,-86.79,Carlos Ballesteros,TN,1439813648000.0,5882552
196206804,Bell Buckle,,1448803769000.0,35.6,-86.41,Carlotta Styles,TN,1450540173000.0,5882552
188873190,Brentwood,,1435954874000.0,36.0,-86.79,Carol,TN,1461070977000.0,5882552
6293644,Nashville,Nashville,1407265505000.0,36.06,-86.96,Carol,TN,1412884838000.0,5882552
212329432,Gallatin,,1473077650000.0,36.39,-86.45,Carol Walker,TN,1474319616000.0,5882552
177454062,Murfreesboro,,1414450960000.0,35.82,-86.45,Carolene,TN,1416009036000.0,5882552
193412209,Nashville,,1443542125000.0,36.18,-86.74,Caroline Akers,TN,1443542125000.0,5882552
195390861,Nashville,,1447195418000.0,36.21,-86.72,Caroline Davis ,TN,1447195418000.0,5882552
11954959,Nashville,"Nashville, TN",1440892398000.0,36.07,-86.78,Carolyn ,TN,1490388684000.0,5882552
44832142,Brentwood,,1361942412000.0,36.0,-86.79,Carolyn Lowen,TN,1461013573000.0,5882552
234340010,Nashville,,1503080692000.0,36.08,-86.72,Carolyn Sweiderk,TN,1503080692000.0,5882552
183655911,Nashville,,1421507407000.0,36.06,-86.96,Carolyn_V,TN,1421507407000.0,5882552
196654420,Hermitage,,1449679230000.0,36.19,-86.6,Carrie Care,TN,1449679230000.0,5882552
14205318,Nashville,"Lewiston, Idaho",1419698155000.0,36.15,-86.86,Caryn ,TN,1507152385000.0,5882552
186657231,Nashville,,1430162919000.0,36.08,-86.72,Casey Gymrek,TN,1491244056000.0,5882552
184671272,Franklin,,1424664134000.0,35.92,-86.89,Casie,TN,1424664134000.0,5882552
235813876,La Vergne,,1504720125000.0,35.99,-86.59,Catherine Cleveland,TN,1505598908000.0,5882552
11898161,Nashville,,1428111486000.0,36.16,-86.79,Cathy R.,TN,1432779215000.0,5882552
19632761,Lebanon,"Virginia Beach, VA",1382310667000.0,36.21,-86.31,Catie Straube,TN,1399128925000.0,5882552
68034342,Clarksville,,1438540729000.0,36.53,-87.35,Cavan,TN,1438540729000.0,5882552
191966482,Nashville,Nashville,1461166484000.0,36.22,-86.77,cayala,TN,1461166484000.0,5882552
197364291,Nashville,,1451375415000.0,36.06,-86.96,Cesar Rojano,TN,1451375415000.0,5882552
178835872,Nashville,,1481294246000.0,36.17,-86.78,Chaitra,TN,1505041104000.0,5882552
40967832,Nashville,Knoxville,1398054714000.0,36.17,-86.72,Chanel,TN,1495374819000.0,5882552
206184595,Nashville,,1464678875000.0,36.17,-86.79,Charisse Sarmiento,TN,1464678875000.0,5882552
184259650,Nashville,,1423406670000.0,36.06,-86.96,Charity,TN,1423406670000.0,5882552
192279383,Nashville,,1441430999000.0,36.17,-86.72,Charity,TN,1475200747000.0,5882552
54121472,Smyrna,Smyrna,1489346502000.0,35.97,-86.51,Charlene Elizabeth Jones,TN,1506897085000.0,5882552
196496339,Nashville,,1451428197000.0,36.06,-86.96,Charlene Garrett,TN,1455378776000.0,5882552
197808762,Goodlettsville,,1452261262000.0,36.33,-86.74,charlene hosey,TN,1471548696000.0,5882552
189623394,Camden,,1436318059000.0,36.06,-88.1,Charles Cooper,TN,1436318059000.0,5882552
235093108,Antioch,,1503941867000.0,36.06,-86.61,Charles Hicks,TN,1503941867000.0,5882552
234748083,Indianapolis,Indianapolis ,1503528014000.0,39.81,-86.1,Charles Smith,IN,1503528014000.0,5882552
182706381,Hendersonville,,1453236587000.0,36.32,-86.61,Charlie,TN,1507155346000.0,5882552
207413812,Antioch,,,36.04,-86.64,,TN,,5882552
10786300,Cookeville,Lascassas,1435166612000.0,36.2,-85.52,Charlotte,TN,1469570994000.0,5882552
185689267,Murfreesboro,,1427744440000.0,35.87,-86.44,Charmaine Hreha,TN,1427744440000.0,5882552
6748620,Nashville,,1478242968000.0,36.16,-86.79,Charmaine Lowe,TN,1478242968000.0,5882552
239279656,Nashville,,1508453820000.0,36.15,-86.86,Chase Anthony Cooksey,TN,1508453820000.0,5882552
208518829,Nashville,,1467854107000.0,36.17,-86.78,Chase Pruett,TN,1467854107000.0,5882552
183696148,Nashville,,1421623027000.0,36.17,-86.78,Chelsea,TN,1421623027000.0,5882552
206112674,Madison,,1464584066000.0,36.26,-86.71,Cheri,TN,1471755008000.0,5882552
202701381,Nashville,,1459743576000.0,36.17,-86.78,Cheryl,TN,1459743576000.0,5882552
202483952,Nashville,,1459432896000.0,36.17,-86.78,Chris,TN,1459432896000.0,5882552
236338727,Nashville,,1505252826000.0,36.18,-86.74,Chris ,TN,1505252826000.0,5882552
185574402,Mount Juliet,,1427382038000.0,36.22,-86.52,Chris Bowles,TN,1429504408000.0,5882552
215179218,Nashville,,1476816416000.0,36.17,-86.78,Chris Burton,TN,1476816416000.0,5882552
218943823,Springfield,,1483201200000.0,36.52,-86.87,Chris Fox,TN,1483201200000.0,5882552
186379477,Nashville,,1429718533000.0,36.17,-86.78,Chris Greene,TN,1430084377000.0,5882552
185815423,Smyrna,"Smyrna, TN",1428096380000.0,35.97,-86.51,Chris Tomlin,TN,1428096380000.0,5882552
190405150,Hermitage,,1437845812000.0,36.19,-86.6,Chris Wray,TN,1437845812000.0,5882552
190692250,Murfreesboro,,1438359950000.0,35.87,-86.34,Christian,TN,1438359950000.0,5882552
104200192,Franklin,,1494674357000.0,35.93,-86.81,Christian,TN,1494674357000.0,5882552
238223701,Brentwood,,1507268883000.0,36.0,-86.79,Christian Pilgrim,TN,1507268883000.0,5882552
199319496,Mount Juliet,,1454867836000.0,36.22,-86.52,Christian Sue,TN,1455121511000.0,5882552
209600773,Nashville,,1469282298000.0,36.17,-86.78,Christian Tabarez,TN,1469282298000.0,5882552
211130804,Dickson,,1471402047000.0,36.08,-87.43,christie phillips,TN,1471402047000.0,5882552
17468791,Franklin,Sellersburg,1474735128000.0,35.93,-86.81,Christina,TN,1474811864000.0,5882552
201809509,Franklin,,1458417352000.0,35.92,-86.89,Christina ,TN,1458417352000.0,5882552
208763635,Yonkers,,1468516340000.0,40.94,-73.88,Christina Laurato,NY,1474723861000.0,5882552
193393112,Brentwood,,1443500833000.0,36.0,-86.79,Christina Zaragoza,TN,1443500833000.0,5882552
186456604,Nashville,,1429722934000.0,36.18,-86.73,Christine Card,TN,1429722934000.0,5882552
235337152,Nashville,,1504203590000.0,36.18,-86.74,Christine Coughlin,TN,1504203590000.0,5882552
230543435,Nashville,,1502636612000.0,36.11,-86.78,Christopher ,TN,1507230539000.0,5882552
195467795,Murfreesboro,,1447340471000.0,35.85,-86.36,Christopher Warren,TN,1447340471000.0,5882552
210155025,Nashville,,1470247834000.0,36.17,-86.78,Chrsoyso,TN,1496682356000.0,5882552
199318038,Mount Juliet,,1454865816000.0,36.22,-86.52,Cindi Nusbaum Gilchrist,TN,1454865816000.0,5882552
205588312,Clarksville,,1463845901000.0,36.53,-87.35,Cindy,TN,1463845901000.0,5882552
11462026,Murfreesboro,murfreesboro,1461591042000.0,35.87,-86.34,Cindy Sue Whitaker,TN,1507100803000.0,5882552
217077405,Manchester,,1479770029000.0,35.47,-86.08,Clint Page,TN,1479770029000.0,5882552
203756486,Nashville,Nashville,1461243342000.0,36.1,-86.66,Clyde Hilliker,TN,1461243342000.0,5882552
187871708,Hermitage,,1432749954000.0,36.19,-86.6,Cody Funderburg,TN,1432749954000.0,5882552
206514498,Hermitage,,1465137119000.0,36.19,-86.6,Cody Mitchell,TN,1465137119000.0,5882552
215367772,Nashville,,1477096329000.0,36.13,-86.8,Colin Klein,TN,1477096329000.0,5882552
232824102,Columbia,,1501293327000.0,35.61,-87.05,Connie Fowler,TN,1501293327000.0,5882552
194673844,Antioch,,1445884283000.0,36.04,-86.64,Connie Ridings,TN,1445884283000.0,5882552
201699067,New York,,1458251755000.0,40.75,-73.99,Constance McKee,NY,1458251755000.0,5882552
198713387,Nashville,,1453911687000.0,36.18,-86.81,Constance Stringer,TN,1453911687000.0,5882552
198637502,Nashville,,1453782137000.0,36.08,-86.72,Corey Jeffrey,TN,1453782137000.0,5882552
234188824,Antioch,,1502908918000.0,36.04,-86.64,Cory Jackson,TN,1502908918000.0,5882552
187890374,Nashville,,1436391600000.0,36.14,-86.74,Cory Young,TN,1436391600000.0,5882552
200676580,Pleasant View,,1456785264000.0,36.38,-87.04,Courtney,TN,1456785264000.0,5882552
206145591,Nashville,,1464631572000.0,36.08,-86.72,Courtney White,TN,1505211429000.0,5882552
234419823,Nashville,,1503181962000.0,36.17,-86.78,Cristina Landry,TN,1504916193000.0,5882552
195523008,Smyrna,,1447443118000.0,35.97,-86.51,Crys,TN,1447443118000.0,5882552
116248362,La Vergne,"Stockton, CA",1507446892000.0,36.01,-86.57,Crystal Bloom,TN,1507446892000.0,5882552
183406484,Chicago,,1420676416000.0,41.87,-87.65,Crystal Churchwell,IL,1420676416000.0,5882552
45525172,Nashville,Nashville,1445814234000.0,36.15,-86.86,Crystalena Haney,TN,1474570844000.0,5882552
220085715,Nashville,,1505362048000.0,36.08,-86.69,Curtis A,TN,1505423831000.0,5882552
233676471,Nashville,,1502309918000.0,36.1,-86.78,Curtis porter,TN,1502309918000.0,5882552
199614716,Brentwood,,1455313062000.0,36.0,-86.79,Cynthia ,TN,1455313062000.0,5882552
183825231,Culleoka,,1423366265000.0,35.46,-86.99,D Thrasher,TN,1423366265000.0,5882552
202552655,Nashville,,1465791243000.0,36.17,-86.78,D'Vontay,TN,1465791243000.0,5882552
7417787,Nashville,,1501881678000.0,36.17,-86.78,Dahlia W.,TN,1501881678000.0,5882552
200723177,Manchester,,1456853349000.0,35.47,-86.11,Dale Pedrick,TN,1456853349000.0,5882552
201339394,Hendersonville,,1458087606000.0,36.32,-86.61,Dan Franklin,TN,1458087606000.0,5882552
10095712,Old Hickory,,1456197311000.0,36.25,-86.63,Dan Stewart,TN,1507733006000.0,5882552
236066631,Nashville,,1504985419000.0,36.06,-86.96,Dana Bomgardner,TN,1504985419000.0,5882552
405000,Nashville,,1471708579000.0,36.17,-86.78,dancingturtle,TN,1474366757000.0,5882552
186536053,Murfreesboro,,1429900103000.0,35.78,-86.33,Danen Renee',TN,1429900103000.0,5882552
235365244,Nashville,,1504234388000.0,36.19,-86.8,Dani McQuoid,TN,1504892384000.0,5882552
190745787,Brentwood,Nashville,1438466750000.0,36.0,-86.79,Daniel Bell,TN,1438466750000.0,5882552
214761431,Nashville,,1484000604000.0,36.16,-86.79,Daniel McMahan,TN,1484000604000.0,5882552
201458628,Brentwood,,1457964342000.0,36.0,-86.79,Daniel Mirtes,TN,1466129743000.0,5882552
214402006,Nashville,,1475691520000.0,36.17,-86.78,Daniel Stone,TN,1475691520000.0,5882552
199685371,Murfreesboro,,1455410895000.0,35.78,-86.33,Daniel Wimberley,TN,1462445239000.0,5882552
188351680,Gallatin,,1433723722000.0,36.39,-86.45,Danielle,TN,1433723722000.0,5882552
208586456,Nashville,,1467946324000.0,36.17,-86.78,Danielle Ross,TN,1467946324000.0,5882552
231590676,Murfreesboro,,1499864413000.0,35.78,-86.33,Daphne Miller,TN,1499864413000.0,5882552
195714467,Antioch,,1447806861000.0,36.17,-86.88,darryl cox,TN,1447806861000.0,5882552
3517021,Nashville,"Tampa, FL",1361331205000.0,36.11,-86.86,Dave D,TN,1445003731000.0,5882552
69821152,Portland,,1375116859000.0,36.57,-86.49,Dave Schroeder,TN,1504897130000.0,5882552
176782482,Murfreesboro,,1457886993000.0,35.87,-86.44,Dave The Elder,TN,1457886993000.0,5882552
62507502,Nashville,"Harlingen, TX",1377635979000.0,36.1,-86.66,David,TN,1505565749000.0,5882552
69604182,Nashville,,1439398056000.0,36.08,-86.72,David Adkins,TN,1439398056000.0,5882552
209228778,Nashville,,1468790508000.0,36.08,-86.72,David Craig Stiles Jr.,TN,1468790508000.0,5882552
187529246,Nashville,,1432068889000.0,36.16,-86.79,David Greene,TN,1432068889000.0,5882552
202205771,Nashville,,1459016621000.0,36.17,-86.78,David Mead,TN,1459016621000.0,5882552
217777187,Nashville,,1481135919000.0,36.06,-86.96,David Piller,TN,1481665999000.0,5882552
196353052,Nashville,,1449087367000.0,36.1,-86.66,David Tiller,TN,1449087367000.0,5882552
192131406,Nashville,,1441145610000.0,36.17,-86.78,davidson hardin,TN,1441145610000.0,5882552
203582565,Murfreesboro,,1460996879000.0,35.78,-86.33,Davina Dionne Miller-Clements,TN,1462325971000.0,5882552
235307665,Franklin,,1504172675000.0,35.92,-86.89,Dawn Beatty,TN,1504172675000.0,5882552
104995392,Nashville,"San Diego, CA",1452121608000.0,36.17,-86.72,Dawn Cassidy,TN,1452629437000.0,5882552
186078985,Hendersonville,,1454302957000.0,36.32,-86.61,Dawn Dittmer,TN,1454302957000.0,5882552
189401341,Nashville,Nashville,1436137427000.0,36.21,-86.72,Dawn Draper Lawson,TN,1505262567000.0,5882552
207735667,Nashville,,1466793272000.0,36.16,-86.79,Dawn Taylor,TN,1504892566000.0,5882552
232262550,Nashville,,1500598960000.0,36.17,-86.78,dbaun14,TN,1500598960000.0,5882552
192388475,Nashville,,1441743041000.0,36.17,-86.79,Deann Berry,TN,1441920206000.0,5882552
182887294,Nashville,Antioch,1507387914000.0,36.1,-86.66,deanna,TN,1507387914000.0,5882552
192208947,Nashville,,1441297956000.0,36.16,-86.79,Deanna,TN,1441297956000.0,5882552
239129976,Nashville,,1508280091000.0,36.14,-86.81,Deanna Smith,TN,1508280091000.0,5882552
184937119,La Vergne,"Oklahoma City, OK",1503771731000.0,36.01,-86.57,Debbie,TN,1503771731000.0,5882552
233492820,Hermitage,,1502111710000.0,36.19,-86.6,Debbie,TN,1502111710000.0,5882552
12204657,Smyrna,,1464177732000.0,35.97,-86.51,Debbie,TN,1469017431000.0,5882552
16790301,Nashville,,1477930359000.0,36.14,-86.74,Debbie Bourne,TN,1506966621000.0,5882552
10442893,Franklin,"Chicago, IL",1386724176000.0,35.92,-86.89,Debbie Cathleen,TN,1470088445000.0,5882552
183811615,Lebanon,,1421939386000.0,36.21,-86.31,Debbie Green,TN,1421939386000.0,5882552
49743012,Fairview,"Hernando County, FL",1451870659000.0,35.97,-87.13,Debi,TN,1497961157000.0,5882552
49647392,Franklin,Franklin,1499965104000.0,35.92,-86.89,Deborah Harris,TN,1500139103000.0,5882552
205984789,Nashville,,1464441069000.0,36.17,-86.72,Debra Birchfield,TN,1464441069000.0,5882552
187991432,Hermitage,,1432998605000.0,36.19,-86.6,Debra Henderson,TN,1432998605000.0,5882552
183264838,Nashville,,1442753363000.0,36.14,-86.74,Debra S,TN,1506210341000.0,5882552
183215842,Nashville,,1420043218000.0,36.17,-86.78,Debra Williams ,TN,1420043218000.0,5882552
185535083,Franklin,,1464477713000.0,35.92,-86.89,Dee Ann ,TN,1464477713000.0,5882552
82450262,Franklin,,1422239450000.0,35.92,-86.89,Delaca,TN,1422239450000.0,5882552
45789462,Nashville,,1379220400000.0,36.16,-86.79,Denise,TN,1394847172000.0,5882552
208282034,Smyrna,Smyrna,1467549816000.0,35.97,-86.51,Denise C,TN,1485962451000.0,5882552
198941959,Hendersonville,,1460361002000.0,36.32,-86.61,Denise Dillard,TN,1482457744000.0,5882552
173783752,Nashville,Nashville,1423273661000.0,36.11,-86.78,Denise Reagan,TN,1455583823000.0,5882552
198718480,La Vergne,,1453918009000.0,36.01,-86.57,Denisha Vazquez,TN,1453918009000.0,5882552
217216697,Nashville,,1480015621000.0,36.17,-86.78,Dennis Stallings,TN,1480015621000.0,5882552
13677114,Nashville,Nashville,1382831975000.0,36.15,-86.86,Derek,TN,1502923744000.0,5882552
79175962,Franklin,,1360343136000.0,35.93,-86.83,Derek Butler,TN,1386212840000.0,5882552
206240795,Nashville,,1464752553000.0,36.11,-86.86,Derek Charles,TN,1464752553000.0,5882552
199638613,Nashville,,1455345574000.0,36.15,-86.86,Derek Elwell,TN,1455345574000.0,5882552
202053242,Columbia,,1458772080000.0,35.61,-87.05,Dese,TN,1471664769000.0,5882552
45298022,Murfreesboro,,1476853850000.0,35.87,-86.44,Diane G.,TN,1476853850000.0,5882552
59643462,Brentwood,,1363494986000.0,36.0,-86.79,Diane Giambalvo,TN,1499949655000.0,5882552
12316690,Nashville,,1416787782000.0,36.1,-86.66,Diane Masiello,TN,1416787782000.0,5882552
192701352,Nashville,,1442212574000.0,36.11,-86.86,Diane Tardona Gutleber,TN,1442212574000.0,5882552
183770766,Nashville,,1421816057000.0,36.17,-86.72,Dianna Anderson,TN,1421816057000.0,5882552
194670657,Nashville,,1445878434000.0,36.22,-86.86,dianna lynn hazlewood,TN,1445878434000.0,5882552
139446012,Murfreesboro,Murfreesboro,1396017616000.0,35.78,-86.33,Dianne,TN,1472227173000.0,5882552
233434024,Nashville,,1502049289000.0,36.14,-86.81,Dianne Hotvedt,TN,1502049289000.0,5882552
186016720,Nashville,Nashville,1428628625000.0,36.15,-86.86,Dianne Shell,TN,1432903119000.0,5882552
148320182,Franklin,,1401043088000.0,35.92,-86.89,Dilshad Ali,TN,1401117281000.0,5882552
224503323,Smyrna,,1499658776000.0,35.97,-86.51,Dinah,TN,1504579577000.0,5882552
216854186,Nashville,,1479415052000.0,36.18,-86.81,Dion Ruben,TN,1479415052000.0,5882552
193642486,Franklin,Huntingdon,1443989447000.0,35.93,-86.81,Don Anderson,TN,1463102949000.0,5882552
76890852,Nashville,New York,1466599019000.0,36.17,-86.78,Don Cimaglia Jr,TN,1507152801000.0,5882552
201287627,Franklin,,1461293131000.0,35.92,-86.89,Don Copeland,TN,1461293131000.0,5882552
190511055,Brentwood,,1438027646000.0,36.0,-86.79,Don Green,TN,1438027646000.0,5882552
34405092,Nashville,,1502587690000.0,36.07,-86.78,Donald Baer,TN,1502587690000.0,5882552
183268010,Nashville,,1420247279000.0,36.13,-86.8,Donna,TN,1504892992000.0,5882552
146451932,Franklin,,1467421096000.0,35.99,-86.9,Donna,TN,1504797400000.0,5882552
67250322,Mobile,"Sturgis, KY",1433310580000.0,30.65,-88.17,Donna Brown,AL,1433310580000.0,5882552
211280912,Brentwood,,1471627132000.0,36.0,-86.79,Donna C,TN,1505660688000.0,5882552
191444842,Brentwood,,1451323243000.0,36.0,-86.79,Donna Marie Hall,TN,1451323243000.0,5882552
205671689,Clarksville,,1463955522000.0,36.49,-87.23,Donna W,TN,1474691863000.0,5882552
202402750,Nashville,,1459302359000.0,36.11,-86.86,Donnie Mitchell,TN,1459302359000.0,5882552
2201276,Nashville,Indianapolis,1474742941000.0,36.1,-86.66,Doug,TN,1504896356000.0,5882552
188831315,Murfreesboro,,1435460081000.0,35.78,-86.33,Doug,TN,1506897926000.0,5882552
200179889,Murfreesboro,,1456093485000.0,35.82,-86.45,Doug Barrett,TN,1456093485000.0,5882552
216715772,Brentwood,,1479203534000.0,36.0,-86.79,Doug Blanchard,TN,1506895970000.0,5882552
202551171,Franklin,,1459537232000.0,35.93,-86.81,Dr. Veera S. Rajaratnam,TN,1459537232000.0,5882552
233867904,Franklin,,1505232190000.0,35.92,-86.89,Drew McNairy,TN,1505232190000.0,5882552
189832868,Dayton,"Roanoke, VA",1436740342000.0,35.49,-85.02,DTO We The People,TN,1436740342000.0,5882552
184854433,Murfreesboro,,1425221120000.0,35.78,-86.33,Durell Fain,TN,1425221120000.0,5882552
205163247,Hendersonville,,1463273055000.0,36.32,-86.61,Dustan Larkins,TN,1463273055000.0,5882552
218468854,Murfreesboro,,1482267188000.0,35.78,-86.33,Dusti Dodd,TN,1482267188000.0,5882552
198196712,Manchester,,1452979644000.0,35.47,-86.11,Dylan Pietzsch,TN,1452979644000.0,5882552
188410610,Brush Creek,,1433838927000.0,36.13,-86.02,Dylan Williams,TN,1433838927000.0,5882552
13593605,Clarksville,Clarksville,1375037374000.0,36.56,-87.41,Eamonn O'Shea,TN,1410710886000.0,5882552
10330612,Nashville,,1469244319000.0,36.17,-86.78,earl  dennis frederick,TN,1469244319000.0,5882552
159584782,Nashville,,1469578515000.0,36.17,-86.78,Ebony Robinson,TN,1470496682000.0,5882552
188016113,Nashville,,1433042106000.0,36.08,-86.72,Ed Crawford,TN,1433042106000.0,5882552
192792326,Nashville,,1442395889000.0,36.17,-86.78,Edessa Yousefzadeh,TN,1444667625000.0,5882552
21287551,Brentwood,BRENTWOOD,1441713868000.0,36.0,-86.79,Edgard Arenas,TN,1472219132000.0,5882552
14277648,Nashville,Nashville,1358393819000.0,36.08,-86.72,Elaine,TN,1391859529000.0,5882552
178676442,Nashville,,1460206143000.0,36.22,-86.77,Elaine,TN,1460206143000.0,5882552
208312378,Nashville,,1467996426000.0,36.17,-86.78,Eli,TN,1471679876000.0,5882552
8473946,Hermitage,"Grand Rapids, MI",1356792683000.0,36.19,-86.6,Elisabeth,TN,1476007759000.0,5882552
186363239,La Vergne,,1429514049000.0,36.01,-86.57,Elisabeth,TN,1429514049000.0,5882552
190358171,Nashville,,1437764355000.0,36.17,-86.72,Elise Carnes,TN,1437764355000.0,5882552
137112882,Clarksville,Hendersonville,1429338412000.0,36.49,-87.23,Elizabeth,TN,1429338412000.0,5882552
229700182,Mount Juliet,,1497458098000.0,36.21,-86.52,Elizabeth,TN,1497458098000.0,5882552
8021630,Gallatin,"Nashville, TN",1430754678000.0,36.39,-86.45,Elizabeth,TN,1430754678000.0,5882552
185188451,Nashville,,1433194904000.0,36.08,-86.72,Elizabeth Eldridge,TN,1441765240000.0,5882552
7133630,Nashville,Poland ,1469891139000.0,36.15,-86.86,Elizabeth Gregal,TN,1469891139000.0,5882552
143407622,Nashville,Nashville,1495378037000.0,36.17,-86.78,Elizabeth Warren,TN,1495378037000.0,5882552
192417339,Nashville,,1441682167000.0,36.06,-86.96,Elizabeth Worsham,TN,1441682167000.0,5882552
208943190,Woodbury,,1468417634000.0,35.81,-86.07,Ellen Mckeon,TN,1468417634000.0,5882552
191757339,Nashville,,1440445890000.0,36.11,-86.86,ellenpn,TN,1440445890000.0,5882552
207578533,La Vergne,,1466566668000.0,36.01,-86.57,Elvira Vasquez,TN,1466566668000.0,5882552
185424897,Franklin,,1426916350000.0,35.92,-86.89,Em,TN,1426959230000.0,5882552
237023682,Madison,,1505936234000.0,36.26,-86.71,Emanuel Escalante,TN,1505936234000.0,5882552
41809472,Hendersonville,Hendersonville,1378511436000.0,36.32,-86.61,Emi,TN,1378511436000.0,5882552
199015821,Woodlawn,,1454376857000.0,36.5,-87.54,Emily,TN,1454376857000.0,5882552
208355261,Murfreesboro,,1467646433000.0,35.78,-86.33,Emily,TN,1467646433000.0,5882552
3796927,Hermitage,,1462369335000.0,36.19,-86.6,Emily,TN,1463356568000.0,5882552
40227562,Brentwood,"Mandeville, LA",1397835091000.0,36.0,-86.79,Emily C,TN,1420424104000.0,5882552
205275174,Cottontown,,1463420376000.0,36.49,-86.59,Emily Kirk,TN,1463420376000.0,5882552
188029470,Spring Hill,,1433076846000.0,35.76,-86.88,Emily Long,TN,1434926230000.0,5882552
218169104,Murfreesboro,,1481681595000.0,35.87,-86.34,Emily Michelle Davis,TN,1481681595000.0,5882552
194105360,Nashville,"Potomac, MD",1451499930000.0,36.17,-86.78,Eric,TN,1452094264000.0,5882552
196755062,Spring Hill,,1449892218000.0,35.76,-86.88,Eric Sendewicz,TN,1449892218000.0,5882552
197118677,Nashville,,1450748817000.0,36.07,-86.73,Eric W,TN,1450748817000.0,5882552
215366898,Nashville,,1477095263000.0,36.15,-86.79,Erica Smikes,TN,1477095263000.0,5882552
197917899,Nashville,,1452459932000.0,36.08,-86.72,Ernie,TN,1452459932000.0,5882552
120649532,Leawood,,1454361472000.0,38.92,-94.64,Eugene F Brieck,KS,1460822880000.0,5882552
211777421,Nashville,,1472316962000.0,36.17,-86.72,Evan Ludin,TN,1472316962000.0,5882552
209757395,Franklin,,1481905330000.0,35.93,-86.81,Evan West,TN,1481905330000.0,5882552
115229382,São Paulo,São Paulo,1436299802000.0,-23.53,-46.63,Ezio,,1492521299000.0,5882552
217853193,Smyrna,,1481122492000.0,35.97,-86.51,Farah,TN,1481122492000.0,5882552
204661619,Franklin,,1462566756000.0,35.93,-86.81,Farrukh Khalikov,TN,1462566756000.0,5882552
190974344,Nashville,,1438896932000.0,36.08,-86.72,Fernando Avalos,TN,1438896932000.0,5882552
126416052,Nashville,Chicago,1441764562000.0,36.16,-86.79,Flavia,TN,1441764562000.0,5882552
12734994,Concord,Concord,1441417912000.0,42.46,-71.37,Fran Grigsby,MA,1448768975000.0,5882552
207482677,Nashville,,1466447387000.0,36.17,-86.78,Fran Walsh,TN,1466447387000.0,5882552
150121512,Nashville,,1407635852000.0,36.09,-86.82,Francine,TN,1439581149000.0,5882552
206676870,Nashville,,1465338847000.0,36.17,-86.78,FRANK H JUMPER,TN,1465338847000.0,5882552
214184798,Nashville,,1508592618000.0,36.17,-86.78,Fred Johnson,TN,1508592618000.0,5882552
184865557,Nashville,,1446505452000.0,36.1,-86.66,Galina,TN,1446505452000.0,5882552
218395158,Clarksville,,1482124758000.0,36.53,-87.34,Garland Cain,TN,1482124758000.0,5882552
9627667,Nashville,,1444338070000.0,36.15,-86.86,Garrett ,TN,1495667187000.0,5882552
213104966,Nashville,,1474092335000.0,36.18,-86.74,Garrett Carr,TN,1474745168000.0,5882552
208122697,Franklin,,1467318699000.0,35.92,-86.89,Gary,TN,1467318699000.0,5882552
220422771,Nashville,,1492127423000.0,36.17,-86.78,Gem Davis,TN,1492127423000.0,5882552
187253542,Nashville,,1431479111000.0,36.08,-86.72,Gene B,TN,1462913777000.0,5882552
198541466,Nashville,,1453608376000.0,36.06,-86.96,Genevieve Joyner,TN,1458958953000.0,5882552
16894141,Nashville,,1430633082000.0,36.17,-86.72,Genny ,TN,1471675844000.0,5882552
78389062,Nashville,Nashville,1426622324000.0,36.17,-86.72,Geoffrey Oliver,TN,1426637218000.0,5882552
186011333,Hendersonville,,1428617155000.0,36.32,-86.61,George,TN,1428617155000.0,5882552
193921281,Nashville,,1444507747000.0,36.06,-86.96,George Collier,TN,1446423122000.0,5882552
114988722,Nashville,,1383450162000.0,36.16,-86.79,George Lloyd,TN,1383450162000.0,5882552
94098502,Hendersonville,,1457365188000.0,36.32,-86.61,Georgie,TN,1457365188000.0,5882552
91638212,Nashville,,1367423206000.0,36.08,-86.72,Gerald Schrader,TN,1391814747000.0,5882552
184281295,Nashville,,1423443870000.0,36.17,-86.78,GG,TN,1423443870000.0,5882552
191456121,Jamestown,,1439848497000.0,36.41,-84.94,Gina Wright ,TN,1439848497000.0,5882552
183584198,Murfreesboro,,1434812163000.0,35.87,-86.34,Ginger ,TN,1439436184000.0,5882552
214948098,Antioch,,1476484055000.0,36.04,-86.64,Glen Saeger,TN,1476499647000.0,5882552
189125251,Murfreesboro,,1435285437000.0,35.82,-86.45,Glenn,TN,1439609992000.0,5882552
233384570,Nashville,,1501982906000.0,36.16,-86.66,Glenn Bailey,TN,1501982906000.0,5882552
197981712,Goodlettsville,,1452567290000.0,36.33,-86.74,Glenn C Pearson Jr.,TN,1452567290000.0,5882552
236020975,Nashville,,1504935300000.0,36.17,-86.78,Grace Harrison,TN,1505056286000.0,5882552
186828890,Murfreesboro,,1430548002000.0,35.78,-86.33,Grace Vance,TN,1430548002000.0,5882552
188105393,Wartrace,,1433211971000.0,35.5,-86.34,Grant Foster Raybourne,TN,1433211971000.0,5882552
211772264,Clarksville,,1472324995000.0,36.49,-87.23,Greg,TN,1472324995000.0,5882552
195161916,Portland,,1446771810000.0,36.57,-86.49,Greg,TN,1450832206000.0,5882552
186762003,Franklin,,1430394596000.0,35.93,-86.81,Greg,TN,1430394596000.0,5882552
4379213,Atlanta,Sacramento,1398194177000.0,33.93,-84.34,Gregory Smith,GA,1404081640000.0,5882552
220804992,Adams,,1485507886000.0,36.57,-87.1,Grews Gary,TN,1499766368000.0,5882552
127330832,Antioch,,1399045881000.0,36.04,-86.64,Gynni,TN,1399232806000.0,5882552
199112129,Alexandria,,1454529705000.0,36.08,-86.04,H. Howell,TN,1461947668000.0,5882552
187340350,Hermitage,,1431660051000.0,36.19,-86.6,Haileigh,TN,1431660051000.0,5882552
189625440,Goodlettsville,Goodlettsville,1463188197000.0,36.33,-86.74,Hailey Overstreet,TN,1463188197000.0,5882552
152577662,Nashville,,1425254896000.0,36.17,-86.72,Haneen Baker,TN,1432994393000.0,5882552
196193377,Nashville,,1448770148000.0,36.17,-86.72,Hannah Hayes,TN,1449760042000.0,5882552
185277446,Nashville,,1426465204000.0,36.08,-86.72,Hannah Kelly,TN,1426465204000.0,5882552
186894851,Nashville,,1430697967000.0,36.1,-86.66,Hannah Ward,TN,1430697967000.0,5882552
211435150,Nashville,,1471840675000.0,36.09,-86.82,Hayley Clifford,TN,1471840675000.0,5882552
199806810,Lebanon,,1455583436000.0,36.21,-86.29,Hayli,TN,1456107704000.0,5882552
183630169,Lebanon,"Anchorage, AK",1421424860000.0,36.21,-86.31,Heather,TN,1421424860000.0,5882552
75476622,Nashville,,1454539972000.0,36.17,-86.78,heather,TN,1464927497000.0,5882552
157676112,Nashville,,1434232510000.0,36.17,-86.78,Heather,TN,1451056538000.0,5882552
183953635,Castalian Springs,,1422417392000.0,36.38,-86.32,heather,TN,1422417392000.0,5882552
200047997,Franklin,,1456061564000.0,35.93,-86.81,Heather Collier Goyette,TN,1460947285000.0,5882552
209114727,Los Angeles,,1507517498000.0,33.97,-118.24,HEATHER LOSHBAUGH,CA,1507517498000.0,5882552
134080422,Nashville,"Nashville, TN",1455596524000.0,36.18,-86.74,Heather Marie,TN,1474778267000.0,5882552
182513375,Nashville,,1451539091000.0,36.09,-86.61,Heather Neal,TN,1451539091000.0,5882552
190103519,Clarksville,,1437274838000.0,36.53,-87.35,Heather R.,TN,1438386146000.0,5882552
205930903,Nashville,,1464461644000.0,36.11,-86.78,Heather Terese,TN,1464461644000.0,5882552
183769360,Franklin,,1421812683000.0,35.92,-86.89,Heather Thorne,TN,1421812683000.0,5882552
5602111,Nashville,SF Bay Area,1377488617000.0,36.18,-86.74,Heather Wood,TN,1377488617000.0,5882552
187576653,Nashville,,1432155393000.0,36.08,-86.72,Helene K.,TN,1432905039000.0,5882552
202967027,Nashville,,1460126109000.0,36.18,-86.74,Hi There,TN,1460126109000.0,5882552
124003012,Brentwood,"Brentwood, TN",1428424775000.0,36.0,-86.79,hifiibanker123,TN,1462410618000.0,5882552
96643292,Nashville,,1370742898000.0,36.22,-86.77,Holley ,TN,1376458378000.0,5882552
79152872,Hermitage,Hermitage,1482636513000.0,36.19,-86.6,Holly Miller,TN,1507556166000.0,5882552
184805377,Nashville,,1425315769000.0,36.17,-86.78,Holly Palmer,TN,1425315769000.0,5882552
234590863,Nashville,,1503357129000.0,36.15,-86.86,Hope Gant,TN,1503357129000.0,5882552
186755623,Nashville,,1430373126000.0,36.14,-86.74,Houston72 ,TN,1439469150000.0,5882552
213516211,Nashville,,1474610717000.0,36.17,-86.78,Hunt Hearin,TN,1474610717000.0,5882552
194958550,Nashville,,1458756776000.0,36.08,-86.72,Hunter H. Williams,TN,1458756776000.0,5882552
195168461,Franklin,,1446782790000.0,35.93,-86.81,Ian,TN,1446782790000.0,5882552
14144561,Nashville,,1465353242000.0,36.17,-86.78,Ian Skotte,TN,1465353242000.0,5882552
237778105,Franklin,,1506786047000.0,35.92,-86.89,Ida,TN,1506822137000.0,5882552
202816153,Nashville,,1459900007000.0,36.1,-86.66,ingrid fidler,TN,1459900007000.0,5882552
59543352,Nashville,,1469391180000.0,36.13,-86.8,Irene Popa,TN,1471580224000.0,5882552
210013317,Nashville,,1470162489000.0,36.17,-86.78,Issam Bahour,TN,1470162489000.0,5882552
185458734,Nashville,,1427033599000.0,36.09,-86.82,J C,TN,1427033599000.0,5882552
185706921,Smyrna,Nashville,1427789076000.0,35.97,-86.51,"J. Leo Richardson, III, Esq",TN,1427789076000.0,5882552
185626380,Columbia,,1427552091000.0,35.61,-87.05,J. Tyler Sneed,TN,1427925170000.0,5882552
185672910,Nashville,,1427694447000.0,36.08,-86.72,J.J. Holloway,TN,1427694447000.0,5882552
90246382,Nashville,,1402929642000.0,36.17,-86.78,j.jose,TN,1460813785000.0,5882552
195754084,Antioch,,1447879539000.0,36.04,-86.64,J'ean Francois,TN,1447879539000.0,5882552
189621475,Nashville,Nashville,1456800669000.0,36.06,-86.96,Jackie,TN,1506510914000.0,5882552
237025713,Madison,,1505937929000.0,36.19,-86.74,Jackie Foster,TN,1506111422000.0,5882552
223981122,Nashville,,1489836442000.0,36.17,-86.72,Jackie Robinson,TN,1491739253000.0,5882552
186030946,Nashville,,1428675159000.0,36.08,-86.72,Jacob,TN,1428675159000.0,5882552
190523994,Nashville,,1438047072000.0,36.11,-86.78,Jacob,TN,1438047072000.0,5882552
232157175,Nashville,,1500470904000.0,36.17,-86.78,Jacob Stiefel,TN,1500470904000.0,5882552
199219641,Hendersonville,Hendersonville,1454705331000.0,36.32,-86.61,Jacqueline Cherry,TN,1454705331000.0,5882552
212733762,Murfreesboro,,1473612255000.0,35.87,-86.34,Jacy,TN,1474242616000.0,5882552
219578866,Nashville,,1505100263000.0,36.17,-86.78,Jade,TN,1505100263000.0,5882552
208007477,Hendersonville,,1467156894000.0,36.32,-86.61,Jade Doubleday,TN,1467156894000.0,5882552
208989415,Westmoreland,,1468469183000.0,36.57,-86.22,James Biggs,TN,1468469183000.0,5882552
184268227,Franklin,,1423410182000.0,35.92,-86.89,James Buente,TN,1423410182000.0,5882552
22822581,Harvest,"Huntsville, AL",1399844393000.0,34.83,-86.74,James Burton,AL,1468882527000.0,5882552
183927270,Nashville,,1422306565000.0,36.08,-86.72,James E. Moore,TN,1422306565000.0,5882552
204700330,Nashville,,1464649303000.0,36.17,-86.78,James Lauderdale Jr,TN,1467569693000.0,5882552
173409342,Nashville,"Sault Sainte Marie, MI",1428896899000.0,36.21,-86.69,James McMillan(Mac),TN,1428896899000.0,5882552
190039516,Mount Juliet,Mount Juliet,1437147018000.0,36.22,-86.52,James McVey,TN,1437147018000.0,5882552
216023098,Franklin,,1478110377000.0,35.92,-86.89,James Mitchell,TN,1478110377000.0,5882552
208081360,Mount Juliet,,1467262795000.0,36.22,-86.52,James Moore,TN,1467262795000.0,5882552
60880852,Lawrenceburg,,1377658358000.0,35.25,-87.33,Jamie Marston,TN,1377658358000.0,5882552
187210338,Mount Juliet,,1431390897000.0,36.22,-86.52,Jamie Mowdy Shifflett,TN,1432234341000.0,5882552
190435024,Petersburg,,1437900294000.0,35.38,-86.59,Jamie Nicole Brack,TN,1437900294000.0,5882552
186297580,Bowling Green,,1448364519000.0,37.02,-86.46,Jamie powell,KY,1450575997000.0,5882552
183505104,Murfreesboro,,1421810074000.0,35.78,-86.33,Jan,TN,1421810074000.0,5882552
199878607,Nashville,,1455674067000.0,36.18,-86.81,Jan,TN,1455674067000.0,5882552
30609742,Nashville,Nashville,1402750245000.0,36.15,-86.86,Jan Wolff,TN,1438353204000.0,5882552
200830151,Mount Juliet,,1497955468000.0,36.22,-86.52,Jane Casteel,TN,1497955468000.0,5882552
116068112,Antioch,Nashville,1497284418000.0,36.04,-86.64,Jane E. Schuling,TN,1498499960000.0,5882552
194827396,Nashville,,1446153067000.0,36.09,-86.94,Jane Lee,TN,1473978115000.0,5882552
9720390,Nashville,,1360766592000.0,36.15,-86.86,Jane Lee Atkinson,TN,1400737380000.0,5882552
14437360,Nashville,,1354222585000.0,36.18,-86.74,Jane Massey,TN,1357180251000.0,5882552
205622298,Nashville,,1463887574000.0,36.18,-86.74,Jane Santiago,TN,1463887574000.0,5882552
200486654,Nashville,,1456518989000.0,36.18,-86.74,Jane Turner-Denner,TN,1456518989000.0,5882552
91265022,Hendersonville,,1445931073000.0,36.32,-86.61,Janelle Mears,TN,1451350516000.0,5882552
4304927,Nashville,"Dallas, TX",1438138606000.0,36.08,-86.72,Janet P,TN,1471549509000.0,5882552
195877406,Dickson,,1448128307000.0,36.08,-87.43,Janet Pumley,TN,1448128307000.0,5882552
188045150,Nashville,,1458660409000.0,36.06,-86.96,Jared,TN,1458660409000.0,5882552
217464856,Nashville,,1505483716000.0,36.17,-86.78,Jared Fuller,TN,1505483716000.0,5882552
213229585,Nashville,,1474247386000.0,36.17,-86.78,Jason,TN,1507034924000.0,5882552
208576239,Nashville,,1467932542000.0,36.21,-86.72,Jason Broyles,TN,1467932542000.0,5882552
61285542,Murfreesboro,Murfressboro,1487447380000.0,35.87,-86.44,Jason Chuang,TN,1487447380000.0,5882552
11219213,Nashville,,1432381550000.0,36.17,-86.72,Jason Drake,TN,1432381550000.0,5882552
153567702,Spring Hill,,1403833098000.0,35.76,-86.88,Jason Newsom,TN,1404709078000.0,5882552
206340673,Murfreesboro,,1464896038000.0,35.87,-86.44,Jason R. Thompson,TN,1464896038000.0,5882552
234982835,Nashville,,1503808169000.0,36.08,-86.72,Javier Santiago,TN,1503808169000.0,5882552
203144683,New York,,1460376149000.0,40.75,-73.99,Jay Cook,NY,1460376149000.0,5882552
82701292,Murfreesboro,Nashville,1441330714000.0,35.78,-86.33,Jaye,TN,1471800128000.0,5882552
204017297,Mexico,,1461617956000.0,19.43,-99.14,Jayme Bennett Yates,09,1461617956000.0,5882552
149281532,Brentwood,Nashville,1467439216000.0,36.0,-86.79,Jean,TN,1505108248000.0,5882552
198786473,Nashville,,1454023552000.0,36.16,-86.79,Jeanne Bellinger,TN,1454023552000.0,5882552
96882082,Bowling Green,bowling green,1439493858000.0,36.96,-86.37,jeannette,KY,1446052127000.0,5882552
212982921,Nashville,,1473930492000.0,36.17,-86.78,Jeb Gross,TN,1473930492000.0,5882552
13537265,Smyrna,Smyrna,1357000319000.0,35.97,-86.51,Jeff Bouldin,TN,1499635052000.0,5882552
203315859,Spring Hill,,1460635379000.0,35.76,-86.88,Jeff Pedigo,TN,1461213434000.0,5882552
13346928,Nashville,,1438957354000.0,36.06,-86.96,Jeff S,TN,1461896333000.0,5882552
203609769,Murfreesboro,,1461029483000.0,35.86,-86.37,Jeff Schmidt,TN,1461029483000.0,5882552
14056683,Franklin,,1372394875000.0,35.93,-86.81,Jeff Wolfe,TN,1507424708000.0,5882552
210057201,Nashville,,1469887878000.0,36.08,-86.72,Jeffrey Bryan,TN,1469887878000.0,5882552
206471729,Nashville,,1469732761000.0,36.17,-86.78,Jeffrey Garrison,TN,1469732761000.0,5882552
238896921,Nashville,,1508017477000.0,36.17,-86.78,Jehmie Lynn Barrick,TN,1508017477000.0,5882552
185628475,Franklin,,1427558030000.0,35.93,-86.81,Jen Jay,TN,1427558030000.0,5882552
207950039,Clarksville,,1467081372000.0,36.53,-87.35,Jenell,TN,1467081372000.0,5882552
186544330,Columbia,,1429916141000.0,35.61,-87.05,Jeni,TN,1429916141000.0,5882552
13724820,Nashville,"New York, NY",1472527899000.0,36.16,-86.79,Jenn,TN,1504891650000.0,5882552
204101327,Murfreesboro,,1461736045000.0,35.78,-86.33,Jenn,TN,1461736045000.0,5882552
183318848,Mount Juliet,,1438887416000.0,36.22,-86.52,Jenn Malone,TN,1440066098000.0,5882552
238207631,Murfreesboro,,1507250047000.0,35.82,-86.45,Jenna Barton,TN,1507420606000.0,5882552
3575885,Nashville,Great Neck NY,1407360769000.0,36.11,-86.86,Jenna R,TN,1462909655000.0,5882552
7325785,Nashville,,1358413935000.0,36.11,-86.86,Jenna Rose,TN,1358413935000.0,5882552
199025560,Smyrna,,1454391078000.0,35.97,-86.51,Jenni,TN,1454391078000.0,5882552
29067732,Murfreesboro,,1434163390000.0,35.84,-86.45,Jennie Postell,TN,1453046310000.0,5882552
4646514,Hendersonville,"Hendersonville, TN",1435336254000.0,36.29,-86.62,jennifer,TN,1475195014000.0,5882552
184105288,Nashville,,1446471699000.0,36.07,-86.73,Jennifer,TN,1446471699000.0,5882552
192141430,Antioch,,1441162186000.0,36.04,-86.64,Jennifer,TN,1441162186000.0,5882552
152197912,Palmyra,Palmyra,1443407787000.0,36.41,-87.5,Jennifer,TN,1489905712000.0,5882552
65187592,Nashville,,1362110741000.0,36.08,-86.72,Jennifer,TN,1499926783000.0,5882552
203546648,Goodlettsville,,1462760020000.0,36.32,-86.72,Jennifer,TN,1489309440000.0,5882552
208489590,Hendersonville,,1471655080000.0,36.32,-86.61,Jennifer,TN,1471655080000.0,5882552
197647448,Mount Juliet,,1467839268000.0,36.21,-86.52,Jennifer,TN,1467998687000.0,5882552
189485513,Nashville,,1436053958000.0,36.17,-86.78,Jennifer,TN,1471573488000.0,5882552
217317246,Murfreesboro,,1480209684000.0,35.78,-86.33,Jennifer,TN,1480209684000.0,5882552
9102758,Nashville,,1469331714000.0,36.17,-86.78,Jennifer,TN,1479352617000.0,5882552
29567242,Nashville,,1427585965000.0,36.09,-86.82,Jennifer Daniel,TN,1427585965000.0,5882552
188335197,Murfreesboro,,1433695021000.0,35.78,-86.33,Jennifer Factor,TN,1433695021000.0,5882552
233996566,Nashville,,1502681617000.0,36.17,-86.78,Jennifer Hayes,TN,1502681617000.0,5882552
214582672,Nashville,,1475947604000.0,36.09,-86.82,Jennifer Justice,TN,1475947604000.0,5882552
211060628,Nashville,,1471368580000.0,36.17,-86.78,Jennifer Knowles,TN,1471368580000.0,5882552
205845313,Murfreesboro,,1464193655000.0,35.78,-86.33,Jennifer L.,TN,1464193655000.0,5882552
12772818,Nashville,,1442108223000.0,36.18,-86.74,Jennifer Menze,TN,1506557555000.0,5882552
200072261,Nashville,,1455945151000.0,36.06,-86.96,Jennifer Pettigrew,TN,1455945151000.0,5882552
187441950,Smyrna,,1431888731000.0,35.97,-86.51,Jennifer Phillips,TN,1431888731000.0,5882552
19432041,Nashville,Nashville,1421346889000.0,36.17,-86.72,Jennifer Pippin,TN,1463685069000.0,5882552
200823688,Murfreesboro,,1457001699000.0,35.87,-86.34,Jennifer Ray,TN,1457001699000.0,5882552
222906914,Nashville,,,36.18,-86.73,,TN,,5882552
95599772,Nashville,,1458094560000.0,36.1,-86.66,Jenny,TN,1458094560000.0,5882552
210068024,Smyrna,,1469901655000.0,35.97,-86.51,Jenny Griffin Little,TN,1469901655000.0,5882552
180593112,Nashville,Nashville,1478909794000.0,36.16,-86.79,Jeremy,TN,1478909794000.0,5882552
9146103,Nashville,,1380314123000.0,36.16,-86.79,Jeremy Childs,TN,1394890994000.0,5882552
188010474,Murfreesboro,,1433032717000.0,35.82,-86.45,Jeremy Malcolm,TN,1433032717000.0,5882552
196141156,Nashville,,1448662889000.0,36.17,-86.78,Jeri Lynn,TN,1448662889000.0,5882552
201695590,Hendersonville,,1458247402000.0,36.32,-86.61,Jesse Williams,TN,1458247402000.0,5882552
213574949,Nashville,,1474832617000.0,36.17,-86.78,Jessica,TN,1505012615000.0,5882552
13203057,Stamford,Stamford,1427818658000.0,41.05,-73.54,Jessica,CT,1427818658000.0,5882552
183703945,Nashville,,1421641608000.0,36.07,-86.73,Jessica ,TN,1421641608000.0,5882552
211374008,Nashville,,1471758179000.0,36.17,-86.78,Jessica,TN,1483479829000.0,5882552
85741522,Nashville,,1366468495000.0,36.1,-86.66,Jessica,TN,1462250105000.0,5882552
3921354,Hendersonville,"South Bend, IN",1413755072000.0,36.32,-86.61,JESSICA,TN,1427516099000.0,5882552
38690452,Nashville,Cypress,1355451900000.0,36.11,-86.8,Jessica,TN,1442187556000.0,5882552
199742349,Castalian Springs,,1455494151000.0,36.38,-86.32,Jessica Davis,TN,1455494151000.0,5882552
62098922,Nashville,,1426258617000.0,36.17,-86.79,Jessica Dean,TN,1426258617000.0,5882552
105232282,Ashland City,,1422716223000.0,36.28,-87.07,Jessica Hawk,TN,1422716223000.0,5882552
235812914,Nashville,,1507068015000.0,36.08,-86.72,Jessica Lewis,TN,1507389098000.0,5882552
24685562,Nashville,,1420485184000.0,36.13,-86.8,Jessica Peeples,TN,1420485184000.0,5882552
186210950,Murfreesboro,,1429129957000.0,35.78,-86.33,Jetuan Hockless,TN,1429129957000.0,5882552
216811342,Nashville,,1479345553000.0,36.16,-86.79,Jill Stockton,TN,1479345553000.0,5882552
155495112,Brooks,Brooks Ky,1414173141000.0,38.06,-85.73,Jim Frans :-),KY,1442198432000.0,5882552
3380276,Nashville,Nashville/Shelbyville,1405211352000.0,36.11,-86.78,Jim H,TN,1474671281000.0,5882552
195188025,Smithville,,1446826803000.0,35.96,-85.82,Jim Judkins,TN,1446826803000.0,5882552
187630963,Murfreesboro,,1432254553000.0,35.87,-86.44,Jim Milford,TN,1432254553000.0,5882552
229537333,Franklin,,1506236202000.0,35.92,-86.89,Jim Miller,TN,1506236202000.0,5882552
192375231,Nashville,,1441617691000.0,36.08,-86.72,Jimmy,TN,1441760142000.0,5882552
191794133,Nashville,,1440510431000.0,36.08,-86.72,JJ,TN,1440552756000.0,5882552
189903692,Nashville,,1436872950000.0,36.18,-86.74,JM,TN,1437181675000.0,5882552
3237402,Nashville,,1427049634000.0,36.06,-86.96,Jme,TN,1427471599000.0,5882552
197627919,Nashville,,1451930090000.0,36.17,-86.78,Jo Thorogood,TN,1452058453000.0,5882552
76863502,Nashville,,1457054868000.0,36.14,-86.74,JO THOROGOOD,TN,1457054868000.0,5882552
109453822,Murfreesboro,Murfreesboro,1443338143000.0,35.78,-86.33,Joan Bentley,TN,1476322922000.0,5882552
213683165,Murfreesboro,,1474843539000.0,35.78,-86.33,JoAnne,TN,1474843539000.0,5882552
202117766,Nashville,,1458871782000.0,36.17,-86.78,Jodi,TN,1458871782000.0,5882552
194698774,Mount Juliet,,1445917711000.0,36.22,-86.52,Jodi,TN,1445917711000.0,5882552
237557812,Nashville,,1506533303000.0,36.17,-86.78,Joe F,TN,1506533303000.0,5882552
184591685,Franklin,"Paducah, KY",1424415378000.0,35.93,-86.81,Joe G,TN,1474686911000.0,5882552
139552392,Murfreesboro,,1403436789000.0,35.87,-86.44,Joe Hill,TN,1445087829000.0,5882552
233218798,Nashville,,1501789916000.0,36.11,-86.78,Joe Lawrence,TN,1501789916000.0,5882552
167756632,Pleasant View,"Somerset, KY",1455326524000.0,36.38,-87.04,Joe Paluzi,TN,1499108573000.0,5882552
236244560,Tullahoma,,1505165777000.0,35.37,-86.21,Joe Phelps,TN,1505165777000.0,5882552
230682473,Nashville,,1498679237000.0,36.08,-86.72,Joel,TN,1498679237000.0,5882552
209407174,Franklin,,1469033375000.0,35.92,-86.89,Joel Coady,TN,1469033375000.0,5882552
185056456,Murfreesboro,,1425794918000.0,35.87,-86.44,Joel Pompi,TN,1425794918000.0,5882552
97013332,Franklin,,1402960462000.0,35.93,-86.81,John,TN,1506895584000.0,5882552
8028493,Murfreesboro,Baltimore,1360021658000.0,35.87,-86.34,John,TN,1436385161000.0,5882552
207380774,Brentwood,Nashville,1466301733000.0,36.0,-86.79,John,TN,1466732841000.0,5882552
25568102,Franklin,Franklin ,1500790740000.0,35.93,-86.81,John Cabrera,TN,1500790740000.0,5882552
185028150,Murfreesboro,"McKenzie, TN",1425710063000.0,35.87,-86.44,John David Floyd,TN,1432783223000.0,5882552
198583489,Nashville,,1453688911000.0,36.08,-86.72,John F. Eldredge,TN,1453688911000.0,5882552
212635207,Nashville,,1475117886000.0,36.16,-86.79,John Koch,TN,1502255690000.0,5882552
205875866,Nashville,,1464230394000.0,36.13,-86.8,John Murphy,TN,1507946022000.0,5882552
194572721,Nashville,,1445704449000.0,36.06,-86.96,John Neiswender,TN,1445704449000.0,5882552
192503306,Spring Hill,,1441839223000.0,35.76,-86.88,John Paul Layne,TN,1441894009000.0,5882552
202251123,Antioch,,1459090961000.0,36.04,-86.64,JOHN REDING  (THE J.R.),TN,1459090961000.0,5882552
130150032,Nashville,,1465773326000.0,36.21,-86.72,John Towe,TN,1465773326000.0,5882552
191197195,Lebanon,,1439334399000.0,36.21,-86.31,John-Paul Rich,TN,1439334399000.0,5882552
4801776,Nashville,,1460196660000.0,36.17,-86.78,JohnParker,TN,1462897800000.0,5882552
127935172,Nashville,,1427521805000.0,36.09,-86.82,Joli Hitchcock,TN,1454770139000.0,5882552
119539202,Goodlettsville,,1476804144000.0,36.33,-86.74,Jon,TN,1476804144000.0,5882552
190585241,Murfreesboro,,1438150873000.0,35.78,-86.33,Jon Mychal Heatherly,TN,1438150873000.0,5882552
186226810,Nashville,,1429167469000.0,36.11,-86.86,Jonathan,TN,1429167469000.0,5882552
107048712,Nashville,"Miami, FL",1456005782000.0,36.15,-86.86,Jonathan,TN,1456005782000.0,5882552
196627770,Spring Hill,,1449622840000.0,35.71,-86.9,Jonathan Anderson,TN,1450538208000.0,5882552
101697662,Nashville,Franklin,1440163799000.0,36.15,-86.79,Jonathan Davis,TN,1498612154000.0,5882552
194581379,Murfreesboro,,1445717933000.0,35.87,-86.34,Jonathan Eizyk,TN,1446418942000.0,5882552
197226475,Nashville,,1451064433000.0,36.17,-86.79,Jordan Brown,TN,1451064433000.0,5882552
185650043,Clarksville,,1427629868000.0,36.49,-87.23,Jose vega,TN,1427629868000.0,5882552
194082820,Cornersville,,1444798996000.0,35.36,-86.84,Joseph F,TN,1444798996000.0,5882552
217552327,Nashville,,1480606377000.0,36.08,-86.72,Joseph Fulcher,TN,1480606377000.0,5882552
189718080,Murfreesboro,,1436504583000.0,35.78,-86.33,Joseph Kathmann,TN,1436504583000.0,5882552
238112503,Nashville,,1507152330000.0,36.08,-86.72,Joseph Privitt,TN,1507152330000.0,5882552
190463636,Nashville,Nashville,1437949827000.0,36.08,-86.72,Josh Kravitz,TN,1438995356000.0,5882552
184446210,Nashville,,1423965730000.0,36.08,-86.72,Josh Price,TN,1423965730000.0,5882552
187553741,Hermitage,,1432109408000.0,36.19,-86.6,josh trotter,TN,1432109408000.0,5882552
8736052,Brentwood,"Nashville, TN",1498701502000.0,36.0,-86.79,Joshua,TN,1498701502000.0,5882552
135450202,Hendersonville,,1394850856000.0,36.32,-86.61,Joshua Perona,TN,1394854495000.0,5882552
149419532,Franklin,"Chicago, IL",1443475172000.0,35.92,-86.89,Joyce,TN,1443475172000.0,5882552
213064018,Nashville,,1474130685000.0,36.08,-86.72,Joyce Coggins,TN,1474130685000.0,5882552
50961002,Nashville,Richmond,1400508177000.0,36.15,-86.86,Juan Moriarty,TN,1427947837000.0,5882552
120534052,Nashville,,1504193006000.0,36.13,-86.8,Judy,TN,1504193006000.0,5882552
204291897,Manchester,,1462037906000.0,35.47,-86.11,Judy Vaughn ,TN,1462037906000.0,5882552
101184372,Nashville,,1373235110000.0,36.16,-86.66,Julianna,TN,1439676169000.0,5882552
197814104,Nashville,,1452269713000.0,36.06,-86.96,Julianna,TN,1452269713000.0,5882552
209035623,Antioch,,1468533181000.0,36.04,-86.64,Julianna Colunga,TN,1468533181000.0,5882552
189712414,Nashville,,1436493016000.0,36.14,-86.74,Julie H,TN,1508124001000.0,5882552
101723672,Madison,,1467602186000.0,36.26,-86.71,Julie James,TN,1472216623000.0,5882552
203067166,Nashville,,1460261808000.0,36.13,-86.8,Julie Powers,TN,1460261808000.0,5882552
59778252,Nashville,,1433361903000.0,36.17,-86.78,Julie S,TN,1474685424000.0,5882552
232277022,Gallatin,,1500611905000.0,36.39,-86.45,Julie Templeton,TN,1505286337000.0,5882552
23874892,Nashville,,1384454528000.0,36.17,-86.78,Justin,TN,1386189077000.0,5882552
74345082,Murfreesboro,Huntsville,1479180838000.0,35.87,-86.34,K J,TN,1479180838000.0,5882552
1164000,Nashville,Nashville,1379717191000.0,36.08,-86.72,Kae,TN,1494534290000.0,5882552
206401764,Nashville,,1464981938000.0,36.17,-86.78,Kaley Wypyszynski,TN,1464981938000.0,5882552
210372458,Nashville,,1470321180000.0,36.17,-86.78,Kara,TN,1470321180000.0,5882552
208286563,Hendersonville,,1467557435000.0,36.32,-86.61,Kara,TN,1467557435000.0,5882552
204958917,Spring Hill,,1462994060000.0,35.76,-86.88,Kara Curry,TN,1462994060000.0,5882552
2158725,Hermitage,Mt. Juliet,1437356786000.0,36.19,-86.6,KaraBear,TN,1437356786000.0,5882552
28299462,Spring Hill,,1404531341000.0,35.76,-86.88,Karen,TN,1508282954000.0,5882552
12512639,Nashville,,1420444194000.0,36.08,-86.72,Karen,TN,1467492829000.0,5882552
5655924,Nashville,,1384783329000.0,36.17,-86.78,karen,TN,1504895123000.0,5882552
151327222,Columbia,,1404146710000.0,35.61,-87.05,Karen,TN,1442536907000.0,5882552
183310629,Murfreesboro,,1420394560000.0,35.82,-86.45,karen,TN,1454360656000.0,5882552
208353670,Gallatin,,1467644555000.0,36.39,-86.45,Karen Casey,TN,1467644555000.0,5882552
190422378,Smyrna,,1437873864000.0,35.97,-86.51,Karen J.,TN,1437873864000.0,5882552
10738312,Brentwood,,1436788870000.0,36.0,-86.79,Karen Wieckert,TN,1446383829000.0,5882552
206268788,Nashville,"Wantagh, NY",1464798441000.0,36.17,-86.78,Karenmarie washenko,TN,1464798441000.0,5882552
76014722,Murfreesboro,"St. Helena, CA",1362931984000.0,35.78,-86.33,Karin Hubbard,TN,1363109454000.0,5882552
196515656,Nashville,Nashville,1488424591000.0,36.15,-86.86,Karla Dayhoff,TN,1488424591000.0,5882552
210281477,Nashville,,1470182182000.0,36.17,-86.78,KarlaAcana,TN,1470182182000.0,5882552
213899956,Goodlettsville,,1475104304000.0,36.32,-86.72,Karlha,TN,1475104304000.0,5882552
192135635,Franklin,Franklin,1441152384000.0,35.92,-86.89,Karli Mauldin,TN,1441152384000.0,5882552
11740229,Hendersonville,,1431228261000.0,36.32,-86.61,Kasie Hardy,TN,1471716720000.0,5882552
83904472,Franklin,"Franklin, TN",1404875588000.0,35.92,-86.89,Kat,TN,1442453261000.0,5882552
185386969,Murfreesboro,,1426795827000.0,35.82,-86.45,Kat Martin,TN,1426795827000.0,5882552
138429352,Nashville,,1406341897000.0,36.08,-86.72,Kate,TN,1507326953000.0,5882552
101396182,Nashville,,1452649075000.0,36.05,-86.71,Kate Colson,TN,1452649075000.0,5882552
197542580,Antioch,Knoxville,1451770626000.0,36.04,-86.64,Kate Pundor,TN,1451770626000.0,5882552
26592722,Nashville,"Nashville, TN",1474248063000.0,36.09,-86.82,Kate Ramsaur,TN,1484545959000.0,5882552
23181671,Murfreesboro,Skaneateles,1364688542000.0,35.84,-86.39,Kate Ryan,TN,1396240093000.0,5882552
199397930,Nashville,,1454984075000.0,36.17,-86.78,Kate Stephan,TN,1454984075000.0,5882552
185874155,Bristol,,1485118639000.0,36.57,-82.18,Kath WILLIAMS,TN,1485118639000.0,5882552
184186170,Nashville,,1423143539000.0,36.09,-86.82,Katherine,TN,1490202917000.0,5882552
238084563,Franklin,,1507126580000.0,35.92,-86.87,Katherine Bloomfield,TN,1507126580000.0,5882552
183111759,Franklin,,1438645379000.0,35.92,-86.89,Katherine Emerson,TN,1438645379000.0,5882552
69234962,Nashville,Nashville,1439869366000.0,36.17,-86.78,Katherine Rogers,TN,1506920869000.0,5882552
191361469,Brentwood,,1439665506000.0,36.0,-86.79,Kathleen King,TN,1451082930000.0,5882552
197829726,Nashville,,1452293461000.0,36.13,-86.8,Kathleen Steiner,TN,1463264793000.0,5882552
198161589,Clarksville,,1452908822000.0,36.53,-87.35,Kathryn Kotecki,TN,1452908822000.0,5882552
96438392,Nashville,,1375376172000.0,36.06,-86.96,Kathryne,TN,1507258171000.0,5882552
238177306,Nashville,,1507226761000.0,36.17,-86.72,Kathy Burton Rogers,TN,1507226761000.0,5882552
49724752,Nashville,,1453179562000.0,36.08,-86.72,Kathy Davis,TN,1499639827000.0,5882552
130032932,Hendersonville,,1424540320000.0,36.35,-86.6,Kathy Shaw Breeding,TN,1451443043000.0,5882552
117959662,Bethpage,Bethpage,1383184719000.0,36.51,-86.32,Katie,TN,1474054877000.0,5882552
200346928,Nashville,,1456322226000.0,36.14,-86.74,katie,TN,1456322226000.0,5882552
794745,Scottsville,,1474765866000.0,36.78,-86.19,Katie,KY,1499657190000.0,5882552
205622663,Franklin,,1463888368000.0,35.93,-86.81,Katie,TN,1472179826000.0,5882552
209014467,Nashville,,1474082250000.0,36.17,-86.78,Katie,TN,1507217879000.0,5882552
205234154,Nashville,,1463363293000.0,36.06,-86.96,Katie Koewler,TN,1463363293000.0,5882552
217407473,Hermitage,,1480363674000.0,36.19,-86.6,Katie Norris,TN,1487969494000.0,5882552
45444372,Hermitage,,1437843492000.0,36.19,-86.6,Katie Younger,TN,1437843492000.0,5882552
5344258,Clarksville,,1463233768000.0,36.49,-87.23,Kay,TN,1467151663000.0,5882552
208884915,Hendersonville,"Salem, IN",1468420529000.0,36.32,-86.61,Kay IAm,TN,1468420529000.0,5882552
196780088,Nashville,,1449952743000.0,36.17,-86.72,Kay Williams,TN,1449952743000.0,5882552
237821629,Hohenwald,,1506829710000.0,35.55,-87.55,Kayla Dicus,TN,1506829710000.0,5882552
188993929,Brentwood,,1435021397000.0,36.0,-86.79,Kayley Wilson,TN,1435021397000.0,5882552
195259738,Murfreesboro,,1446959008000.0,35.82,-86.45,KC Jakes,TN,1446959008000.0,5882552
10119622,Nashville,,1445818836000.0,36.16,-86.79,keith herendon,TN,1465677763000.0,5882552
215284875,Nashville,,1476974971000.0,36.11,-86.78,Keith Hilton,TN,1476974971000.0,5882552
119429492,Antioch,,1441034065000.0,36.04,-86.64,Kelley,TN,1474740482000.0,5882552
201222519,Murfreesboro,"Murfreesboro, TN",1463350613000.0,35.78,-86.33,Kelly,TN,1463357066000.0,5882552
19997881,Nashville,New Hampshire ,1424491256000.0,36.22,-86.77,kelly,TN,1424491256000.0,5882552
201257487,Nashville,,1457633613000.0,36.06,-86.96,Kelly Burns,TN,1457633613000.0,5882552
56220282,Spring Hill,Spring Hill,1448332052000.0,35.76,-86.88,Kelly Fields,TN,1463188137000.0,5882552
194248680,Mount Juliet,,1445114607000.0,36.21,-86.52,Kelly Hertzel,TN,1473000817000.0,5882552
200443325,Murfreesboro,,1456452279000.0,35.78,-86.33,Kelly Horna,TN,1456452279000.0,5882552
188712116,Nashville,,1440616725000.0,36.06,-86.96,Kelly Kasselman Burns,TN,1440616725000.0,5882552
4353803,Nashville,Nashville,1506496016000.0,36.07,-86.73,Kelly Stewart,TN,1506496016000.0,5882552
196500865,Clarksville,Clarksville,1449489477000.0,36.56,-87.41,Kellymarie Ann-Orange Rose,TN,1449489477000.0,5882552
86507412,Brentwood,,1365133313000.0,36.0,-86.79,Kelsey Hutchinson,TN,1466367162000.0,5882552
196296526,Clarksville,,1450365509000.0,36.56,-87.41,Kelvin Mcduffie,TN,1450365509000.0,5882552
198852911,Franklin,,1454180679000.0,35.93,-86.81,Ken,TN,1454180679000.0,5882552
139470002,Clarksville,Clarksville,1418537652000.0,36.53,-87.35,Ken,TN,1419048251000.0,5882552
37908122,Nashville,,1417506228000.0,36.17,-86.78,Ken Greene,TN,1504902880000.0,5882552
206268229,Hendersonville,,1464797310000.0,36.32,-86.61,Kendrick Esiason,TN,1464797310000.0,5882552
210561881,Nashville,,1470594430000.0,36.17,-86.78,Kenneth,TN,1470594430000.0,5882552
204561207,Nashville,,1468195383000.0,36.08,-86.72,Kenneth S. ,TN,1499658919000.0,5882552
185027167,Lyles,Murfreesboro,1457701513000.0,35.89,-87.34,Kenneth Smith,TN,1474598220000.0,5882552
131136082,Hermitage,hermitage tn,1486517727000.0,36.19,-86.6,Kerry Whalen,TN,1486517727000.0,5882552
182982296,Washington,,1450494698000.0,38.91,-77.02,Kevin,DC,1451600205000.0,5882552
200625715,Nashville,,1456712269000.0,36.17,-86.78,Kevin,TN,1456712269000.0,5882552
214644389,Antioch,,1476038778000.0,36.04,-86.64,Kevin Bergsmith,TN,1476038778000.0,5882552
195648847,Walling,,1447691361000.0,35.93,-85.47,Kevin Gibson,TN,1447691361000.0,5882552
13078281,Nashville,"Gainesville, FL",1384285824000.0,36.17,-86.77,Kevin Heine,TN,1384285824000.0,5882552
146168792,La Vergne,,1399912609000.0,36.01,-86.57,Kim,TN,1407292422000.0,5882552
188856382,Nashville,,1434739022000.0,36.17,-86.78,Kim,TN,1434739022000.0,5882552
188671296,Nashville,"Nashville, TN",1462717140000.0,36.17,-86.78,Kim,TN,1507155846000.0,5882552
192314876,Lebanon,,1441656769000.0,36.21,-86.31,Kim,TN,1441656769000.0,5882552
182798401,Murfreesboro,,1445975412000.0,35.87,-86.34,Kim Holden,TN,1445975412000.0,5882552
186882477,Lebanon,,1430675537000.0,36.21,-86.31,Kim R,TN,1447719666000.0,5882552
200198242,Nashville,,1456114767000.0,36.08,-86.72,Kira Petherbridge,TN,1456114767000.0,5882552
50292922,Madison,,1403968685000.0,36.26,-86.71,Kris,TN,1452485636000.0,5882552
34251832,Gallatin,,1436948967000.0,36.39,-86.45,kris,TN,1436948967000.0,5882552
183206262,Mc Ewen,,1419992752000.0,36.14,-87.66,Kris,TN,1419992752000.0,5882552
144124092,Franklin,,1432255436000.0,35.92,-86.89,Kris Rae Orlowski,TN,1432255436000.0,5882552
236455945,Nashville,,1505358726000.0,36.08,-86.72,Krista,TN,1505358726000.0,5882552
182662859,Murfreesboro,,1418773359000.0,35.87,-86.34,Kristen Brown,TN,1418773359000.0,5882552
232291730,Murfreesboro,,1500635445000.0,35.78,-86.33,Kristen Fleet,TN,1500635445000.0,5882552
209245105,Nashville,,1468808756000.0,36.17,-86.78,Kristen J.,TN,1468808756000.0,5882552
209212666,Fort Campbell,,1468773727000.0,36.65,-87.46,Kristen Magnuson,KY,1468773727000.0,5882552
191151549,Gallatin,,1439459942000.0,36.39,-86.45,Kristi Biggs-Walker,TN,1439459942000.0,5882552
208281554,Gallatin,,1467549004000.0,36.39,-86.45,Kristin,TN,1467549004000.0,5882552
10812648,Nashville,Nashville,1486236987000.0,36.08,-86.72,Kristin Reed,TN,1504891047000.0,5882552
200962455,Antioch,,1457207916000.0,36.04,-86.64,Kristina Hurley,TN,1457207916000.0,5882552
196628920,Nashville,,1449971259000.0,36.17,-86.78,Kristina Spitzer,TN,1449971259000.0,5882552
197455344,Trenton,,1451579459000.0,36.73,-87.26,Krystal,KY,1451579459000.0,5882552
212908227,Smyrna,"Ashland City, TN",1473826442000.0,35.97,-86.51,Krystal Moses,TN,1473826442000.0,5882552
204540651,Hendersonville,,1462388750000.0,36.32,-86.61,ktv923,TN,1462388750000.0,5882552
201083161,Nashville,,1457631001000.0,36.08,-86.72,Kumar,TN,1457631001000.0,5882552
192358628,Nashville,,1441583024000.0,36.17,-86.72,Kyle Jackson,TN,1441583024000.0,5882552
197648939,Nashville,,1451975920000.0,36.17,-86.78,LACOREYA,TN,1451975920000.0,5882552
11976285,Nashville,Lubbock,1429381135000.0,36.21,-86.72,LadyMae,TN,1429381135000.0,5882552
203247062,Franklin,,1460508117000.0,35.92,-86.89,Lana Zivanovic,TN,1460508117000.0,5882552
226128410,Thompsons Station,thompson station,1495105655000.0,35.8,-86.9,Larry Gooden,TN,1495105655000.0,5882552
183161441,Murfreesboro,,1419807999000.0,35.83,-86.38,Larry Parkhurst,TN,1419807999000.0,5882552
185537830,Antioch,,1427255856000.0,36.04,-86.64,Larry Reid,TN,1445017190000.0,5882552
6318515,Nashville,Boston,1460159376000.0,36.13,-86.8,Laura,TN,1460159376000.0,5882552
73761252,Nashville,,1359002706000.0,36.17,-86.79,Laura,TN,1394916742000.0,5882552
205806912,Gallatin,,1464135702000.0,36.39,-86.45,Laura,TN,1467488581000.0,5882552
50284932,Hermitage,Hermitage,1376487291000.0,36.19,-86.6,Laura,TN,1376487291000.0,5882552
190953808,Nashville,,1438859813000.0,36.17,-86.78,Laura,TN,1438859813000.0,5882552
198403755,Franklin,,1499054625000.0,35.92,-86.89,Laura,TN,1499054625000.0,5882552
115568072,Antioch,,1381769431000.0,36.04,-86.64,Laura Daugherty,TN,1383259238000.0,5882552
82238712,Murfreesboro,,1474066752000.0,35.82,-86.45,Laura Lindsay,TN,1508206497000.0,5882552
66851112,Nashville,Fort Lauderdale,1451351786000.0,36.15,-86.86,Laura Rice,TN,1451351786000.0,5882552
124792762,Nashville,,1415760868000.0,36.17,-86.78,Lauren,TN,1415760868000.0,5882552
11127427,Murfreesboro,"Nashville, TN",1402099910000.0,35.82,-86.45,Lauren,TN,1404359137000.0,5882552
194011356,Murfreesboro,,1444674386000.0,35.82,-86.45,Lauren,TN,1444681849000.0,5882552
196241045,Gallatin,,1448863095000.0,36.39,-86.45,Lauren Cozart,TN,1448863095000.0,5882552
187968131,Nashville,,1432943677000.0,36.11,-86.86,Lauren Gray Barnes,TN,1432943677000.0,5882552
187239619,Franklin,"Philadelphia, PA",1442681725000.0,35.92,-86.89,Lauren Hall,TN,1474680316000.0,5882552
183717428,Clarksville,,1421685143000.0,36.56,-87.41,laurie lee,TN,1421685143000.0,5882552
238803051,Nashville,,1508024049000.0,36.15,-86.86,Laverne Alexi,TN,1508024049000.0,5882552
233376747,Old Hickory,,1501975223000.0,36.25,-86.63,LaVette Sales,TN,1501975223000.0,5882552
186633614,Brentwood,,1430109757000.0,36.0,-86.79,Lea Nelson,TN,1430109757000.0,5882552
178168392,Nashville,Nashville,1443469761000.0,36.08,-86.72,Leah,TN,1443469761000.0,5882552
114324162,Nashville,,1472650029000.0,36.16,-86.79,Leah Bailey,TN,1472650029000.0,5882552
72506882,Hendersonville,Hendersonville,1405795338000.0,36.32,-86.61,Leah Van Hoozer,TN,1483477582000.0,5882552
187411190,Kingston Springs,Kingston Springs,1439366047000.0,36.09,-87.12,LeAnna Armstrong,TN,1439366047000.0,5882552
202455420,Culleoka,,1459380000000.0,35.46,-86.99,Lee,TN,1459380000000.0,5882552
9593463,Nashville,,1471793132000.0,36.13,-86.8,Lee Ashley,TN,1471793132000.0,5882552
12772586,Brentwood,"Memphis, TN",1430565064000.0,36.0,-86.79,Leigh ,TN,1442423638000.0,5882552
195466745,Nashville,,1447338954000.0,36.17,-86.72,Leigh Anne Lewis,TN,1447338954000.0,5882552
191849511,Tullahoma,,1467112680000.0,35.37,-86.21,Leigh Woodward Fogle,TN,1467112680000.0,5882552
32451992,Madison,,1503952676000.0,36.26,-86.71,Leilani Braund,TN,1503952676000.0,5882552
98195542,Nashville,Nashville,1401203564000.0,36.17,-86.78,Les,TN,1462809096000.0,5882552
213472752,Franklin,,1479758256000.0,35.92,-86.89,leslie,TN,1479758256000.0,5882552
190618314,Clarksville,,1438212712000.0,36.49,-87.23,Leslie Kaiser,TN,1438212712000.0,5882552
48210872,Nashville,"Nashville, TN",1381675254000.0,36.13,-86.8,Leslin,TN,1381857297000.0,5882552
232753450,Nashville,,1501202536000.0,36.08,-86.72,Leticia Rojano,TN,1501202536000.0,5882552
186587075,Brentwood,,1430010700000.0,36.0,-86.79,Lewis Cantrell,TN,1430010700000.0,5882552
199743890,Nashville,,1455496774000.0,36.08,-86.72,Lexi Lee,TN,1455496774000.0,5882552
238010913,Hermitage,,1507044254000.0,36.19,-86.6,lhickox,TN,1507044254000.0,5882552
187665417,Murfreesboro,,1432330716000.0,35.87,-86.44,Lianne,TN,1432330716000.0,5882552
9176895,Nashville,,1490649707000.0,36.08,-86.72,Libby,TN,1490649707000.0,5882552
55985922,Nashville,,1374094252000.0,36.06,-86.96,Libby Knight,TN,1379710491000.0,5882552
115604952,Nashville,,1452205305000.0,36.14,-86.74,Liesa Jo Jenkins,TN,1474742432000.0,5882552
198189651,Nashville,,1452968748000.0,36.17,-86.78,Lil,TN,1452968748000.0,5882552
199881582,Springfield,,1455677442000.0,36.52,-86.87,Linda,TN,1501719123000.0,5882552
187866799,Antioch,,1432740960000.0,36.04,-86.64,Linda,TN,1462807020000.0,5882552
194772507,Bethpage,,1446053928000.0,36.51,-86.32,Linda,TN,1460815949000.0,5882552
183406229,Murfreesboro,,1420675751000.0,35.78,-86.33,Linda Lewis,TN,1436234214000.0,5882552
190109140,Murfreesboro,,1437289353000.0,35.87,-86.34,Lindsey R.,TN,1437289353000.0,5882552
211131914,Nashville,,1471401360000.0,36.22,-86.77,Lindsey Thornton,TN,1471401360000.0,5882552
10476891,Hendersonville,Hendersonville,1400404364000.0,36.32,-86.61,Lisa,TN,1425786257000.0,5882552
190594431,Nashville,,1438175630000.0,36.17,-86.78,Lisa,TN,1438175630000.0,5882552
210772695,Nashville,,1470938444000.0,36.17,-86.78,Lisa Dimico,TN,1470938444000.0,5882552
194725296,Greenbrier,Greenbrier,1445968058000.0,36.43,-86.8,Lisa Hickox Tersinar,TN,1445968058000.0,5882552
194166600,Lebanon,Lebanon,1483883269000.0,36.15,-86.32,Lisa K,TN,1485564768000.0,5882552
192459012,Mount Juliet,,1441756688000.0,36.22,-86.52,Lisa M,TN,1441756688000.0,5882552
109445182,Lyles,,1378145262000.0,35.89,-87.34,Lisa Urban Hudson,TN,1449807249000.0,5882552
13135928,Franklin,"Franklin, TN",1436247252000.0,35.92,-86.89,LisaAnn,TN,1507402989000.0,5882552
67112612,Lebanon,Saint Louis ,1360899394000.0,36.21,-86.31,Liz,TN,1474954656000.0,5882552
236715254,Nashville,,1505627287000.0,36.17,-86.78,Liz Anderson,TN,1505627287000.0,5882552
183783884,Nashville,,1461715324000.0,36.17,-86.78,Liza D,TN,1461715324000.0,5882552
216624431,Antioch,,1479068671000.0,36.04,-86.64,Logan Blank,TN,1479068671000.0,5882552
103436192,Mount Juliet,,1452356544000.0,36.21,-86.52,Loretta,TN,1490540778000.0,5882552
10184307,Goodlettsville,Middle Tennessee,1364281514000.0,36.33,-86.74,Lori,TN,1379871886000.0,5882552
189530043,Thompsons Station,,1436145932000.0,35.8,-86.9,Lori Crane,TN,1442427094000.0,5882552
208574298,Smyrna,Nashville,1467934712000.0,35.97,-86.51,Lorie,TN,1472129259000.0,5882552
207538791,Nashville,,1466521783000.0,36.17,-86.78,Louis Lourie,TN,1466521783000.0,5882552
219186039,Nashville,,1483593360000.0,36.17,-86.78,louisa,TN,1483593360000.0,5882552
187700521,Nashville,,1432410116000.0,36.08,-86.72,Lu Xiong,TN,1442630621000.0,5882552
192638839,Murfreesboro,,1442095490000.0,35.85,-86.36,Lucas Do,TN,1444966605000.0,5882552
220885497,Nashville,,1485635479000.0,36.17,-86.78,Lucia,TN,1506970421000.0,5882552
216535938,Nashville,,1478955125000.0,36.07,-86.73,Lucia Diaz,TN,1478955125000.0,5882552
206793673,Nashville,,1465492580000.0,36.17,-86.78,Lucie Castleberry,TN,1465492580000.0,5882552
237145017,Old Hickory,,1506074421000.0,36.25,-86.63,Lucy,TN,1506074421000.0,5882552
195695818,Franklin,,1447774778000.0,35.99,-86.9,Luke Lewis,TN,1447946243000.0,5882552
203703325,Nashville,"Reedley, California",1493824703000.0,36.08,-86.72,Luna,TN,1493834063000.0,5882552
200543411,Hendersonville,,1506652441000.0,36.32,-86.61,Lydia E,TN,1507239450000.0,5882552
187630866,Nashville,,1432256223000.0,36.07,-86.73,Lyndsay Smith,TN,1432256223000.0,5882552
210232269,Nashville,,1470114521000.0,36.17,-86.78,Lynn Jackson Conklin,TN,1470114521000.0,5882552
84833712,Nashville,,1442855474000.0,36.08,-86.72,lynn lovvorn,TN,1474256735000.0,5882552
4390904,Hollywood,"Hollywood, FL/Nashville TN",1357413038000.0,26.02,-80.12,Lynne ,FL,1460829953000.0,5882552
186185973,Brentwood,,1429213752000.0,36.0,-86.79,Lynne Killeen,TN,1455548881000.0,5882552
192734222,Nashville,,1442270654000.0,36.16,-86.79,Lynne Koester,TN,1442270654000.0,5882552
197269069,Nashville,,1453932346000.0,36.17,-86.78,Lynne Riday,TN,1453932346000.0,5882552
200750517,Nashville,,1456887958000.0,36.16,-86.79,M Bri Wyatt,TN,1456887958000.0,5882552
192095632,Charlotte,,1441077500000.0,35.19,-80.83,M H,NC,1441077500000.0,5882552
215907095,Nashville,,1477933679000.0,36.17,-86.78,M. Wilson,TN,1477933679000.0,5882552
202411102,Nashville,,1459314051000.0,36.15,-86.86,MacKenzie,TN,1463110205000.0,5882552
208908686,Franklin,,1468365094000.0,35.92,-86.89,Mackenzie ,TN,1468365094000.0,5882552
210245323,Hendersonville,,1470139743000.0,36.32,-86.61,Maddie,TN,1470139743000.0,5882552
194700251,Franklin,,1445920982000.0,35.92,-86.89,Madison,TN,1445920982000.0,5882552
194074433,Nashville,,1444782914000.0,36.09,-86.82,Madison Dotson,TN,1444782914000.0,5882552
205561071,Antioch,,1463800694000.0,36.04,-86.64,Madison Martin,TN,1463800694000.0,5882552
235493144,Nashville,,1504384464000.0,36.13,-86.8,Maggie4007,TN,1504384464000.0,5882552
210442292,Hartsville,,1470424257000.0,36.39,-86.16,Magon,TN,1470424257000.0,5882552
195670708,Nashville,,1447725066000.0,36.1,-86.66,malik sexton,TN,1447725066000.0,5882552
192378122,Nashville,,1441624213000.0,36.18,-86.74,Malissa Gem Lawson,TN,1498306335000.0,5882552
206423901,Nashville,,1465008328000.0,36.17,-86.78,Mallory Granrath,TN,1465008328000.0,5882552
217163600,Murfreesboro,,1479915346000.0,35.87,-86.44,Mandi Fletcher,TN,1479915346000.0,5882552
195375107,La Vergne,,1447171621000.0,36.01,-86.57,Mandi Patterson,TN,1447171621000.0,5882552
106060642,Nashville,,1376095019000.0,36.08,-86.72,Maren,TN,1389814013000.0,5882552
230104582,Nashville,,1503488732000.0,36.17,-86.78,Margaret,TN,1506896777000.0,5882552
203649510,Murfreesboro,,1461087913000.0,35.87,-86.44,Maria Routon,TN,1461087913000.0,5882552
22535251,Nashville,,1378400982000.0,36.08,-86.72,Maria Stevens,TN,1474242435000.0,5882552
210189290,Nashville,,1470064965000.0,36.17,-86.78,Marian Rushdy,TN,1470064965000.0,5882552
114020572,Hendersonville,,1415286802000.0,36.32,-86.61,Marianne Thomas,TN,1416008968000.0,5882552
188552289,Mount Juliet,,1434268091000.0,36.21,-86.52,Marie,TN,1434268091000.0,5882552
28031922,Hendersonville,Hendersonville,1371537190000.0,36.32,-86.61,Marie Corhern,TN,1430963823000.0,5882552
197353404,Columbia,,1467397769000.0,35.61,-87.05,Marissa King,TN,1467397769000.0,5882552
184565993,Franklin,,1486804390000.0,35.92,-86.89,Mark,TN,1486804390000.0,5882552
189029493,Nashville,,1435094292000.0,36.18,-86.74,Mark A Fortney,TN,1440081985000.0,5882552
205338225,Nashville,,1463500581000.0,36.18,-86.74,Mark Andersson,TN,1463500581000.0,5882552
206851978,Nashville,,1465576390000.0,36.17,-86.78,Mark G,TN,1479493240000.0,5882552
231901381,Fairview,,1500154587000.0,35.97,-87.13,Mark Hall,TN,1500154587000.0,5882552
195625137,Murfreesboro,,1447641712000.0,35.78,-86.33,Mark Holmes,TN,1447641712000.0,5882552
191720758,Nashville,,1440365009000.0,36.17,-86.78,Marlo,TN,1440365009000.0,5882552
155961622,Murfreesboro,,1441488236000.0,35.82,-86.45,Marsha,TN,1507198763000.0,5882552
227734948,Nashville,,1497736159000.0,36.09,-86.82,Marsha,TN,1506563812000.0,5882552
193703633,Franklin,,1444096671000.0,36.73,-86.57,Martha,KY,1444096671000.0,5882552
203002836,Arrington,,1460171277000.0,35.86,-86.66,Marty Smith,TN,1460171277000.0,5882552
221212756,Nashville,,1486024639000.0,36.17,-86.78,Martynas ustavi?ius,TN,1486024639000.0,5882552
196177820,Fairview,,1458061499000.0,35.97,-87.13,marvin bateman,TN,1458061499000.0,5882552
186183224,Nashville,,1429059360000.0,36.06,-86.96,Mary,TN,1429059360000.0,5882552
178518922,Hendersonville,"Brookston, IN",1499901686000.0,36.32,-86.61,Mary,TN,1499901686000.0,5882552
129261232,Nashville,,1425659767000.0,36.06,-86.96,Mary DiVittorio,TN,1425659767000.0,5882552
69568352,Nashville,Oakmont,1436708235000.0,36.1,-86.87,Mary Lou Moewe,TN,1462300117000.0,5882552
208629354,Nashville,,1470943181000.0,36.17,-86.78,Mary Phelps,TN,1476134916000.0,5882552
222367515,Clarksville,,1487563507000.0,36.53,-87.35,mary schillo,TN,1487563507000.0,5882552
184982418,Nashville,,1425574330000.0,36.08,-86.72,MaryAnn Coats Hastings,TN,1439471807000.0,5882552
5835893,Nashville,"Swansea, Wales",1506137506000.0,36.17,-86.78,Matt,TN,1507158555000.0,5882552
233455766,Nashville,,1502062939000.0,36.18,-86.74,Matt ,TN,1502062939000.0,5882552
227472857,Hendersonville,,1496964839000.0,36.32,-86.61,Matt,TN,1496964839000.0,5882552
190648004,Nashville,,1438272366000.0,36.16,-86.79,Matt,TN,1440076990000.0,5882552
199656089,Nashville,,1455375491000.0,36.1,-86.66,Matt Watts,TN,1455375491000.0,5882552
165448642,Hermitage,,1409582984000.0,36.19,-86.6,Matt85,TN,1439595674000.0,5882552
188218969,Murfreesboro,,1433444429000.0,35.78,-86.33,MattandSarah Hall,TN,1465490477000.0,5882552
194172341,La Vergne,,1444964091000.0,36.01,-86.57,Matthew,TN,1444964091000.0,5882552
196159889,Brentwood,,1448708398000.0,36.0,-86.79,Matthew,TN,1448708398000.0,5882552
191607517,Brentwood,,1440139668000.0,36.0,-86.79,Matthew Brajkovich,TN,1440139668000.0,5882552
189844577,Nashville,,1436759236000.0,36.17,-86.78,Matthew Carney,TN,1436759236000.0,5882552
207653226,Nashville,,1466671334000.0,36.17,-86.78,Matthew Skelton,TN,1466671334000.0,5882552
215575363,Smyrna,,1477411116000.0,35.97,-86.51,Mauricio Nova,TN,1477411116000.0,5882552
179450002,Nashville,"Atlanta, GA",1437841828000.0,36.18,-86.74,Maya,TN,1507309978000.0,5882552
107223432,Miami,,1422247355000.0,25.78,-80.2,Maya Elizabeth Jones,FL,1422478738000.0,5882552
190934693,Brentwood,,1438817979000.0,36.0,-86.79,MC,TN,1471745936000.0,5882552
235346322,Nashville,,1504214180000.0,36.07,-86.78,Meagan & Eric ,TN,1504214180000.0,5882552
184412311,Clarksville,,1423852015000.0,36.49,-87.23,Meesch,TN,1423852015000.0,5882552
94674822,Cookeville,Collegeville,1486141697000.0,36.2,-85.52,Megan Atkinson,TN,1486141697000.0,5882552
12310830,Nashville,Bloomington-Normal,1459044062000.0,36.18,-86.76,Megan Baker,TN,1459044062000.0,5882552
203753839,Murfreesboro,,1461239363000.0,35.87,-86.44,Megan Kelley,TN,1461239363000.0,5882552
208654146,Clarksville,,1468041240000.0,36.53,-87.35,Megan Smith,TN,1468041240000.0,5882552
210432273,Nashville,,1470410309000.0,36.17,-86.78,Megan Taylor,TN,1484759821000.0,5882552
230783464,Nashville,,1498807763000.0,36.14,-86.74,Meghann Bumbalough Shipman,TN,1498807763000.0,5882552
205270580,Nashville,,1463415838000.0,36.07,-86.73,Mel,TN,1473659657000.0,5882552
10407910,Nashville,"Gulf Breeze, FL",1375328562000.0,36.17,-86.78,melanie crysler,TN,1411920828000.0,5882552
193338678,Nashville,,1443407606000.0,36.1,-86.66,Melanie Langford,TN,1443407606000.0,5882552
193283714,Murfreesboro,,1443305062000.0,35.87,-86.34,Melinda Adams Froehlich,TN,1443305062000.0,5882552
106022732,Hermitage,"Hermitage, TN",1432856878000.0,36.19,-86.6,Melinda Judy,TN,1505742461000.0,5882552
189586771,Nashville,,1436254699000.0,36.14,-86.74,Melinda Patrice Pinder ,TN,1436254699000.0,5882552
203024294,Murfreesboro,,1460209003000.0,35.87,-86.44,Melissa Bonner,TN,1460209003000.0,5882552
62106992,Nashville,,1440026843000.0,36.14,-86.74,Melissa Harris,TN,1507766484000.0,5882552
149318742,Nashville,,1437841869000.0,36.1,-86.66,Melissa Holt,TN,1507163567000.0,5882552
194532482,Nashville,,1445645789000.0,36.17,-86.78,Melissa I,TN,1445645789000.0,5882552
199120258,Lebanon,Dayton Ohio,1454540106000.0,36.21,-86.31,Melissa Joyce,TN,1454798922000.0,5882552
223161927,Antioch,,1488671751000.0,36.04,-86.64,Melodee Freeman,TN,1488671751000.0,5882552
210596951,Clarksville,,1470639174000.0,36.56,-87.41,Melony Johnson,TN,1470639174000.0,5882552
191664526,Nashville,"Nashville, TN",1498185514000.0,36.17,-86.72,Meredith,TN,1498185514000.0,5882552
193974858,Nashville,,1444605730000.0,36.08,-86.72,Meredith,TN,1444944099000.0,5882552
55478632,Hermitage,,1440718841000.0,36.19,-86.6,Mette Smith,TN,1440718841000.0,5882552
199262904,Murfreesboro,,1454777597000.0,35.82,-86.45,MH,TN,1454777597000.0,5882552
238160598,Nashville,,1507211749000.0,36.17,-86.78,Mia Muschek,TN,1507211749000.0,5882552
224436038,Gallatin,,1493649215000.0,36.39,-86.45,Michael,TN,1493649215000.0,5882552
187258917,Nashville,,1431488326000.0,36.17,-86.78,michael,TN,1433733792000.0,5882552
188562198,Nashville,,1438311557000.0,36.06,-86.96,Michael,TN,1467657648000.0,5882552
193488416,Little Rock,,1443683138000.0,34.75,-92.28,Michael A Brown,AR,1444782911000.0,5882552
202841783,Franklin,,1459944601000.0,35.92,-86.89,Michael And Shirley Bryant,TN,1459944601000.0,5882552
197933712,Lebanon,,1452483848000.0,36.21,-86.31,Michael Blazer,TN,1452483848000.0,5882552
56356372,Goodlettsville,Lewisburg,1458862664000.0,36.33,-86.74,Michael Campbell,TN,1474311312000.0,5882552
209368972,Nashville,,1469077081000.0,36.17,-86.78,Michael David Helm,TN,1469327703000.0,5882552
234749432,Nashville,,1504140288000.0,36.18,-86.74,michael harrington,TN,1504140288000.0,5882552
206660073,Nashville,,1465323929000.0,36.17,-86.78,michael j,TN,1465323929000.0,5882552
208253400,Columbia,,1468637897000.0,35.61,-87.05,Michael Lawler,TN,1468637897000.0,5882552
7836904,Hermitage,,1426640949000.0,36.19,-86.6,Michael McCann,TN,1439430526000.0,5882552
67666832,Goodlettsville,Pataskala ,1458315887000.0,36.32,-86.72,Michael Monnin,TN,1458315887000.0,5882552
215860078,Nashville,,1477858131000.0,36.1,-86.66,Michael Palmer,TN,1477858131000.0,5882552
195145042,Franklin,,1446744865000.0,35.92,-86.89,Michael Roberts,TN,1468548251000.0,5882552
233001342,Nashville,,1501523677000.0,36.17,-86.78,Michael V,TN,1501523677000.0,5882552
117468562,Antioch,,1432664848000.0,36.17,-86.88,Michael Watson,TN,1432822878000.0,5882552
210355834,Nashville,,1470289733000.0,36.17,-86.78,Michael West,TN,1470289733000.0,5882552
193263325,Thompsons Station,,1443271503000.0,35.8,-86.9,Michaela,TN,1443271503000.0,5882552
212994487,Nashville,,1473948235000.0,36.17,-86.78,Michele S.,TN,1473948235000.0,5882552
105128552,Nashville,,1446984069000.0,36.06,-86.96,Michelle,TN,1461895535000.0,5882552
211835141,Franklin,,1472399661000.0,35.92,-86.89,Michelle,TN,1472399661000.0,5882552
11164614,Jersey City,"Arlington, VA",1506470496000.0,40.75,-74.05,Michelle,NJ,1507405147000.0,5882552
14263505,Antioch,,1375216095000.0,36.04,-86.64,Michelle,TN,1507328822000.0,5882552
216766077,Hendersonville,,1479275239000.0,36.3,-86.62,Michelle Hampton,TN,1479275239000.0,5882552
141085702,Brentwood,,1401240960000.0,36.0,-86.79,Michelle Harrell,TN,1407855543000.0,5882552
146112942,Nashville,"Clarksville, TN",1408253249000.0,36.17,-86.78,Michelle James,TN,1455834199000.0,5882552
192871766,Bowling Green,,1442527323000.0,37.02,-86.46,Michelle Jump,KY,1485037779000.0,5882552
203590010,Bradyville,,1461005936000.0,35.7,-86.1,MichelleNextDoor,TN,1462460159000.0,5882552
186883874,Lebanon,,1430678236000.0,36.21,-86.31,Mike,TN,1462927454000.0,5882552
211920707,Nashville,,1472510584000.0,36.09,-86.82,Mike Gardner,TN,1472510584000.0,5882552
157918722,Nashville,Savannah GA,1426652710000.0,36.17,-86.78,Mike Hodge,TN,1442576515000.0,5882552
194015936,Hendersonville,,1444681660000.0,36.32,-86.61,Mike Hughes,TN,1455632673000.0,5882552
209541912,Nashville,,1469237905000.0,36.17,-86.78,Mike N Michelle Hines,TN,1469237905000.0,5882552
202542795,Christiana,,1459518597000.0,35.71,-86.36,Mike Patrick,TN,1459518597000.0,5882552
194875027,Nashville,,1446244111000.0,36.08,-86.72,Minh Le,TN,1446244111000.0,5882552
217332807,Nashville,,1480240351000.0,36.08,-86.72,Minnie Murphy,TN,1480240351000.0,5882552
202586163,Nashville,,1459581274000.0,36.18,-86.74,missworld227,TN,1459581274000.0,5882552
105522682,Nashville,,1432639253000.0,36.17,-86.78,misty,TN,1455495790000.0,5882552
186174383,Brentwood,,1429038492000.0,36.0,-86.79,Misty B,TN,1429047529000.0,5882552
204129335,Nashville,,1461781031000.0,36.13,-86.8,Mitch,TN,1466263182000.0,5882552
185613063,Nashville,,1462898173000.0,36.17,-86.78,Mitch Hodge,TN,1462898173000.0,5882552
189385358,Murfreesboro,,1435839740000.0,35.87,-86.34,Mj Stephens,TN,1435839740000.0,5882552
10545534,Nashville,Nashville,1409503748000.0,36.18,-86.81,Molly McCluer,TN,1427042872000.0,5882552
197939662,Nashville,,1452496016000.0,36.17,-86.78,Molly Tuttle,TN,1452496016000.0,5882552
203095669,Madison,,1460308188000.0,36.26,-86.71,Monica,TN,1460308188000.0,5882552
175863642,Hendersonville,,1418499460000.0,36.32,-86.61,Monica Weber,TN,1432781594000.0,5882552
92158032,Nashville,Nashville,1454116249000.0,36.14,-86.74,Morgan,TN,1454116249000.0,5882552
151711902,Nashville,"Los Angeles, CA",1468464839000.0,36.08,-86.72,Morgan,TN,1471714931000.0,5882552
184869098,Nashville,,1425255553000.0,36.13,-86.8,Morgan,TN,1425255553000.0,5882552
193980818,Hendersonville,,1468014869000.0,36.32,-86.61,mtnbeaver,TN,1468014869000.0,5882552
192311236,Nashville,,1441494714000.0,36.08,-86.72,Mutaz Shahin,TN,1441494714000.0,5882552
228846039,Clarksville,,1505522127000.0,36.53,-87.35,Nails ByDestani,TN,1505578736000.0,5882552
60479122,Nashville,Nashville,1441692107000.0,36.18,-86.74,Nan,TN,1505085430000.0,5882552
202827824,Brentwood,,1459915895000.0,36.0,-86.79,Nancy,TN,1459915895000.0,5882552
187500668,La Vergne,,1432001345000.0,36.01,-86.57,Nancy,TN,1432001345000.0,5882552
225362334,Hendersonville,,1505672029000.0,36.32,-86.61,Nancy,TN,1507676340000.0,5882552
209661271,Hendersonville,,1469362945000.0,36.32,-86.61,Nancy,TN,1469556908000.0,5882552
184590511,Fairview,,1424411006000.0,35.97,-87.13,Nashe Edit,TN,1462896786000.0,5882552
208565143,Nashville,,1467919771000.0,36.15,-86.79,NashvilleExplorer,TN,1467919771000.0,5882552
182986549,Nashville,,1418615213000.0,36.17,-86.72,Nathan C,TN,1418615213000.0,5882552
182979922,Nashville,,1418579193000.0,36.17,-86.72,Nathan C.,TN,1418579193000.0,5882552
232013912,Nashville,,1500300448000.0,36.21,-86.72,Nathan Moore,TN,1500300448000.0,5882552
196682395,Smyrna,,1449732964000.0,35.97,-86.51,Nathan Valentine,TN,1449732964000.0,5882552
195860511,Tampa,,1448089121000.0,27.98,-82.34,Neftali Feliciano,FL,1448089121000.0,5882552
201347057,Scottsville,,1457760135000.0,36.78,-86.19,Nicholas Reed,KY,1457760135000.0,5882552
210436359,Hendersonville,,1470414748000.0,36.32,-86.61,Nichole Foy,TN,1470414748000.0,5882552
74176292,Nashville,,1356921398000.0,36.17,-86.72,nichole haynes,TN,1356921398000.0,5882552
16019151,Nashville,Savannah,1442000009000.0,36.22,-86.86,Nick,TN,1467666331000.0,5882552
176446622,Nashville,,1451877306000.0,36.21,-86.72,Nick Irwin,TN,1451877306000.0,5882552
212572215,La Vergne,,1473386287000.0,36.01,-86.57,Nick Ledford,TN,1473386287000.0,5882552
193778211,Antioch,,1444236437000.0,36.04,-86.64,Nicole Fields ,TN,1444236437000.0,5882552
103082782,Chandler,,1470105746000.0,33.31,-111.92,Nicole Howard,AZ,1470105746000.0,5882552
86432462,Nashville,,1427162795000.0,36.15,-86.86,Niki,TN,1427162795000.0,5882552
151732882,Nashville,,1402888789000.0,36.13,-86.8,Noelle Davis,TN,1402888789000.0,5882552
79149372,Nashville,,1424287185000.0,36.11,-86.86,Obxlaw,TN,1424287185000.0,5882552
194630138,Eagleville,,1445806080000.0,35.75,-86.64,Odile Durocher,TN,1446056335000.0,5882552
214351624,Nashville,,1475624169000.0,36.16,-86.66,Olivia Dvorak,TN,1475624169000.0,5882552
234168251,Franklin,,1502888043000.0,35.93,-86.81,Olivia Oetjens,TN,1502888043000.0,5882552
190908814,Brentwood,,1438770525000.0,36.0,-86.79,Olusola,TN,1438770525000.0,5882552
184290497,Smyrna,,1423473906000.0,35.97,-86.51,Omar,TN,1427960587000.0,5882552
188122996,Hermitage,,1433254583000.0,36.19,-86.6,onyinyechui eleonu,TN,1433254583000.0,5882552
199270414,Hermitage,,1454787349000.0,36.19,-86.6,Oscar Krosnes,TN,1462418011000.0,5882552
55342792,Nashville,,1443480159000.0,36.08,-86.72,oti obilor,TN,1454023406000.0,5882552
205193250,Brentwood,,1463317741000.0,36.0,-86.79,Otilia Bilauca,TN,1463317741000.0,5882552
188534623,La Vergne,,1434083915000.0,36.01,-86.57,Paige Rhodes,TN,1434083915000.0,5882552
20864191,Murfreesboro,Chattanooga,1368278521000.0,35.82,-86.45,Pam,TN,1505870936000.0,5882552
9256855,Nashville,Clearwater,1425758319000.0,36.14,-86.81,Pam Steele,TN,1425758319000.0,5882552
8979910,Hendersonville,Chicago,1353598167000.0,36.32,-86.61,Pamela,TN,1450508669000.0,5882552
164229842,Nashville,,1453760182000.0,36.11,-86.78,Pamela Huxtable,TN,1462225593000.0,5882552
208228352,Nashville,,1467475053000.0,36.17,-86.78,Pan Zhang,TN,1467475053000.0,5882552
196914629,Houston,,1450247100000.0,29.72,-95.22,Paris Westbrook,TX,1450668045000.0,5882552
218522902,Antioch,,1482368894000.0,36.04,-86.64,Pascal Tshey,TN,1482378012000.0,5882552
177049952,Franklin,,1413137197000.0,35.92,-86.89,Pat Bruhn,TN,1442190198000.0,5882552
191115702,Hermitage,,1439180175000.0,36.19,-86.6,Pat Fitzhugh,TN,1441639341000.0,5882552
189952696,Arrington,,1436970457000.0,35.86,-86.66,Patricia Lamb Smith,TN,1437144573000.0,5882552
103852802,Lebanon,,1508195080000.0,36.15,-86.32,Patrick,TN,1508195080000.0,5882552
186300382,Antioch,,1429361335000.0,36.17,-86.88,Patrick Maher,TN,1429361335000.0,5882552
199234777,Nashville,,1454725893000.0,36.08,-86.72,Patti,TN,1454725893000.0,5882552
183850419,Phoenix,,1422395760000.0,33.56,-112.09,Patty Tucker,AZ,1422395760000.0,5882552
187608501,Nashville,,1432723704000.0,36.08,-86.72,Paul Whitten,TN,1434736405000.0,5882552
205309195,Cottontown,,1463458766000.0,36.49,-86.59,Peg,TN,1463458766000.0,5882552
58824882,Nashville,,1389145297000.0,36.11,-86.86,Penny,TN,1416658599000.0,5882552
101507622,Nashville,"Nashville, TN",1437960612000.0,36.06,-86.96,Perry Howard,TN,1506901531000.0,5882552
162991302,Nashville,,1454205558000.0,36.17,-86.78,Peter Shagmiester Myles,TN,1454205558000.0,5882552
193804901,Goodlettsville,"Nashville, TN ",1444282955000.0,36.33,-86.74,Peyton Campbell,TN,1444282955000.0,5882552
132657042,Brentwood,Jacksonville,1450742703000.0,36.0,-86.79,Phil,TN,1502155536000.0,5882552
202713001,Franklin,,1459765802000.0,35.92,-86.89,Phil Knopp,TN,1459765802000.0,5882552
137411322,Nashville,,1408562367000.0,36.17,-86.72,Phillip R. Jones,TN,1507237852000.0,5882552
937048,Nashville,Nashville,1505946707000.0,36.06,-86.96,Phuong Nguyen,TN,1505946707000.0,5882552
51759672,Nashville,,1360901716000.0,36.08,-86.72,phyllis,TN,1507351250000.0,5882552
211698318,Gordonsville,,1472205402000.0,36.17,-85.93,Pud Evans,TN,1472205402000.0,5882552
205735599,Nashville,,1464040541000.0,36.08,-86.72,Queen Amidala,TN,1464040541000.0,5882552
239569087,Nashville,,1508784602000.0,36.16,-86.79,Queenie Paula,TN,1508784602000.0,5882552
186071678,Gallatin,"Fort Wayne, IN",1428781258000.0,36.39,-86.45,Quisha Jones,TN,1428781258000.0,5882552
190191901,Murfreesboro,,1437443829000.0,35.78,-86.33,Rabee,TN,1437443829000.0,5882552
108723302,Murfreesboro,,1424896004000.0,35.82,-86.45,Rachel,TN,1424896004000.0,5882552
226920452,Nashville,Nashville,1506836116000.0,36.08,-86.72,Rachel,TN,1508082455000.0,5882552
199486559,Nashville,,1455121810000.0,36.16,-86.79,Rachel,TN,1457654180000.0,5882552
187115892,Gallatin,,1431185965000.0,36.39,-86.45,rachel,TN,1461899278000.0,5882552
201038037,Nashville,"Memphis, TN",1457315779000.0,36.13,-86.8,Rachel,TN,1457315779000.0,5882552
205044005,Nashville,,1463109803000.0,36.22,-86.77,Rachel L,TN,1463109803000.0,5882552
166911282,Portland,,1412347604000.0,36.57,-86.49,Rachel Mackey,TN,1412347604000.0,5882552
184660832,Nashville,,1424636390000.0,36.08,-86.72,Rae ExtortionSeventeen Weese,TN,1424636390000.0,5882552
226900031,Nashville,,1493848403000.0,36.16,-86.79,Ragnar Danneskjold,TN,1493848403000.0,5882552
92743262,Nashville,Nashville,1489584501000.0,36.17,-86.78,Raju  Ramasamy,TN,1489584501000.0,5882552
184991548,Nashville,,1425597731000.0,36.17,-86.78,Ram,TN,1430422321000.0,5882552
201834912,Murfreesboro,,1458450867000.0,35.78,-86.33,Ramona Davis-Gee,TN,1458450867000.0,5882552
13723774,Hermitage,,1455585790000.0,36.19,-86.6,Ramona Wattenbarger,TN,1455585790000.0,5882552
197713172,Franklin,,1452086316000.0,35.92,-86.89,Randall,TN,1452086316000.0,5882552
231673568,Nashville,,1499880940000.0,36.17,-86.78,Randall Riccardo,TN,1499880940000.0,5882552
213192274,Gallatin,,1474210884000.0,36.39,-86.45,Randy Lucas,TN,1474210884000.0,5882552
4300629,Tullahoma,tullahoma,1431639897000.0,35.37,-86.21,randy orr,TN,1503933790000.0,5882552
204998536,Nolensville,,1463053096000.0,35.94,-86.67,Ray G,TN,1463111319000.0,5882552
185417002,Murfreesboro,,1426891688000.0,35.82,-86.45,Rebecca,TN,1457401665000.0,5882552
8768739,Nashville,St.Louis,1498693623000.0,36.17,-86.78,Rebecca,TN,1498693623000.0,5882552
12300723,Nashville,,1480124116000.0,36.17,-86.78,Rebecca,TN,1480124116000.0,5882552
9532275,Nashville,,1357836933000.0,36.18,-86.74,Rebecca ,TN,1362200979000.0,5882552
183739151,Nashville,,1421731612000.0,36.08,-86.72,Rebecca D.,TN,1508294214000.0,5882552
181269002,Murfreesboro,,1429510088000.0,35.78,-86.33,Rebecca Elizabeth Hut,TN,1429510088000.0,5882552
8947251,Nashville,,1463739500000.0,36.15,-86.86,Rebekah Cothran,TN,1467109225000.0,5882552
233136900,Nashville,,1503184550000.0,36.17,-86.78,Reed,TN,1507404955000.0,5882552
183881707,Brentwood,"Kingstree, SC",1422158932000.0,36.0,-86.79,Reginald Frierson,TN,1425514805000.0,5882552
186516414,Spring Hill,,1429848395000.0,35.76,-86.88,Renae,TN,1429848395000.0,5882552
192745368,Nashville,,1442288286000.0,36.17,-86.78,Renae,TN,1442728301000.0,5882552
85834012,Nashville,,1365521138000.0,36.08,-86.72,Renee,TN,1377875393000.0,5882552
7580430,Clarksville,,1402792064000.0,36.56,-87.41,Renee,TN,1473610778000.0,5882552
193916650,Mount Juliet,,1444500189000.0,36.22,-86.52,Renee Hettenbach-Henry,TN,1444500189000.0,5882552
195712751,Nashville,,1479488841000.0,36.22,-86.77,renna,TN,1507204099000.0,5882552
237594545,Nashville,,1506567670000.0,36.16,-86.79,Rhonda Ch,TN,1506567670000.0,5882552
186805093,Paris,,1430495225000.0,36.3,-88.31,Rhonda Hargrove Howard,TN,1430495225000.0,5882552
197254420,Clarksville,,1451145787000.0,36.53,-87.35,rhonda howard,TN,1451145787000.0,5882552
193982461,Fort Campbell,,1444620403000.0,36.65,-87.46,Ricardo Luna,KY,1444620403000.0,5882552
192136433,Murfreesboro,Murfreesboro,1441154030000.0,35.87,-86.34,Ricardo Mendiola,TN,1451534056000.0,5882552
152960022,Brentwood,,1436719328000.0,36.0,-86.79,Rich,TN,1436719328000.0,5882552
232395732,New York,,1500916009000.0,40.72,-74.0,Richard Bunch,NY,1500916009000.0,5882552
204454387,Nashville,,1462261513000.0,36.21,-86.72,Richard Ethan Barrow,TN,1462261513000.0,5882552
5856456,Nashville,New York,1358478218000.0,36.08,-86.72,Richard Pelych,TN,1473873455000.0,5882552
212625945,Nashville,,1473462308000.0,36.17,-86.78,Richard Townsend,TN,1473462308000.0,5882552
189395331,Whites Creek,,1435859898000.0,36.27,-86.83,Richard Trest,TN,1441803564000.0,5882552
190513425,Nashville,,1438031031000.0,36.1,-86.66,Rick Heiman,TN,1438031031000.0,5882552
183871002,Goodlettsville,Goodlettsville,1422128163000.0,36.33,-86.74,Rick Peyton,TN,1507224292000.0,5882552
12213750,Nashville,,1467254643000.0,36.17,-86.78,Ricky P,TN,1467254643000.0,5882552
6229160,Nashville,Nashville,1503888934000.0,36.09,-86.82,Riley Knight,TN,1503888934000.0,5882552
202847166,Murfreesboro,,1459950379000.0,35.87,-86.34,Riley Richardson,TN,1459950379000.0,5882552
233161849,Nashville,,1501716647000.0,36.15,-86.81,Rina,TN,1507085594000.0,5882552
186708460,Franklin,,1465498677000.0,35.93,-86.81,Rita,TN,1465498677000.0,5882552
194713350,Hermitage,,1445950197000.0,36.19,-86.6,Rita Hernandez,TN,1445950197000.0,5882552
190799817,Smyrna,,1438564280000.0,35.97,-86.51,Ritu Saxena,TN,1438564280000.0,5882552
195716453,Nashville,Nashville,1447807082000.0,36.06,-86.96,Rob,TN,1489778797000.0,5882552
186396670,Franklin,,1429588060000.0,35.92,-86.89,Rob Harding,TN,1451479077000.0,5882552
11607907,Nashville,,1398816298000.0,36.1,-86.66,Rob L.,TN,1493234490000.0,5882552
140243342,Nashville,,1502221226000.0,36.14,-86.79,Rob Peek,TN,1502221226000.0,5882552
202429218,Nashville,Nashville,1459347732000.0,36.22,-86.77,Rob Spekhardt,TN,1459347732000.0,5882552
205194327,Nashville,,1463319117000.0,36.07,-86.73,Robbie Petty,TN,1463319117000.0,5882552
184221951,Brentwood,,1423253890000.0,36.0,-86.79,Robert Kelly McCammon,TN,1423253890000.0,5882552
54727412,Nashville,,1473818861000.0,36.1,-86.66,Robin Burton,TN,1473818861000.0,5882552
231180568,Nashville,,1499302061000.0,36.11,-86.78,Robin Martin,TN,1499302061000.0,5882552
21052731,Pegram,,1483430593000.0,36.12,-87.03,Robin Ray,TN,1483430593000.0,5882552
185369740,Nashville,,1426737235000.0,36.1,-86.66,Rocío Grissom,TN,1426737235000.0,5882552
189711659,Bowling Green,,1440641251000.0,37.02,-86.46,Rod,KY,1440641251000.0,5882552
198671070,Clarksville,,1453842898000.0,36.56,-87.41,ronald taylor,TN,1453842898000.0,5882552
182454817,Brush Creek,,1415557916000.0,36.13,-86.02,Roni ,TN,1415557916000.0,5882552
185900743,Antioch,,1428343095000.0,36.04,-86.64,Ronisha ,TN,1428343095000.0,5882552
108547102,Murfreesboro,Two Harbors,1439601339000.0,35.87,-86.44,Rose,TN,1442711029000.0,5882552
188279648,Nashville,,1433572774000.0,36.18,-86.74,Rose Mary Drake,TN,1433572774000.0,5882552
209416391,Nashville,,1469030459000.0,36.17,-86.78,Ross Welch,TN,1469030459000.0,5882552
126591532,Nashville,"Romney, WV",1456361291000.0,35.93,-86.8,Rothgar,TN,1456361291000.0,5882552
203958093,Joelton,,1461536316000.0,36.33,-86.91,Rox C,TN,1461536316000.0,5882552
131418822,Nashville,,1466559960000.0,36.18,-86.74,Rudy Martin,TN,1477928334000.0,5882552
183621154,Smyrna,,1421386271000.0,35.97,-86.51,Russell Church,TN,1421386271000.0,5882552
203347498,Nashville,,1460656419000.0,36.09,-86.82,Rusty Clanton,TN,1460656419000.0,5882552
184616169,Franklin,,1424753781000.0,35.92,-86.89,Rusty Wright,TN,1424753781000.0,5882552
193343063,Murfreesboro,,1443415434000.0,35.78,-86.33,Ruth Kilcrease,TN,1443659221000.0,5882552
124815532,Nashville,Nashville,1452661362000.0,36.07,-86.78,Ryan,TN,1482754442000.0,5882552
192796255,Hermitage,,1442382332000.0,36.19,-86.6,Ryan De Burgh,TN,1442382332000.0,5882552
232308183,Nashville,,1500655708000.0,36.17,-86.78,Sabrina Nelson,TN,1500655708000.0,5882552
3684038,Nashville,,1353609561000.0,36.13,-86.8,Sally Kent,TN,1394993583000.0,5882552
189351062,Nashville,,1435765079000.0,36.11,-86.86,Sally Walston,TN,1442104322000.0,5882552
206181138,Tempe,,1464673528000.0,33.37,-111.93,Salwa Ebrahim ,AZ,1464673528000.0,5882552
13772465,Nashville,,1414380066000.0,36.13,-86.8,Sam,TN,1414380066000.0,5882552
209751782,Huntsville,,1475230071000.0,34.73,-86.57,Sam,AL,1475230071000.0,5882552
199073282,Smyrna,,1454465962000.0,35.97,-86.51,Sam Hamlin,TN,1454465962000.0,5882552
187881841,Nashville,,1432766496000.0,36.13,-86.8,Sam Krause Parkington,TN,1432766496000.0,5882552
65423092,Franklin,,1502912825000.0,35.93,-86.81,Samantha,TN,1502912825000.0,5882552
78488152,Nashville,,1375149749000.0,36.08,-86.72,Samantha,TN,1392932708000.0,5882552
206996047,Nashville,,1465770433000.0,36.08,-86.72,Samantha Nicole,TN,1474335634000.0,5882552
198966010,Nashville,,1454301493000.0,36.18,-86.74,Sammiesue,TN,1454301493000.0,5882552
186548106,Franklin,,1429923444000.0,35.92,-86.89,Sampson Brueher,TN,1429923444000.0,5882552
197413251,Nashville,,1451485173000.0,36.13,-86.8,Sandra,TN,1451485173000.0,5882552
190863597,Antioch,Brentwood,1438684583000.0,36.04,-86.64,Sandra,TN,1441643378000.0,5882552
200550249,Nashville,,1456610511000.0,36.15,-86.79,Sandy,TN,1457301419000.0,5882552
184301904,Nashville,,1423524596000.0,36.06,-86.96,Sandy G,TN,1430237789000.0,5882552
213044479,Nashville,,1474392329000.0,36.17,-86.72,Sara,TN,1474392329000.0,5882552
202486699,Hermitage,,1459432724000.0,36.19,-86.6,Sara,TN,1459432724000.0,5882552
161629832,Nashville,,1475284505000.0,36.1,-86.66,sarah,TN,1475284505000.0,5882552
168860302,Hermitage,,1410230950000.0,36.19,-86.6,Sarah,TN,1463408469000.0,5882552
197725882,Brentwood,,1452107810000.0,36.0,-86.79,Sarah,TN,1452107810000.0,5882552
193013173,Nashville,,1442793859000.0,36.14,-86.74,Sarah Eitel,TN,1442793859000.0,5882552
192259462,Mc Minnville,,1441464861000.0,35.68,-85.78,sarah ford,TN,1441637644000.0,5882552
189223714,Nashville,,1435507041000.0,36.06,-86.96,Sarah Hagood,TN,1435507041000.0,5882552
215715757,Murfreesboro,Greenwood,1478989552000.0,35.87,-86.44,Sarah J,TN,1478989552000.0,5882552
47531332,Jacksonville,,1456102596000.0,30.36,-81.58,Sarah Jane Donovan,FL,1461636726000.0,5882552
197885668,Nashville,,1457294869000.0,36.17,-86.78,Sarah Jensen,TN,1457294869000.0,5882552
198412968,Nashville,,1453368941000.0,36.06,-86.96,Sarah Martinez,TN,1453368941000.0,5882552
194131437,Nashville,,1444890630000.0,36.17,-86.79,Sarah Pope,TN,1444890630000.0,5882552
209709238,Murfreesboro,,1469466924000.0,35.78,-86.33,Sarah Wright,TN,1469466924000.0,5882552
214590028,Nashville,,1475954918000.0,36.18,-86.81,Sarai Corea,TN,1475954918000.0,5882552
210555722,Nashville,,1470587316000.0,36.16,-86.66,Savanna Court,TN,1470587316000.0,5882552
199213612,Nashville,,1454696383000.0,36.06,-86.96,sawyerdsmom,TN,1454696383000.0,5882552
146514912,Nashville,,1427694524000.0,36.18,-86.74,Scarlet Caton Simpson,TN,1427694524000.0,5882552
216795808,Nashville,,1479324663000.0,36.17,-86.78,Scott,TN,1479324663000.0,5882552
205597142,Nashville,,1463855887000.0,36.21,-86.72,Scott,TN,1463855887000.0,5882552
122512432,Nashville,,1454221681000.0,36.08,-86.72,Scott ,TN,1473990668000.0,5882552
115180072,Nashville,,1454396867000.0,36.08,-86.72,Scott ,TN,1473653459000.0,5882552
109828602,Nashville,,1378483528000.0,36.14,-86.74,Scott Moffett,TN,1451285922000.0,5882552
193070014,Nashville,,1442892121000.0,36.21,-86.72,Sean,TN,1442892121000.0,5882552
205525097,Nashville,,1463754426000.0,36.13,-86.8,Sean McHugh,TN,1463754426000.0,5882552
235541488,Nashville,,1504444909000.0,36.07,-86.73,Sergio Bello,TN,1504444909000.0,5882552
219703113,Antioch,,1484111003000.0,36.04,-86.64,Sha-Tira Snell,TN,1484111003000.0,5882552
191423284,Hendersonville,,1439785315000.0,36.32,-86.61,Shane,TN,1439785315000.0,5882552
3312623,Lafayette,,1426819525000.0,36.52,-86.02,shannon,TN,1430198993000.0,5882552
203244502,Antioch,,1460505849000.0,36.17,-86.88,Shannon ,TN,1460505849000.0,5882552
184090734,Nashville,,1422849641000.0,36.06,-86.96,Shannon ,TN,1422849641000.0,5882552
13485001,Old Hickory,"Laguna Niguel, CA",1403806406000.0,36.25,-86.63,Shannon,TN,1403806406000.0,5882552
186309449,Clarksville,,1440085510000.0,36.56,-87.41,Shannon,TN,1454442390000.0,5882552
184311965,Ridgetop,,1423532660000.0,36.4,-86.77,Shannon,TN,1427936478000.0,5882552
193499931,Nashville,,1445789919000.0,36.21,-86.72,Shannon,TN,1445789919000.0,5882552
195490436,Murfreesboro,,1447377315000.0,35.87,-86.44,Shar,TN,1447377315000.0,5882552
211066818,Franklin,,1471953502000.0,35.92,-86.89,Shari,TN,1505077694000.0,5882552
10749415,Clarksville,Nashville,1506978244000.0,36.53,-87.35,Sharon,TN,1507338988000.0,5882552
209467205,Columbia,,1469529044000.0,35.61,-87.05,Sharon P.,TN,1469529044000.0,5882552
200870271,Nashville,,1457070131000.0,36.11,-86.86,sharon pomeroy,TN,1457070131000.0,5882552
192360487,Nashville,,1441586813000.0,36.1,-86.66,Shaunte fernandez ,TN,1441782889000.0,5882552
198359500,Nashville,,1453267448000.0,36.17,-86.78,shawn,TN,1474241000000.0,5882552
184829851,Nashville,,1425145691000.0,36.07,-86.72,Shay Watson,TN,1425145691000.0,5882552
184018272,Franklin,Saint Petersburg,1440510905000.0,35.92,-86.89,She Pirate with a Heart ,TN,1446061707000.0,5882552
233352996,La Vergne,,1501951249000.0,36.0,-86.57,Sheila Hackett,TN,1501951249000.0,5882552
229454896,Nashville,,1497575240000.0,36.17,-86.78,Shelandria Swiams,TN,1497575240000.0,5882552
189332691,Nashville,,1435719191000.0,36.08,-86.72,Shelby McCurdy,TN,1435719191000.0,5882552
198072300,Murfreesboro,,1452735098000.0,35.82,-86.45,Shelia ,TN,1505587322000.0,5882552
74184592,White Bluff,,1431831249000.0,36.12,-87.23,shelia,TN,1432859770000.0,5882552
18943841,Gallatin,Gallatin,1386723379000.0,36.39,-86.45,Shelia P,TN,1466767006000.0,5882552
92953232,Nashville,,1463026280000.0,36.06,-86.96,Shelia P.,TN,1464297982000.0,5882552
193146171,Franklin,,1468788065000.0,35.99,-86.9,Sheree Felix,TN,1468788065000.0,5882552
176087272,Nashville,,1418088499000.0,36.13,-86.7,Sherri,TN,1418088499000.0,5882552
9065591,White House,White House,1394418021000.0,36.48,-86.69,sherrie,TN,1471715840000.0,5882552
193629543,Murfreesboro,,1443971196000.0,35.82,-86.45,Sherry Miller,TN,1447114611000.0,5882552
206407078,Nashville,,1464987515000.0,36.08,-86.72,Shirley Carlisle,TN,1464987515000.0,5882552
140704082,Nashville,,1399215483000.0,36.08,-86.72,Shylie Book,TN,1399215483000.0,5882552
114915282,Nashville,,1433794543000.0,36.21,-86.72,Sonya,TN,1473631210000.0,5882552
236030601,Nashville,,1504948866000.0,36.17,-86.79,Spencer Kappelman,TN,1504948866000.0,5882552
190022962,Nashville,,1437111519000.0,36.11,-86.86,Stacey,TN,1437111519000.0,5882552
233216153,Nashville,,1501787261000.0,36.13,-86.8,Stacie Holland,TN,1501787261000.0,5882552
191291695,Nashville,,1440302050000.0,36.17,-86.78,Stacie Milligan,TN,1450636978000.0,5882552
196240424,Murfreesboro,,1448861688000.0,35.87,-86.44,Stacy Leigh Palmer,TN,1448861688000.0,5882552
230049169,Nashville,,1497922235000.0,36.17,-86.78,Stephanie,TN,1497922235000.0,5882552
208371858,Mount Juliet,,1467665275000.0,36.21,-86.52,Stephanie,TN,1467665275000.0,5882552
89875252,Portland,Nashville,1434561279000.0,36.57,-86.49,Stephanie,TN,1434561279000.0,5882552
195203706,Nashville,,1446854065000.0,36.08,-86.72,Stephanie,TN,1446854065000.0,5882552
194573109,Nashville,,1445705935000.0,36.17,-86.78,Stephanie Kendrick,TN,1445705935000.0,5882552
55026182,Nashville,Winchester,1395176943000.0,36.1,-86.66,Stephanie Shirley,TN,1417398996000.0,5882552
232764022,Mount Juliet,,1501215162000.0,36.22,-86.52,Stephen Broyles,TN,1501215162000.0,5882552
196836704,Hendersonville,,1450149205000.0,36.32,-86.61,Stephen Graves,TN,1450149205000.0,5882552
190925795,Nashville,,1438801876000.0,36.14,-86.74,Steve Carney,TN,1441985016000.0,5882552
88452062,Nashville,,1444605900000.0,36.08,-86.72,Steve Dawson,TN,1444605900000.0,5882552
98668942,Hendersonville,Hendersonville,1430181109000.0,36.32,-86.61,steve durham,TN,1505402633000.0,5882552
92030162,Nashville,,1367670628000.0,36.08,-86.72,steve tucker,TN,1375921177000.0,5882552
206678746,Nashville,,1465339781000.0,36.17,-86.78,Steve Vining,TN,1465339781000.0,5882552
9687385,Antioch,York,1392529254000.0,36.04,-86.64,Sue,TN,1416230691000.0,5882552
205221132,Dickson,,1463407915000.0,36.08,-87.43,sue ellen,TN,1463407915000.0,5882552
9495593,Nashville,,1384547158000.0,36.17,-86.78,Sue Kauflie,TN,1462386551000.0,5882552
8737191,Hixson,Chattanooga,1422987992000.0,35.16,-85.21,Susan,TN,1444268338000.0,5882552
3469568,Brentwood,Brentwood,1390716722000.0,36.0,-86.79,Susan,TN,1443415842000.0,5882552
206170876,Nashville,,1464659330000.0,36.17,-86.78,Susan,TN,1471885315000.0,5882552
13918555,Franklin,Franklin,1432383460000.0,35.93,-86.81,Susan Ingraham,TN,1432383460000.0,5882552
188051424,Nashville,,1433113166000.0,36.08,-86.72,Susan Kondrat Dixon,TN,1507379958000.0,5882552
185056891,Nashville,,1425797809000.0,36.06,-86.96,Susan Kraft,TN,1425797809000.0,5882552
238955720,Nashville,,1508092891000.0,36.18,-86.74,Susan Snyder,TN,1508092891000.0,5882552
212771043,Nashville,,1473655314000.0,36.07,-86.78,Susi,TN,1473732548000.0,5882552
203073998,Franklin,,1460274821000.0,35.92,-86.89,SuSu Greene Raymond,TN,1460274821000.0,5882552
58333962,Nashville,,1369106993000.0,36.08,-86.72,Suzanne,TN,1485127094000.0,5882552
207698640,Nashville,,1466953846000.0,36.17,-86.78,Suzie,TN,1507165777000.0,5882552
193308554,Nashville,,1443359970000.0,36.17,-86.78,Suzy Adkins,TN,1443359970000.0,5882552
195199155,Thompsons Station,,1446847985000.0,35.8,-86.9,Sydney Erin Whitlock,TN,1446847985000.0,5882552
192130478,Eagleville,,1441144300000.0,35.75,-86.64,Sydney Francisco,TN,1441144300000.0,5882552
217775215,Murfreesboro,,1480987393000.0,35.82,-86.45,T. James Carmichael,TN,1480987393000.0,5882552
160120932,Murfreesboro,,1407292487000.0,35.87,-86.34,Tamara N,TN,1408669263000.0,5882552
158474712,Murfreesboro,Murfreesboro,1464924419000.0,35.82,-86.45,Tami,TN,1464924419000.0,5882552
121252202,Nashville,,1447259492000.0,36.19,-86.8,Tammy,TN,1447259492000.0,5882552
220772426,Nashville,,1485464952000.0,36.17,-86.78,Tammy Baldocchi,TN,1485464952000.0,5882552
160884532,Gallatin,"Chicago, IL",1413914033000.0,36.39,-86.45,Tammy H.,TN,1417465413000.0,5882552
46907672,Nashville,,1369489189000.0,36.17,-86.78,Tammy J,TN,1372614410000.0,5882552
190957745,Nashville,,1473987428000.0,36.17,-86.78,Tammy Varallo,TN,1492058350000.0,5882552
200469310,Hendersonville,,1456497253000.0,36.32,-86.61,Tanna Matthews,TN,1474125478000.0,5882552
236850629,Nashville,,1505762530000.0,36.17,-86.72,Tanya Click,TN,1505762530000.0,5882552
234154899,Franklin,,1508399258000.0,35.92,-86.89,Tanya Parsley,TN,1508399258000.0,5882552
198202281,Nashville,,1452987423000.0,36.17,-86.78,Tanya Smith,TN,1455242842000.0,5882552
131342862,Nashville,,1403454689000.0,36.15,-86.86,taryn,TN,1412010305000.0,5882552
8404609,Franklin,Evansville,1369233732000.0,35.93,-86.81,Tatiana ,TN,1369233732000.0,5882552
5965232,Murfreesboro,Murfreesboro,1355676852000.0,35.82,-86.45,Taylor,TN,1498675572000.0,5882552
184001306,Greenbrier,,1422545497000.0,36.43,-86.8,Taylore Garnett,TN,1422545497000.0,5882552
197726620,Franklin,,1452108447000.0,35.92,-86.89,Ted Atwood,TN,1452108447000.0,5882552
137230272,Hendersonville,,1453757621000.0,36.33,-86.66,ted fleming,TN,1505074845000.0,5882552
192966645,Mount Juliet,,1442708722000.0,36.22,-86.52,Teresa Lawson,TN,1508708952000.0,5882552
199684792,Spring Hill,,1455410509000.0,35.76,-86.88,Teresa Prober,TN,1466536649000.0,5882552
199400435,Hendersonville,,1454987525000.0,36.32,-86.61,Terri,TN,1454987525000.0,5882552
182943742,Nashville,,1418329713000.0,36.07,-86.73,Terri E.,TN,1505696073000.0,5882552
190478403,Bowling Green,,1437969597000.0,37.02,-86.46,Terry,KY,1437969597000.0,5882552
199179577,Hendersonville,,1454633427000.0,36.32,-86.61,Terry,TN,1454633427000.0,5882552
203514452,Nashville,,1461951525000.0,36.14,-86.74,Terry,TN,1499634958000.0,5882552
147344372,Nashville,Nashville,1450409682000.0,36.11,-86.86,Terry J,TN,1455336755000.0,5882552
194924752,Brentwood,,1446418981000.0,36.0,-86.79,Terry Jo,TN,1446418981000.0,5882552
191277987,Murfreesboro,,1439493893000.0,35.82,-86.45,Tethi Cherry Inman,TN,1439521024000.0,5882552
184865424,Nashville,,1425246787000.0,36.18,-86.74,Thea Gammans,TN,1436802384000.0,5882552
4663649,Atlantic City,Atlantic City,1379945554000.0,39.36,-74.44,Theresa,NJ,1427539118000.0,5882552
184369702,Nashville,"Gloucester, MA",1423711420000.0,36.06,-86.96,Thomas,TN,1450625500000.0,5882552
207735278,Nashville,,1466792935000.0,36.17,-86.79,thomas osullivan,TN,1466792935000.0,5882552
24893672,Hermitage,,1400343354000.0,36.19,-86.6,ThornMama,TN,1400565760000.0,5882552
209538746,Nashville,,1469198325000.0,36.11,-86.78,Tia Ray,TN,1469198325000.0,5882552
200533321,Lebanon,,1456589762000.0,36.21,-86.31,Tierney Campbell,TN,1456589762000.0,5882552
196382193,Murfreesboro,,1449148896000.0,35.87,-86.44,Tiffany,TN,1449148896000.0,5882552
184504283,Murfreesboro,,1432737619000.0,35.78,-86.33,Tiffany,TN,1437146151000.0,5882552
192397191,Brentwood,Brentwood,1441663029000.0,36.0,-86.79,Tiffany McKenna,TN,1441663029000.0,5882552
15177961,Guthrie,,1453176359000.0,36.7,-87.18,Tim ,KY,1505111115000.0,5882552
193565120,Murray,,1443835164000.0,36.62,-88.25,Tim Morrison,KY,1443835164000.0,5882552
219700027,Nashville,,1488486753000.0,36.18,-86.81,Tim Pierce,TN,1488486753000.0,5882552
188586373,Brentwood,,1458160244000.0,36.0,-86.79,Tim Steed,TN,1458160244000.0,5882552
140961042,Nashville,,1396877396000.0,36.17,-86.78,Timothy Johnston,TN,1397238931000.0,5882552
205864890,Nashville,"Nashville, TN",1464216580000.0,36.08,-86.72,Timothy Loayza,TN,1464216580000.0,5882552
192787169,Murfreesboro,,1442365169000.0,35.87,-86.44,Tina Vanness,TN,1442365169000.0,5882552
193942147,Brentwood,,1444549148000.0,36.0,-86.79,Tito,TN,1444549148000.0,5882552
198437764,Old Hickory,,1453411673000.0,36.25,-86.63,Tom,TN,1453411673000.0,5882552
106153222,Nashville,,1376163709000.0,36.08,-86.72,Tom,TN,1495380012000.0,5882552
194811734,Nashville,Nashville,1456233902000.0,36.11,-86.86,tom hanks,TN,1462973143000.0,5882552
238035317,Nashville,Nashville,1507090118000.0,36.06,-86.96,Tommy Becker,TN,1507258522000.0,5882552
208351300,Nashville,,1467642050000.0,36.17,-86.78,Toni R,TN,1499802270000.0,5882552
7537601,Nashville,Nashville,1462866875000.0,36.16,-86.79,Tony,TN,1492484844000.0,5882552
184903985,Adamsville,,1425353002000.0,35.23,-88.39,Tony Holly,TN,1425353002000.0,5882552
199283937,Lebanon,,1454807398000.0,36.21,-86.31,tony martin,TN,1454807398000.0,5882552
1889955,Murfreesboro,Hong Kong,1425300654000.0,35.82,-86.44,Tony Wan,TN,1425300654000.0,5882552
92649912,Nashville,,1442458907000.0,36.17,-86.78,Tonya,TN,1462835714000.0,5882552
75285632,Nashville,,1441517121000.0,36.11,-86.86,Tonya Glasgow,TN,1472172567000.0,5882552
187990569,Nashville,,1432996217000.0,36.17,-86.78,Toria Zaragoza,TN,1432996217000.0,5882552
174357832,Nashville,,1415668097000.0,36.09,-86.82,Tory,TN,1415668097000.0,5882552
209533227,Nashville,,1469190040000.0,36.07,-86.93,Tosh,TN,1471267708000.0,5882552
207294139,Nashville,,1466183454000.0,36.1,-86.66,Tracey Miree,TN,1466183454000.0,5882552
183419158,Nashville,Nashville,1420726944000.0,36.17,-86.78,Tracy,TN,1436494278000.0,5882552
195338290,Brentwood,,1447102427000.0,36.0,-86.79,Tracy Curcio,TN,1471548062000.0,5882552
64490772,Nashville,,1431489523000.0,36.14,-86.74,Tracy Jean Barkley,TN,1431489523000.0,5882552
95581062,Brentwood,,1444839630000.0,36.0,-86.79,Tracy Phillips,TN,1450565406000.0,5882552
207974853,Nashville,,1467121612000.0,36.17,-86.78,Trae F.,TN,1467121612000.0,5882552
104088392,Nashville,Nashville,1430625018000.0,36.08,-86.72,travis,TN,1430625018000.0,5882552
14277220,Nashville,,1358716800000.0,36.16,-86.79,Travis,TN,1492620749000.0,5882552
184386227,Nashville,,1427602427000.0,36.17,-86.72,Trevor S. Johnson,TN,1467362305000.0,5882552
188152716,Murfreesboro,,1433303601000.0,35.82,-86.45,Trey,TN,1433303601000.0,5882552
186552914,Nashville,,1429933404000.0,36.08,-86.72,Tricia Wilson,TN,1429933404000.0,5882552
201255563,Nashville,,1473785833000.0,36.19,-86.8,Trish,TN,1474291739000.0,5882552
192311605,Franklin,,1441493901000.0,35.92,-86.89,Tunya Au,TN,1455575402000.0,5882552
183441535,Nashville,,1420793153000.0,36.06,-86.96,Tushar K,TN,1420793153000.0,5882552
201445156,Nashville,"Nashville, TN",1457899680000.0,36.17,-86.78,Ty Gilliam,TN,1457899680000.0,5882552
201559477,Clarksville,,1458053768000.0,36.53,-87.35,Ty Williams,TN,1458053768000.0,5882552
215488837,Mitchellville,,1477280797000.0,36.63,-86.54,Tyler Joseph Lee,TN,1477280797000.0,5882552
212232797,Nashville,,1472944199000.0,36.16,-86.79,Tyler Nelson,TN,1472944199000.0,5882552
105250112,Murfreesboro,,1480040366000.0,35.82,-86.45,Tyler Woodbridge,TN,1480040366000.0,5882552
188793905,Smyrna,,1434602249000.0,35.97,-86.51,Usama Sahham,TN,1434602249000.0,5882552
195569654,Hermitage,,1447536587000.0,36.19,-86.6,V. Lauren Fass,TN,1473890973000.0,5882552
124388692,Thompsons Station,El Dorado Hills,1438177137000.0,35.8,-86.9,Valerie N,TN,1474031005000.0,5882552
191086714,Nashville,,1439132774000.0,36.16,-86.79,Vance Pitzer,TN,1439132774000.0,5882552
168527662,Lewisburg,,1410210976000.0,35.45,-86.8,Verlinda Miner,TN,1507163931000.0,5882552
185652555,Murfreesboro,,1427638670000.0,35.82,-86.45,Vicki Allen,TN,1427944836000.0,5882552
55980202,Nashville,,1407512632000.0,36.17,-86.79,Vickie Stanton,TN,1462811444000.0,5882552
71038612,Bowling Green,,1479697380000.0,37.02,-86.46,victoria,KY,1479697380000.0,5882552
215224901,Fort Campbell,,,36.65,-87.46,,KY,,5882552
218430591,Nashville,,1502467039000.0,36.09,-86.82,Victoria Mehren,TN,1504899926000.0,5882552
209492166,Nashville,,1469130786000.0,36.17,-86.78,Vincent,TN,1469130786000.0,5882552
185207862,Fairview,,1426248718000.0,35.97,-87.13,Vincent,TN,1505481476000.0,5882552
188379764,Hermitage,,1433782964000.0,36.19,-86.6,Wade Bilbrey,TN,1433782964000.0,5882552
9691771,Nashville,,1438204352000.0,36.15,-86.81,Wade McCurdy,TN,1471732920000.0,5882552
209535585,Nashville,,1469272752000.0,36.17,-86.78,Wanda,TN,1469564873000.0,5882552
9384740,Nashville,,1362621362000.0,36.17,-86.72,Wanda,TN,1474461277000.0,5882552
4387980,Nashville,"Warrensburg, NY",1465557048000.0,36.21,-86.72,Wanda Ross,TN,1505622786000.0,5882552
183114856,Murfreesboro,,1419484399000.0,35.82,-86.45,Wander Fool Travels,TN,1419484399000.0,5882552
70098572,Brentwood,"Brentwood, TN",1443407417000.0,36.0,-86.79,Warren Bryant,TN,1473713769000.0,5882552
4720318,Nashville,,1378686247000.0,36.08,-86.72,Wendy ,TN,1462108914000.0,5882552
190331447,Nashville,,1437705986000.0,36.17,-86.78,Wendy French Barrett,TN,1437705986000.0,5882552
208352792,Franklin,,1467643667000.0,35.92,-86.89,Wendy V.,TN,1505384872000.0,5882552
41714582,Nashville,,1436894846000.0,36.17,-86.78,Wesley Stallings,TN,1447130560000.0,5882552
233292764,Nashville,,1501878078000.0,36.17,-86.72,Weston Lazenby,TN,1501878078000.0,5882552
206748135,Nashville,,1482946182000.0,36.17,-86.78,Whit Joseph,TN,1482946182000.0,5882552
197109684,Oak Grove,,1450730045000.0,36.68,-87.45,Whitley Skylar,KY,1450730045000.0,5882552
200080277,Chapel Hill,,1455962030000.0,35.62,-86.62,Whitney,TN,1455962030000.0,5882552
42765902,Nashville,,1361152729000.0,36.21,-86.72,Whitney Washington,TN,1364253226000.0,5882552
21442101,Nashville,,1437299891000.0,36.16,-86.79,Wiley Chase Vaughan,TN,1437299891000.0,5882552
205389919,Nashville,,1505178517000.0,36.13,-86.67,Will Davis,TN,1505178517000.0,5882552
190308354,Rochester,Rochester,1437670642000.0,44.01,-92.42,Will Gruenert,MN,1437670642000.0,5882552
199434132,Nashville,,1455041804000.0,36.1,-86.66,William,TN,1455041804000.0,5882552
209681653,Hermitage,,1469385705000.0,36.19,-86.6,William Robert Maddox,TN,1477166537000.0,5882552
223212102,Nashville,,1488774506000.0,36.17,-86.78,WJ O'Reilly,TN,1494213877000.0,5882552
205498287,Clarksville,,1463709326000.0,36.53,-87.35,Wolf gal,TN,1463709326000.0,5882552
226642396,Antioch,,1493501440000.0,36.04,-86.64,Xenicia Jackson,TN,1493501440000.0,5882552
185689461,Nashville,,1427745451000.0,36.07,-86.72,Yadira Gonzalez,TN,1427745451000.0,5882552
197590105,Nashville,,1451858969000.0,36.17,-86.78,Yaneth Hargis,TN,1451858969000.0,5882552
189912536,Nashville,,1436889026000.0,36.17,-86.78,Yarisbet Navarro,TN,1436889026000.0,5882552
195417927,Nashville,"Taylor, MI",1447250964000.0,36.17,-86.78,Yasmine Sater,TN,1447250964000.0,5882552
193638242,Franklin,,1443982867000.0,35.92,-86.89,Zac Rostad,TN,1445112550000.0,5882552
195831626,Nashville,,1448032886000.0,36.16,-86.79,Zach McKinney,TN,1459347615000.0,5882552
112447782,Austin,"Nashville, TN",1439492564000.0,30.22,-97.75,Zak,TX,1439492564000.0,5882552
205611097,Nashville,,1463873097000.0,36.07,-86.73,Zeno,TN,1463873097000.0,5882552
216948129,Nashville,,1479570757000.0,36.18,-86.74,Zoe Spafford,TN,1479570757000.0,5882552
