id,city,hometown,joined,lat,lon,name,state,visited,group_id
86561202,Buford,,1427159777000,34.1,-83.97, Lesley  Flakus,GA,1500813466000,6121452
82284732,Brentwood,Nashville,1406318047000,36.0,-86.79,"""Courtney""",TN,1496148107000,6121452
9481175,Franklin,"Santa Cruz, CA",1368063765000,35.92,-86.89,"""Water Lily"" Deb",TN,1481281573000,6121452
65874682,Nashville,Nashville,1441208842000,36.08,-86.72,*S*,TN,1454427972000,6121452
191704957,College Grove,,1440338315000,35.77,-86.71,A Meetup Member,TN,1440338315000,6121452
99371192,Nashville,,1398279065000,36.1,-86.66,Aaron,TN,1481233176000,6121452
41038072,Denver,Denver,1358096428000,39.9,-104.95,Abby Aunspaw,CO,1429591473000,6121452
221747041,Knoxville,,1495071814000,35.95,-83.93,Abby McCulla,TN,1495071814000,6121452
8691728,Franklin,"Franklin, TN",1416194414000,35.93,-86.81,abby radebaugh,TN,1420149278000,6121452
49174402,Nashville,Nashville,1441462262000,36.15,-86.8,Abhish,TN,1465489285000,6121452
184253942,Franklin,,1434503767000,35.92,-86.89,Abigail Christine Ruby,TN,1452444626000,6121452
205047686,Nashville,,1463116095000,36.08,-86.72,Adam Keckley,TN,1473111030000,6121452
209911696,Hendersonville,,1469675956000,36.32,-86.61,Adam Shishin Lintz,TN,1469675956000,6121452
206478489,Brentwood,,1465082807000,36.0,-86.79,Aimee,TN,1490060277000,6121452
211008028,Nashville,,1471232791000,36.07,-86.73,Alaina Shaw,TN,1471706625000,6121452
207037759,Brentwood,,1473882592000,36.0,-86.79,Alan Treadway,TN,1473882592000,6121452
12266827,Nashville,,1448839339000,36.22,-86.77,Alena Gordon,TN,1448839339000,6121452
201887831,Nashville,,1458525861000,36.13,-86.8,Alex Bird,TN,1458525861000,6121452
186616793,Nashville,,1430079232000,36.15,-86.86,Alex Dobrinski,TN,1430079232000,6121452
231471032,Nashville,,1499645138000,36.15,-86.86,Alex Hanflink,TN,1500347957000,6121452
29589462,Nashville,,1451155309000,36.17,-86.78,Alexa Dimengo,TN,1463957486000,6121452
195006027,Hendersonville,,1446493120000,36.32,-86.61,Alexander Urbina,TN,1446493120000,6121452
104543512,Franklin,,1396060537000,35.92,-86.89,Alfredo Rojo,TN,1451617148000,6121452
29015102,Nashville,Franklin,1406514905000,36.18,-86.74,Ali,TN,1438392977000,6121452
142693012,Nashville,,1434157946000,36.17,-86.78,Ali Leick,TN,1465260083000,6121452
8848287,Ridgewood,,1507171478000,40.7,-73.88,alice,NY,1507171478000,6121452
81759842,Franklin,,1431427815000,35.92,-86.89,Alice Johnson,TN,1499550626000,6121452
10555871,Nashville,,1399775188000,36.13,-86.8,alicia,TN,1474746220000,6121452
194172619,Nashville,,1445037518000,36.16,-86.79,Alicia,TN,1445037518000,6121452
14601025,Nashville,"Kohtla-Yarve, Estonia",1464021507000,36.06,-86.96,Alina ,TN,1464376316000,6121452
63626142,Franklin,"Clarence, New York",1429318629000,35.93,-86.81,Alisa,TN,1467246793000,6121452
153654792,Nashville,,1403886555000,36.09,-86.82,Alix Nardone,TN,1466107342000,6121452
206071918,Clarksville,,1499037083000,36.56,-87.41,Allan,TN,1499037083000,6121452
97119802,Nashville,,1439914953000,36.09,-86.82,Allan Morales,TN,1503078257000,6121452
53381412,Franklin,"Durant, MS",1359404306000,35.93,-86.81,Allen Clements,TN,1359404306000,6121452
208046346,Brentwood,,1467214876000,36.0,-86.79,Allie,TN,1467214876000,6121452
10265512,Nashville,Nashville,1355000300000,36.11,-86.78,Allison ,TN,1498916196000,6121452
101778122,Brentwood,,1374331742000,36.0,-86.79,Allison,TN,1444145917000,6121452
227405946,Nashville,,1494535996000,36.09,-86.82,Allison Mitchell,TN,1498312930000,6121452
226791775,Nashville,,1493701967000,36.14,-86.74,Allison Russell,TN,1493701967000,6121452
145654712,Nashville,,1399531639000,36.18,-86.74,Ally,TN,1399531639000,6121452
216243608,Nashville,,1497981250000,36.15,-86.86,Almarosa Mendoza,TN,1499190604000,6121452
204378295,Nashville,,1467856962000,36.17,-86.78,Amanda,TN,1467856962000,6121452
8750578,Brentwood,Brentwood,1358093964000,36.0,-86.79,Amanda,TN,1363189287000,6121452
150902602,Nashville,,1485821661000,36.17,-86.78,Amanda,TN,1488503249000,6121452
201600671,Murfreesboro,,1458106033000,35.78,-86.33,Amanda,TN,1458106033000,6121452
216141093,Nashville,,1478737352000,36.16,-86.79,Amanda,TN,1478737352000,6121452
149321412,Nashville,,1401573653000,36.17,-86.78,Amanda,TN,1437929824000,6121452
81200442,Hopkinsville,Mustang,1378345742000,36.87,-87.48,Amanda Bilodeau,KY,1413598078000,6121452
194599366,Alexandria,Alexandria ,1445748547000,36.08,-86.04,Amanda Freehoff,TN,1445748547000,6121452
184255836,Nashville,,1496121601000,36.08,-86.72,Amanda Gjertson,TN,1496121601000,6121452
192361501,Bowling Green,,1441588098000,36.96,-86.37,Amanda Gorski,KY,1441588098000,6121452
190803387,Nashville,,1439146933000,36.11,-86.86,Amanda Joy Griffey,TN,1439146933000,6121452
39231592,Nashville,,1405703250000,36.17,-86.78,Amanda King,TN,1464388489000,6121452
193418078,Brentwood,,1443551271000,36.0,-86.79,Amanda Magner,TN,1443551271000,6121452
182831208,Nashville,,1474326764000,36.17,-86.78,Amanda Murray,TN,1479942803000,6121452
183742617,Franklin,,1442465528000,35.99,-86.9,Amanda Romano,TN,1467779048000,6121452
208066820,Nashville,,1467238501000,36.08,-86.72,Amy,TN,1467238501000,6121452
155015952,Nashville,,1404699388000,36.17,-86.78,Amy,TN,1404699388000,6121452
207804904,Nashville,,1466889976000,36.17,-86.78,Amy,TN,1469770397000,6121452
232126408,Murfreesboro,,1500863630000,35.87,-86.44,Amy C.,TN,1501089508000,6121452
35366942,Nashville,"Kansasville, WI",1461680150000,36.06,-86.96,Amy Gresl,TN,1462012339000,6121452
226001166,Clarksville,,1492638857000,36.49,-87.23,Amy Richey,TN,1493234323000,6121452
125698682,Hollywood,Hollywood,1466538687000,26.02,-80.26,AnaMB,FL,1478878812000,6121452
58369512,Clarksville,Indiana,1469579700000,36.53,-87.35,Andi,TN,1482373979000,6121452
182574366,Nashville,Nashville,1460039592000,36.11,-86.78,Andrea,TN,1500433117000,6121452
80483672,Nashville,,1373398766000,36.16,-86.79,Andrea,TN,1373398766000,6121452
185707313,Nashville,"Racine, WI",1500254905000,36.08,-86.72,Andrea Wilkinson,TN,1500254905000,6121452
211334718,Nashville,,1471705940000,36.17,-86.78,Andrew,TN,1474142802000,6121452
26357992,Nashville,,1463786217000,36.17,-86.78,Andrew Cameron,TN,1468528997000,6121452
227526842,Knoxville,,1494708018000,35.95,-83.93,Andrew Peters,TN,1494708018000,6121452
97447782,Nashville,Nashville,1378699258000,36.21,-86.72,Angela,TN,1430678794000,6121452
91104802,Nashville,,1373287446000,36.15,-86.86,Angela Cannon,TN,1397229964000,6121452
219588046,Nashville,,1484172470000,36.08,-86.72,Angela Howard,TN,1484254804000,6121452
7946188,Nashville,Nashville,1479396603000,36.11,-86.78,Angela Lancaster,TN,1479396603000,6121452
199499388,Mount Juliet,,1455137505000,36.22,-86.52,Angie Groves Rowe,TN,1461814698000,6121452
209048778,Nashville,,1468553431000,36.06,-86.96,Anna,TN,1468553431000,6121452
92973312,Franklin,nashville,1432144366000,35.92,-86.89,Anna Leyson,TN,1474039693000,6121452
67179452,Nashville,,1398794089000,36.17,-86.78,Anne Gray,TN,1398794089000,6121452
222684519,Nashville,,1487996029000,36.08,-86.72,Annelize Snyman Botha,TN,1496255566000,6121452
183568980,Nashville,,1421214680000,36.09,-86.82,Anthea Myers,TN,1421214680000,6121452
188359091,Franklin,,1433736717000,35.92,-86.89,Anusha A,TN,1433736717000,6121452
185102902,Lebanon,"Lakeland, FL",1426338318000,36.21,-86.31,April Daniel,TN,1426338318000,6121452
191012756,Nashville,Nashville ,1462282900000,36.18,-86.81,As,TN,1474765242000,6121452
198180313,Castalian Springs,,1452951454000,36.38,-86.32,Ash AndShane,TN,1452951454000,6121452
177930602,Nashville,Nashville,1457104167000,36.11,-86.86,Ashley,TN,1465680917000,6121452
190667956,Nashville,,1438483318000,36.06,-86.96,Ashley,TN,1469411094000,6121452
206858217,Spring Hill,,1465583939000,35.76,-86.88,Ashley Pierre,TN,1465583939000,6121452
183641813,New York,,1421453388000,40.77,-73.95,Ashley Robeck,NY,1421453388000,6121452
14948621,Nashville,,1465151761000,36.16,-86.79,Audrey,TN,1473701313000,6121452
189512874,Gallatin,,1436117600000,36.39,-86.45,AZ2TN.Rhodes,TN,1436571514000,6121452
202907325,Nashville,,1460037596000,36.08,-86.72,Baberaham Lincoln,TN,1460037596000,6121452
3772015,Burkesville,"Boulder, CO",1502998673000,36.81,-85.41,Bansi,KY,1505151016000,6121452
87266722,Franklin,Franklin,1503162515000,35.93,-86.81,BARB WATSON,TN,1505600927000,6121452
210561107,Nashville,,1471146552000,36.21,-86.72,Becca Chisholm,TN,1471146552000,6121452
9964353,Nashville,,1398843848000,36.16,-86.79,Beck,TN,1470317376000,6121452
47967872,Franklin,Clearwater Beach,1370011420000,35.92,-86.89,Becky,TN,1406555776000,6121452
189083912,Nashville,,1435199892000,36.08,-86.72,Ben,TN,1463440938000,6121452
193089278,Hermitage,,1442982012000,36.19,-86.6,Ben Turner,TN,1444704590000,6121452
237872603,Nashville,,1506890221000,36.14,-86.81,Benjamin Christian,TN,1506890221000,6121452
205432142,Columbia,,1463620739000,35.61,-87.05,Berea,TN,1463620739000,6121452
227814982,Murfreesboro,,1502494700000,35.78,-86.33,Beth,TN,1504971011000,6121452
208753729,Brentwood,,1496579427000,36.0,-86.79,Beth,TN,1499292642000,6121452
8242582,Gallatin,"Old Hickory, TN",1423152844000,36.39,-86.45,Beth,TN,1505245755000,6121452
29969672,Nashville,Hendersonville,1495246224000,36.14,-86.64,Beth Bruce,TN,1495405042000,6121452
10876998,Nashville,,1364050376000,36.17,-86.78,Beth G.,TN,1462133833000,6121452
189055100,Nashville,,1452569336000,36.08,-86.72,Bethany Alisha,TN,1466603236000,6121452
118100402,Hendersonville,Huntsville,1499904386000,36.32,-86.61,Bethany Boyer,TN,1501699071000,6121452
20269731,Nashville,,1370289852000,36.11,-86.86,bets,TN,1380340699000,6121452
32583422,Mount Juliet,,1398135127000,36.22,-86.52,Betsy,TN,1469045517000,6121452
54572282,Nashville,,1379331497000,36.17,-86.72,Bill Branch,TN,1399667239000,6121452
194057278,Clarksville,,1500070596000,36.53,-87.35,Bobby,TN,1504815729000,6121452
216494258,Nashville,,1482804650000,36.17,-86.78,boiaryntseva,TN,1482804650000,6121452
116205952,Nashville,,1439152560000,36.17,-86.78,Bonj Amon,TN,1439694605000,6121452
151322212,Nashville,,1402629890000,36.09,-86.82,Boris,TN,1412278065000,6121452
114027022,Nashville,,1380809179000,36.11,-86.86,Brandi Davis,TN,1490214373000,6121452
192835777,Hermitage,,1442455403000,36.19,-86.6,Brandon Reilly,TN,1442455403000,6121452
20336971,Pleasant View,,1465178280000,36.38,-87.04,brandon spun,TN,1465178280000,6121452
228025718,Nashville,,1495373020000,36.08,-86.72,Brandon Tucker,TN,1495373020000,6121452
119443802,Nashville,,1384223101000,36.09,-86.82,BrandonZ,TN,1394761060000,6121452
233297847,Madison,,1501884304000,36.19,-86.74,Brayden,TN,1508592031000,6121452
182588103,Murfreesboro,,1432091220000,35.78,-86.33,Bree,TN,1439584483000,6121452
197505549,Lebanon,,1451699397000,36.21,-86.31,Brenda,TN,1451838367000,6121452
218367712,Nashville,,1483462320000,36.1,-86.81,Brenda Paider,TN,1487778508000,6121452
186614840,Nashville,"nashville, tn",1430075462000,36.18,-86.74,Brennen Tatum,TN,1435422198000,6121452
187751159,Nashville,,1434171699000,36.17,-86.78,Brent,TN,1459303574000,6121452
171111882,Chattanooga,"Chattanooga, TN",1457792124000,35.04,-85.31,Brent,TN,1457792124000,6121452
203189915,Boston,Boston,1461370924000,42.37,-71.05,Bret McDaniel,MA,1466900373000,6121452
13630572,Kapolei,,1368451882000,21.33,-158.09,brett Huf,HI,1368451882000,6121452
229391570,Nashville,,1497066649000,36.06,-86.96,Brett Sloan,TN,1497066649000,6121452
89052102,Nashville,,1370823007000,36.17,-86.78,Brian Bales,TN,1439644440000,6121452
189980801,Franklin,,1464661383000,35.93,-86.81,Brian Perez,TN,1464661383000,6121452
184630941,Hermitage,,1424546402000,36.19,-86.6,Brian Polk,TN,1430762006000,6121452
188187466,Hermitage,,1434179226000,36.19,-86.6,Brian Smith,TN,1435265839000,6121452
50726122,Nashville,Nashville,1385045109000,36.18,-86.74,Brian Tinger,TN,1401727351000,6121452
203848927,Mount Juliet,,1461377883000,36.22,-86.52,Brian W.,TN,1466469474000,6121452
186095577,Clarksville,,1428848259000,36.46,-87.38,Brianna Joelle Fuller,TN,1429367222000,6121452
12299392,Nashville,,1496092030000,36.13,-86.8,Bridgette Kohnhorst,TN,1499460793000,6121452
119982912,Nashville,Nashville,1466880971000,36.17,-86.78,Briggs Schneider,TN,1484408821000,6121452
93946632,Nashville,,1368855349000,36.17,-86.78,Brigid Hynes Frey,TN,1368855349000,6121452
233991262,Nashville,,1504118866000,36.17,-86.78,Brit Van Laeken,TN,1504118866000,6121452
194820804,Nashville,,1500739515000,36.17,-86.78,Britt Smith,TN,1500739515000,6121452
230220310,Nashville,,1498104037000,36.08,-86.72,Britt Todd,TN,1508392237000,6121452
187950779,Murfreesboro,,1432913041000,35.87,-86.44,Brittany,TN,1436040230000,6121452
190647576,Murfreesboro,,1438271566000,35.78,-86.33,Brittany Cupp,TN,1472755320000,6121452
219721310,Clarksville,,1484141475000,36.56,-87.35,Brittany Degner,TN,1484141475000,6121452
196491302,Gallatin,,1449368928000,36.39,-86.45,Brittany Foutch,TN,1449368928000,6121452
188593810,Murfreesboro,,1434214062000,35.87,-86.34,Brittany Gardner,TN,1434214062000,6121452
86590802,Nashville,Orange Beach,1369318633000,36.21,-86.72,Brittney,TN,1474752122000,6121452
191875295,Old Hickory,,1440646346000,36.25,-86.63,Brittney Alford,TN,1440646346000,6121452
227126789,Nashville,,1494168584000,36.08,-86.72,Brittney Brewington,TN,1494191953000,6121452
142566612,Nashville,,1397836381000,36.17,-86.78,Brittney Mac,TN,1430930733000,6121452
102366722,Nashville,,1374715529000,36.08,-86.72,Brittni,TN,1374715529000,6121452
98173762,Bossier City,,1373493034000,32.55,-93.7,Brock Tubre,LA,1404941848000,6121452
212063216,Franklin,,1472699900000,35.92,-86.89,bryan watson,TN,1473101152000,6121452
149358782,Murfreesboro,,1410728576000,35.87,-86.44,C.c. Coops,TN,1429932368000,6121452
187248512,Nashville,,1431468249000,36.13,-86.8,Caitlin,TN,1431468249000,6121452
219672606,Clarksville,,1484611166000,36.56,-87.35,Caitlyn Viehman,TN,1484611166000,6121452
174245272,Columbia,,1465403742000,35.61,-87.05,Caleb,TN,1465403742000,6121452
186663776,Myakka City,,1452224704000,27.34,-82.2,Cally Matthews,FL,1463909640000,6121452
25682822,Nashville,,1355138860000,36.16,-86.79,Cameron Ahler,TN,1355138860000,6121452
143487932,Antioch,,1407785708000,36.04,-86.64,Cameron Davi,TN,1407785708000,6121452
12766024,Nashville,,1404436351000,36.17,-86.78,Cameron Rochelle,TN,1490664266000,6121452
205401434,Murfreesboro,,1463583969000,35.87,-86.34,Camille Dunn,TN,1463583969000,6121452
233426938,Nashville,,1502071006000,36.15,-86.81,Candice Ardoin,TN,1504972045000,6121452
11481984,Nashville,"Charleston, SC",1496032813000,36.15,-86.86,Cara,TN,1496032813000,6121452
198112181,Nashville,,1478276999000,36.15,-86.86,Carey K,TN,1478276999000,6121452
230220250,Nashville,,1501268946000,36.17,-86.78,Carissa Rundle,TN,1501554133000,6121452
176995112,Hermitage,"Colfax, LA",1412996267000,36.16,-86.62,Carla Lasyone,TN,1466645002000,6121452
202035527,Nashville,,1458745903000,36.16,-86.79,Carlee Fehribach,TN,1458745903000,6121452
202727852,Nashville,,1502877976000,36.17,-86.78,Caroline,TN,1502877976000,6121452
202726828,Nashville,,1459784570000,36.09,-86.82,Caroline Case,TN,1459784570000,6121452
228591909,Nashville,,1496080618000,36.13,-86.8,Caroline Hughes,TN,1496080618000,6121452
238465517,Nashville,,1507614509000,36.22,-86.86,Carolyn H.,TN,1507614509000,6121452
142092412,Nashville,,1464533731000,36.18,-86.74,Carrie Cabell,TN,1465936061000,6121452
46021842,Tampa,,1461950015000,27.98,-82.34,Caryl Albergo,FL,1477325148000,6121452
185665729,Nashville,Nashville,1445220226000,36.18,-86.81,Casey Paton,TN,1445220226000,6121452
185694785,Nashville,Fort Collins,1498090468000,36.16,-86.77,Cat,TN,1499695200000,6121452
57440342,Windermere,,1480820997000,28.5,-81.53,Catalina,FL,1497835165000,6121452
224149121,Nashville,,1490056971000,36.17,-86.78,Catherine,TN,1505333739000,6121452
49094692,Chattanooga,,1469470347000,35.05,-85.31,Cathy Gracey,TN,1503887795000,6121452
191966482,Nashville,Nashville,1461171304000,36.22,-86.77,cayala,TN,1497410863000,6121452
14273127,Fort Campbell,Fort Campbell,1471583493000,36.65,-87.46,Cesar,KY,1498315732000,6121452
74063382,Nashville,,1466716770000,36.17,-86.78,Chad,TN,1466716770000,6121452
197335444,Goodlettsville,,1461355831000,36.33,-86.74,Charles Howard,TN,1461422588000,6121452
198396243,Nashville,,1468180481000,36.08,-86.72,Chelsea Bates,TN,1495471208000,6121452
188448569,Nashville,,1433908654000,36.08,-86.72,Chelsea Fourakre,TN,1439532048000,6121452
31353412,Clarksville,,1494209431000,36.48,-87.27,Chelsea Hexel,TN,1494244064000,6121452
222741145,Antioch,,1488077402000,36.17,-86.88,Chelsey W.,TN,1488077402000,6121452
22137761,Nashville,Donelson,1412739581000,36.17,-86.72,Cherri D.,TN,1495978683000,6121452
86024522,Nashville,,1466016176000,36.08,-86.72,Chip I,TN,1467056235000,6121452
186705743,Nashville,,1430262993000,36.18,-86.74,Chloe,TN,1430262993000,6121452
3753828,Huntsville,Huntsville Alabama,1360345110000,34.62,-86.55,chris,AL,1464986474000,6121452
9593952,Nashville,,1432989926000,36.17,-86.78,Chris,TN,1432989926000,6121452
185697151,Nashville,"Nashville, TN",1473957862000,36.16,-86.79,Chris,TN,1475087638000,6121452
161161152,Brentwood,,1485023949000,36.0,-86.79,Chris C,TN,1500430389000,6121452
96460562,Scottsville,,1439654570000,36.78,-86.19,Chris Coffman,KY,1467775229000,6121452
216943926,Huntsville,Nashville,1479564478000,34.78,-86.61,Chris Watson,AL,1479564478000,6121452
212882101,Clarksville,,1474649974000,36.57,-87.43,Chris Weller,TN,1477016558000,6121452
103495462,Manchester,,1374589626000,35.47,-86.08,Chris Woodward,TN,1489706292000,6121452
197172296,Shelbyville,,1450894877000,35.48,-86.47,chrissy Gagnon ,TN,1451185450000,6121452
9796690,Nashville,Nashville,1388367945000,36.22,-86.77,Christa,TN,1468602308000,6121452
88574032,Nashville,,1436448326000,36.17,-86.78,Christina,TN,1456271771000,6121452
229515491,Tullahoma,,1497230781000,35.37,-86.21,Christina Bartelt,TN,1497230781000,6121452
209847376,Clarksville,,1475291626000,36.53,-87.35,Christina DeLapp,TN,1475291626000,6121452
183355440,Portland,,1420518273000,36.57,-86.49,Christina Salvati,TN,1420518273000,6121452
111311592,Hendersonville,,1379290221000,36.32,-86.61,Christine,TN,1477603541000,6121452
13986774,Nashville,,1408890573000,36.1,-86.66,Christine M Booker,TN,1500395806000,6121452
189892585,Nashville,,1438739875000,36.08,-86.72,Christopher Aker,TN,1438790698000,6121452
193864381,Nashville,,1444402663000,36.19,-86.8,Christopher Hugan,TN,1446755050000,6121452
117038542,Nashville,,1431446239000,36.13,-86.8,ChristopherJ,TN,1456172257000,6121452
188973355,Springfield,,1434990076000,36.52,-86.87,Christy Traughber,TN,1435729048000,6121452
38259452,Brentwood,,1367719384000,36.0,-86.79,christy white,TN,1376707874000,6121452
7213474,Nashville,,1357086131000,36.16,-86.79,Chuck Paetz,TN,1431171585000,6121452
72235972,Nashville,,1355071901000,36.17,-86.78,Cindy Sorci,TN,1504973393000,6121452
232667078,Nashville,,1501096271000,36.08,-86.72,Cindy Trawick Ellis,TN,1502117838000,6121452
105592532,Sarasota,Sarasota,1487964217000,27.25,-82.49,Claudia Lindstrom,FL,1487964217000,6121452
187436283,Brentwood,,1431879240000,36.0,-86.79,Cole Seckman,TN,1431879240000,6121452
224461910,Nashville,,1490493529000,36.18,-86.81,Colleen Daw,TN,1499265003000,6121452
157759502,Columbia,,1440452320000,35.61,-87.05,Connie (kovvie) Bishop,TN,1440612708000,6121452
195328758,Brentwood,,1490669581000,36.0,-86.79,Corrine ,TN,1490719026000,6121452
185461597,Nashville,,1427040456000,36.09,-86.82,Cory Rittenhouse,TN,1434057118000,6121452
5067586,Nashville,Nashville,1432913014000,36.18,-86.74,Courtney,TN,1436985330000,6121452
207921757,Franklin,,1467050319000,35.92,-86.89,Courtney,TN,1467050319000,6121452
216372401,Nashville,,1478648992000,36.17,-86.78,Courtney Albs,TN,1478648992000,6121452
231527720,Nashville,,1499714145000,36.17,-86.72,Courtney Lynn,TN,1499714145000,6121452
199629135,Clarksville,,1455365116000,36.53,-87.35,Courtney Sheets,TN,1455365116000,6121452
232877964,Antioch,,1501365151000,36.04,-86.64,creshia Hunt,TN,1501365151000,6121452
80775242,Nashville,,1463054036000,36.15,-86.85,Crista Haynes,TN,1463054036000,6121452
188343842,Gallatin,,1433709826000,36.39,-86.45,Crystal Robynn Moore,TN,1433709826000,6121452
217994976,Nashville,,1489626253000,36.17,-86.78,CT Davidson,TN,1489626253000,6121452
6403693,Nashville,Nashville,1430067778000,36.21,-86.72,cyberyoung1,TN,1466217927000,6121452
13982308,Franklin,Franklin,1368421490000,35.93,-86.81,Cyndi Johnson,TN,1398813470000,6121452
184801751,Gallatin,,1425059176000,36.39,-86.45,D'Anna C,TN,1425266732000,6121452
11305936,Nashville,"Washington, DC",1443476384000,36.11,-86.78,Daina ,TN,1443476384000,6121452
118495742,Nashville,"Portland, OR",1499701316000,36.16,-86.79,Dallas Jessup,TN,1499701316000,6121452
95361442,Nolensville,,1478035607000,35.94,-86.67,Dan,TN,1478035607000,6121452
210151998,Antioch,,1470009930000,36.04,-86.64,Dan Smith,TN,1470747454000,6121452
189746097,Brentwood,"Franklin, TN",1436581292000,36.0,-86.79,Dana I,TN,1473390417000,6121452
183731367,Antioch,,1428164919000,36.04,-86.64,Dana Scott,TN,1504706753000,6121452
122189782,Hermitage,Ballina,1399379131000,36.19,-86.6,Danae,TN,1408081029000,6121452
209939108,Franklin,,1490057945000,35.99,-86.9,Dani Marie,TN,1490061895000,6121452
216624364,Blackwell,,1479068839000,36.82,-97.3,Daniel Amos,OK,1479068839000,6121452
186127212,Franklin,,1469248698000,35.92,-86.89,Danielle,TN,1474853515000,6121452
211554438,Lebanon,,1471998302000,36.21,-86.31,Danielle Blackwell,TN,1471998302000,6121452
226755102,Hermitage,,1493658522000,36.19,-86.6,Danielle Castiglione,TN,1493658522000,6121452
105325042,Nashville,,1443297891000,36.13,-86.8,Danielle D,TN,1443297891000,6121452
185133394,Nashville,,1426071201000,36.16,-86.87,Danielle Daniel,TN,1433607151000,6121452
210280391,Nashville,,1470180512000,36.17,-86.78,Danielle Fernandez,TN,1470180512000,6121452
139124672,Brentwood,,1452088569000,36.0,-86.79,Danielle Gillian,TN,1452088569000,6121452
192492027,Franklin,,1441821420000,35.99,-86.9,Darin ,TN,1479819700000,6121452
106436672,Nashville,Nashville,1396888139000,36.15,-86.86,David Bixby,TN,1423751842000,6121452
185559410,Nashville,Nashville,1427323957000,36.14,-86.74,David Carney,TN,1472067755000,6121452
13805030,Greenville,Atlanta,1499368207000,34.9,-82.4,David Clay,SC,1499599792000,6121452
203961095,Woodbury,,1463613976000,35.81,-86.07,David Piper,TN,1463669170000,6121452
225289681,Brentwood,,1496011126000,36.0,-86.79,Davide Sitti,TN,1500258316000,6121452
186078985,Hendersonville,,1440731046000,36.32,-86.61,Dawn Dittmer,TN,1441349912000,6121452
216189683,Nashville,,1478371154000,36.08,-86.72,Daymon Peterson,TN,1478371154000,6121452
99068392,Nashville,,1431434314000,36.15,-86.86,Deb Jones,TN,1439227553000,6121452
17415211,Franklin,franklin,1368283968000,35.92,-86.89,Debbie Frey James,TN,1502313098000,6121452
188276653,Nashville,,1434336060000,36.08,-86.72,Deepak,TN,1434765440000,6121452
162485602,Nashville,,1435849048000,36.06,-86.96,Denis Sverdlov,TN,1467217665000,6121452
208282034,Smyrna,Smyrna,1467550263000,35.97,-86.51,Denise C,TN,1469127150000,6121452
11089883,Franklin,"Franklin, TN",1412109682000,35.92,-86.89,"Denise Forgette  ""Dory""",TN,1440782995000,6121452
143589072,Nashville,,1398375082000,36.09,-86.82,Denise Mitchell,TN,1408707363000,6121452
224314748,Nashville,,1490288903000,36.16,-86.79,Denise Pullella,TN,1490288903000,6121452
17636241,Nashville,,1399428448000,36.17,-86.78,Desha,TN,1399428448000,6121452
191497423,Lebanon,,1439926689000,36.21,-86.31,Dexter Cross,TN,1439926689000,6121452
83503202,Nashville,Nashville,1489031421000,36.15,-86.86,Dezzzinut,TN,1501464256000,6121452
143133582,Nashville,"Nashville, Tn",1457287135000,36.17,-86.78,Di Hall,TN,1470062963000,6121452
185970221,Nashville,,1428516810000,36.17,-86.78,Diana Wanner,TN,1432997395000,6121452
198038191,Old Hickory,,1452673759000,36.25,-86.63,Diane Rankin,TN,1464508865000,6121452
221961488,Nashville,,1487001629000,36.16,-86.66,Dilnoza Nasritdinova,TN,1488205430000,6121452
189166874,Spring Hill,,1435539415000,35.76,-86.88,DJ Martin,TN,1436132122000,6121452
227488510,Nashville,,1494655208000,36.16,-86.79,donita oliver,TN,1494655208000,6121452
183148510,Hendersonville,"San Diego, CA",1421386844000,36.32,-86.61,Donna,TN,1421386844000,6121452
4271317,Fort Campbell,,1378561045000,36.65,-87.46,Donna,KY,1401762060000,6121452
12486399,Nashville,,1403559822000,36.17,-86.78,Donna,TN,1471564388000,6121452
189228261,Nashville,,1435513742000,36.14,-86.81,Donna Cole Albright,TN,1489720909000,6121452
188397019,Nashville,,1433809960000,36.18,-86.74,Doretha Smith,TN,1433977524000,6121452
104969492,Nashville,,1375445894000,36.09,-86.82,Dori Wilbert,TN,1378248799000,6121452
187224744,Franklin,,1431424506000,35.93,-86.81,Dr. Mark Crowell,TN,1431424506000,6121452
12806113,Tucson,,1434306378000,32.22,-110.97,Drew Maynard,AZ,1434306378000,6121452
189158014,Clarksville,,1464150072000,36.53,-87.35,Dry Surfer,TN,1473819031000,6121452
187770873,Mount Juliet,,1434397411000,36.21,-86.52,Dustin Bain,TN,1435849007000,6121452
21287551,Brentwood,BRENTWOOD,1441717512000,36.0,-86.79,Edgard Arenas,TN,1487079114000,6121452
216371062,Nashville,,1478645966000,36.17,-86.78,Eleanor Seagle,TN,1478645966000,6121452
85547942,Nashville,,1496102074000,36.17,-86.78,Elise,TN,1500379246000,6121452
185100889,Smyrna,,1425926674000,35.97,-86.51,Elissa,TN,1470795768000,6121452
205642514,Nashville,,1463922129000,36.18,-86.74,Elizabeth Lauren Tomlinson-Stark,TN,1463922129000,6121452
192867505,Clarksville,"Thief River Falls, MN",1443910931000,36.53,-87.35,Elle Gillespie,TN,1443910931000,6121452
208109903,Clarksville,,1467302657000,36.56,-87.41,Elyce Gasior,TN,1491408422000,6121452
195856735,Nashville,Annapolis,1465399068000,36.08,-86.72,Emily,TN,1475880053000,6121452
15544741,Atlanta,,1459362211000,33.86,-84.4,Emily Bean,GA,1459362211000,6121452
194919210,Eagleville,,1446332180000,35.75,-86.64,Emily Muller,TN,1446332180000,6121452
186239954,Nashville,,1437154188000,36.08,-86.72,Emily Raudabaugh,TN,1438005376000,6121452
220694083,Nashville,,1485365036000,36.17,-86.78,Emma Gleeman,TN,1485365036000,6121452
15581321,Nashville,,1371080922000,36.16,-86.79,Enna,TN,1503099129000,6121452
8615156,Nashville,Mt. Juliet,1355075849000,36.17,-86.78,Eric,TN,1462111348000,6121452
70147252,Hermitage,,1424130777000,36.19,-86.6,Eric,TN,1424130777000,6121452
182729497,Nashville,Newport Beach,1419553538000,36.13,-86.8,Eric Nicholas Schainuck,TN,1478367135000,6121452
193262978,Hermitage,,1443270167000,36.19,-86.6,Erica C,TN,1468872720000,6121452
220476680,Nashville,,1485103810000,36.17,-86.78,Erika Erkel,TN,1504971208000,6121452
15318141,Ann Arbor,,1448318748000,42.26,-83.72,Erin ,MI,1477350175000,6121452
37663062,Goodlettsville,"Nashville, TN",1463244340000,36.33,-86.74,Erin Amanda,TN,1474598623000,6121452
132857042,Nashville,,1399497586000,36.17,-86.78,Erin Elizabeth Ulvund,TN,1401647669000,6121452
110729692,Nashville,,1443265727000,36.17,-86.78,Erin H.,TN,1443265727000,6121452
234876674,Nashville,,1503683403000,36.17,-86.78,Erin Lewis,TN,1503683403000,6121452
214138937,Antioch,,1475428654000,36.04,-86.64,Erin Twohey,TN,1475428654000,6121452
147809652,Oldfort,,1468197263000,35.04,-84.64,erinlynn0804,TN,1468197263000,6121452
188173176,Nashville,,1433352067000,36.08,-86.72,Essence Beauty,TN,1433352067000,6121452
173696682,Nashville,,1411660701000,36.08,-86.72,Ethan T,TN,1411660701000,6121452
108666412,Nashville,"Santa Barbara, CA",1377709159000,36.1,-86.66,Ethan Weiss,TN,1378561952000,6121452
189685577,Nashville,,1456066013000,36.17,-86.78,Fabineen Saayman,TN,1481894616000,6121452
58087752,Nashville,,1405541384000,36.17,-86.78,Faye Stewart,TN,1410715864000,6121452
191393667,Nashville,,1439734612000,36.07,-86.78,Fernanda Maruri,TN,1442068729000,6121452
190974344,Nashville,,1438897011000,36.08,-86.72,Fernando Avalos,TN,1442773320000,6121452
7595797,Nashville,Nashville,1469159467000,36.1,-86.66,Flozelle,TN,1469159467000,6121452
28608902,Nashville,"Nashville, tn",1402755046000,36.11,-86.78,Francesca,TN,1465167076000,6121452
213986114,Nashville,,1475190150000,36.17,-86.78,Francesca Carter,TN,1475190150000,6121452
193501429,Thompsons Station,,1443714211000,35.8,-86.9,Funda Polat,TN,1443714211000,6121452
213267773,Franklin,,1474298286000,35.92,-86.89,Gabrielle Williams,TN,1474298286000,6121452
13275385,Nashville,Brentwood,1412518149000,36.14,-86.74,Gail,TN,1465244753000,6121452
231715038,Nashville,,1499921083000,36.17,-86.72,Gail Riley Phelps,TN,1499921083000,6121452
40233452,Nashville,,1359159629000,36.11,-86.86,Galina,TN,1435011883000,6121452
137373622,Nashville,,1394893530000,36.13,-86.84,Galina,TN,1397173068000,6121452
187131443,Mount Juliet,,1431217053000,36.22,-86.52,Gardo Fuentes,TN,1431217053000,6121452
186457731,Nashville,,1429724782000,36.17,-86.78,Geoffrey,TN,1429724782000,6121452
138690252,Franklin,Franklin,1397002758000,35.92,-86.89,Georgia Mascali,TN,1462056328000,6121452
13241860,Gallatin,,1390837346000,36.39,-86.45,Glenn Affonso,TN,1423694612000,6121452
190883235,Nashville,,1438719364000,36.18,-86.81,Grace Stern,TN,1438868379000,6121452
186828890,Murfreesboro,,1430549240000,35.78,-86.33,Grace Vance,TN,1430549240000,6121452
185872972,Murfreesboro,,1454823039000,35.82,-86.45,Graham ,TN,1455679354000,6121452
8643086,Washington,,1372972076000,38.91,-77.02,Graham Houston,DC,1373649676000,6121452
198051748,Nashville,,1453874827000,36.13,-86.8,Haley Bussell,TN,1473141959000,6121452
169794282,Hendersonville,,1498598251000,36.32,-86.61,HaleyJ,TN,1498598251000,6121452
102576192,Asheville,,1500586576000,35.59,-82.56,Hallie Kennedy,NC,1500586576000,6121452
224779738,Nashville,,1490928539000,36.09,-86.82,Hanah Papp,TN,1490928539000,6121452
107493232,Nashville,,1437834226000,36.17,-86.78,hanako kobayashi,TN,1503430886000,6121452
199290936,Franklin,,1499208750000,35.92,-86.89,Hank Parrott,TN,1499208750000,6121452
223397810,Spring Hill,,1489007001000,35.76,-86.88,Hannah Nett Ankele,TN,1489007001000,6121452
139661292,Franklin,,1396138784000,35.92,-86.89,Hannah Pike,TN,1468318880000,6121452
193507371,Nashville,,1443722855000,36.09,-86.82,Hayden Lash Wyatt,TN,1471699487000,6121452
197030866,Antioch,,1450541004000,36.04,-86.64,Heather,TN,1450541004000,6121452
52484102,Spring Hill,,1355198957000,35.76,-86.88,Heather,TN,1399845265000,6121452
184788538,Hendersonville,,1425010475000,36.32,-86.61,Heather Knott,TN,1425010475000,6121452
73846022,Nashville,,1449048828000,36.17,-86.78,Heather Overholt,TN,1495408063000,6121452
40000782,Murfreesboro,,1357866906000,35.78,-86.33,Heather Waldrup,TN,1358292727000,6121452
185160596,Nashville,,1426171009000,36.17,-86.78,Heather Webb,TN,1426171009000,6121452
55696782,Goodlettsville,,1423644762000,36.33,-86.74,Heather Weber,TN,1457320429000,6121452
188297554,Hermitage,,1433614302000,36.19,-86.6,Heidi Goforth,TN,1434671250000,6121452
183068807,White Bluff,,1419165740000,36.12,-87.23,Helena,TN,1489713124000,6121452
186211656,Birmingham,Nashville,1429130789000,33.53,-86.77,Hexen Handwerk,AL,1430376509000,6121452
231761944,Brentwood,,1499977351000,36.0,-86.79,Hima Awad,TN,1499977351000,6121452
211467941,Nashville,,1471952130000,36.17,-86.78,Holly,TN,1472053931000,6121452
194958550,Nashville,,1458756695000,36.08,-86.72,Hunter H. Williams,TN,1458756695000,6121452
215710428,Smyrna,SMYRNA,1477613607000,35.97,-86.51,Hurston Tillett,TN,1499888062000,6121452
27838372,Nashville,Perth,1484605691000,36.17,-86.72,Ian Briggs,TN,1493732578000,6121452
187621006,Alexandria,,1432236956000,38.82,-77.06,Ingrid Pienk,VA,1471095109000,6121452
204825705,Clarksville,Clarksville,1462811951000,36.56,-87.41,Isaiah Beatty,TN,1481041505000,6121452
205208980,Allensville,,1463335953000,36.7,-87.05,Isaiah Morgan ,KY,1463335953000,6121452
134528192,Nashville,,1398040913000,36.17,-86.78,Jackie Henning,TN,1459830542000,6121452
125424842,Nashville,,1406866022000,36.07,-86.78,Jackson Holder,TN,1442790832000,6121452
183603974,Nashville,,1422301865000,36.15,-86.86,Jacob,TN,1422301865000,6121452
195842468,Nashville,,1448052900000,36.22,-86.77,jacob hurt,TN,1448052900000,6121452
221747475,Brentwood,,1486692934000,36.0,-86.79,Jacque,TN,1486692934000,6121452
231381894,Nashville,,1499542702000,36.09,-86.82,Jacquelyn Claire,TN,1499542702000,6121452
120389872,Nashville,,1435611114000,36.16,-86.79,James,TN,1465480527000,6121452
208081360,Mount Juliet,,1467265824000,36.22,-86.52,James Moore,TN,1467265824000,6121452
208736126,Nashville,,1471215417000,36.17,-86.78,Jami Hargrove,TN,1471616000000,6121452
194695751,Franklin,,1445913143000,35.93,-86.81,Jamie Stahly,TN,1445913143000,6121452
123736892,Nashville,,1494688626000,36.16,-86.77,Jan,TN,1500860957000,6121452
60771862,Nashville,,1435710622000,36.16,-86.79,Jana Foster,TN,1493753714000,6121452
173058912,Franklin,,1441073346000,35.93,-86.81,Jane Cooney ,TN,1487212525000,6121452
29994502,Nashville,,1396480955000,36.08,-86.72,Jane Miller,TN,1396492216000,6121452
72898952,Nashville,Nashville,1358472571000,36.06,-86.96,Jane Werner Herring,TN,1430599056000,6121452
191919202,Mount Juliet,,1476317016000,36.22,-86.52,Janelle Amos Heathman,TN,1480282852000,6121452
204554449,Antioch,,1463148520000,36.04,-86.64,Janelle Roberts,TN,1464465913000,6121452
42742132,Nashville,,1357192008000,36.15,-86.86,Janet,TN,1359301922000,6121452
229450437,Murfreesboro,,1497145609000,35.78,-86.33,Janet Prentice,TN,1497145609000,6121452
232190722,Nashville,,1500504341000,36.09,-86.82,Janie Bell,TN,1500504341000,6121452
222899804,Nashville,,1488303316000,36.17,-86.78,Jaquelin,TN,1488303316000,6121452
144186562,Mount Juliet,,1468637850000,36.21,-86.52,Jason Minton,TN,1471628934000,6121452
49421392,Nashville,,1461503938000,36.17,-86.78,Jay Kahlon,TN,1472396814000,6121452
8655376,Nashville,,1358685069000,36.17,-86.78,Jeff,TN,1482809763000,6121452
160230892,Nashville,"Jupiter, FL",1469205230000,36.06,-86.96,Jeff Hill,TN,1487987379000,6121452
178639242,Hermitage,"Salt Lake City, Utah",1413766285000,36.19,-86.6,Jen J,TN,1414025282000,6121452
183318848,Mount Juliet,,1438887418000,36.22,-86.52,Jenn Malone,TN,1442183109000,6121452
198029747,Nashville,,1452655840000,36.14,-86.74,Jenna Gable,TN,1452655840000,6121452
206667232,Houston,,1465332314000,29.72,-95.22,Jennell,TX,1467329100000,6121452
210132498,Nashville,,1469988133000,36.16,-86.79,Jenney Petrikin,TN,1469988133000,6121452
184179947,Franklin,,1483463196000,35.92,-86.89,Jennifer,TN,1503492365000,6121452
2011149,Atlanta,,1437706504000,33.83,-84.39,jennifer,GA,1437706504000,6121452
197441722,Nashville,,1451539264000,36.17,-86.78,Jennifer Fargis,TN,1451539264000,6121452
197767535,Lebanon,,1452186403000,36.15,-86.32,Jennifer Haines,TN,1452186403000,6121452
200369160,Nashville,,1456348340000,36.11,-86.86,Jennifer Price,TN,1456523403000,6121452
94919592,Franklin,,1372187918000,35.92,-86.89,Jenny,TN,1372187918000,6121452
10098017,Nashville,Nashville,1501606048000,36.15,-86.81,Jenny,TN,1501606048000,6121452
47635242,Murfreesboro,,1367241427000,35.82,-86.45,Jeremy,TN,1376677717000,6121452
189427209,Winchester,,1439641082000,35.19,-86.11,Jeremy P,TN,1477174578000,6121452
129885262,Bowling Green,,1401767733000,37.02,-86.46,Jeremy Tucker,KY,1401767733000,6121452
205726141,White Bluff,,1464327762000,36.12,-87.23,Jess Berthume,TN,1464327762000,6121452
49294972,Nashville,,1451799275000,36.17,-86.78,Jessica,TN,1490113484000,6121452
231180727,Smyrna,,1499298030000,35.97,-86.51,Jessica Christine Gedeon,TN,1499298030000,6121452
187537916,Nashville,,1432076252000,36.06,-86.96,Jessica D.,TN,1432259214000,6121452
227447318,Nashville,,1494599896000,36.09,-86.82,Jessica Hamilton,TN,1500325707000,6121452
226317733,Nashville,,1493064447000,36.16,-86.79,Jessica Mayer,TN,1499435523000,6121452
205098495,Nashville,,1468080316000,36.07,-86.73,Jessica Renee Larrazabal,TN,1489282313000,6121452
13715764,Nashville,,1410354607000,36.17,-86.78,Jessica Richards,TN,1469631654000,6121452
203123171,Lewisburg,,1460340235000,35.45,-86.8,Jessica Royster,TN,1460340235000,6121452
13573261,Clarksville,,1489112357000,36.53,-87.35,Jessica Saunders,TN,1489112357000,6121452
49099642,Nashville,Florida,1377963525000,36.14,-86.74,Jessie,TN,1501520254000,6121452
11015110,Nashville,,1472071104000,36.11,-86.78,Jill,TN,1473857561000,6121452
220710425,Nashville,,1485383145000,36.11,-86.86,Jillian Bancroft,TN,1485383145000,6121452
69806062,Nashville,,1354978390000,36.13,-86.8,Jillian Rothe,TN,1377991572000,6121452
133339062,Nashville,Nashville ,1392487870000,36.11,-86.86,Jim O'Rourke,TN,1471053372000,6121452
156047282,Nashville,,1405191066000,36.09,-86.82,Jim Raley,TN,1407081232000,6121452
231661235,Mount Juliet,,1499869377000,36.22,-86.52,Jimi Sanders,TN,1499869377000,6121452
111445612,Nashville,,1427776319000,36.06,-86.96,Jin,TN,1458395673000,6121452
71233882,Nashville,,1435714382000,36.14,-86.81,Jo Ann McIntire,TN,1471925197000,6121452
76863502,Nashville,,1358559305000,36.14,-86.74,JO THOROGOOD,TN,1467369288000,6121452
218054797,Nashville,,1481485293000,36.16,-86.79,Joann Young,TN,1481586984000,6121452
213683165,Murfreesboro,,1474832512000,35.78,-86.33,JoAnne,TN,1474832512000,6121452
187781527,Franklin,,1432582920000,35.99,-86.9,Jodie Spelman,TN,1432582920000,6121452
225078210,Nashville,,1491355478000,36.08,-86.72,Jody Maples Moser,TN,1491355478000,6121452
6770985,Nashville,Nashville,1494773017000,36.16,-86.79,Joe,TN,1508025484000,6121452
8864409,Bowling Green,Bowling Green,1374283873000,37.02,-86.46,Joe Micheletti,KY,1422667670000,6121452
11099576,Nashville,,1378710782000,36.07,-86.78,Joe Reilly,TN,1378710782000,6121452
193939438,Lebanon,,1444539742000,36.21,-86.31,John,TN,1470533735000,6121452
155258662,Lafayette,,1404781463000,36.52,-86.02,John Mark Hix,TN,1405470764000,6121452
201939734,Nashville,,1459212026000,36.18,-86.74,John Meyer,TN,1475108781000,6121452
122993922,Huntsville,,1483486106000,34.73,-86.57,john price,AL,1502304254000,6121452
193236652,Hermitage,,1443215122000,36.19,-86.6,Johnna Denny,TN,1474065706000,6121452
216898044,Nashville,,1479488197000,36.09,-86.82,Jon,TN,1501851857000,6121452
84809902,Nashville,,1432055869000,36.21,-86.72,Jonathan Berry,TN,1432055869000,6121452
10557816,Delray Beach,,1475688061000,26.46,-80.08,Jonathan Jonas,FL,1475701679000,6121452
223826348,Nashville,,1489609253000,36.17,-86.78,Jonathan LoPatin,TN,1493738650000,6121452
209298807,Nashville,,1468876857000,36.17,-86.72,Jordan Gilliland,TN,1470014772000,6121452
227662334,Spring Hill,,1494897423000,35.76,-86.88,Joseph Van Deusen,TN,1495624116000,6121452
197288642,Nashville,,1451225807000,36.15,-86.86,Josh,TN,1465214722000,6121452
190304810,Nashville,"Liberty, SC",1437664421000,36.17,-86.78,Josh Gillespie,TN,1437841240000,6121452
187666172,Goodlettsville,,1432331737000,36.32,-86.72,Joshua Cigainero,TN,1432331737000,6121452
200256647,Nashville,,1456196252000,36.06,-86.96,Joshua Klith,TN,1456316089000,6121452
187850556,Columbia,,1432700788000,34.0,-81.03,Josie Gauthier,SC,1432700788000,6121452
7670958,Nashville,,1474719699000,36.17,-86.78,Joy,TN,1474820805000,6121452
13668814,Lebanon,,1371005829000,36.21,-86.31,Joyce Lawrence,TN,1371648382000,6121452
79865432,Nashville,,1387653825000,36.17,-86.78,JP,TN,1388854486000,6121452
183772703,Nashville,Brentwood,1462242666000,36.22,-86.77,JT,TN,1496342049000,6121452
173993242,San Mateo,Foster City,1411840914000,37.55,-122.27,Judi,CA,1421604712000,6121452
221350850,Franklin,,1486593449000,35.92,-86.89,Judy,TN,1486593449000,6121452
187580268,Hermitage,Hermitage,1432159905000,36.19,-86.6,Judy Brandon ,TN,1432159905000,6121452
227186615,Nashville,,1500430420000,36.17,-86.78,Judy Cooper,TN,1500430420000,6121452
194717391,Nashville,,1464743176000,36.13,-86.8,Julia Claudy,TN,1466297218000,6121452
14172097,Nashville,,1406823959000,36.17,-86.72,Julie Crowe,TN,1462117371000,6121452
185135177,Nashville,,1427773277000,36.17,-86.72,Julie Nichols,TN,1432562027000,6121452
212495047,Hollywood,,1473287045000,26.02,-80.2,Julie Rose,FL,1473287045000,6121452
215408590,Smyrna,,1489203633000,35.97,-86.51,Just Me,TN,1489203633000,6121452
28803812,Nashville,,1374460183000,36.17,-86.78,Justin Tarr,TN,1437779279000,6121452
207802827,Brentwood,,1466888976000,36.0,-86.79,Justin W ,TN,1466888976000,6121452
8132108,Smyrna,"Washington, DC",1405475007000,35.97,-86.51,K. Brandon Parsons,TN,1435357153000,6121452
7979037,Nashville,,1354976693000,36.16,-86.79,Kacee,TN,1480417040000,6121452
195289979,Nashville,,1447016682000,36.17,-86.78,Kadie Woltemath,TN,1447016682000,6121452
190556655,Nashville,Nashville,1495569914000,36.13,-86.8,Kaila W,TN,1496332856000,6121452
233466396,Nashville,,1502073801000,36.09,-86.82,Kaitlin Stice,TN,1502159222000,6121452
68796422,Nashville,,1409608945000,36.17,-86.79,Kaitlyn Moore,TN,1459975014000,6121452
227744019,Shelbyville,,1494992403000,35.48,-86.47,Kaitlyn Williford,TN,1494992403000,6121452
10332353,Nashville,DC,1376019538000,36.11,-86.86,Kamilah,TN,1466459434000,6121452
76691132,Nashville,"Cumming, GA",1451013527000,36.17,-86.78,Kara,TN,1474839266000,6121452
220971826,Nashville,,1486859695000,36.17,-86.78,Kara Sanders,TN,1487035945000,6121452
61807952,Franklin,Franklin,1365797822000,35.99,-86.9,Karen,TN,1499193531000,6121452
220883245,Nolensville,Nolensville,1494730310000,35.94,-86.67,Karen Harder,TN,1503771021000,6121452
112495282,Nashville,,1461026593000,36.09,-86.82,Karen Meredith,TN,1489706386000,6121452
93302822,Nashville,,1368811762000,36.09,-86.82,Karen Moss,TN,1401145655000,6121452
200030755,Nashville,,1455890955000,36.09,-86.82,Kari barker,TN,1455890955000,6121452
214769824,Nashville,,1476224395000,36.13,-86.8,Kari Morse,TN,1476587858000,6121452
60737962,Houston,,1370120473000,29.72,-95.22,karthik,TX,1471794459000,6121452
227006595,Nashville,,1493997796000,36.17,-86.78,Kassidy McElheney,TN,1493997796000,6121452
209077307,Atlanta,,1468595697000,33.74,-84.38,KAT-I,GA,1468595697000,6121452
144814632,Nashville,"North Bloomfield, OH",1471179152000,36.08,-86.72,Kate,TN,1494085740000,6121452
200965059,Nashville,,1457211055000,36.09,-86.82,Kate,TN,1465578625000,6121452
147090892,Nashville,,1492393224000,36.17,-86.78,Kate Hightower Kendall,TN,1504578193000,6121452
66944752,Columbia,"Morgan Hill, CA",1443328646000,35.61,-87.05,Katerra Martin,TN,1456725797000,6121452
185874155,Bristol,,1451516699000,36.57,-82.18,Kath WILLIAMS,TN,1463834291000,6121452
14238733,Franklin,nashville,1370807550000,35.99,-86.9,Katherine white,TN,1370807550000,6121452
19974851,Hendersonville,Nashville,1369417308000,36.32,-86.61,Kathleen,TN,1502072871000,6121452
195158087,Nashville,,1461116584000,36.07,-86.78,Kathryn,TN,1500509335000,6121452
15362501,Franklin,,1455418713000,35.92,-86.89,Kathryn M,TN,1481496151000,6121452
10600933,Nashville,,1354995242000,36.17,-86.72,kathy,TN,1407805710000,6121452
10758813,Thompsons Station,Thompson's Station TN,1474088162000,35.83,-86.89,Kathy,TN,1497064619000,6121452
238177306,Nashville,,1507226977000,36.17,-86.72,Kathy Burton Rogers,TN,1507226977000,6121452
108142532,Franklin,,1465568612000,35.92,-86.89,Kathy Rambo,TN,1465568612000,6121452
182098802,Nashville,Nashville,1456114485000,36.09,-86.82,Katie,TN,1502968716000,6121452
3677533,Huntsville,"Skaneateles, NY",1447549796000,34.73,-86.57,Katie,AL,1447549796000,6121452
231251889,Nashville,,1499384250000,36.17,-86.78,Katie Britt,TN,1499384250000,6121452
184905213,Thompsons Station,,1425688786000,35.8,-86.9,Katie King,TN,1427420823000,6121452
10590788,Franklin,,1430046276000,35.92,-86.89,katie kowalski,TN,1430918472000,6121452
113462062,Madison,,1437889873000,36.26,-86.71,Katie Lyons,TN,1475495471000,6121452
58905862,Seattle,"Hancock, MI",1463807751000,47.61,-122.33,Katrina,WA,1491676155000,6121452
13399299,Nashville,,1403232661000,36.17,-86.72,Katy Clarke,TN,1465521610000,6121452
204876193,Albany,,1467861432000,42.65,-73.75,Kay Lee,NY,1498763883000,6121452
175938872,Nashville,,1496512056000,36.11,-86.78,Kayce,TN,1496512056000,6121452
227031121,Nashville,,1494025629000,36.17,-86.78,Kayla Weber,TN,1494025629000,6121452
209865405,Nashville,,1493825640000,36.17,-86.78,Kealy Moriarty,TN,1494457435000,6121452
189166596,Nashville,,1435377356000,36.08,-86.72,Kela Curtin,TN,1435506882000,6121452
122936222,Smyrna,,1386478163000,35.91,-86.5,Kelley,TN,1479348661000,6121452
183523574,Nashville,,1460807872000,36.17,-86.78,Kelley,TN,1460815838000,6121452
63128862,Gallatin,,1494396280000,36.39,-86.45,Kelley,TN,1499725099000,6121452
186490283,Nashville,,1429797832000,36.22,-86.77,Kellsee Robinson ,TN,1429982675000,6121452
10329251,Columbia,Nashville ,1481003996000,35.61,-87.05,Kelly,TN,1499483377000,6121452
12301761,Mount Juliet,Gladeville (Mt Juliet),1453671682000,36.22,-86.52,Kelly Bauman,TN,1453671682000,6121452
93917022,Nashville,"Cincinnati, OH",1499136960000,36.13,-86.8,Kelsey,TN,1499703574000,6121452
238821239,Brentwood,,1507927588000,36.0,-86.79,Kelsey,TN,1507927588000,6121452
59345672,Nashville,,1430925379000,36.16,-86.79,Kelsey,TN,1432062376000,6121452
164080742,Nashville,,1409218998000,36.11,-86.78,Kelsey ,TN,1409252670000,6121452
7516082,Nashville,Atlanta,1357768312000,36.16,-86.79,Kendra,TN,1380575626000,6121452
74358492,Franklin,,1365424393000,35.92,-86.89,Kendra Nelson Cox,TN,1398305924000,6121452
150370402,Nashville,,1461779935000,36.22,-86.77,kennedy,TN,1461779935000,6121452
204157085,Nashville,,1461816778000,36.17,-86.72,Kerra Bennett,TN,1464525810000,6121452
131136082,Hermitage,hermitage tn,1499179928000,36.19,-86.6,Kerry Whalen,TN,1499179928000,6121452
126656572,Nashville,,1447370749000,36.09,-86.82,Kevin,TN,1500582503000,6121452
197335395,Nashville,,1482784672000,36.09,-86.82,Kevin Pointer,TN,1499892179000,6121452
188671296,Nashville,"Nashville, TN",1455986721000,36.17,-86.78,Kim,TN,1493732074000,6121452
205220586,Lebanon,,1463348377000,36.21,-86.29,Kim Rodgers-Manos,TN,1463348377000,6121452
155631232,Nashville,,1404962054000,36.17,-86.78,Kim Trinkler,TN,1465145480000,6121452
222028223,Murfreesboro,,1487269476000,35.78,-86.33,Kim Truong,TN,1487269476000,6121452
221101808,Nashville,,1486253774000,36.19,-86.8,Kimberly,TN,1487642235000,6121452
185458640,Nashville,,1455744081000,36.08,-86.72,Kimberly Hammond,TN,1467070798000,6121452
142050562,Hendersonville,,1404076638000,36.32,-86.61,KimM,TN,1404076638000,6121452
122938732,Nashville,Nashville,1433029810000,36.18,-86.81,Kindra Schaefer,TN,1499643686000,6121452
189398052,Eagleville,,1435872817000,35.75,-86.64,Kirstin,TN,1436993705000,6121452
186770261,Nashville,Nashville,1477445656000,36.09,-86.82,Kirstin Heather,TN,1485874492000,6121452
119027742,Nashville,Issaquah,1500918064000,36.17,-86.78,Kortni,TN,1500918064000,6121452
193181095,Murfreesboro,,1443109105000,35.82,-86.45,Kris Feber Miller,TN,1443109105000,6121452
206735625,Nashville,,1465423636000,36.08,-86.71,Krish,TN,1474181780000,6121452
187758618,Nashville,,1436046764000,36.09,-86.82,Kristen,TN,1455986664000,6121452
210867469,Franklin,Franklin,1471028769000,35.92,-86.89,Kristin,TN,1471133267000,6121452
20280251,Nashville,Nashville,1431516474000,36.09,-86.82,Kristin Wilkinson,TN,1443813036000,6121452
205027215,Hendersonville,,1463090083000,36.32,-86.61,Kristina Pappas,TN,1463090083000,6121452
214274115,Nashville,,1475537032000,36.17,-86.72,Kristina Whitlow,TN,1475537032000,6121452
210588722,Madison,,1470626008000,36.26,-86.71,Kristine Keith,TN,1470664027000,6121452
11601672,Spring Hill,"Spring Hill, TN",1434230226000,35.76,-86.88,Kristy,TN,1466304781000,6121452
187357652,Nashville,,1470495675000,36.17,-86.78,Kristy B and Rachel S,TN,1470495675000,6121452
183458661,Franklin,,1420922166000,35.92,-86.89,Kristy Mondelli,TN,1420922166000,6121452
220914934,Atlanta,Atlanta,1504921977000,33.93,-84.39,Kseniia Ok,GA,1504921977000,6121452
231671781,Smyrna,,1499878581000,35.97,-86.51,Kyle Klingaman,TN,1500346452000,6121452
100392872,Nashville,,1372877253000,36.08,-86.72,Kyle Laney,TN,1376119111000,6121452
234068508,Nashville,,1504372405000,36.15,-86.81,Kyle Murray Girardi,TN,1505250823000,6121452
221371296,Murfreesboro,,1486215695000,35.82,-86.45,Kyle Varzino,TN,1487181956000,6121452
204369511,Nashville,,1462143134000,36.18,-86.74,L Skylar Pochatko,TN,1462143134000,6121452
218258437,Nashville,,1481854559000,36.14,-86.74,LAC,TN,1485293680000,6121452
186209527,Hendersonville,,1466138629000,36.35,-86.6,Lace Nicolette,TN,1480135280000,6121452
88488182,Nashville,"Keene Valley, NY",1472401186000,36.17,-86.78,Lacey,TN,1473858275000,6121452
206050308,Nashville,,1464492416000,36.08,-86.72,LaCher T,TN,1467731354000,6121452
206682579,Nashville,Nashville,1478800320000,36.15,-86.86,Ladonna Mullins,TN,1478800320000,6121452
220522886,Nashville,,1488742606000,36.15,-86.81,Lala Em,TN,1496356568000,6121452
192790056,Jersey City,,1499055712000,40.7,-74.1,Lalita,NJ,1499055712000,6121452
7979701,Brentwood,"Riverside, CA",1470945150000,36.0,-86.79,Landon Hale,TN,1488902174000,6121452
226128410,Thompsons Station,thompson station,1495251812000,35.8,-86.9,Larry Gooden,TN,1495290568000,6121452
229292442,Nashville,,1496943713000,36.15,-86.79,Latha,TN,1496943713000,6121452
137507562,Nashville,Nashville,1463448447000,36.21,-86.72,Laura,TN,1463448447000,6121452
3112105,Nashville, Nashville,1372566847000,36.11,-86.86,Laura,TN,1469793857000,6121452
192002072,Nashville,,1440898434000,36.17,-86.72,Laura,TN,1440898434000,6121452
109999812,Nashville,,1378694831000,36.17,-86.78,Laura ,TN,1406683848000,6121452
56745072,San Diego,,1364862072000,32.82,-117.2,Laura Cowley,CA,1461456325000,6121452
21255541,Nashville,"Chagrin Falls, OH",1499419597000,36.18,-86.81,Laura G.,TN,1500814618000,6121452
135731722,Thompsons Station,"Franklin, TN",1406040643000,35.8,-86.9,Laura Howell,TN,1471574332000,6121452
224245524,Brentwood,,1490197578000,36.0,-86.79,Laura Jean Short,TN,1490197578000,6121452
184104407,Nashville,,1490217663000,36.17,-86.78,Laura Jo Coode,TN,1490217663000,6121452
153018052,Nashville,Memphis,1466919964000,36.13,-86.8,Laura Kee,TN,1467044295000,6121452
210979847,Franklin,,1471195516000,35.92,-86.89,Laura Pearse,TN,1473356819000,6121452
187987374,Franklin,,1432989918000,35.92,-86.89,Laura Renee Schrader,TN,1432989918000,6121452
190642771,Nashville,,1438263426000,36.11,-86.86,Laurel,TN,1439100174000,6121452
188238501,Brentwood,Virginia Beach,1433481671000,36.0,-86.79,Laurel,TN,1436789968000,6121452
222806574,Nashville,,1488171994000,36.17,-86.78,Lauren,TN,1488171994000,6121452
78141932,Nashville,,1427842811000,36.17,-86.78,Lauren,TN,1498867062000,6121452
159323342,Nashville,"Long Beach, CA",1410976802000,36.08,-86.72,Lauren,TN,1481468447000,6121452
95959482,Franklin,,1370094394000,35.92,-86.89,Lauren Goodpaster,TN,1379379815000,6121452
221193915,Nashville,,1486043972000,36.15,-86.86,Lauren Ledbetter,TN,1487687399000,6121452
12870980,Nashville,"Nashville, TN",1477111632000,36.11,-86.78,Laurie,TN,1477111632000,6121452
11792486,Franklin,,1434814255000,35.93,-86.81,Laurie Marks,TN,1468081986000,6121452
184489652,Nashville,,1424109681000,36.13,-86.8,Layne Vallarino,TN,1424109681000,6121452
9424652,Nashville,,1378926400000,36.16,-86.79,Leah,TN,1501097491000,6121452
232137196,Columbia,,1500440952000,35.61,-87.05,Leah Hayward,TN,1500440952000,6121452
57826972,Franklin,"Charlotte, NC",1355930882000,35.93,-86.81,Leah Marie,TN,1465050229000,6121452
13444333,Nashville,,1432306995000,36.15,-86.86,LeAnn Stephenson,TN,1432306995000,6121452
200621545,Nolensville,,1456707025000,35.94,-86.67,LeAnne,TN,1457394390000,6121452
7637136,Nashville,,1362330066000,36.18,-86.74,Lee Levine,TN,1372001397000,6121452
136707292,Nashville,,1394509083000,36.17,-86.78,Lee P,TN,1402255274000,6121452
10942984,Nashville,,1467476259000,36.16,-86.79,LeeAnn,TN,1504728056000,6121452
187519685,Atlanta,Atlanta,1432046568000,33.86,-84.4,Leslie,GA,1432046568000,6121452
227321931,Nashville,,1494430536000,36.17,-86.72,Leslie Tadlock,TN,1494430536000,6121452
226756550,Hermitage,,1493674579000,36.19,-86.6,Lexi Bolinski,TN,1493674579000,6121452
149938822,Brentwood,,1432734930000,36.0,-86.79,Libby,TN,1469095135000,6121452
85332952,Nashville,,1363617374000,36.09,-86.82,Liberty Lindley,TN,1401725613000,6121452
99238322,Nashville,,1372038252000,36.09,-86.82,Lila,TN,1379133420000,6121452
66643682,Nashville,"Nashville, TN",1398861293000,36.17,-86.78,Lila Maycock,TN,1398861293000,6121452
227856548,Franklin,,1498454026000,35.93,-86.81,Lily Nelsen,TN,1498454026000,6121452
195154014,Nashville,,1446758252000,36.15,-86.86,Lindley Duncan,TN,1446758252000,6121452
50850772,Nashville,,1432493680000,36.17,-86.78,Lindsay Oakes,TN,1487942036000,6121452
41406622,Nashville,,1375734954000,36.08,-86.72,Lindsey,TN,1432987958000,6121452
201680900,Nashville,,1461075826000,36.15,-86.86,Lindsey F,TN,1461246202000,6121452
92162482,Nashville,,1367767926000,36.16,-86.79,Lindsey Stewart,TN,1407168911000,6121452
9220579,Hendersonville,Hendersonville,1359900456000,36.32,-86.61,Lisa ,TN,1453308100000,6121452
231985495,Nashville,,1501124767000,36.17,-86.78,Lisa,TN,1506379255000,6121452
197317368,Nashville,,1504107212000,36.17,-86.78,Lisa,TN,1504107212000,6121452
195938156,Lebanon,,1448239940000,36.15,-86.32,Lisa ,TN,1448239940000,6121452
109239522,Nashville,,1378003248000,36.09,-86.82,Lisa Cummings,TN,1378432155000,6121452
56463462,Antioch,"Nashville, TN",1433271984000,36.04,-86.64,Lisa D,TN,1437792263000,6121452
221412447,Nashville,,1488863629000,36.17,-86.78,Lisa K,TN,1488863629000,6121452
198710305,Brentwood,Franklin,1453907153000,36.0,-86.79,lisa sammons,TN,1503700023000,6121452
26932862,Nashville,,1382501636000,36.09,-86.82,Lisa Wyatt,TN,1436404746000,6121452
199121398,Nashville,"Anchorage, AK",1470170054000,36.17,-86.72,Liz Leach,TN,1476245999000,6121452
104975392,Nashville,Nashville,1435452971000,36.22,-86.77,Liza,TN,1503947842000,6121452
212804959,Nashville,,1473701965000,36.17,-86.78,Lizzi Gordon,TN,1473701965000,6121452
119925422,Atlanta,,1438985238000,33.98,-84.33,Lola ,GA,1486234924000,6121452
96462572,Nashville,,1370550957000,36.17,-86.78,Loral,TN,1496141808000,6121452
73018762,Nashville,,1426911206000,36.13,-86.8,Loralyn,TN,1465737934000,6121452
4182700,Nashville,Nashville,1462237791000,36.17,-86.78,Lori,TN,1500235238000,6121452
65566542,Nashville,,1483464129000,36.14,-86.74,Lori Jenkins,TN,1487702242000,6121452
73536152,Raleigh,Raleigh,1356647065000,35.85,-78.63,Louisa Avery,NC,1377867293000,6121452
187700521,Nashville,,1444533184000,36.08,-86.72,Lu Xiong,TN,1469246406000,6121452
8142902,Hendersonville,Nashville,1463963920000,36.32,-86.61,Lucinda ,TN,1466261559000,6121452
184811794,Clarksville,,1425085277000,36.56,-87.41,Luis Prado Karchere,TN,1425085277000,6121452
197120580,Hermitage,,1461384486000,36.19,-86.6,Luz Belleza,TN,1461468184000,6121452
200750517,Nashville,,1456887950000,36.16,-86.79,M Bri Wyatt,TN,1456887950000,6121452
190355468,Nashville,,1437756771000,36.17,-86.78,M.E. Sorci,TN,1469212297000,6121452
221305898,Nashville,,1486136073000,36.17,-86.78,Mac Lavvy,TN,1488990357000,6121452
227677814,Midland,,1501043239000,43.63,-84.27,Mackenzie,MI,1501043239000,6121452
54423842,Nashville,,1464744533000,36.17,-86.78,MacKenzie Shirk,TN,1464744533000,6121452
113002252,Nashville,Nashville,1464544415000,36.18,-86.74,Madeline,TN,1465671555000,6121452
204543152,Dickson,,1462389258000,36.08,-87.43,Madi,TN,1462389258000,6121452
198501855,Santa Fe,,1492955612000,35.76,-87.17,Maile Newton,TN,1492955612000,6121452
6303396,Lebanon,,1432663787000,36.21,-86.31,Malcolm Roberts,TN,1434382142000,6121452
86570542,Nashville,,1434990066000,36.17,-86.78,Malia,TN,1435495661000,6121452
197554401,Dallas,,1493730911000,32.87,-96.78,Malia Williams,TX,1493730911000,6121452
186139025,Nashville,,1468547437000,36.17,-86.78,Mallori Eason,TN,1468547437000,6121452
206807621,Eugene,sioux falls,1479738634000,44.1,-123.14,Mara Zobrist,OR,1479738634000,6121452
183548671,Nashville,,1421156158000,36.09,-86.82,Marc Sullivan,TN,1421156158000,6121452
189867506,Nashville,"Elizabethtown, KY",1437366161000,36.15,-86.86,Marchele Rowe,TN,1503700961000,6121452
205993266,Nashville,,1466210966000,36.16,-86.79,Marcia Kastovich Larsen,TN,1469149287000,6121452
10353050,Nashville,,1485135369000,36.17,-86.72,Margaret ,TN,1485135369000,6121452
107126142,Nashville,Nashville,1469068835000,36.11,-86.86,Margaux,TN,1502473689000,6121452
234500939,Nashville,,1503255216000,36.17,-86.78,Marian Ramirez,TN,1503255216000,6121452
198545728,Christiana,,1453618096000,35.71,-86.36,Marina Provenzano,TN,1453618096000,6121452
73911552,Nashville,"Damascus, VA",1433474286000,36.08,-86.72,Marinda Skeesick,TN,1436360785000,6121452
48247552,Nashville,,1496640387000,36.17,-86.78,Marissa,TN,1496640387000,6121452
225522105,Nashville,,1493173193000,36.13,-86.8,Maritza Williams,TN,1493173193000,6121452
21221051,Murfreesboro,Murfreesboro,1435840536000,35.82,-86.45,Mark,TN,1436411109000,6121452
41278862,Chattanooga,,1362315054000,35.05,-85.31,Mark Baldwin,TN,1374665252000,6121452
236629892,Nashville,,1505531455000,36.08,-86.72,Mark Grizer,TN,1505531455000,6121452
109042472,Nashville,,1377871582000,36.09,-86.82,Markus,TN,1398779052000,6121452
137025072,Nashville,,1402117885000,36.17,-86.78,Marla S. Flynt,TN,1402117885000,6121452
59180102,Nashville,,1355065380000,36.14,-86.74,Martha,TN,1370863123000,6121452
228003485,Nashville,,1495335496000,36.11,-86.86,Martha Frances Ladner,TN,1495335496000,6121452
182688559,Franklin,,1426565089000,35.92,-86.89,Martin Cava,TN,1465798315000,6121452
187937341,Nashville,,1432875989000,36.17,-86.78,Martyna ,TN,1432875989000,6121452
205233737,Nashville,,1463362901000,36.11,-86.78,Mary,TN,1476147508000,6121452
102651482,Franklin,,1428977279000,35.92,-86.89,Mary Deighton,TN,1467241155000,6121452
57579912,Nashville,,1399146687000,36.06,-86.96,Mary Garges,TN,1472581347000,6121452
225483657,Thompsons Station,,1491938811000,35.8,-86.9,Mary Lou Bradley Casey,TN,1498311309000,6121452
69568352,Nashville,Oakmont,1421599475000,36.1,-86.87,Mary Lou Moewe,TN,1434570647000,6121452
31839592,Nashville,,1382027375000,36.15,-86.86,Matt,TN,1407432976000,6121452
104220992,Nashville,,1430519790000,36.11,-86.86,Matt Good,TN,1472275404000,6121452
222086921,Nashville,,1487171720000,36.11,-86.78,Matt Miller,TN,1487171720000,6121452
216902463,Nashville,,1479494459000,36.15,-86.86,Matt Pagano,TN,1479494459000,6121452
200363768,Franklin,,1470661166000,36.73,-86.57,Matthew H.,KY,1474211396000,6121452
200815210,Hermitage,,1456983971000,36.19,-86.6,Matthew Ryan Taylor,TN,1465481207000,6121452
10093685,Nashville,NYC,1354981942000,36.09,-86.82,Maura C,TN,1462753375000,6121452
185121064,Franklin,,1489254948000,35.9,-86.96,Max Fort,TN,1489254948000,6121452
186746735,Brentwood,,1430353087000,36.0,-86.79,Max Stevens,TN,1430353087000,6121452
182954494,Antioch,"Nashville, TN",1487810967000,36.04,-86.64,MD Black,TN,1487810967000,6121452
235346322,Nashville,,1504214267000,36.07,-86.78,Meagan & Eric ,TN,1504214267000,6121452
204475587,Nashville,,1462370140000,36.15,-86.86,Meaghan Ford,TN,1466265594000,6121452
13396709,Murfreesboro,Murfreesboro,1424660737000,35.82,-86.45,Meendy,TN,1437945581000,6121452
211677489,Nashville,,1474599282000,36.17,-86.78,Mega Magnetic,TN,1485484154000,6121452
225334949,Nashville,,1493062800000,36.17,-86.78,Megan A,TN,1502052731000,6121452
215485890,Nashville,,1477276377000,36.07,-86.73,Megan Swindler,TN,1477276377000,6121452
200232473,Nashville,,1456165736000,36.15,-86.86,Meghan Ploch,TN,1456165736000,6121452
219531642,Nashville,,1485791317000,36.08,-86.72,Mel,TN,1504984630000,6121452
188353738,Nashville,,1434684621000,36.15,-86.86,Melanie,TN,1435459215000,6121452
199824064,Nashville,,1455643784000,36.1,-86.66,Melissa,TN,1456262450000,6121452
142192302,Springfield,"Augusta, GA",1398808224000,36.52,-86.87,Melissa Bullock,TN,1409624756000,6121452
73911772,Nashville,,1494940726000,36.17,-86.78,melissa mcnabb,TN,1494940726000,6121452
42489072,Kihei,,1391908605000,20.73,-156.45,Melissa Meyer,HI,1396382466000,6121452
210165776,Nashville,,1471729756000,36.08,-86.72,Melissa Schmitz,TN,1473282212000,6121452
214413231,Nashville,,1475732258000,36.08,-86.72,Melody,TN,1501643142000,6121452
107256392,Nashville,,1428173989000,36.17,-86.78,Melody,TN,1481141484000,6121452
174040682,Nashville,,1460742446000,36.17,-86.78,Meredith Blankenship,TN,1505795296000,6121452
228558418,Nashville,,1496035706000,36.09,-86.82,Meredith Rickards,TN,1496035706000,6121452
190873429,Nashville,,1438703700000,36.09,-86.82,Meri Huntley,TN,1438703700000,6121452
204707576,Nashville,,1478658827000,36.07,-86.73,Merk,TN,1478658827000,6121452
217355171,Spring Hill,,1480277695000,35.76,-86.88,Michael,TN,1499888255000,6121452
188562198,Nashville,,1438617571000,36.06,-86.96,Michael,TN,1470410896000,6121452
8939765,Nashville,Harlan Kentucky,1362719477000,36.17,-86.78,Michael,TN,1497570112000,6121452
92878332,Nashville,,1368194864000,36.09,-86.82,Michael Collins,TN,1368291430000,6121452
236363512,Nashville,,1505273479000,36.09,-86.82,Michael Cripps ,TN,1505273479000,6121452
235651753,Nashville,,1504557837000,36.17,-86.78,Michael Horne,TN,1504557837000,6121452
191497484,Nashville,,1439926868000,36.17,-86.79,Michael Ralph,TN,1439926868000,6121452
97532792,Nashville,,1371010377000,36.11,-86.78,Michael Sanders,TN,1375871703000,6121452
225854465,Nashville,,1492455150000,36.17,-86.78,Michael Shea,TN,1498331020000,6121452
124735482,Madison,,1392176344000,34.58,-86.82,Michael Weber,AL,1405293576000,6121452
8241901,Nashville,,1464144166000,36.16,-86.79,Michele,TN,1464578854000,6121452
62311462,Nashville,,1399603480000,36.14,-86.74,Michele Keen,TN,1438792314000,6121452
10258735,Nashville,Cincinnati,1401492652000,36.17,-86.78,michelle,TN,1433937505000,6121452
10652477,Nashville,,1378126421000,36.16,-86.79,Michelle,TN,1403142814000,6121452
197730914,Franklin,,1452115037000,35.93,-86.81,Michelle ,TN,1468939496000,6121452
226263708,Nashville,,1492992120000,36.09,-86.82,Michelle Evey Bond,TN,1492992120000,6121452
11866136,Nashville,Nashville,1379601051000,36.13,-86.8,Michelle Hodges,TN,1502568085000,6121452
46486792,Nashville,,1491147065000,36.17,-86.78,Michelle McManus,TN,1491147065000,6121452
159665282,Nashville,,1431695123000,36.22,-86.77,Michelle Soles,TN,1469226274000,6121452
218560507,Antioch,,1482451088000,36.04,-86.64,Micouri Aranea Silva,TN,1482451088000,6121452
232448911,Nashville,,1500837268000,36.16,-86.79,Mike Glass,TN,1500837268000,6121452
221659969,Spring Hill,,1496330496000,35.76,-86.88,Mike N,TN,1496330496000,6121452
86734302,Antioch,MN,1374467239000,36.04,-86.64,Mike Warner,TN,1408036948000,6121452
93342702,Nashville,,1368495744000,36.11,-86.86,Mikey Paddle Up Tn,TN,1496760135000,6121452
202011022,Franklin,,1458701538000,35.93,-86.81,Mimi Purer,TN,1459395295000,6121452
217332807,Nashville,,1480240902000,36.08,-86.72,Minnie Murphy,TN,1480240902000,6121452
236066376,Nashville,,1504986655000,36.08,-86.72,Miranda Wood,TN,1505679163000,6121452
212613349,Franklin,,1498529367000,35.92,-86.89,Missy Ione Benoit,TN,1499615811000,6121452
237681848,Clarksville,,1507000055000,36.53,-87.34,Mo,TN,1507000055000,6121452
80300952,Nashville,,1453222121000,36.16,-86.79,Monica,TN,1468062444000,6121452
190359976,Nashville,"Dallas, TX",1438021689000,36.17,-86.78,Morgan Flick,TN,1438827255000,6121452
8475465,Nashville,"Troon, Scotland",1357526403000,36.11,-86.86,Murray,TN,1405697155000,6121452
195748596,Nashville,,1447870403000,36.06,-86.96,Mustafa Khalid Al-jarrah,TN,1447870403000,6121452
192311236,Nashville,,1441494700000,36.08,-86.72,Mutaz Shahin,TN,1441494700000,6121452
13683248,Nashville,Nashville,1439169683000,36.08,-86.72,Nadina Chavez,TN,1439659882000,6121452
221511599,Hermitage,,1486399566000,36.19,-86.6,Nancy A Miller,TN,1486399566000,6121452
236078938,Nashville,,1504997032000,36.13,-86.8,Nancy Leach,TN,1504997032000,6121452
4389320,Nashville,Charlotte,1484270796000,36.17,-86.78,Nat,TN,1484270796000,6121452
193781203,Nashville,,1444241347000,36.14,-86.74,Natalie,TN,1446877106000,6121452
151162732,Nashville,,1424526524000,36.13,-86.8,Natalie,TN,1464958830000,6121452
143991632,La Vergne,Nashville,1405377289000,36.01,-86.57,Natalie,TN,1408323282000,6121452
206165705,Gladeville,,1464659264000,36.19,-86.28,Natalie Adams,TN,1467262468000,6121452
9828339,Nashville,Los Angeles,1498872674000,36.15,-86.86,Natalie Castillo,TN,1508440944000,6121452
144002192,Nashville,,1398649403000,36.17,-86.78,Natalie M Bentley,TN,1399735989000,6121452
196217576,Shelby,,1457018971000,35.3,-81.55,Natasha,NC,1457057851000,6121452
19573651,Columbus,,1465815834000,40.01,-83.07,Nathan,OH,1493661154000,6121452
190467751,Nashville,,1437954215000,36.22,-86.77,Nathan Fellows,TN,1438099440000,6121452
71815372,Nashville,,1354685614000,36.09,-86.82,Neil Newton,TN,1506028004000,6121452
214215066,Nashville,,1475460992000,36.07,-86.73,Nels Dale,TN,1476386173000,6121452
1388641,Nashville,Nashville,1430230012000,36.18,-86.74,Nerissa,TN,1487786063000,6121452
11789455,Murfreesboro,Murfreesboro,1426184041000,35.82,-86.45,Ni Crowe,TN,1437607483000,6121452
183101190,Nashville,,1419367823000,36.14,-86.74,Nichole,TN,1419367823000,6121452
206293002,Nashville,,1464827130000,36.17,-86.72,Nico Hammond,TN,1464962623000,6121452
205292636,Nashville,,1464013862000,36.21,-86.72,Nicole,TN,1464630722000,6121452
208307840,Nashville,,1467579538000,36.08,-86.72,Nicole Angelina Bolog,TN,1467579538000,6121452
203680972,Brentwood,,1461126566000,36.0,-86.79,Nicole Ellis,TN,1461126566000,6121452
144445162,Nashville,,1398864119000,36.1,-86.66,Nicole George,TN,1398864119000,6121452
156195342,Narragansett,,1436462757000,41.43,-71.47,Nicole Nolan,RI,1436462757000,6121452
43417002,Clarksville,,1467753150000,36.49,-87.23,Nika,TN,1467753150000,6121452
93722222,Nashville,Nashville,1504890250000,36.17,-86.72,Nikki Graham,TN,1505143868000,6121452
188691936,Spring Hill,,1455144798000,35.76,-86.88,Nikki Tatum,TN,1465944756000,6121452
11295458,Nashville,Los Angeles,1437174455000,36.09,-86.82,Noelle B,TN,1485228112000,6121452
231251559,Nashville,,1499383562000,36.06,-86.96,Nolan Gross,TN,1499383562000,6121452
36291022,Murfreesboro,Murfreesboro,1390452007000,35.82,-86.45,Nori Sigismond,TN,1463833184000,6121452
216019373,Novi,,1478106087000,42.47,-83.52,Olivia ,MI,1479090026000,6121452
109781022,Madison,"Lewisburg, TN",1396276646000,36.26,-86.71,Olivia,TN,1398810377000,6121452
234168251,Franklin,,1502887840000,35.93,-86.81,Olivia Oetjens,TN,1502887840000,6121452
160061782,Nashville,,1464739897000,36.17,-86.78,Page S,TN,1506435022000,6121452
67298752,Nashville,,1377545349000,36.16,-86.79,Paige B.,TN,1408392691000,6121452
194058793,Murfreesboro,,1444758891000,35.87,-86.34,Pamila M.,TN,1446809759000,6121452
185702575,Franklin,,1430929290000,35.92,-86.89,Pat,TN,1477443849000,6121452
89265402,Brentwood,,1366251321000,36.0,-86.79,Patricia,TN,1399143675000,6121452
222953999,Nashville,,1488381981000,36.11,-86.78,Paul Henry Edwards,TN,1488381981000,6121452
28774702,Nashville,,1370830532000,36.17,-86.72,Paula,TN,1466865707000,6121452
180215472,Nashville,,1414372890000,36.09,-86.82,Paula H.,TN,1415031776000,6121452
119132212,Thompsons Station,"Torrance, CA",1396311748000,35.8,-86.9,Penny Bowhall,TN,1455806998000,6121452
201251125,Nashville,,1457626298000,36.09,-86.82,Peter Leininger,TN,1463684292000,6121452
193804901,Goodlettsville,"Nashville, TN ",1444282943000,36.33,-86.74,Peyton Campbell,TN,1444282943000,6121452
8289814,Nashville,"Nashville, TN",1355143775000,36.09,-86.82,Phil M,TN,1493731976000,6121452
195187954,Nashville,,1446837015000,36.09,-86.82,Phil Paquette,TN,1446877091000,6121452
227042758,Nashville,,1498437476000,36.19,-86.8,Phil Paulk,TN,1498474288000,6121452
4173849,Brentwood,,1367877035000,36.0,-86.79,Philip,TN,1403194915000,6121452
27939802,Nashville,,1408654264000,36.17,-86.78,Philip Steen,TN,1408654264000,6121452
184191230,Nashville,,1423157186000,36.08,-86.72,Phoebe ,TN,1423157186000,6121452
238329979,Nashville,,1507473563000,36.16,-86.79,Poojitha Matta,TN,1507473563000,6121452
208919940,Nashville,,1468382467000,36.17,-86.78,Porter Chidester,TN,1468482889000,6121452
77107982,Nashville,,1405102494000,36.16,-86.79,Prasanna Rao,TN,1405187306000,6121452
185985224,Nashville,,1472514034000,36.09,-86.7,Prashant Jain,TN,1498332082000,6121452
195153985,Brentwood,,1450823894000,36.0,-86.79,Preeti,TN,1467760074000,6121452
34877692,Nashville,,1409801411000,36.16,-86.79,Pu,TN,1447388713000,6121452
221905615,Nashville,,1487345789000,36.17,-86.78,Rachel,TN,1497916904000,6121452
191782217,Vancouver,,1440471084000,49.27,-123.15,Rachel,BC,1459088289000,6121452
188770779,Nashville,,1434561911000,36.13,-86.8,Rachel,TN,1457461968000,6121452
174231072,Nashville,,1495679440000,36.15,-86.86,Rachel,TN,1501159375000,6121452
192449206,Nashville,,1441743179000,36.07,-86.73,Rachel,TN,1480450244000,6121452
205141276,Nashville,,1469074351000,36.17,-86.72,Rachel Head,TN,1469140961000,6121452
106568072,Nashville,,1376409401000,36.17,-86.78,Rachel Turner,TN,1382116717000,6121452
92069902,Nashville,,1473790310000,36.17,-86.78,Raja,TN,1475336080000,6121452
14137398,Chattanooga,,1477579355000,35.05,-85.31,Randy Whorton,TN,1505227897000,6121452
214079627,Nashville,,1475289486000,36.17,-86.72,Ray W,TN,1475289486000,6121452
174215862,Franklin,,1411995067000,35.93,-86.81,raymond,TN,1411999631000,6121452
42550592,Dayton,,1403104405000,39.78,-84.2,Rebecca,OH,1455572579000,6121452
86615782,Franklin,Franklin,1419036543000,35.92,-86.89,Rebekah Allen,TN,1467119095000,6121452
209761304,Nashville,,1469484605000,36.17,-86.78,Rebekah Webster,TN,1469484605000,6121452
186136602,Greenbrier,,1428946660000,36.43,-86.83,Renai Beachy,TN,1431346202000,6121452
193982461,Fort Campbell,,1444619752000,36.65,-87.46,Ricardo Luna,KY,1444619752000,6121452
132832762,Franklin,,1392770213000,35.99,-86.9,Rick,TN,1405703851000,6121452
158223612,Nashville,"Chambersburg, PA",1406296985000,36.03,-86.78,Rob,TN,1406296985000,6121452
91960712,Nashville,,1434984213000,36.17,-86.78,Rob Greenhalgh,TN,1434984213000,6121452
13789517,Thompsons Station,,1374740184000,35.8,-86.9,Robin,TN,1471364072000,6121452
154091172,Nashville,,1491385383000,36.17,-86.78,Robin,TN,1508070723000,6121452
121945932,Nashville,,1473116325000,36.17,-86.78,Robin,TN,1473799209000,6121452
103643852,Nashville,,1379428896000,36.14,-86.74,Robin,TN,1467823881000,6121452
221651259,Nashville,,1486579598000,36.17,-86.78,Robin Sweet,TN,1486579598000,6121452
10775895,Nashville,,1374582664000,36.18,-86.81,Ron Ledford Jr,TN,1424111226000,6121452
106164622,Nashville,Memphis,1406243054000,36.17,-86.78,Ronda,TN,1406368221000,6121452
218214313,Nashville,,1481767563000,36.15,-86.86,Ronnie Thomas,TN,1481767563000,6121452
188279648,Nashville,,1433572693000,36.18,-86.74,Rose Mary Drake,TN,1433596760000,6121452
232999187,Nashville,,1501521366000,36.1,-86.66,Ross Walters,TN,1501521366000,6121452
209416391,Nashville,,1469030530000,36.17,-86.78,Ross Welch,TN,1469030530000,6121452
193149624,Clarksville,,1443042906000,36.53,-87.35,Roxanne Smith,TN,1463515323000,6121452
231048851,Antioch,,1499137588000,36.17,-86.88,Ryan,TN,1500328759000,6121452
203369841,Nashville,,1460686648000,36.17,-86.78,Ryan Freebing,TN,1460686648000,6121452
12274671,Nashville,,1431352405000,36.11,-86.78,Ryan Miller,TN,1471801142000,6121452
188734438,Hermitage,Hermitage,1438197489000,36.19,-86.6,Ryan Yamada,TN,1438197489000,6121452
166082312,Nashville,Franklin,1450741242000,36.13,-86.86,Sagar,TN,1473617326000,6121452
67724862,Nashville,Nashville,1487167723000,36.17,-86.72,Sai Kishore,TN,1487996601000,6121452
90951932,Nashville,,1370962392000,36.15,-86.86,Sally,TN,1434566347000,6121452
203951302,Nashville,,1461528979000,36.08,-86.72,Sally,TN,1461528979000,6121452
38515622,Nashville,,1361157831000,36.13,-86.8,Sam,TN,1463337446000,6121452
228213759,Brentwood,,1495573597000,36.0,-86.79,Sam Bowers,TN,1495573597000,6121452
225738326,Nashville,,1492281081000,36.15,-86.8,Sam Brammer,TN,1499830640000,6121452
228465329,Nashville,,1496795809000,36.17,-86.78,Sam K,TN,1501982336000,6121452
227093526,Nashville,,1494118713000,36.17,-86.78,Samantha ,TN,1494118713000,6121452
197969682,Nashville,,1452548973000,36.16,-86.79,Samantha Knox,TN,1452548973000,6121452
206996047,Nashville,,1465770412000,36.08,-86.72,Samantha Nicole,TN,1474335654000,6121452
211550568,Nashville,,1472623842000,36.17,-86.78,Samuel Doucet,TN,1499520181000,6121452
106479952,Nashville,,1376353104000,36.17,-86.78,Sandra,TN,1436744753000,6121452
1399285,Nashville,,1465713121000,36.16,-86.79,Sandra,TN,1479359711000,6121452
64371902,Clarksville,minnesota,1440246637000,36.53,-87.35,sara,TN,1441373250000,6121452
89188342,Brentwood,Brentwood,1481555357000,36.0,-86.79,Sara,TN,1481573530000,6121452
9213875,Murfreesboro,,1498076342000,35.78,-86.33,Sara,TN,1505066836000,6121452
12849325,Nashville,,1374507848000,36.17,-86.72,Sara Hendershott Magoun,TN,1374787710000,6121452
195098961,Clarksville,,1446658580000,36.53,-87.35,Sara Mae,TN,1446658580000,6121452
226060272,Nashville,,1492721372000,36.17,-86.78,Sara Pleiman,TN,1492721372000,6121452
193473538,Nashville,,1447445314000,36.17,-86.78,Sarah,TN,1499951677000,6121452
198204496,Nashville,Nashville,1469242196000,36.16,-86.79,Sarah,TN,1469275994000,6121452
3657837,Nashville,,1468122635000,36.17,-86.72,Sarah D,TN,1469460519000,6121452
183784861,Nashville,,1421862664000,36.1,-86.66,Sarah Fowler,TN,1421900496000,6121452
4785361,Nashville,Brooklyn,1370333121000,36.21,-86.72,Sarah Milkie,TN,1487284019000,6121452
111032252,Nashville,,1409111573000,36.17,-86.78,Sarah Perrotto,TN,1444405970000,6121452
77137682,Nashville,,1455251713000,36.11,-86.78,Sarah Z,TN,1459946679000,6121452
199213612,Nashville,,1454696432000,36.06,-86.96,sawyerdsmom,TN,1454696432000,6121452
78204902,Nashville,"Paducah, KY",1359387330000,36.08,-86.72,Scott Bridges,TN,1365425275000,6121452
104678412,La Vergne,La Vergne,1427121954000,36.01,-86.57,Scott Dalrymple ,TN,1437929407000,6121452
209384979,Brentwood,,1506522391000,36.0,-86.79,Scott O'Neill,TN,1507998898000,6121452
219745067,Nashville,,1484168405000,36.17,-86.78,Scott Oldham,TN,1484168405000,6121452
190675810,Nashville,,1438574985000,36.17,-86.78,Scott Stanford,TN,1441306245000,6121452
13220077,Nashville,,1443997905000,36.17,-86.78,SD,TN,1445275419000,6121452
106899782,Nashville,,1461291973000,36.17,-86.78,Sean Fricke,TN,1488155217000,6121452
212214885,Murfreesboro,,1472920565000,35.82,-86.45,Sean MacDonald,TN,1472920565000,6121452
193330722,Nashville,,1443394620000,36.16,-86.79,Sean Wilkinson,TN,1443394620000,6121452
218469613,Nashville,,1482268553000,36.17,-86.78,Sequoyah Teague,TN,1482268553000,6121452
43514592,Milwaukee,,1389757989000,43.04,-87.92,Seth Bunke,WI,1389757989000,6121452
141953952,Nashville,,1397438084000,36.17,-86.78,Shaleen,TN,1438874209000,6121452
8539046,Nashville,,1466954230000,36.13,-86.8,Shalini,TN,1502076439000,6121452
201446141,Brentwood,,1457901270000,36.0,-86.79,Shamra Winford,TN,1457901270000,6121452
13372374,Gallatin,gallatin,1375634688000,36.39,-86.45,Shannon,TN,1477275239000,6121452
190868245,Nashville,,1438694507000,36.06,-86.96,Shannon Hannigan,TN,1465782070000,6121452
199673885,Nolensville,,1455399402000,35.94,-86.67,Shannon L,TN,1456692896000,6121452
199017219,Nashville,,1454378992000,36.15,-86.86,Shannon Livewell,TN,1454378992000,6121452
199457048,Nashville,,1457977303000,36.08,-86.72,Sharon Fuller,TN,1504985009000,6121452
3728973,Franklin,Richmond,1431901127000,35.92,-86.89,SharonH,TN,1457303281000,6121452
80922422,Hermitage,"West Dundee,IL",1431607281000,36.19,-86.6,Shawn,TN,1441936030000,6121452
212863673,Nashville,,1473775817000,36.17,-86.78,Shawna Bellew,TN,1473976353000,6121452
212094707,Nashville,,1472749655000,36.15,-86.86,Shea Wages,TN,1498856220000,6121452
151199082,Nashville,,1496414239000,36.17,-86.78,Shelby,TN,1500701697000,6121452
179151382,Nashville,,1459200827000,36.17,-86.78,Shelli Tripp,TN,1459200827000,6121452
111201642,Goodlettsville,,1408587470000,36.33,-86.74,Sheri Vanderwood,TN,1472816275000,6121452
158925732,Nashville,,1406663599000,36.09,-86.82,Sherry McGugin,TN,1406663599000,6121452
19452051,Nashville,,1451324783000,36.14,-86.74,Sheryl H,TN,1471354157000,6121452
200378774,Nashville,,1456360010000,36.17,-86.72,Shiphrah Campbell,TN,1456360010000,6121452
196992725,Nashville,,1450445692000,36.22,-86.77,Shira,TN,1450445692000,6121452
198195121,Nashville,Nashville,1452975604000,36.15,-86.86,Simone Porter,TN,1478625142000,6121452
222610499,Nashville,,1487889526000,36.08,-86.72,Sis Odland,TN,1487889526000,6121452
4375859,Nashville,FLA,1414281684000,36.15,-86.86,socrow,TN,1436408677000,6121452
88212992,Nashville,,1365396337000,36.17,-86.78,Sophie Moore,TN,1455717400000,6121452
193597988,Nashville,,1470016027000,36.11,-86.86,Staci Cannon,TN,1470016027000,6121452
8921426,Hermitage,"Nashville, TN",1474125888000,36.0,-86.46,Stacy Cline,TN,1501811953000,6121452
197918241,Antioch,,1452460400000,36.04,-86.64,Stacy Tanner,TN,1452460400000,6121452
220731917,Nashville,,1485407689000,36.21,-86.72,Stalios Cantose,TN,1485407689000,6121452
208751333,Nashville,,1468172579000,36.08,-86.72,Steph Bergy,TN,1468172579000,6121452
70340222,Nashville,Nashville,1501173358000,36.16,-86.79,Stephanie,TN,1501173358000,6121452
184165700,Nashville,Los Angeles,1438022817000,36.15,-86.86,Stephanie,TN,1456097814000,6121452
212633438,Mount Juliet,,1473472227000,36.21,-86.52,Stephanie Scott,TN,1473488650000,6121452
199080436,Nashville,,1454476081000,36.1,-86.66,Stephen Rees,TN,1454476081000,6121452
13262840,Nashville,Independence,1360635813000,36.16,-86.79,Steve,TN,1365396467000,6121452
5775784,Nashville,,1370634266000,36.14,-86.74,Steve Jones,TN,1382706937000,6121452
228308201,Nashville,,1495693403000,36.17,-86.78,Stevie Rae Stephens,TN,1495693403000,6121452
229114345,Franklin,,1496716614000,35.92,-86.89,Sue Manley Lombardo,TN,1496716614000,6121452
183001285,Nashville,,1477708623000,36.17,-86.78,Summer Evonne Reese,TN,1477708623000,6121452
154089532,Nashville,,1404139545000,36.09,-86.82,SUP Eisley,TN,1404151306000,6121452
7137415,Nashville,,1354986245000,36.17,-86.78,susan ,TN,1370697195000,6121452
8737191,Hixson,Chattanooga,1423359214000,35.16,-85.21,Susan,TN,1473723952000,6121452
74628132,Nashville,,1401709398000,36.14,-86.74,susan,TN,1462125900000,6121452
3185597,Nashville,Nashville,1464540804000,36.18,-86.74,Susan Wildes,TN,1497467744000,6121452
30854652,Old Hickory,,1354977521000,36.25,-86.63,Susie,TN,1471397095000,6121452
137539142,Nashville,,1394996646000,36.09,-86.82,Susie Hardin,TN,1394996646000,6121452
142455242,Nashville,,1439596642000,36.17,-86.78,Suzanna Mortensen,TN,1439596642000,6121452
231449824,Nashville,,1499623922000,36.09,-86.82,Sydney Hooper,TN,1499623922000,6121452
201396053,Murfreesboro,,1457829740000,35.82,-86.45,Talley Olson,TN,1457889393000,6121452
76350552,North Palm Beach,North Palm Beach,1358255469000,26.84,-80.06,TAMMY,FL,1407291698000,6121452
12004804,Nashville,,1370383785000,36.1,-86.66,Tammy,TN,1421676218000,6121452
146430082,Clarksville,,1399996483000,36.53,-87.35,Tammy Moreland,TN,1408583341000,6121452
202847427,Pleasant View,,1459950682000,36.38,-87.04,Tammy Nash,TN,1464984434000,6121452
186165711,Nashville,,1432957857000,36.18,-86.74,Tammy Smithers,TN,1457711525000,6121452
97775862,Nashville,,1457026450000,36.14,-86.74,Tara Brown,TN,1457026450000,6121452
233390535,Old Hickory,,1501990012000,36.25,-86.63,Tara Evitt,TN,1501990012000,6121452
185713569,Franklin,,1427811688000,35.9,-86.96,Tara L.,TN,1427811688000,6121452
213768028,Oak Grove,,1474935749000,36.68,-87.45,Tarshena Rodriguez,KY,1474935749000,6121452
190802153,Gallatin,,1438568125000,36.39,-86.45,Tasha Nicole Hardin,TN,1438568125000,6121452
11357827,Murfreesboro,,1378234266000,35.82,-86.45,Taylor Day,TN,1378399704000,6121452
208731579,Franklin,,1468152674000,35.93,-86.81,Taylor H.,TN,1468152674000,6121452
184987519,Old Hickory,,1425588232000,36.25,-86.63,Taylor Vines,TN,1425588232000,6121452
202499734,Goodlettsville,Boynton Beach,1459449790000,36.33,-86.74,taylor white,TN,1461964943000,6121452
2430467,Nashville,Nashville,1360012423000,36.1,-86.66,Tbone,TN,1398817281000,6121452
10618339,Nashville,,1419783275000,36.18,-86.74,Teal,TN,1419783275000,6121452
156103262,Murfreesboro,,1438829609000,35.82,-86.45,Tennille McVetty,TN,1439475803000,6121452
189192532,Nashville,,1435436391000,36.17,-86.72,Terese,TN,1435631465000,6121452
204155942,Franklin,,1475637468000,35.93,-86.81,Teri,TN,1496194104000,6121452
187014849,Clarksville,Jacksonville,1498617602000,36.56,-87.41,Terra Kernaghan,TN,1498617602000,6121452
115037452,Nashville,,1396964805000,36.08,-86.72,Tess,TN,1499206408000,6121452
81924252,Nashville,,1465136710000,36.17,-86.78,Theresa,TN,1504992809000,6121452
208808900,Franklin,,1471229895000,35.92,-86.89,Theresa S,TN,1471229895000,6121452
6099308,Nashville,,1401933851000,36.13,-86.8,Therese,TN,1402145482000,6121452
93751662,Nashville,Nashville,1459569717000,36.06,-86.96,Thom Haupt,TN,1500857427000,6121452
209538746,Nashville,,1469198599000,36.11,-86.78,Tia Ray,TN,1469198599000,6121452
187746549,Smyrna,Nashville Tn,1432518440000,35.97,-86.51,Tiffany Warner,TN,1481623738000,6121452
235258934,Clarksville,,1504122766000,36.53,-87.35,Tiffany Weaver,TN,1504122766000,6121452
10810881,Lebanon,,1395178898000,36.21,-86.31,tim west,TN,1465043557000,6121452
183494606,Joelton,Nashville,1420985951000,36.33,-86.91,Timm Meunier AUX,TN,1420985951000,6121452
53999432,Savannah,"Savannah, TN",1479664712000,35.23,-88.23,Timothy Smith,TN,1479664712000,6121452
105398532,Nashville,"Atlanta, GA",1398359464000,36.18,-86.79,Tina Chung,TN,1433166964000,6121452
188196453,Hermitage,,1433393012000,36.19,-86.6,Tina Evans,TN,1434683943000,6121452
97057622,Nashville,,1370742637000,36.17,-86.78,Todd,TN,1370742637000,6121452
196687395,Brentwood,,1450269835000,36.0,-86.79,Todd Buchanan,TN,1485445751000,6121452
14639978,Nashville,,1356293606000,36.17,-86.78,Todd Malone,TN,1483047238000,6121452
212721404,Nashville,,1501982217000,36.16,-86.79,Tom,TN,1501982217000,6121452
186320204,Nashville,,1429415524000,36.17,-86.72,Tommy,TN,1429415524000,6121452
225043690,Nashville,,1491314260000,36.13,-86.8,Tommy Hart,TN,1495803977000,6121452
161847002,Old Hickory,,1438286887000,36.25,-86.64,Toni,TN,1477615968000,6121452
186111235,Nashville,"Bellingham, WA",1428882599000,36.07,-86.78,Tony-Tones,TN,1499639857000,6121452
225209150,Nashville,,1491550375000,36.17,-86.78,Tosh Mccoy,TN,1491550375000,6121452
6093372,Hermitage,,1434740806000,36.19,-86.6,Tracy,TN,1434740806000,6121452
205335742,Nashville,,1464727545000,36.18,-86.74,Tracy A,TN,1464727545000,6121452
85425572,Nashville,,1365428933000,36.09,-86.82,Travis,TN,1374066465000,6121452
195728269,Nashville,,1447828735000,36.15,-86.86,Travis Campbell,TN,1454878201000,6121452
183369630,Atlanta,,1468792362000,33.86,-84.4,Trey Eddington,GA,1470364463000,6121452
194243432,Nashville,,1445105347000,36.06,-86.96,Trinity Stirling,TN,1445105347000,6121452
186746926,Duck River,,1431030657000,35.7,-87.34,Tyler Goodman,TN,1431030657000,6121452
12291145,Nashville,Donelson,1356803299000,36.17,-86.72,Tyler Hume,TN,1462199564000,6121452
191618644,Knoxville,,1440537128000,35.93,-84.01,Tyrone Beach,TN,1452547431000,6121452
201192305,Collins,,1457537171000,41.9,-93.31,Uyou Hong,IA,1457537171000,6121452
235368725,Mount Juliet,,1504239529000,36.21,-86.52,Vanessa Niu,TN,1504239529000,6121452
201668158,Madison,,1458208006000,36.26,-86.71,Vela LaCasse,TN,1467073179000,6121452
183759053,Nashville,Nashville,1421789869000,36.16,-86.79,Veronica Marmolejo,TN,1433138134000,6121452
194347021,Gallatin,"Columbus, OH",1497196704000,36.39,-86.45,Veronika,TN,1497468654000,6121452
59312022,Nashville,,1427314746000,36.16,-86.79,Vicky Brown,TN,1435439960000,6121452
194251382,Nashville,,1445118803000,36.09,-86.82,Victoria,TN,1445118803000,6121452
205802574,Nashville,,1464130996000,36.06,-86.96,Victoria Sfasciotti Rovier Lowri,TN,1464630930000,6121452
223327032,Nashville,,1496066170000,36.07,-86.73,Wayne Lee,TN,1496325224000,6121452
12589080,Nashville,Nashville,1432522021000,36.17,-86.72,Wendy Paulson,TN,1497484844000,6121452
9880222,Nashville,,1373843803000,36.1,-86.66,WeS,TN,1376927577000,6121452
153566242,Nashville,,1403831911000,36.09,-86.82,Wesley,TN,1456133788000,6121452
206748135,Nashville,,1465426530000,36.17,-86.78,Whit Joseph,TN,1482862327000,6121452
89056342,Nashville,,1380974700000,36.17,-86.78,Will,TN,1380974700000,6121452
104949862,Chicago,Nashville,1467520252000,41.9,-87.67,Will WIlkins III,IL,1467520252000,6121452
6265469,Franklin,"Franklin, tn",1451872893000,35.92,-86.89,Xenia,TN,1503460824000,6121452
186927332,Nashville,,1430767812000,36.16,-86.79,Yardena Wolf,TN,1430767812000,6121452
209296950,Portland,,1468875693000,36.57,-86.49,Yulizza,TN,1468875693000,6121452
39020792,Nashville,Nashville,1492745727000,36.18,-86.74,Zach,TN,1503200451000,6121452
217621495,Nashville,,1480723716000,36.08,-86.72,Zach Amason,TN,1480723716000,6121452
11149295,Nashville,Delphos,1466862534000,36.17,-86.72,Zack Benner,TN,1494254611000,6121452
17686511,Nashville,,1470238123000,36.14,-86.74,Zack Register,TN,1470238123000,6121452
13978388,Nashville,BRENTWOOD,1407466772000,36.16,-86.79,Zary,TN,1497705545000,6121452
