id,city,hometown,joined,lat,lon,name,state,visited,group_id
8691728,Franklin,"Franklin, TN",1416193916000,35.93,-86.81,abby radebaugh,TN,1422198041000,7263452
188229184,Nashville,,1433462503000,36.21,-86.72,Alexandria Williams,TN,1434114509000,7263452
3466646,Oakland,Oakland,1481670880000,37.84,-122.22,Alison Gould,CA,1481670880000,7263452
213741044,Murfreesboro,,1474906411000,35.87,-86.34,Alma M Barnes,TN,1474906411000,7263452
110268622,Nashville,,1435444783000,36.17,-86.78,Amanda Adams,TN,1435444783000,7263452
79719332,Murfreesboro,"Nashville, TN",1446552989000,35.78,-86.33,Amanda Sacchinelli,TN,1451477242000,7263452
144408512,Nashville,,1398830698000,36.16,-86.79,Amy,TN,1398830698000,7263452
82622372,Nashville,,1362027661000,36.16,-86.79,Amy,TN,1423620836000,7263452
134383302,Columbia,"Lakewood, Colorado",1399328653000,35.61,-87.05,Amy Autry Morrow,TN,1421015965000,7263452
6716404,Nashville,,1442882356000,36.17,-86.72,Amy Holt,TN,1442882356000,7263452
85663832,Nashville,,1407772808000,36.16,-86.79,Amy Schleier,TN,1407772808000,7263452
204871578,Clarksville,,1462874010000,36.49,-87.23,AnaKatarina Lalonde,TN,1462874010000,7263452
202734070,Hendersonville,,1459793523000,36.32,-86.61,Angela,TN,1459793523000,7263452
82221122,Nashville,,1361830414000,36.16,-86.79,Anne,TN,1363668275000,7263452
12556049,Nashville,,1361330292000,36.08,-86.72,Anne P.,TN,1508703438000,7263452
152695532,Franklin,,1403396801000,35.99,-86.9,Ashley,TN,1423185318000,7263452
82343512,Nashville,,1361897539000,36.16,-86.79,Ashley Henry,TN,1423256553000,7263452
23305841,Nashville,,1363615328000,36.11,-86.78,Barbara Buell Lingo,TN,1503501247000,7263452
101071662,Hermitage,,1401299676000,36.19,-86.6,Barbara Flynn,TN,1415822304000,7263452
55935392,Nashville,,1437793960000,36.16,-86.79,Becca C.,TN,1437793960000,7263452
192913552,Nashville,,1442607670000,36.1,-86.66,Beth Ann,TN,1442607670000,7263452
65339052,Nashville,,1421860895000,36.18,-86.74,Beth McDaniel,TN,1421860895000,7263452
184630941,Hermitage,,1424559190000,36.19,-86.6,Brian Polk,TN,1424559190000,7263452
188746599,Antioch,,1434585719000,36.04,-86.64,Candice,TN,1483753343000,7263452
192624058,Nashville,,1442073205000,36.22,-86.86,Carson Taylor Walker LeMaster,TN,1447616664000,7263452
82748842,Nashville,,1398871810000,36.16,-86.79,Casey,TN,1439873946000,7263452
183791552,Nashville,,1421877242000,36.11,-86.86,Casey Carpenter,TN,1421877242000,7263452
151944332,Nashville,,1440999704000,36.17,-86.78,Cassie,TN,1498801142000,7263452
129029202,Thompsons Station,,1392338335000,35.8,-86.9,Charlotte,TN,1483914692000,7263452
188279604,Franklin,,1433572814000,35.99,-86.9,Chelsea,TN,1433572814000,7263452
187240261,Nashville,,1431454800000,36.13,-86.8,Cherie Bennett,TN,1441047834000,7263452
75647182,Nashville,,1422284315000,36.16,-86.78,Chrisanthi,TN,1461007005000,7263452
42954682,Nashville,,1458605093000,36.17,-86.78,Christy Hunt,TN,1483891615000,7263452
82413392,Nashville,,1361923448000,36.16,-86.79,Cindy Knight,TN,1447642435000,7263452
170385302,Nashville,,1410465274000,36.18,-86.74,Danielle,TN,1415228008000,7263452
2095379,Nashville,,1436501166000,36.1,-86.66,Daphne,TN,1502334857000,7263452
186571590,Nashville,,1429981830000,36.14,-86.74,DD,TN,1429981830000,7263452
4686468,Brentwood,,1434400211000,36.0,-86.79,Deanna Vickers,TN,1497552326000,7263452
199105883,Nashville,,1454530438000,36.17,-86.72,Debra Dimmitt Pepper,TN,1454530438000,7263452
199792460,Brentwood,,1455565355000,36.0,-86.79,Elizabeth Rhea,TN,1455565355000,7263452
192867505,Clarksville,"Thief River Falls, MN",1445826503000,36.53,-87.35,Elle Gillespie,TN,1455176570000,7263452
194445233,Nashville,,1465252798000,36.22,-86.77,Elli,TN,1465252798000,7263452
68036242,Nashville,,1363794918000,36.06,-86.96,Emily,TN,1398876245000,7263452
82343112,Nashville,,1361897384000,36.16,-86.79,Erica Kawano,TN,1363194305000,7263452
183536242,Nashville,,1421108843000,36.1,-86.66,Erin Tawlks,TN,1421108843000,7263452
218629272,Nashville,,1482814724000,36.17,-86.78,Faith Evans,TN,1482814724000,7263452
144460872,Nashville,,1398869606000,36.16,-86.79,Fiona Yull,TN,1427248729000,7263452
218732802,Nashville,,1482819202000,36.08,-86.72,Ginger Kirchmyer,TN,1482819202000,7263452
78739462,Oakton,,1362332133000,38.89,-77.31,Grace Paine Terzian,VA,1382492068000,7263452
187752003,Nashville,,1432514530000,36.21,-86.72,Harley K,TN,1432514530000,7263452
183011437,Arrington,,1418768217000,36.17,-86.78,Heather Balcerek,TN,1418954304000,7263452
58379912,Lafayette,Lafayette,1404082469000,36.52,-86.02,JC & Rainy Garay,TN,1404082469000,7263452
189612800,Nashville,,1438100407000,36.21,-86.72,Jen Favata,TN,1438100407000,7263452
208678123,Springfield,"San Angelo, TX",1468081663000,36.52,-86.87,Jennifer JT,TN,1468081663000,7263452
193189456,Nashville,,1443122925000,36.08,-86.72,Jessica Moffitt,TN,1443122925000,7263452
778648,Nashville,,1392087730000,36.17,-86.78,jnewman492,TN,1392130889000,7263452
8440454,Brentwood,,1380417642000,36.0,-86.79,Joy Todd,TN,1423426112000,7263452
189658300,Mount Juliet,,1436388240000,36.22,-86.52,Kathryn Sutton,TN,1436388240000,7263452
189660918,Nashville,,1436392135000,36.18,-86.74,Kaycie Satterfield,TN,1436392135000,7263452
184031704,Mount Juliet,,1422647453000,36.22,-86.52,Keeli,TN,1422647453000,7263452
199956442,Nashville,,1455780893000,36.22,-86.86,Kelley Doss,TN,1455780893000,7263452
103887052,Nashville,Nashville,1421082515000,36.16,-86.79,Kelly,TN,1447358322000,7263452
9623787,Nashville,Nashville,1404434641000,36.1,-86.66,Kelly LeBel,TN,1463269338000,7263452
44025552,Nashville,,1475876736000,36.17,-86.79,Kenya,TN,1475876736000,7263452
213817748,La Vergne,,1475002856000,36.01,-86.57,Kristin Bennett,TN,1475002856000,7263452
188341573,Nashville,,1433706148000,36.08,-86.72,Krystalyn Maddox,TN,1433706148000,7263452
129032722,Nashville,,1390192931000,36.17,-86.78,Kyla,TN,1390288602000,7263452
173879692,Nashville,Nashville,1461339465000,36.07,-86.78,Lacie Daye,TN,1462232752000,7263452
82565792,Nashville,,1362000304000,36.16,-86.79,Laura Holt,TN,1502222267000,7263452
153018052,Nashville,Memphis,1464412667000,36.13,-86.8,Laura Kee,TN,1466919774000,7263452
184920384,Brentwood,,1427381563000,36.0,-86.79,Laura Mee,TN,1427381563000,7263452
58405312,Antioch,"Mt. Pleasant, TN",1443032305000,36.04,-86.64,Laura Simmons,TN,1446173832000,7263452
147906952,Nashville,,1476325581000,36.06,-86.96,LauraB,TN,1478615938000,7263452
78791602,Murfreesboro,,1446840162000,35.82,-86.45,Lauren,TN,1483121371000,7263452
210349975,Nashville,,1470280369000,36.17,-86.78,Laurie Lee Sisk,TN,1470280369000,7263452
7988957,Cross Plains,"nashville,tn",1500332068000,36.56,-86.68,leanne,TN,1502277850000,7263452
232108680,Hendersonville,,1500409764000,36.32,-86.61,Lime Noodles,TN,1502303077000,7263452
102368672,Brentwood,,1377223059000,36.0,-86.79,Linda,TN,1500435697000,7263452
194772507,Bethpage,,1446053937000,36.51,-86.32,Linda,TN,1451958980000,7263452
83461342,Nashville,,1363879565000,36.16,-86.79,Lisa Green,TN,1426458658000,7263452
184811794,Clarksville,,1425085466000,36.56,-87.41,Luis Prado Karchere,TN,1425085466000,7263452
5279673,Clarksville,"Gloucester, VA",1502551001000,36.53,-87.35,Lynda Doberman,TN,1508307849000,7263452
82415342,Nashville,,1361924412000,36.16,-86.79,Lynett Kawano,TN,1368582229000,7263452
65270212,Helena,,1460641865000,33.31,-86.82,Lynette Pope,AL,1460641865000,7263452
198611243,Smyrna,,1453742041000,35.97,-86.51,Malorie Young,TN,1453742041000,7263452
196183289,Antioch,,1448809765000,36.04,-86.64,Marilyn Perry,TN,1448809765000,7263452
183606618,Hendersonville,,1421347699000,36.32,-86.61,marion covell,TN,1421347699000,7263452
108118612,Antioch,,1390243480000,36.04,-86.64,Marlowe,TN,1423434192000,7263452
233231433,Nashville,,1501803671000,36.17,-86.78,Mary Ann G,TN,1501890371000,7263452
129035812,Nashville,,1390194265000,36.16,-86.79,Mary Dennis,TN,1398891154000,7263452
195383276,Mount Juliet,,1447184600000,36.22,-86.52,Mary Harper Ayre,TN,1447184600000,7263452
69568352,Nashville,Oakmont,1449457690000,36.1,-86.87,Mary Lou Moewe,TN,1454950927000,7263452
184604824,Nashville,Chicago,1424461522000,36.17,-86.72,Mary Trier,TN,1481465522000,7263452
83016682,Nashville,"San Antonio, TX",1465650050000,36.22,-86.86,Megan Bee,TN,1471577212000,7263452
106022732,Hermitage,"Hermitage, TN",1422602199000,36.19,-86.6,Melinda Judy,TN,1426022031000,7263452
74397142,Nashville,,1367895961000,36.17,-86.72,Melissa,TN,1369016859000,7263452
174007772,Nashville,,1414447858000,36.08,-86.72,Meredith Mettetal,TN,1488809464000,7263452
9933290,Nashville,,1484604966000,36.17,-86.78,Michelle,TN,1484604966000,7263452
46486792,Nashville,,1491147196000,36.17,-86.78,Michelle McManus,TN,1491147196000,7263452
129018302,Nashville,,1390228754000,36.16,-86.79,Millie Camp,TN,1451497157000,7263452
217332807,Nashville,,1480241310000,36.08,-86.72,Minnie Murphy,TN,1480241310000,7263452
13824081,Lewisburg,,1452175207000,35.45,-86.8,Nadine Birge,TN,1452175207000,7263452
191538908,Murfreesboro,,1440008339000,35.82,-86.45,Nancy Dickson,TN,1440008339000,7263452
193388680,Hermitage,,1481121356000,36.19,-86.6,Nathan Pegler,TN,1489341639000,7263452
234168251,Franklin,,1502888558000,35.93,-86.81,Olivia Oetjens,TN,1502888558000,7263452
206159203,Antioch,,1465408673000,36.17,-86.88,Olivia Sewell,TN,1470926438000,7263452
186916912,Nashville,,1430749939000,36.08,-86.72,Rhonda Lynn Norman,TN,1430974835000,7263452
133119542,Nashville,,1392336945000,36.16,-86.79,Robin Rosch,TN,1394998762000,7263452
85754332,Nashville,,1363836639000,36.17,-86.78,Robin Stauffer Williams,TN,1493091397000,7263452
183013618,Murfreesboro,,1418789713000,35.87,-86.44,rosi,TN,1465074287000,7263452
188203288,Murfreesboro,,1433413711000,35.82,-86.45,Rufus Walsh,TN,1433413711000,7263452
202284159,Nashville,,1497499942000,36.17,-86.78,Sara Minty Minton,TN,1502943091000,7263452
97829512,Nashville,,1371181759000,36.11,-86.78,Sarah,TN,1371181759000,7263452
188196226,Nashville,,1433391699000,36.14,-86.74,Sarah Hausmann,TN,1470663436000,7263452
190849082,Nashville,,1438652374000,36.22,-86.77,Shaina Elise Rose Gieg,TN,1438652374000,7263452
3491380,Smyrna,,1362184234000,35.97,-86.51,Shauna,TN,1473624570000,7263452
200829901,Martinsburg,Camp Lejeune,1457032679000,39.45,-77.98,Sheila K,WV,1470187301000,7263452
82213032,Nashville,,1361895976000,36.16,-86.79,Sherry Clifton,TN,1474483223000,7263452
134146082,Nashville,,1392910819000,36.16,-86.79,Sherry Lewis,TN,1392917482000,7263452
157279152,New York,,1405827254000,40.75,-73.99,Stefanie Carrillo,NY,1405827254000,7263452
2616274,Murfreesboro,,1391992619000,35.87,-86.44,Stephanie,TN,1401335744000,7263452
217963953,Nashville,,1481457964000,36.08,-86.72,Stevie Fennessee,TN,1481457964000,7263452
221437801,Nashville,,1486302431000,36.16,-86.79,Sue Ellen Upchurch-Hall,TN,1492982383000,7263452
73822502,Nashville,,1368402685000,36.06,-86.96,Susan MacKenzie,TN,1379950353000,7263452
70795752,Nashville,,1361897224000,36.08,-86.72,Susan MacKenzie,TN,1506556705000,7263452
100099192,Nashville,,1506955964000,36.17,-86.78,Talitha Valentin,TN,1508504136000,7263452
201373415,Goodlettsville,,1457802065000,36.33,-86.74,Tammy Heinsohn,TN,1457802065000,7263452
136027602,Nashville,,1394120852000,36.16,-86.79,Tamra Reynolds,TN,1399225713000,7263452
83391612,Smyrna,,1370281640000,35.96,-86.54,Wael Alanazi,TN,1413054583000,7263452
208618540,Gallatin,Gallatin,1469555431000,36.39,-86.45,Yanyu Xiong,TN,1470692432000,7263452
231979225,Nashville,,1500251798000,36.17,-86.78,Zandra Eileen McConoughey,TN,1503497128000,7263452
