id,city,hometown,joined,lat,lon,name,state,visited,group_id
188274104,Thompsons Station,,1455933504000,35.8,-86.9,Abby,TN,1458342890000,7699922
141490692,Murfreesboro,,1397150545000,35.96,-86.49,Adam James Gadomski,TN,1400869287000,7699922
160461312,Nashville,,1407502518000,36.17,-86.78,Alice Malone-Mallory,TN,1434623675000,7699922
150493682,Nashville,,1415974151000,36.11,-86.86,Allison,TN,1487428867000,7699922
223814176,Nashville,,1489888186000,36.13,-86.8,Amanda Kirby,TN,1489888186000,7699922
25549272,Nashville,,1369332652000,36.17,-86.78,Amanda Salmon,TN,1369332652000,7699922
123375462,Nashville,,1386780251000,36.08,-86.72,Amber Lovelady,TN,1386780251000,7699922
13104865,Raleigh,,1393002127000,35.75,-78.72,Andrew Flanigan,NC,1393002127000,7699922
186478541,La Vergne,,1429764879000,36.01,-86.57,Andrew James Speed,TN,1429764879000,7699922
14521128,Spring Hill,"Franklin, TN",1365001569000,35.74,-86.89,Andrianna Linder,TN,1425780722000,7699922
104627432,Nashville,,1438922962000,36.17,-86.78,Angel,TN,1491380463000,7699922
183901202,Murfreesboro,Murfreesboro,1422226746000,35.78,-86.33,Archie ,TN,1422233766000,7699922
7898365,Nashville,,1388685759000,36.11,-86.86,Arnold Joseph White,TN,1440817148000,7699922
123379392,Nashville,,1386801750000,36.08,-86.72,Ashley Shoemaker,TN,1386801750000,7699922
174329642,Brentwood,,1412008887000,36.0,-86.79,Becki,TN,1503741566000,7699922
196452048,Madison,,1449287072000,36.26,-86.71,Ben O,TN,1449287072000,7699922
217754571,Nashville,,1491408419000,36.17,-86.78,Ben Richbourg,TN,1491408419000,7699922
158688742,Nashville,,1406558513000,36.08,-86.72,Bernadette,TN,1425072515000,7699922
157557072,Nashville,,1405972388000,36.17,-86.78,Beth Campbell,TN,1409189151000,7699922
190866482,Old Hickory,,1438695146000,36.25,-86.63,bethany seabolt,TN,1452685337000,7699922
110262482,Brentwood,,1414988795000,36.0,-86.79,Bill  H.,TN,1414988795000,7699922
154763192,Ventura,,1404612212000,34.27,-119.22,Bill Bays,CA,1404680058000,7699922
232528557,Nashville,,1500930291000,36.08,-86.72,BJ Hutchins,TN,1508204382000,7699922
219347906,Nashville,,1483667750000,36.08,-86.72,Blair,TN,1483667750000,7699922
158910422,Spring Hill,,1450702653000,35.76,-86.88,Bob Campbell,TN,1497899279000,7699922
44566182,Nashville,"Syracuse, NY",1422051034000,36.08,-86.72,Bob Trybalski,TN,1505321009000,7699922
182801201,Nashville,Nashville,1434666825000,36.07,-86.73,brad,TN,1434666825000,7699922
185298963,Nashville,,1444714344000,36.22,-86.77,Brandie,TN,1490578145000,7699922
182905651,Nashville,,1425347777000,36.07,-86.61,Brandie Jones,TN,1508741339000,7699922
20336971,Pleasant View,,1465177326000,36.38,-87.04,brandon spun,TN,1492862322000,7699922
62051382,Murfreesboro,Murfreesboro,1426865329000,35.82,-86.45,Brooke W,TN,1427033438000,7699922
188001694,Nashville,,1457387955000,36.06,-86.96,Cam C,TN,1457387955000,7699922
186050441,Murfreesboro,Murfreesboro,1428732850000,35.87,-86.34,Camille Chester,TN,1461187917000,7699922
184297941,Nashville,,1447312985000,36.17,-86.78,Carl D. Cullen,TN,1508715674000,7699922
173304952,Nashville,,1480803216000,36.08,-86.72,Carol,TN,1480803216000,7699922
162291002,Antioch,Allegan,1408415237000,36.04,-86.64,Carol Creger,TN,1409790052000,7699922
191882784,Spokane,,1491653808000,47.65,-117.28,Carol Dikes,WA,1497917636000,7699922
14096266,Nashville,Nashville,1393441028000,36.11,-86.86,Cassie Grubb,TN,1405306898000,7699922
76398872,Nashville,"Memphis, TN",1441243887000,36.17,-86.78,Charis Knight,TN,1456744029000,7699922
96644092,Hermitage,,1408230418000,36.19,-86.6,chelsea,TN,1500252939000,7699922
13847195,Unionville,,1441947414000,35.62,-86.57,Chris ,TN,1507516516000,7699922
132612022,Antioch,Antioch,1445615844000,36.04,-86.64,Chris Fetherolf,TN,1448990512000,7699922
152413442,Hermitage,"Paducah, KY",1403230781000,36.04,-86.65,Chris Runyon,TN,1403240765000,7699922
9185178,Smyrna,,1503456362000,35.97,-86.51,chrissy,TN,1506391550000,7699922
170800792,Nashville,,1498858234000,36.17,-86.78,Christin,TN,1498858234000,7699922
209496667,Nashville,,1469136494000,36.17,-86.78,Christina,TN,1508642245000,7699922
176129212,Spring Hill,,1412617161000,35.76,-86.88,Christina McKnight,TN,1412617161000,7699922
56671092,Union,New Jersey,1391195067000,40.69,-74.27,Christina Reeves,NJ,1391195067000,7699922
90067302,Nashville,,1402036664000,36.17,-86.78,Christopher Paul Elder,TN,1402036664000,7699922
42954682,Nashville,,1503609650000,36.17,-86.78,Christy Hunt,TN,1506713059000,7699922
9883459,Nashville,,1393901070000,36.16,-86.79,Cindy J,TN,1491181739000,7699922
106178752,Indianapolis,Indianapolis,1495832038000,39.77,-86.11,Clint Mahoney,IN,1495902164000,7699922
41855402,Nashville,"Elizabethtown, KY",1445798559000,36.13,-86.7,Dan Meredith,TN,1506720144000,7699922
1939496,Antioch,,1460401218000,36.04,-86.64,Daniel Newman,TN,1468789497000,7699922
183152231,Murfreesboro,,1424543474000,35.78,-86.33,Daniel Robert Browning,TN,1424574770000,7699922
69613082,Nashville,"West Warwick, RI",1508536196000,36.08,-86.72,Daniella,TN,1508536196000,7699922
50646152,Nashville,,1388101882000,36.13,-86.8,Dave McDowell,TN,1388101882000,7699922
128163532,Nashville,,1389734844000,36.08,-86.72,David D.,TN,1394396548000,7699922
193283470,Dickson,,1469293177000,36.08,-87.43,David Finney,TN,1469326580000,7699922
19366751,Franklin,,1472745559000,35.92,-86.89,Debbie R,TN,1501351835000,7699922
49647392,Franklin,Franklin,1499964608000,35.92,-86.89,Deborah Harris,TN,1501166792000,7699922
192629647,Nashville,,1442081213000,36.07,-86.73,Debra Tyree,TN,1447725717000,7699922
187808208,Nashville,,1467156616000,36.16,-86.79,Dee,TN,1483745003000,7699922
13677114,Nashville,Nashville,1377374238000,36.15,-86.86,Derek,TN,1496628805000,7699922
9745115,Nashville,,1420076693000,36.08,-86.72,Diane T,TN,1437779138000,7699922
2201276,Nashville,Indianapolis,1431362117000,36.1,-86.66,Doug,TN,1507511754000,7699922
210235648,Hermitage,,1470120914000,36.19,-86.6,Dwayne Roberts,TN,1470120914000,7699922
10154427,Franklin,,1364057497000,35.93,-86.81,Elena,TN,1367016168000,7699922
8473946,Hermitage,"Grand Rapids, MI",1364073053000,36.19,-86.6,Elisabeth,TN,1458563987000,7699922
123638552,Franklin,,1386970121000,35.92,-86.89,Eryn Duffee-Braun,TN,1402081798000,7699922
30688912,Navarre,,1472292339000,30.5,-86.9,Faye Knochenmus,FL,1497817065000,7699922
183344855,Franklin,,1424193615000,35.93,-86.81,Gina,TN,1451874788000,7699922
152045462,Knoxville,,1403210166000,35.93,-84.01,Hannah,TN,1409406686000,7699922
124003012,Brentwood,"Brentwood, TN",1428415055000,36.0,-86.79,hifiibanker123,TN,1464353255000,7699922
235088735,Nashville,Y.S.,1508786252000,36.16,-86.78,hopesdreams,TN,1508786252000,7699922
5985520,Nashville,,1498275639000,36.16,-86.79,Hugh,TN,1506751188000,7699922
137452402,Nashville,,1424284996000,36.16,-86.79,Iveylee,TN,1452619972000,7699922
150754672,Portland,,1402346654000,45.5,-122.69,J_Mac,OR,1402346654000,7699922
185440871,Nashville,,1429234353000,36.09,-86.82,Jacob Padgett,TN,1429234353000,7699922
225802047,Newberg,,1492379126000,45.31,-122.94,Jady Moses,OR,1496682627000,7699922
208081360,Mount Juliet,,1467262145000,36.22,-86.52,James Moore,TN,1467262145000,7699922
193779086,Franklin,,1444238505000,35.93,-86.81,Jamie K.,TN,1448883089000,7699922
208312190,Franklin,,1467585002000,35.92,-86.89,Jan H,TN,1474128545000,7699922
49885562,Smyrna,,1369661075000,35.97,-86.51,Janice,TN,1506637884000,7699922
8564094,Nolensville,Chattanooga,1494811920000,35.94,-86.67,Jason,TN,1508532896000,7699922
36895632,Nashville,,1409165551000,36.16,-86.79,Javier,TN,1409683101000,7699922
149281532,Brentwood,Nashville,1401550537000,36.0,-86.79,Jean,TN,1501309460000,7699922
13616210,Nashville,,1489241098000,36.16,-86.79,jeannie,TN,1489241098000,7699922
13631520,Nashville,"St Thomas, VI",1453124443000,36.17,-86.78,Jeffrey J,TN,1490373308000,7699922
57588512,Nashville,Bakersfield,1409118222000,36.08,-86.72,Jenna Pratt,TN,1409118222000,7699922
215759209,Franklin,,1477694689000,35.92,-86.89,Jenny,TN,1497387297000,7699922
9355977,Nashville,Nashville,1390242135000,36.1,-86.66,Jenny,TN,1393502509000,7699922
38690452,Nashville,Cypress,1442877531000,36.11,-86.8,Jessica,TN,1496081138000,7699922
14462252,Hermitage,,1385915400000,36.19,-86.6,Jessica McDougal,TN,1385915400000,7699922
219131855,Nashville,,1487132488000,36.17,-86.78,Jessie Bullard,TN,1506392451000,7699922
207380774,Brentwood,Nashville,1466733891000,36.0,-86.79,John,TN,1473646314000,7699922
156243372,Hendersonville,chicago,1437000191000,36.32,-86.61,John Dodd,TN,1466603736000,7699922
194089181,Greer,,1444821661000,34.9,-82.27,John Pendergraft,SC,1444821661000,7699922
183481405,Lebanon,,1420935413000,36.21,-86.31,Jordan McDaniel,TN,1420935413000,7699922
139229112,Hermitage,,1395885885000,36.19,-86.6,Joshua,TN,1395885885000,7699922
59778252,Nashville,,1392265177000,36.17,-86.78,Julie S,TN,1417218628000,7699922
110587842,Kansas City,,1383432762000,39.12,-94.63,Kate ,KS,1405307493000,7699922
116458572,Hendersonville,,1382297484000,36.32,-86.61,Kathleen Moore,TN,1507507264000,7699922
49724752,Nashville,,1453177231000,36.08,-86.72,Kathy Davis,TN,1478354750000,7699922
117959662,Bethpage,Bethpage,1405266834000,36.51,-86.32,Katie,TN,1474055135000,7699922
229851653,Antioch,,1497652411000,36.04,-86.64,Katie Clinebell,TN,1497652411000,7699922
192945227,Hermitage,,1472166418000,36.19,-86.6,Katie Lamb,TN,1506739993000,7699922
59892862,Nashville,,1464664233000,36.13,-86.8,Kayla Bruyn,TN,1484762508000,7699922
3591386,Madison,Madison,1448733679000,36.26,-86.71,Ken White,TN,1455021984000,7699922
191073834,Nashville,Nashville,1461973730000,36.16,-86.79,Kenneth W K Koh,TN,1462143228000,7699922
196728634,Nashville,,1450045249000,36.15,-86.86,Kim Estes,TN,1450899747000,7699922
3016909,Nashville,Nashville,1412553063000,36.15,-86.86,Kim L.,TN,1478546068000,7699922
28949352,Franklin,"Carmel, IN",1418928313000,35.92,-86.89,Kimberly Moore Waggoner,TN,1418928313000,7699922
67358692,Nashville,Nashville,1490562477000,36.12,-86.71,Kin Easter,TN,1495940049000,7699922
60475732,Nashville,,1425993853000,36.17,-86.78,Kira,TN,1427584846000,7699922
12532603,Old Hickory,Old Hickory,1397138375000,36.25,-86.63,Kirsten,TN,1507574585000,7699922
14349820,Nashville,Nashville,1374702867000,36.08,-86.72,Kristen Dunlap-Berg,TN,1374702867000,7699922
204187168,Murfreesboro,,1471007929000,35.85,-86.46,Krystle,TN,1479517041000,7699922
177758942,Nashville,"Apache, OK",1413381242000,36.22,-86.77,Kyla Cook,TN,1459775839000,7699922
206682579,Nashville,Nashville,1494468367000,36.15,-86.86,Ladonna Mullins,TN,1502290627000,7699922
182248852,Nashville,,1484587434000,36.08,-86.72,Leia,TN,1489976759000,7699922
14255626,Nashville,Schaumburg,1438826704000,36.17,-86.78,Leslie M,TN,1438826704000,7699922
225241773,Nashville,,1491598080000,36.08,-86.72,Lexi Siatos,TN,1492787930000,7699922
73359812,Nashville,,1365344454000,36.06,-86.96,Linda,TN,1495302543000,7699922
219631521,Lebanon,,1484022103000,36.21,-86.31,Lisa Hardy,TN,1484022103000,7699922
100614242,Murfreesboro,,1402325941000,35.78,-86.33,Lisa Perez,TN,1405691259000,7699922
67112612,Lebanon,Saint Louis ,1468292144000,36.21,-86.31,Liz,TN,1507508731000,7699922
19472121,Smyrna,,1387900358000,35.97,-86.51,Lynn,TN,1484436174000,7699922
183110315,Smyrna,,1420750206000,35.97,-86.51,Lynn Wissert,TN,1434937351000,7699922
188008901,Nashville,,1433028804000,36.11,-86.86,M Terry,TN,1433028804000,7699922
223151452,Franklin,,1489928929000,35.93,-86.81,M. Lacey Lane,TN,1489928929000,7699922
204358873,Nashville,,1462129947000,36.08,-86.72,Marianne,TN,1462129947000,7699922
208629354,Nashville,,1470942231000,36.17,-86.78,Mary Phelps,TN,1476134082000,7699922
13339676,Lebanon,Lebanon,1480828889000,36.21,-86.31,Melissa Lawson,TN,1487829011000,7699922
234643104,Nashville,,1503421849000,36.17,-86.78,Melissa M.,TN,1503585832000,7699922
2256087,Nashville,Seattle,1428676529000,36.17,-86.78,Micah Redding,TN,1503518334000,7699922
98361212,Antioch,,1373244030000,36.04,-86.64,Michele,TN,1394728842000,7699922
157918722,Nashville,Savannah GA,1422591305000,36.17,-86.78,Mike Hodge,TN,1467862320000,7699922
93089152,Chicago,Franklin,1388208626000,41.9,-87.67,Morgan,IL,1390530200000,7699922
119918502,Franklin,,1384396937000,35.99,-86.9,Myckelle P. Williams,TN,1384396937000,7699922
107481942,Nashville,,1376954759000,36.08,-86.72,Nancy Stewart,TN,1434332109000,7699922
195694185,Dayton,"Dayton, Ohio",1447773968000,39.77,-84.12,Nichole,OH,1448844580000,7699922
185505461,Franklin,,1427161939000,35.93,-86.81,Nicole,TN,1427161939000,7699922
144171242,Nashville,Nashville,1495477988000,36.18,-86.74,Nicole,TN,1496975684000,7699922
210385029,Nashville,,1470341385000,36.17,-86.78,Nikki Pencak,TN,1484764121000,7699922
18612651,Nashville,,1380858581000,36.17,-86.78,Nita Ellis,TN,1380858581000,7699922
161229032,Nashville,"Johnson City, TN",1407869570000,36.19,-86.8,Nonie,TN,1410199393000,7699922
183083046,Franklin,"Durham, NC",1419910204000,35.93,-86.81,NPsquare,TN,1453668410000,7699922
41157882,Nashville,,1407385214000,36.16,-86.79,Pat,TN,1448826478000,7699922
161598932,Nashville,,1408134195000,36.08,-86.72,Patricia Williams,TN,1502385700000,7699922
194086085,Port Orchard,,1444805276000,47.5,-122.62,Paul Rodriguez,WA,1444805276000,7699922
222369017,Nashville,,1491173726000,36.14,-86.74,Pedro,TN,1501274081000,7699922
136969952,Clarksville,,1394745810000,36.53,-87.35,Raymond,TN,1468899336000,7699922
8442926,Nashville,,1465946733000,36.16,-86.79,Rebecca Domm,TN,1503881845000,7699922
6273780,Nashville,,1478377332000,36.18,-86.74,Renee,TN,1480301145000,7699922
152960022,Brentwood,,1446313578000,36.0,-86.79,Rich,TN,1446313578000,7699922
188933477,Franklin,"Franklin, TN",1469321436000,35.92,-86.89,Ronald Moffat,TN,1507825075000,7699922
133458082,Nashville,,1392564564000,36.08,-86.72,Ruth Ann,TN,1394375163000,7699922
186016831,Nashville,,1445736048000,36.17,-86.78,Ruth Olson,TN,1448154883000,7699922
3710232,Nashville,,1400864793000,36.17,-86.78,Scott,TN,1506783221000,7699922
194360984,Hendersonville,,1445317553000,36.32,-86.61,Sean D. Dulin,TN,1454091306000,7699922
85547152,Antioch,"Clifton, New Jersey",1468907710000,36.04,-86.64,Sharon,TN,1507510985000,7699922
107601112,Manchester,,1395671892000,35.47,-86.08,Shawn Martin,TN,1416768196000,7699922
189906808,Spring Hill,,1436881348000,35.76,-86.88,Shawn Steffey,TN,1436881348000,7699922
67710722,Nashville,,1455887826000,36.17,-86.78,Shawna Brinsfield,TN,1455887826000,7699922
132993422,La Vergne,,1392266285000,36.01,-86.57,Sheila,TN,1393026519000,7699922
159241572,Nashville,,1406825537000,36.08,-86.72,Sherri,TN,1410450580000,7699922
174029832,Lewisport,,1411846967000,37.86,-86.93,Sherry Whitaker Ladd,KY,1411846967000,7699922
146304392,Hermitage,,1401551490000,36.19,-86.6,Stephanie,TN,1433188636000,7699922
8304651,Nashville,,1478459244000,36.17,-86.78,Stephanie James,TN,1507514167000,7699922
106513552,Nashville,"Los Angeles, CA",1455597887000,36.22,-86.83,Stephie G.,TN,1474124774000,7699922
60485632,Springfield,,1410624490000,37.12,-93.32,Steven Trostle,MO,1410624490000,7699922
124613022,La Vergne,,1496251063000,36.01,-86.57,Susan,TN,1502297501000,7699922
12134295,Nashville,,1400951551000,36.15,-86.86,Suzanne,TN,1508595771000,7699922
223244095,Nashville,,1494862520000,36.08,-86.72,Suzy Poteat,TN,1494862520000,7699922
228190851,Springfield,,1499986325000,36.52,-86.87,Tamara Beard,TN,1500045850000,7699922
109381602,Fargo,,1378102571000,46.89,-96.8,Tara,ND,1385173071000,7699922
5965232,Murfreesboro,Murfreesboro,1475696209000,35.82,-86.45,Taylor,TN,1475696209000,7699922
65135272,Nashville,,1487634508000,36.17,-86.72,Teressa Ryan,TN,1487638797000,7699922
208344661,Brentwood,,1467642050000,36.0,-86.79,Teri Staggs,TN,1467642050000,7699922
9157977,Nashville,,1379383069000,36.16,-86.79,Terri,TN,1508763382000,7699922
125035192,Antioch,,1388121388000,36.17,-86.88,Therese Brumfield,TN,1390598375000,7699922
200862670,Nashville,,1459813757000,36.16,-86.79,Tiffany,TN,1480279517000,7699922
64571722,Nashville,,1381492804000,36.17,-86.78,Timothy Bond,TN,1395797447000,7699922
161661122,Nashville,,1408080810000,36.08,-86.72,Tom,TN,1416794666000,7699922
190790257,Antioch,,1453769096000,36.04,-86.64,Trish Lober,TN,1462989935000,7699922
9584499,Nashville,,1404559320000,36.18,-86.74,Vanessa,TN,1427749361000,7699922
124512052,Nashville,nashville,1437001781000,36.1,-86.66,Victor,TN,1443449145000,7699922
196457350,Nashville,,1449298147000,36.08,-86.72,Victoria,TN,1449298147000,7699922
4720318,Nashville,,1363748407000,36.08,-86.72,Wendy ,TN,1507506117000,7699922
211428140,Brentwood,,1472089169000,36.0,-86.79,Yuliana,TN,1472089169000,7699922
211609296,Nashville,Nashville,1473260073000,36.16,-86.79,Zach Holcomb,TN,1473260073000,7699922
